{"type": "FeatureCollection", "features": [{"type": "Feature", "properties": {"zone_id": "0205B51MVG3UPVLLGGV6JE", "tract_id": "36047054700", "city": "BROOKLYN, NY", "zone_code": "R7-3", "zone_category": "Other", "ev_permitted": false}, "geometry": {"type": "Polygon", "coordinates": [[[-73.9697459008849, 40.709785987102], [-73.9696105249386, 40.7101768443319], [-73.9705029368941, 40.7102749674412], [-73.9706457797698, 40.7098738480305], [-73.9697459008849, 40.709785987102]]]}}, {"type": "Feature", "properties": {"zone_id": "0204VBG0T0Q3FH6R1VZIBI", "tract_id": "36047054700", "city": "BROOKLYN, NY", "zone_code": "R7-3", "zone_category": "Other", "ev_permitted": false}, "geometry": {"type": "Polygon", "coordinates": [[[-73.9686259708841, 40.709983486619], [-73.9686527809734, 40.7106031466622], [-73.9690239185089, 40.7106973662273], [-73.9691196910057, 40.7103819527573], [-73.9695058736042, 40.7104765949967], [-73.9696401849792, 40.7100922590052], [-73.9686259708841, 40.709983486619]]]}}, {"type": "Feature", "properties": {"zone_id": "0201NXEOBULCUNL7OUIEA2", "tract_id": "36047054700", "city": "BROOKLYN, NY", "zone_code": "R7-3", "zone_category": "Other", "ev_permitted": false}, "geometry": {"type": "Polygon", "coordinates": [[[-73.969891564808, 40.7093719340857], [-73.9697459008849, 40.709785987102], [-73.9706457797698, 40.7098738480305], [-73.9707930660527, 40.7094664955555], [-73.969891564808, 40.7093719340857]]]}}, {"type": "Feature", "properties": {"zone_id": "0204DMRCK2AWTP7E3VKA21", "tract_id": "36047054700", "city": "BROOKLYN, NY", "zone_code": "R7-3", "zone_category": "Other", "ev_permitted": false}, "geometry": {"type": "Polygon", "coordinates": [[[-73.9699111616085, 40.7092985717341], [-73.9699121283715, 40.7093129280205], [-73.969891564808, 40.7093719340857], [-73.9707930660527, 40.7094664955555], [-73.9708191492722, 40.7093938127623], [-73.9699111616085, 40.7092985717341]]]}}, {"type": "Feature", "properties": {"zone_id": "0203YWZY4590MN8CSAWLXF", "tract_id": "36047054700", "city": "BROOKLYN, NY", "zone_code": "R7-3", "zone_category": "Other", "ev_permitted": false}, "geometry": {"type": "Polygon", "coordinates": [[[-73.9690184447146, 40.7092348967337], [-73.9685940524462, 40.7092457628916], [-73.9686259708841, 40.709983486619], [-73.9696401849792, 40.7100922590052], [-73.9697459008849, 40.709785987102], [-73.9698608688307, 40.7094597577707], [-73.9690221180314, 40.7093578448441], [-73.9690184447146, 40.7092348967337]]]}}, {"type": "Feature", "properties": {"zone_id": "0203XXWRMJJPCEFBSL41N8", "tract_id": "36047054700", "city": "BROOKLYN, NY", "zone_code": "R7-3", "zone_category": "Other", "ev_permitted": false}, "geometry": {"type": "Polygon", "coordinates": [[[-73.9688401290318, 40.7089207886621], [-73.968851166552, 40.7091649285502], [-73.9686430989146, 40.7091726561212], [-73.9686383730966, 40.7091038904777], [-73.9685878895272, 40.7091033202065], [-73.9685940524462, 40.7092457628916], [-73.9690184447146, 40.7092348967337], [-73.9690221180314, 40.7093578448441], [-73.9696605344679, 40.7094354170213], [-73.9696972676195, 40.7092910386285], [-73.969680804234, 40.7089367281323], [-73.9688401290318, 40.7089207886621]], [[-73.9690528541167, 40.7090983982421], [-73.969528429398, 40.7091333770197], [-73.969516635355, 40.7093649957245], [-73.9690609467382, 40.7093268841695], [-73.9690528541167, 40.7090983982421]]]}}, {"type": "Feature", "properties": {"zone_id": "0207KYY5GNJI65MO5WEAA0", "tract_id": "36047054700", "city": "BROOKLYN, NY", "zone_code": "R7-3", "zone_category": "Other", "ev_permitted": false}, "geometry": {"type": "Polygon", "coordinates": [[[-73.9691913985497, 40.7085052397812], [-73.96856272843, 40.7085217685091], [-73.968570045796, 40.7086909076614], [-73.9696716920183, 40.7087406275417], [-73.9696972676195, 40.7092910386285], [-73.9696605344679, 40.7094354170213], [-73.9698608688307, 40.7094597577707], [-73.9699121283715, 40.7093129280205], [-73.9698626825589, 40.70857905198], [-73.9698679644648, 40.7085785516639], [-73.969866783824, 40.7085512228212], [-73.969770857938, 40.7085526528782], [-73.9697708988673, 40.7085540251828], [-73.9691939841785, 40.7085647606469], [-73.9691913985497, 40.7085052397812]]]}}, {"type": "Feature", "properties": {"zone_id": "0202NLVV5RJJBKIFJMSY2A", "tract_id": "36047054700", "city": "", "zone_code": "R7-3", "zone_category": "Other", "ev_permitted": false}, "geometry": {"type": "Polygon", "coordinates": [[[-73.9690920780884, 40.7087144693534], [-73.9690932775399, 40.7089255893196], [-73.969680804234, 40.7089367281323], [-73.9696716920183, 40.7087406275417], [-73.9690920780884, 40.7087144693534]]]}}, {"type": "Feature", "properties": {"zone_id": "0201OE4QSB7TE606ODF5XS", "tract_id": "36047054700", "city": "", "zone_code": "R7-3", "zone_category": "Other", "ev_permitted": false}, "geometry": {"type": "Polygon", "coordinates": [[[-73.9690528541167, 40.7090983982421], [-73.9690609467382, 40.7093268841695], [-73.969516635355, 40.7093649957245], [-73.969528429398, 40.7091333770197], [-73.9690528541167, 40.7090983982421]]]}}, {"type": "Feature", "properties": {"zone_id": "0201JFRF2L3XERCXH9A4P0", "tract_id": "36047054700", "city": "", "zone_code": "R7-3", "zone_category": "Other", "ev_permitted": false}, "geometry": {"type": "Polygon", "coordinates": [[[-73.968570045796, 40.7086909076614], [-73.9685878895272, 40.7091033202065], [-73.9686383730966, 40.7091038904777], [-73.9686430989146, 40.7091726561212], [-73.968851166552, 40.7091649285502], [-73.9688401290318, 40.7089207886621], [-73.9690932775399, 40.7089255893196], [-73.9690920780884, 40.7087144693534], [-73.968570045796, 40.7086909076614]]]}}, {"type": "Feature", "properties": {"zone_id": "02019BP6AP317JID1ZLXDR", "tract_id": "36047054700", "city": "", "zone_code": "R7A", "zone_category": "Residential", "ev_permitted": false}, "geometry": {"type": "Polygon", "coordinates": [[[-73.9680961669887, 40.708818375509], [-73.9680296225191, 40.7091594437333], [-73.9683809285466, 40.7091999853129], [-73.9683658519951, 40.70884943388], [-73.9680961669887, 40.708818375509]]]}}, {"type": "Feature", "properties": {"zone_id": "0201HU9T2FMRD78WHCWG7E", "tract_id": "36047054700", "city": "BROOKLYN, NY", "zone_code": "R7-3", "zone_category": "Other", "ev_permitted": false}, "geometry": {"type": "Polygon", "coordinates": [[[-73.9698435870035, 40.7080142345439], [-73.9698679644648, 40.7085785516639], [-73.9698626825589, 40.70857905198], [-73.9699111616085, 40.7092985717341], [-73.9708191492722, 40.7093938127623], [-73.9698435870035, 40.7080142345439]]]}}, {"type": "Feature", "properties": {"zone_id": "0202EM0ZD6VJKH80FX73BK", "tract_id": "36047054700", "city": "BROOKLYN, NY", "zone_code": "R7-3", "zone_category": "Other", "ev_permitted": false}, "geometry": {"type": "Polygon", "coordinates": [[[-73.9690468671722, 40.7078446209936], [-73.9690431487257, 40.7079282884717], [-73.969044721574, 40.7079623025332], [-73.9690329471317, 40.7080372497711], [-73.9690324495919, 40.7080652439427], [-73.9689870410619, 40.7081616158708], [-73.968972426652, 40.7082218052568], [-73.9689758678557, 40.7082367700333], [-73.9689789333984, 40.7082440075606], [-73.9689876238721, 40.7082576848049], [-73.9689931746897, 40.7082640078799], [-73.9690228836386, 40.7082903315069], [-73.9690288315442, 40.7082967928892], [-73.9690385418626, 40.7083107184961], [-73.969042238792, 40.7083180888113], [-73.9690471917041, 40.7083333962866], [-73.9690484142855, 40.7083412302185], [-73.9690524165622, 40.7083806373155], [-73.9690537492062, 40.7084099888134], [-73.9685584557187, 40.7084230104881], [-73.96856272843, 40.7085217685091], [-73.9691913985497, 40.7085052397812], [-73.9691939841785, 40.7085647606469], [-73.9697708988673, 40.7085540251828], [-73.969770857938, 40.7085526528782], [-73.969866783824, 40.7085512228212], [-73.9698435870035, 40.7080142345439], [-73.9698118048082, 40.7079592915914], [-73.9690468671722, 40.7078446209936]]]}}, {"type": "Feature", "properties": {"zone_id": "0207N7Q3DASFK2FAZT2CCZ", "tract_id": "36047054700", "city": "BROOKLYN, NY", "zone_code": "R7-3", "zone_category": "Other", "ev_permitted": false}, "geometry": {"type": "Polygon", "coordinates": [[[-73.9684972573894, 40.7070084552886], [-73.9685584557187, 40.7084230104881], [-73.9690537492062, 40.7084099888134], [-73.9690524165622, 40.7083806373155], [-73.9690484142855, 40.7083412302185], [-73.9690471917041, 40.7083333962866], [-73.969042238792, 40.7083180888113], [-73.9690385418626, 40.7083107184961], [-73.9690288315442, 40.7082967928892], [-73.9690228836386, 40.7082903315069], [-73.9689931746897, 40.7082640078799], [-73.9689876238721, 40.7082576848049], [-73.9689789333984, 40.7082440075606], [-73.9689758678557, 40.7082367700333], [-73.968972426652, 40.7082218052568], [-73.9689870410619, 40.7081616158708], [-73.9690324495919, 40.7080652439427], [-73.9690329471317, 40.7080372497711], [-73.969044721574, 40.7079623025332], [-73.9690431487257, 40.7079282884717], [-73.9690468671722, 40.7078446209936], [-73.9698118048082, 40.7079592915914], [-73.9693707603981, 40.7071968506184], [-73.9684972573894, 40.7070084552886]]]}}, {"type": "Feature", "properties": {"zone_id": "0200CRKJGLV1W224YN40LS", "tract_id": "36047054700", "city": "", "zone_code": "R7A", "zone_category": "Residential", "ev_permitted": false}, "geometry": {"type": "Polygon", "coordinates": [[[-73.9681678142324, 40.7084492834213], [-73.9680961669887, 40.708818375509], [-73.9683658519951, 40.70884943388], [-73.9683495444923, 40.7084702557445], [-73.9681678142324, 40.7084492834213]]]}}, {"type": "Feature", "properties": {"zone_id": "0207DFDZRV5AF26EZ6EKMZ", "tract_id": "36047054700", "city": "", "zone_code": "R7A", "zone_category": "Residential", "ev_permitted": false}, "geometry": {"type": "Polygon", "coordinates": [[[-73.9672144408725, 40.7090653653251], [-73.9670714058746, 40.7097984146404], [-73.9684133056242, 40.7099527728409], [-73.9683809285466, 40.7091999853129], [-73.9672144408725, 40.7090653653251]]]}}, {"type": "Feature", "properties": {"zone_id": "0204KUB5E44AWP35VTGEW3", "tract_id": "36047054700", "city": "", "zone_code": "R7A", "zone_category": "Residential", "ev_permitted": false}, "geometry": {"type": "Polygon", "coordinates": [[[-73.9678286933595, 40.7087875711355], [-73.9677621595861, 40.7091285770245], [-73.9680296225191, 40.7091594437333], [-73.9680961669887, 40.708818375509], [-73.9678286933595, 40.7087875711355]]]}}, {"type": "Feature", "properties": {"zone_id": "02077FXFSXIR35DPOO5GRQ", "tract_id": "36047054700", "city": "", "zone_code": "R7A", "zone_category": "Residential", "ev_permitted": false}, "geometry": {"type": "Polygon", "coordinates": [[[-73.9675612183616, 40.7087567659642], [-73.9674946952848, 40.7090977096937], [-73.9677621595861, 40.7091285770245], [-73.9678286933595, 40.7087875711355], [-73.9675612183616, 40.7087567659642]]]}}, {"type": "Feature", "properties": {"zone_id": "02015NJ1SSA9UULGH8CXFO", "tract_id": "36047054700", "city": "", "zone_code": "R7A", "zone_category": "Residential", "ev_permitted": false}, "geometry": {"type": "Polygon", "coordinates": [[[-73.9672809528529, 40.7087244870998], [-73.9672144408725, 40.7090653653251], [-73.9674946952848, 40.7090977096937], [-73.9675612183616, 40.7087567659642], [-73.9672809528529, 40.7087244870998]]]}}, {"type": "Feature", "properties": {"zone_id": "0206EWP7VLR63LGRRGZBEB", "tract_id": "36047054700", "city": "", "zone_code": "R6", "zone_category": "Residential", "ev_permitted": false}, "geometry": {"type": "Polygon", "coordinates": [[[-73.9665760927604, 40.7092693991597], [-73.9665639523668, 40.7093315718549], [-73.9663754844611, 40.7093101940563], [-73.9663651991245, 40.7093628645067], [-73.9665517817377, 40.7093840281657], [-73.9665390305656, 40.7094616718339], [-73.9666815143094, 40.7094778328711], [-73.9666893072917, 40.7094379233716], [-73.9669280953432, 40.7094650080699], [-73.9669578372873, 40.7093126990303], [-73.9665760927604, 40.7092693991597]]]}}, {"type": "Feature", "properties": {"zone_id": "0202DPMT8IU63NX61GNHPS", "tract_id": "36047054700", "city": "", "zone_code": "R6", "zone_category": "Residential", "ev_permitted": false}, "geometry": {"type": "Polygon", "coordinates": [[[-73.9662955242753, 40.7093011246354], [-73.9662804674091, 40.7093782293637], [-73.9661633201038, 40.7093649414276], [-73.9660989025325, 40.7096948076955], [-73.9662920859776, 40.7097167199422], [-73.9663548593632, 40.7093952702436], [-73.9663587835116, 40.7093957154712], [-73.9663754844611, 40.7093101940563], [-73.9662955242753, 40.7093011246354]]]}}, {"type": "Feature", "properties": {"zone_id": "0200NW9JKQXACG43FJIHQP", "tract_id": "36047054700", "city": "BROOKLYN, NY", "zone_code": "R6", "zone_category": "Residential", "ev_permitted": false}, "geometry": {"type": "Polygon", "coordinates": [[[-73.9666671985696, 40.7095306012556], [-73.9666235120734, 40.709754313227], [-73.9666274362448, 40.7097547584454], [-73.9666711227284, 40.7095310457699], [-73.9666671985696, 40.7095306012556]]]}}, {"type": "Feature", "properties": {"zone_id": "0202K2WW9QRYURQ12JW0GT", "tract_id": "36047054700", "city": "BROOKLYN, NY", "zone_code": "R6", "zone_category": "Residential", "ev_permitted": false}, "geometry": {"type": "Polygon", "coordinates": [[[-73.9666115895597, 40.7094699020717], [-73.9665575121347, 40.7097468269111], [-73.9666235120734, 40.709754313227], [-73.9666671985696, 40.7095306012556], [-73.9666711227284, 40.7095310457699], [-73.9666815143094, 40.7094778328711], [-73.9666115895597, 40.7094699020717]]]}}, {"type": "Feature", "properties": {"zone_id": "020622360TLC4VOQMC2H0L", "tract_id": "36047054700", "city": "BROOKLYN, NY", "zone_code": "R6", "zone_category": "Residential", "ev_permitted": false}, "geometry": {"type": "Polygon", "coordinates": [[[-73.9665390305656, 40.7094616718339], [-73.9664849528458, 40.7097385966395], [-73.9665575121347, 40.7097468269111], [-73.9666115895597, 40.7094699020717], [-73.9665390305656, 40.7094616718339]]]}}, {"type": "Feature", "properties": {"zone_id": "0200E5IWIWS4IUPN2L2CJN", "tract_id": "36047054700", "city": "BROOKLYN, NY", "zone_code": "R6", "zone_category": "Residential", "ev_permitted": false}, "geometry": {"type": "Polygon", "coordinates": [[[-73.9666391008127, 40.7096950294583], [-73.9666274362448, 40.7097547584454], [-73.9668662263299, 40.7097818425686], [-73.9668778897652, 40.7097221135572], [-73.9666391008127, 40.7096950294583]]]}}, {"type": "Feature", "properties": {"zone_id": "02039G83KYX0Z99G183HTU", "tract_id": "36047054700", "city": "BROOKLYN, NY", "zone_code": "R6", "zone_category": "Residential", "ev_permitted": false}, "geometry": {"type": "Polygon", "coordinates": [[[-73.9666506579754, 40.7096358435941], [-73.9666391008127, 40.7096950294583], [-73.9668778897652, 40.7097221135572], [-73.9668894467206, 40.7096629276692], [-73.9666506579754, 40.7096358435941]]]}}, {"type": "Feature", "properties": {"zone_id": "0204SU0ADPLK5WQK4YK77W", "tract_id": "36047054700", "city": "BROOKLYN, NY", "zone_code": "R6", "zone_category": "Residential", "ev_permitted": false}, "geometry": {"type": "Polygon", "coordinates": [[[-73.9666614735858, 40.7095804581979], [-73.9666506579754, 40.7096358435941], [-73.9668894467206, 40.7096629276692], [-73.9669002621366, 40.7096075429535], [-73.9666614735858, 40.7095804581979]]]}}, {"type": "Feature", "properties": {"zone_id": "02079HRHN9GNLQNEL015FD", "tract_id": "36047054700", "city": "", "zone_code": "R6", "zone_category": "Residential", "ev_permitted": false}, "geometry": {"type": "Polygon", "coordinates": [[[-73.9663651991245, 40.7093628645067], [-73.9663587835116, 40.7093957154712], [-73.9663548593632, 40.7093952702436], [-73.9662920859776, 40.7097167199422], [-73.9664849528458, 40.7097385966395], [-73.9665390305656, 40.7094616718339], [-73.9665517817377, 40.7093840281657], [-73.9663651991245, 40.7093628645067]]]}}, {"type": "Feature", "properties": {"zone_id": "0206ISN4TMHC85RSKES625", "tract_id": "36047054700", "city": "", "zone_code": "R6", "zone_category": "Residential", "ev_permitted": false}, "geometry": {"type": "Polygon", "coordinates": [[[-73.9666893072917, 40.7094379233716], [-73.9666614735858, 40.7095804581979], [-73.9669002621366, 40.7096075429535], [-73.9669280953432, 40.7094650080699], [-73.9666893072917, 40.7094379233716]]]}}, {"type": "Feature", "properties": {"zone_id": "0203GJXLGKRAID31DINOOF", "tract_id": "36047054700", "city": "BROOKLYN, NY", "zone_code": "R6", "zone_category": "Residential", "ev_permitted": false}, "geometry": {"type": "Polygon", "coordinates": [[[-73.9660778079206, 40.7094060253472], [-73.9660230913797, 40.7096862079815], [-73.9660989025325, 40.7096948076955], [-73.9661536178384, 40.7094146250252], [-73.9660778079206, 40.7094060253472]]]}}, {"type": "Feature", "properties": {"zone_id": "020342BNUPH62637RYDSDO", "tract_id": "36047054700", "city": "BROOKLYN, NY", "zone_code": "R6", "zone_category": "Residential", "ev_permitted": false}, "geometry": {"type": "Polygon", "coordinates": [[[-73.9659859378832, 40.7094675230925], [-73.9659449617586, 40.7096773461425], [-73.9660230913797, 40.7096862079815], [-73.9660640672634, 40.7094763856067], [-73.9659859378832, 40.7094675230925]]]}}, {"type": "Feature", "properties": {"zone_id": "0207LIYX623LUVCT9Z1WGY", "tract_id": "36047054700", "city": "", "zone_code": "R6", "zone_category": "Residential", "ev_permitted": false}, "geometry": {"type": "Polygon", "coordinates": [[[-73.9657954293026, 40.7094457551711], [-73.965754408191, 40.7096557306177], [-73.9658515380868, 40.7096667483617], [-73.9658925450493, 40.7094567714715], [-73.9657954293026, 40.7094457551711]]]}}, {"type": "Feature", "properties": {"zone_id": "02049S75GIXSRWGGSN834Q", "tract_id": "36047054700", "city": "BROOKLYN, NY", "zone_code": "R6", "zone_category": "Residential", "ev_permitted": false}, "geometry": {"type": "Polygon", "coordinates": [[[-73.9658339319071, 40.7092487655077], [-73.9658091720024, 40.7093755537449], [-73.9661536178384, 40.7094146250252], [-73.9661783780259, 40.7092878367148], [-73.9658339319071, 40.7092487655077]]]}}, {"type": "Feature", "properties": {"zone_id": "0203CYBDET8VY61W2ELY10", "tract_id": "36047054700", "city": "BROOKLYN, NY", "zone_code": "R6", "zone_category": "Residential", "ev_permitted": false}, "geometry": {"type": "Polygon", "coordinates": [[[-73.9658091720024, 40.7093755537449], [-73.9657954293026, 40.7094457551711], [-73.9658925450493, 40.7094567714715], [-73.9658515380868, 40.7096667483617], [-73.9659449617586, 40.7096773461425], [-73.9659859378832, 40.7094675230925], [-73.9660640672634, 40.7094763856067], [-73.9660778079206, 40.7094060253472], [-73.9658091720024, 40.7093755537449]]]}}, {"type": "Feature", "properties": {"zone_id": "02037BBAW31VPPU8AHLBXH", "tract_id": "36047054700", "city": "BROOKLYN, NY", "zone_code": "R6", "zone_category": "Residential", "ev_permitted": false}, "geometry": {"type": "Polygon", "coordinates": [[[-73.9653452976016, 40.7093786852079], [-73.9653341276418, 40.7094351405257], [-73.9655839241649, 40.7094631215965], [-73.9655950948413, 40.709406666255], [-73.9653452976016, 40.7093786852079]]]}}, {"type": "Feature", "properties": {"zone_id": "0202WIJQSIKV5CAE30NLS6", "tract_id": "36047054700", "city": "", "zone_code": "R6", "zone_category": "Residential", "ev_permitted": false}, "geometry": {"type": "Polygon", "coordinates": [[[-73.9653667801579, 40.7092701181503], [-73.9653452976016, 40.7093786852079], [-73.9655950948413, 40.709406666255], [-73.9656165760763, 40.7092980991508], [-73.9653667801579, 40.7092701181503]]]}}, {"type": "Feature", "properties": {"zone_id": "0206ZFHU8GZM5P8P2FJIVH", "tract_id": "36047054700", "city": "BROOKLYN, NY", "zone_code": "R6", "zone_category": "Residential", "ev_permitted": false}, "geometry": {"type": "Polygon", "coordinates": [[[-73.9664950901864, 40.7090562428554], [-73.9664439815497, 40.7093179636742], [-73.9665639523668, 40.7093315718549], [-73.9666150605432, 40.7090698502806], [-73.9664950901864, 40.7090562428554]]]}}, {"type": "Feature", "properties": {"zone_id": "0206IV0C1LTZGOUKQKTRMH", "tract_id": "36047054700", "city": "BROOKLYN, NY", "zone_code": "R6", "zone_category": "Residential", "ev_permitted": false}, "geometry": {"type": "Polygon", "coordinates": [[[-73.9666150605432, 40.7090698502806], [-73.9665760927604, 40.7092693991597], [-73.9669578372873, 40.7093126990303], [-73.9669968039526, 40.7091131500231], [-73.9666150605432, 40.7090698502806]]]}}, {"type": "Feature", "properties": {"zone_id": "0207EIQT54B2XZ9CMFDEH2", "tract_id": "36047054700", "city": "BROOKLYN, NY", "zone_code": "R6", "zone_category": "Residential", "ev_permitted": false}, "geometry": {"type": "Polygon", "coordinates": [[[-73.9661792838049, 40.709020420975], [-73.9661281739558, 40.7092821416549], [-73.9662038646302, 40.7092907272117], [-73.9662549741888, 40.7090290064986], [-73.9661792838049, 40.709020420975]]]}}, {"type": "Feature", "properties": {"zone_id": "0200JXPVVYLP8DO9H1GOYV", "tract_id": "36047054700", "city": "BROOKLYN, NY", "zone_code": "R6", "zone_category": "Residential", "ev_permitted": false}, "geometry": {"type": "Polygon", "coordinates": [[[-73.9663466334822, 40.7090394031792], [-73.9662955242753, 40.7093011246354], [-73.9664439815497, 40.7093179636742], [-73.9664950901864, 40.7090562428554], [-73.9663466334822, 40.7090394031792]]]}}, {"type": "Feature", "properties": {"zone_id": "02073LCMD7F7G95W12HOF9", "tract_id": "36047054700", "city": "BROOKLYN, NY", "zone_code": "R6", "zone_category": "Residential", "ev_permitted": false}, "geometry": {"type": "Polygon", "coordinates": [[[-73.9662549741888, 40.7090290064986], [-73.9662038646302, 40.7092907272117], [-73.9661783780259, 40.7092878367148], [-73.9661633201038, 40.7093649414276], [-73.9662804674091, 40.7093782293637], [-73.9663466334822, 40.7090394031792], [-73.9662549741888, 40.7090290064986]]]}}, {"type": "Feature", "properties": {"zone_id": "02066JJMSX1J15WXIAA8X0", "tract_id": "36047054700", "city": "BROOKLYN, NY", "zone_code": "R6", "zone_category": "Residential", "ev_permitted": false}, "geometry": {"type": "Polygon", "coordinates": [[[-73.9660377983498, 40.709004372035], [-73.9659866879578, 40.7092660919499], [-73.9661281739558, 40.7092821416549], [-73.9661792838049, 40.709020420975], [-73.9660377983498, 40.709004372035]]]}}, {"type": "Feature", "properties": {"zone_id": "0200JDRGKCPOJGWIBAYTPA", "tract_id": "36047054700", "city": "BROOKLYN, NY", "zone_code": "R6", "zone_category": "Residential", "ev_permitted": false}, "geometry": {"type": "Polygon", "coordinates": [[[-73.9658850428863, 40.7089870442546], [-73.9658339319071, 40.7092487655077], [-73.9659119991479, 40.7092576210803], [-73.965963108904, 40.7089958997927], [-73.9658850428863, 40.7089870442546]]]}}, {"type": "Feature", "properties": {"zone_id": "0201NZJEWHA4GIJ3QLWYOB", "tract_id": "36047054700", "city": "BROOKLYN, NY", "zone_code": "R6", "zone_category": "Residential", "ev_permitted": false}, "geometry": {"type": "Polygon", "coordinates": [[[-73.965963108904, 40.7089958997927], [-73.9659119991479, 40.7092576210803], [-73.9659866879578, 40.7092660919499], [-73.9660377983498, 40.709004372035], [-73.965963108904, 40.7089958997927]]]}}, {"type": "Feature", "properties": {"zone_id": "02074BBENT9BC9EM3SNDSK", "tract_id": "36047054700", "city": "", "zone_code": "R6", "zone_category": "Residential", "ev_permitted": false}, "geometry": {"type": "Polygon", "coordinates": [[[-73.9655827971253, 40.7089526378035], [-73.965522779633, 40.7092559649352], [-73.9656226983495, 40.7092671572652], [-73.9656827153973, 40.7089638300818], [-73.9655827971253, 40.7089526378035]]]}}, {"type": "Feature", "properties": {"zone_id": "0206MAHW339ZBQWUJ79IKX", "tract_id": "36047054700", "city": "BROOKLYN, NY", "zone_code": "R6", "zone_category": "Residential", "ev_permitted": false}, "geometry": {"type": "Polygon", "coordinates": [[[-73.9654160414562, 40.7089339582158], [-73.9653560232215, 40.709237285964], [-73.965522779633, 40.7092559649352], [-73.9655827971253, 40.7089526378035], [-73.9654160414562, 40.7089339582158]]]}}, {"type": "Feature", "properties": {"zone_id": "02002GTLWFHLQK1BI6KOF9", "tract_id": "36047054700", "city": "", "zone_code": "R7A", "zone_category": "Residential", "ev_permitted": false}, "geometry": {"type": "Polygon", "coordinates": [[[-73.9679003543155, 40.7084184172065], [-73.9678286933595, 40.7087875711355], [-73.9680961669887, 40.708818375509], [-73.9681678142324, 40.7084492834213], [-73.9679003543155, 40.7084184172065]]]}}, {"type": "Feature", "properties": {"zone_id": "020632XNKX1IGS8XBGIBP9", "tract_id": "36047054700", "city": "BROOKLYN, NY", "zone_code": "R7A", "zone_category": "Residential", "ev_permitted": false}, "geometry": {"type": "Polygon", "coordinates": [[[-73.9678712793244, 40.7080529183083], [-73.967819554389, 40.708409092138], [-73.9683495444923, 40.7084702557445], [-73.9683338374245, 40.7081050371376], [-73.9678712793244, 40.7080529183083]]]}}, {"type": "Feature", "properties": {"zone_id": "02015GIEPC6OLEGNKUL6AL", "tract_id": "36047054700", "city": "", "zone_code": "R7A", "zone_category": "Residential", "ev_permitted": false}, "geometry": {"type": "Polygon", "coordinates": [[[-73.9676328946465, 40.7083875500187], [-73.9675612197466, 40.7087567661402], [-73.9678286933595, 40.7087875711355], [-73.9679003543155, 40.7084184172065], [-73.9676328946465, 40.7083875500187]]]}}, {"type": "Feature", "properties": {"zone_id": "02032DRDPTJSVM18FRIM7Y", "tract_id": "36047054700", "city": "", "zone_code": "R7A", "zone_category": "Residential", "ev_permitted": false}, "geometry": {"type": "Polygon", "coordinates": [[[-73.9673529979367, 40.7083552471897], [-73.9672809528529, 40.7087244870998], [-73.9675612197466, 40.7087567661402], [-73.9676328946465, 40.7083875500187], [-73.9673529979367, 40.7083552471897]]]}}, {"type": "Feature", "properties": {"zone_id": "0201PFRDEQOZNPO9FO83IU", "tract_id": "36047054700", "city": "BROOKLYN, NY", "zone_code": "R6", "zone_category": "Residential", "ev_permitted": false}, "geometry": {"type": "Polygon", "coordinates": [[[-73.9670294556986, 40.7083996572096], [-73.9669667465783, 40.708711679051], [-73.967064538237, 40.7087227837956], [-73.9671272478333, 40.7084107619016], [-73.9670294556986, 40.7083996572096]]]}}, {"type": "Feature", "properties": {"zone_id": "0203ZG3HWPUVQ6L5UGD7K1", "tract_id": "36047054700", "city": "BROOKLYN, NY", "zone_code": "R6", "zone_category": "Residential", "ev_permitted": false}, "geometry": {"type": "Polygon", "coordinates": [[[-73.9669651310316, 40.7083923528916], [-73.9669106007378, 40.7086636762043], [-73.9669749256606, 40.7086709805525], [-73.9670294556986, 40.7083996572096], [-73.9669651310316, 40.7083923528916]]]}}, {"type": "Feature", "properties": {"zone_id": "0200D5799OT656PTLKKCPG", "tract_id": "36047054700", "city": "BROOKLYN, NY", "zone_code": "R6", "zone_category": "Residential", "ev_permitted": false}, "geometry": {"type": "Polygon", "coordinates": [[[-73.966896147327, 40.7083845195007], [-73.9668416167588, 40.708655842781], [-73.9669106007378, 40.7086636762043], [-73.9669651310316, 40.7083923528916], [-73.966896147327, 40.7083845195007]]]}}, {"type": "Feature", "properties": {"zone_id": "020535L09GCFJAC9GQDH36", "tract_id": "36047054700", "city": "BROOKLYN, NY", "zone_code": "R6", "zone_category": "Residential", "ev_permitted": false}, "geometry": {"type": "Polygon", "coordinates": [[[-73.9668222192835, 40.7083761246239], [-73.9667676893446, 40.7086474478697], [-73.9668416167588, 40.708655842781], [-73.966896147327, 40.7083845195007], [-73.9668222192835, 40.7083761246239]]]}}, {"type": "Feature", "properties": {"zone_id": "0202ZEKHN8IG65X0WV0P7Q", "tract_id": "36047054700", "city": "BROOKLYN, NY", "zone_code": "R7A", "zone_category": "Residential", "ev_permitted": false}, "geometry": {"type": "Polygon", "coordinates": [[[-73.9677766501283, 40.7077648054994], [-73.9677454403068, 40.708038739108], [-73.9683338374245, 40.7081050371376], [-73.9683218470708, 40.7078262361149], [-73.9677766501283, 40.7077648054994]]]}}, {"type": "Feature", "properties": {"zone_id": "0202PP7NL0AYKO11S6AH0K", "tract_id": "36047054700", "city": "BROOKLYN, NY", "zone_code": "R7A", "zone_category": "Residential", "ev_permitted": false}, "geometry": {"type": "Polygon", "coordinates": [[[-73.9674748371795, 40.7077307972684], [-73.9674011616963, 40.7081083993491], [-73.9675366741487, 40.7081240391456], [-73.9675573759069, 40.7080179368988], [-73.9677454403068, 40.708038739108], [-73.9677766501283, 40.7077648054994], [-73.9674748371795, 40.7077307972684]]]}}, {"type": "Feature", "properties": {"zone_id": "0203MT2644DYO33R8CZV6P", "tract_id": "36047054700", "city": "BROOKLYN, NY", "zone_code": "R7A", "zone_category": "Residential", "ev_permitted": false}, "geometry": {"type": "Polygon", "coordinates": [[[-73.9675573759069, 40.7080179368988], [-73.9675366741487, 40.7081240391456], [-73.9674011616963, 40.7081083993491], [-73.9673529979367, 40.7083552471897], [-73.967819554389, 40.708409092138], [-73.9678712793244, 40.7080529183083], [-73.9675573759069, 40.7080179368988]]]}}, {"type": "Feature", "properties": {"zone_id": "02079YN4TYJNHF0SHT8XA1", "tract_id": "36047054700", "city": "BROOKLYN, NY", "zone_code": "R6", "zone_category": "Residential", "ev_permitted": false}, "geometry": {"type": "Polygon", "coordinates": [[[-73.9669568052464, 40.7076691557787], [-73.9669127437814, 40.7078918728403], [-73.9672223451426, 40.7079270719054], [-73.9672664259601, 40.7077042535492], [-73.9669568052464, 40.7076691557787]]]}}, {"type": "Feature", "properties": {"zone_id": "02003SUCVXKNXS3DPIHDVB", "tract_id": "36047054700", "city": "BROOKLYN, NY", "zone_code": "R6", "zone_category": "Residential", "ev_permitted": false}, "geometry": {"type": "Polygon", "coordinates": [[[-73.9669127437814, 40.7078918728403], [-73.9669026380868, 40.7079429525788], [-73.9667288795677, 40.7079231971044], [-73.9667168445728, 40.7079840256694], [-73.9672002051166, 40.7080389795833], [-73.9672223451426, 40.7079270719054], [-73.9669127437814, 40.7078918728403]]]}}, {"type": "Feature", "properties": {"zone_id": "0206WK1F7BPAOH7POPUGAX", "tract_id": "36047054700", "city": "BROOKLYN, NY", "zone_code": "R6", "zone_category": "Residential", "ev_permitted": false}, "geometry": {"type": "Polygon", "coordinates": [[[-73.9663813360617, 40.7078836839555], [-73.9663579717555, 40.7080017752212], [-73.9660845004966, 40.7079706823925], [-73.9660540773928, 40.7081269456005], [-73.9671579789005, 40.7082524242536], [-73.9672002051166, 40.7080389795833], [-73.9667168445728, 40.7079840256694], [-73.9667288795677, 40.7079231971044], [-73.9663813360617, 40.7078836839555]]]}}, {"type": "Feature", "properties": {"zone_id": "02046GTDRXAFS5BLEV7OHM", "tract_id": "36047054700", "city": "BROOKLYN, NY", "zone_code": "R6", "zone_category": "Residential", "ev_permitted": false}, "geometry": {"type": "Polygon", "coordinates": [[[-73.9662658116556, 40.7085349522615], [-73.9661988664912, 40.7088680255204], [-73.9670166839017, 40.7089608943462], [-73.967064538237, 40.7087227837956], [-73.9669667465783, 40.708711679051], [-73.9669749256606, 40.7086709805525], [-73.9665253310597, 40.7086199261479], [-73.9665362365371, 40.7085656615241], [-73.9662658116556, 40.7085349522615]]]}}, {"type": "Feature", "properties": {"zone_id": "0203U4A0OKH58ILKWBNNOO", "tract_id": "36047054700", "city": "BROOKLYN, NY", "zone_code": "R6", "zone_category": "Residential", "ev_permitted": false}, "geometry": {"type": "Polygon", "coordinates": [[[-73.9667527813412, 40.708368239722], [-73.9666982502027, 40.7086395629349], [-73.9667676893446, 40.7086474478697], [-73.9668222192835, 40.7083761246239], [-73.9667527813412, 40.708368239722]]]}}, {"type": "Feature", "properties": {"zone_id": "0200ZJ851LQYVMOLIQSR6E", "tract_id": "36047054700", "city": "BROOKLYN, NY", "zone_code": "R6", "zone_category": "Residential", "ev_permitted": false}, "geometry": {"type": "Polygon", "coordinates": [[[-73.9666660026338, 40.708358385122], [-73.9666114720736, 40.7086297082945], [-73.9666982502027, 40.7086395629349], [-73.9667527813412, 40.708368239722], [-73.9666660026338, 40.708358385122]]]}}, {"type": "Feature", "properties": {"zone_id": "02029XTHYNEIR69H2SX78A", "tract_id": "36047054700", "city": "BROOKLYN, NY", "zone_code": "R6", "zone_category": "Residential", "ev_permitted": false}, "geometry": {"type": "Polygon", "coordinates": [[[-73.9661803537285, 40.7086223780733], [-73.9661324963069, 40.7088604882595], [-73.9661988664912, 40.7088680255204], [-73.9662467246049, 40.7086299146045], [-73.9661803537285, 40.7086223780733]]]}}, {"type": "Feature", "properties": {"zone_id": "0207HD50BMZB2AODL1CTCV", "tract_id": "36047054700", "city": "BROOKLYN, NY", "zone_code": "R6", "zone_category": "Residential", "ev_permitted": false}, "geometry": {"type": "Polygon", "coordinates": [[[-73.966512106357, 40.7083409088779], [-73.9664684807159, 40.7085579673606], [-73.9665362365371, 40.7085656615241], [-73.9665798619626, 40.7083486030159], [-73.966512106357, 40.7083409088779]]]}}, {"type": "Feature", "properties": {"zone_id": "0203S4DRU4E3VTG26XGXRW", "tract_id": "36047054700", "city": "BROOKLYN, NY", "zone_code": "R6", "zone_category": "Residential", "ev_permitted": false}, "geometry": {"type": "Polygon", "coordinates": [[[-73.9665798619626, 40.7083486030159], [-73.9665253310597, 40.7086199261479], [-73.9666114720736, 40.7086297082945], [-73.9666660026338, 40.708358385122], [-73.9665798619626, 40.7083486030159]]]}}, {"type": "Feature", "properties": {"zone_id": "0204G0MO3IMYIHQVXJ5C73", "tract_id": "36047054700", "city": "BROOKLYN, NY", "zone_code": "R6", "zone_category": "Residential", "ev_permitted": false}, "geometry": {"type": "Polygon", "coordinates": [[[-73.9664471557963, 40.7083335331197], [-73.9664035299486, 40.708550591578], [-73.9664684807159, 40.7085579673606], [-73.966512106357, 40.7083409088779], [-73.9664471557963, 40.7083335331197]]]}}, {"type": "Feature", "properties": {"zone_id": "0200HKZ3Y3SLCR7LRQWI56", "tract_id": "36047054700", "city": "BROOKLYN, NY", "zone_code": "R6", "zone_category": "Residential", "ev_permitted": false}, "geometry": {"type": "Polygon", "coordinates": [[[-73.9663773763164, 40.7083256092454], [-73.9663337502463, 40.7085426683802], [-73.9664035299486, 40.708550591578], [-73.9664471557963, 40.7083335331197], [-73.9663773763164, 40.7083256092454]]]}}, {"type": "Feature", "properties": {"zone_id": "0207GD23DMWTH6182K963H", "tract_id": "36047054700", "city": "BROOKLYN, NY", "zone_code": "R6", "zone_category": "Residential", "ev_permitted": false}, "geometry": {"type": "Polygon", "coordinates": [[[-73.9663094370182, 40.7083178938546], [-73.9662658116556, 40.7085349522615], [-73.9663337502463, 40.7085426683802], [-73.9663773763164, 40.7083256092454], [-73.9663094370182, 40.7083178938546]]]}}, {"type": "Feature", "properties": {"zone_id": "0206Y3EYJYXJISEBLOFJAS", "tract_id": "36047054700", "city": "BROOKLYN, NY", "zone_code": "R6", "zone_category": "Residential", "ev_permitted": false}, "geometry": {"type": "Polygon", "coordinates": [[[-73.9662430664458, 40.7083103566566], [-73.966200395274, 40.7085226667462], [-73.9662667651296, 40.7085302039683], [-73.9663094370182, 40.7083178938546], [-73.9662430664458, 40.7083103566566]]]}}, {"type": "Feature", "properties": {"zone_id": "0207GNQQLBI5SGZ7DX7EHX", "tract_id": "36047054700", "city": "BROOKLYN, NY", "zone_code": "R6", "zone_category": "Residential", "ev_permitted": false}, "geometry": {"type": "Polygon", "coordinates": [[[-73.9655645340285, 40.7082298325615], [-73.9655095481775, 40.7085106740092], [-73.9652423038628, 40.7084803708372], [-73.9651886922525, 40.7087541796197], [-73.9657171078257, 40.7088140972824], [-73.965823738203, 40.7082592240611], [-73.9655645340285, 40.7082298325615]]]}}, {"type": "Feature", "properties": {"zone_id": "02020QZDUUXTLCUWBAOEIB", "tract_id": "36047054700", "city": "BROOKLYN, NY", "zone_code": "R6", "zone_category": "Residential", "ev_permitted": false}, "geometry": {"type": "Polygon", "coordinates": [[[-73.9660276361819, 40.7082858920237], [-73.965919977382, 40.7088363545337], [-73.9661324963069, 40.7088604882595], [-73.9661803537285, 40.7086223780733], [-73.9662467246049, 40.7086299146045], [-73.9662658116556, 40.7085349522615], [-73.9662667651296, 40.7085302039683], [-73.966200395274, 40.7085226667462], [-73.9662430664458, 40.7083103566566], [-73.9660276361819, 40.7082858920237]]]}}, {"type": "Feature", "properties": {"zone_id": "0206CCP5QY5IV7CIEWV2RG", "tract_id": "36047054700", "city": "BROOKLYN, NY", "zone_code": "R6", "zone_category": "Residential", "ev_permitted": false}, "geometry": {"type": "Polygon", "coordinates": [[[-73.9654740134878, 40.7082195684007], [-73.9654190263405, 40.7085004098054], [-73.9655095481775, 40.7085106740092], [-73.9655645340285, 40.7082298325615], [-73.9654740134878, 40.7082195684007]]]}}, {"type": "Feature", "properties": {"zone_id": "0205JIJ83M5A6YWBYQ31KK", "tract_id": "36047054700", "city": "BROOKLYN, NY", "zone_code": "R6", "zone_category": "Residential", "ev_permitted": false}, "geometry": {"type": "Polygon", "coordinates": [[[-73.9661342758768, 40.7077150147067], [-73.9661075005705, 40.7078525489149], [-73.9666440200845, 40.7079135496237], [-73.966670329178, 40.7077773762087], [-73.9661342758768, 40.7077150147067]]]}}, {"type": "Feature", "properties": {"zone_id": "0200DI8QBO30EUFQ2XCS8D", "tract_id": "36047054700", "city": "BROOKLYN, NY", "zone_code": "R6", "zone_category": "Residential", "ev_permitted": false}, "geometry": {"type": "Polygon", "coordinates": [[[-73.9666969288507, 40.7076396970698], [-73.9666440200845, 40.7079135496237], [-73.9669026380868, 40.7079429525788], [-73.9669568052464, 40.7076691557787], [-73.9666969288507, 40.7076396970698]]]}}, {"type": "Feature", "properties": {"zone_id": "0205E1AZ2WC4ATOQ1AQNPZ", "tract_id": "36047054700", "city": "BROOKLYN, NY", "zone_code": "R6", "zone_category": "Residential", "ev_permitted": false}, "geometry": {"type": "Polygon", "coordinates": [[[-73.9661075005705, 40.7078525489149], [-73.9660965402766, 40.7079088371465], [-73.9663702033355, 40.7079399517853], [-73.9663813360617, 40.7078836839555], [-73.9661075005705, 40.7078525489149]]]}}, {"type": "Feature", "properties": {"zone_id": "0207AXEAEBXF5488I3YX15", "tract_id": "36047054700", "city": "BROOKLYN, NY", "zone_code": "R6", "zone_category": "Residential", "ev_permitted": false}, "geometry": {"type": "Polygon", "coordinates": [[[-73.9660965402766, 40.7079088371465], [-73.9660845004966, 40.7079706823925], [-73.9663579717555, 40.7080017752212], [-73.9663702033355, 40.7079399517853], [-73.9660965402766, 40.7079088371465]]]}}, {"type": "Feature", "properties": {"zone_id": "0202TP7RMKRR2QG9JMW3LR", "tract_id": "36047054700", "city": "BROOKLYN, NY", "zone_code": "R6", "zone_category": "Residential", "ev_permitted": false}, "geometry": {"type": "Polygon", "coordinates": [[[-73.9657313383605, 40.7078164269479], [-73.9657200699105, 40.7078734254409], [-73.9659013557114, 40.7078940672087], [-73.965912564918, 40.7078370623566], [-73.9657313383605, 40.7078164269479]]]}}, {"type": "Feature", "properties": {"zone_id": "020516UCPA7O8757J9C6V3", "tract_id": "36047054700", "city": "BROOKLYN, NY", "zone_code": "R6", "zone_category": "Residential", "ev_permitted": false}, "geometry": {"type": "Polygon", "coordinates": [[[-73.9657533001055, 40.7076805609133], [-73.9656645587615, 40.707697006925], [-73.9656590374643, 40.7077249352918], [-73.9659285788291, 40.7077556260482], [-73.9659365857699, 40.7077149078928], [-73.9657576862637, 40.7076945381163], [-73.9657533001055, 40.7076805609133]]]}}, {"type": "Feature", "properties": {"zone_id": "0200KM7GIFOPAL1CKP79CL", "tract_id": "36047054700", "city": "BROOKLYN, NY", "zone_code": "R6", "zone_category": "Residential", "ev_permitted": false}, "geometry": {"type": "Polygon", "coordinates": [[[-73.9656509878808, 40.7077656484965], [-73.9656429382873, 40.7078063617004], [-73.965912564918, 40.7078370623566], [-73.9659205718785, 40.7077963442028], [-73.9656509878808, 40.7077656484965]]]}}, {"type": "Feature", "properties": {"zone_id": "0204N38D3QEA2HM6RCGDN9", "tract_id": "36047054700", "city": "BROOKLYN, NY", "zone_code": "R6", "zone_category": "Residential", "ev_permitted": false}, "geometry": {"type": "Polygon", "coordinates": [[[-73.9656590374643, 40.7077249352918], [-73.9656509878808, 40.7077656484965], [-73.9659205718785, 40.7077963442028], [-73.9659285788291, 40.7077556260482], [-73.9656590374643, 40.7077249352918]]]}}, {"type": "Feature", "properties": {"zone_id": "020546TBVL49MFN3C7XM1F", "tract_id": "36047054700", "city": "BROOKLYN, NY", "zone_code": "R7-3", "zone_category": "Other", "ev_permitted": false}, "geometry": {"type": "Polygon", "coordinates": [[[-73.969780700696, 40.7071786181482], [-73.9693816131632, 40.7072156131109], [-73.9698118048082, 40.7079592915914], [-73.969780700696, 40.7071786181482]]]}}, {"type": "Feature", "properties": {"zone_id": "0202CLUIB84K0JE3CNUVSN", "tract_id": "36047054700", "city": "BROOKLYN, NY", "zone_code": "M3-1", "zone_category": "Industrial", "ev_permitted": true}, "geometry": {"type": "Polygon", "coordinates": [[[-73.9692920280791, 40.7055151325282], [-73.9680612693396, 40.7058238140002], [-73.9684502007797, 40.706721633615], [-73.9684435538169, 40.7068031389026], [-73.969283555401, 40.7070004579196], [-73.9692383369887, 40.7062405018965], [-73.9692920280791, 40.7055151325282]]]}}, {"type": "Feature", "properties": {"zone_id": "0205CAO7948KCGK874GCUR", "tract_id": "36047054700", "city": "BROOKLYN, NY", "zone_code": "R6", "zone_category": "Residential", "ev_permitted": false}, "geometry": {"type": "Polygon", "coordinates": [[[-73.9682865708415, 40.706937699341], [-73.9674186961227, 40.707095868758], [-73.9675199625617, 40.7074182965585], [-73.9674889169045, 40.7075691565283], [-73.9677279524104, 40.7075969217525], [-73.9678030876206, 40.7072976662126], [-73.9679523602361, 40.7072617986267], [-73.9679448649568, 40.7072233257527], [-73.9679587070268, 40.7072202303508], [-73.9679344959819, 40.7071387927422], [-73.9682927964072, 40.7070781788691], [-73.9682865708415, 40.706937699341]]]}}, {"type": "Feature", "properties": {"zone_id": "0202KKEE2P0HN6UJJQ1LZI", "tract_id": "36047054700", "city": "BROOKLYN, NY", "zone_code": "R6", "zone_category": "Residential", "ev_permitted": false}, "geometry": {"type": "Polygon", "coordinates": [[[-73.9682927964072, 40.7070781788691], [-73.9679344959819, 40.7071387927422], [-73.9679587070268, 40.7072202303508], [-73.9679448649568, 40.7072233257527], [-73.9679523602361, 40.7072617986267], [-73.9678030876206, 40.7072976662126], [-73.9677279524104, 40.7075969217525], [-73.9683188264883, 40.7076655525095], [-73.9682927964072, 40.7070781788691]]]}}, {"type": "Feature", "properties": {"zone_id": "0202HVLTTJUZ79NDHYLCSS", "tract_id": "36047054700", "city": "BROOKLYN, NY", "zone_code": "R6", "zone_category": "Residential", "ev_permitted": false}, "geometry": {"type": "Polygon", "coordinates": [[[-73.9672811248134, 40.7073112651623], [-73.9669205938919, 40.7073752123502], [-73.9669158042555, 40.7073588706256], [-73.966521626381, 40.707428784413], [-73.9665319392048, 40.7074639751971], [-73.9669652764562, 40.7075138556959], [-73.9669585378833, 40.7074913440633], [-73.96731882596, 40.7074399089471], [-73.9672811248134, 40.7073112651623]]]}}, {"type": "Feature", "properties": {"zone_id": "0201LLFX8QA6D42F1OIHSF", "tract_id": "36047054700", "city": "BROOKLYN, NY", "zone_code": "R6", "zone_category": "Residential", "ev_permitted": false}, "geometry": {"type": "Polygon", "coordinates": [[[-73.96731882596, 40.7074399089471], [-73.9669585378833, 40.7074913440633], [-73.9669652764562, 40.7075138556959], [-73.9672953279859, 40.7075518464791], [-73.96731882596, 40.7074399089471]]]}}, {"type": "Feature", "properties": {"zone_id": "0204MM6N36IQAP90AIV7UN", "tract_id": "36047054700", "city": "BROOKLYN, NY", "zone_code": "R6", "zone_category": "Residential", "ev_permitted": false}, "geometry": {"type": "Polygon", "coordinates": [[[-73.9672276397468, 40.7071287636349], [-73.9671507373174, 40.7071424042276], [-73.9672042221844, 40.7073249057904], [-73.9672811248134, 40.7073112651623], [-73.9672276397468, 40.7071287636349]]]}}, {"type": "Feature", "properties": {"zone_id": "02027O2ASK7FKQSKF5GVUC", "tract_id": "36047054700", "city": "BROOKLYN, NY", "zone_code": "R6", "zone_category": "Residential", "ev_permitted": false}, "geometry": {"type": "Polygon", "coordinates": [[[-73.9670098724189, 40.7071673898659], [-73.9669343458152, 40.70718078548], [-73.9669878301205, 40.7073632871425], [-73.9670633569206, 40.7073498907909], [-73.9670098724189, 40.7071673898659]]]}}, {"type": "Feature", "properties": {"zone_id": "0206CZ42Y1PS3RMZDBAHR6", "tract_id": "36047054700", "city": "", "zone_code": "R6", "zone_category": "Residential", "ev_permitted": false}, "geometry": {"type": "Polygon", "coordinates": [[[-73.9671507373174, 40.7071424042276], [-73.9670098724189, 40.7071673898659], [-73.9670633569206, 40.7073498907909], [-73.9672042221844, 40.7073249057904], [-73.9671507373174, 40.7071424042276]]]}}, {"type": "Feature", "properties": {"zone_id": "0205V43SHHVJRJXJL1FIVG", "tract_id": "36047054700", "city": "BROOKLYN, NY", "zone_code": "R6", "zone_category": "Residential", "ev_permitted": false}, "geometry": {"type": "Polygon", "coordinates": [[[-73.9668671097606, 40.7071927113594], [-73.96679716987, 40.7072051163362], [-73.9668458632762, 40.7073712756314], [-73.9669158042555, 40.7073588706256], [-73.9668671097606, 40.7071927113594]]]}}, {"type": "Feature", "properties": {"zone_id": "0203NISNK2NSXTTHUT7MBU", "tract_id": "36047054700", "city": "", "zone_code": "R6", "zone_category": "Residential", "ev_permitted": false}, "geometry": {"type": "Polygon", "coordinates": [[[-73.9669343458152, 40.70718078548], [-73.9668671097606, 40.7071927113594], [-73.9669205938919, 40.7073752123502], [-73.9669878301205, 40.7073632871425], [-73.9669343458152, 40.70718078548]]]}}, {"type": "Feature", "properties": {"zone_id": "0200FNS0PTC2XNNNVBYS49", "tract_id": "36047054700", "city": "BROOKLYN, NY", "zone_code": "R6", "zone_category": "Residential", "ev_permitted": false}, "geometry": {"type": "Polygon", "coordinates": [[[-73.9661526002526, 40.7075779909466], [-73.9661573748364, 40.7075963633842], [-73.9661342758768, 40.7077150147067], [-73.966670329178, 40.7077773762087], [-73.9666969288507, 40.7076396970698], [-73.9661526002526, 40.7075779909466]]]}}, {"type": "Feature", "properties": {"zone_id": "02030KTU4LP4QHE1P1IG5V", "tract_id": "36047054700", "city": "BROOKLYN, NY", "zone_code": "R6", "zone_category": "Residential", "ev_permitted": false}, "geometry": {"type": "Polygon", "coordinates": [[[-73.9665382713554, 40.7072510360575], [-73.966472933741, 40.7072626249819], [-73.966521626381, 40.707428784413], [-73.9665869659965, 40.7074171954618], [-73.9665382713554, 40.7072510360575]]]}}, {"type": "Feature", "properties": {"zone_id": "0203IRMP2440N3J8397O8V", "tract_id": "36047054700", "city": "BROOKLYN, NY", "zone_code": "R6", "zone_category": "Residential", "ev_permitted": false}, "geometry": {"type": "Polygon", "coordinates": [[[-73.9666029080603, 40.7072395719661], [-73.9665382713554, 40.7072510360575], [-73.9665869659965, 40.7074171954618], [-73.9666516019311, 40.7074057306404], [-73.9666029080603, 40.7072395719661]]]}}, {"type": "Feature", "properties": {"zone_id": "02073QRKKRGAOMCAVX2M55", "tract_id": "36047054700", "city": "BROOKLYN, NY", "zone_code": "R6", "zone_category": "Residential", "ev_permitted": false}, "geometry": {"type": "Polygon", "coordinates": [[[-73.9667339377742, 40.7072163314985], [-73.9666640320008, 40.7072287307829], [-73.9667127260161, 40.7073948894315], [-73.9667826319543, 40.7073824908205], [-73.9667339377742, 40.7072163314985]]]}}, {"type": "Feature", "properties": {"zone_id": "02037Y5V256ZMZ872T4IGZ", "tract_id": "36047054700", "city": "BROOKLYN, NY", "zone_code": "R6", "zone_category": "Residential", "ev_permitted": false}, "geometry": {"type": "Polygon", "coordinates": [[[-73.9666640320008, 40.7072287307829], [-73.9666029080603, 40.7072395719661], [-73.9666516019311, 40.7074057306404], [-73.9667127260161, 40.7073948894315], [-73.9666640320008, 40.7072287307829]]]}}, {"type": "Feature", "properties": {"zone_id": "02034K86K1GEXSTVA03HAE", "tract_id": "36047054700", "city": "BROOKLYN, NY", "zone_code": "R6", "zone_category": "Residential", "ev_permitted": false}, "geometry": {"type": "Polygon", "coordinates": [[[-73.9663436842288, 40.7072855487734], [-73.9662785386219, 40.7072971025105], [-73.9663230404012, 40.7074399289868], [-73.9663943432634, 40.7074481365117], [-73.9663436842288, 40.7072855487734]]]}}, {"type": "Feature", "properties": {"zone_id": "0203L8GPVSB1AFD76UWCYT", "tract_id": "36047054700", "city": "BROOKLYN, NY", "zone_code": "R6", "zone_category": "Residential", "ev_permitted": false}, "geometry": {"type": "Polygon", "coordinates": [[[-73.9658700862172, 40.7073599966398], [-73.9657738322057, 40.7073778359905], [-73.9658576163212, 40.707644842692], [-73.9659538716185, 40.7076270046775], [-73.9658700862172, 40.7073599966398]]]}}, {"type": "Feature", "properties": {"zone_id": "0201IMZ4L22LLXXQUL4O6Y", "tract_id": "36047054700", "city": "BROOKLYN, NY", "zone_code": "R6", "zone_category": "Residential", "ev_permitted": false}, "geometry": {"type": "Polygon", "coordinates": [[[-73.9659538716185, 40.7076270046775], [-73.9658576163212, 40.707644842692], [-73.9658551033506, 40.7076368337359], [-73.9657697585231, 40.7076526505506], [-73.9657771305538, 40.7076761440562], [-73.9657533001055, 40.7076805609133], [-73.9657576862637, 40.7076945381163], [-73.9659365857699, 40.7077149078928], [-73.9659538716185, 40.7076270046775]]]}}, {"type": "Feature", "properties": {"zone_id": "0202SOEBB12RPM8GRHADHX", "tract_id": "36047054700", "city": "BROOKLYN, NY", "zone_code": "R6", "zone_category": "Residential", "ev_permitted": false}, "geometry": {"type": "Polygon", "coordinates": [[[-73.96679716987, 40.7072051163362], [-73.9667339377742, 40.7072163314985], [-73.9667826319543, 40.7073824908205], [-73.9668458632762, 40.7073712756314], [-73.96679716987, 40.7072051163362]]]}}, {"type": "Feature", "properties": {"zone_id": "0205VG82U4ZILFVYPVW7UD", "tract_id": "36047054700", "city": "BROOKLYN, NY", "zone_code": "R6", "zone_category": "Residential", "ev_permitted": false}, "geometry": {"type": "Polygon", "coordinates": [[[-73.966472933741, 40.7072626249819], [-73.9664089988022, 40.7072739641317], [-73.9664658317267, 40.707456365829], [-73.9665319392048, 40.7074639751971], [-73.966472933741, 40.7072626249819]]]}}, {"type": "Feature", "properties": {"zone_id": "02022UJ4DYRGYJRUHPZ6K3", "tract_id": "36047054700", "city": "BROOKLYN, NY", "zone_code": "R6", "zone_category": "Residential", "ev_permitted": false}, "geometry": {"type": "Polygon", "coordinates": [[[-73.9664089988022, 40.7072739641317], [-73.9663436842288, 40.7072855487734], [-73.9663943432634, 40.7074481365117], [-73.9664658317267, 40.707456365829], [-73.9664089988022, 40.7072739641317]]]}}, {"type": "Feature", "properties": {"zone_id": "02024OVAVBL3V0SMI59NNR", "tract_id": "36047054700", "city": "BROOKLYN, NY", "zone_code": "R6", "zone_category": "Residential", "ev_permitted": false}, "geometry": {"type": "Polygon", "coordinates": [[[-73.9662193353023, 40.7073076039654], [-73.9660659266652, 40.7073348121973], [-73.9660903316768, 40.7074131413373], [-73.966255847169, 40.707432194107], [-73.9662193353023, 40.7073076039654]]]}}, {"type": "Feature", "properties": {"zone_id": "0206ODZ5NLS98S7HD0KG68", "tract_id": "36047054700", "city": "BROOKLYN, NY", "zone_code": "R6", "zone_category": "Residential", "ev_permitted": false}, "geometry": {"type": "Polygon", "coordinates": [[[-73.9662785386219, 40.7072971025105], [-73.9662193353023, 40.7073076039654], [-73.966255847169, 40.707432194107], [-73.9663230404012, 40.7074399289868], [-73.9662785386219, 40.7072971025105]]]}}, {"type": "Feature", "properties": {"zone_id": "0205IUUDAT7H5OYCDYCXGI", "tract_id": "36047054700", "city": "BROOKLYN, NY", "zone_code": "R6", "zone_category": "Residential", "ev_permitted": false}, "geometry": {"type": "Polygon", "coordinates": [[[-73.9655059932412, 40.7074274734212], [-73.9654219617357, 40.7074430465491], [-73.9655106035349, 40.7077255387659], [-73.965594636299, 40.7077099655741], [-73.9655059932412, 40.7074274734212]]]}}, {"type": "Feature", "properties": {"zone_id": "0205DV9SQN5RPNRY92AT8X", "tract_id": "36047054700", "city": "BROOKLYN, NY", "zone_code": "R6", "zone_category": "Residential", "ev_permitted": false}, "geometry": {"type": "Polygon", "coordinates": [[[-73.9656884876905, 40.7073936527455], [-73.9655059932412, 40.7074274734212], [-73.965594636299, 40.7077099655741], [-73.9657771305538, 40.7076761440562], [-73.9656884876905, 40.7073936527455]]]}}, {"type": "Feature", "properties": {"zone_id": "0203X25BJ12IQVESQYX2TN", "tract_id": "36047054700", "city": "BROOKLYN, NY", "zone_code": "R6", "zone_category": "Residential", "ev_permitted": false}, "geometry": {"type": "Polygon", "coordinates": [[[-73.9657738322057, 40.7073778359905], [-73.9656884876905, 40.7073936527455], [-73.9657697585231, 40.7076526505506], [-73.9658551033506, 40.7076368337359], [-73.9657738322057, 40.7073778359905]]]}}, {"type": "Feature", "properties": {"zone_id": "0205GT7U6FXL1VUYM43KA5", "tract_id": "36047054700", "city": "BROOKLYN, NY", "zone_code": "R6", "zone_category": "Residential", "ev_permitted": false}, "geometry": {"type": "Polygon", "coordinates": [[[-73.9653125098108, 40.709544388411], [-73.9653007648607, 40.7096037497502], [-73.9655505629255, 40.7096317301904], [-73.9655623076578, 40.7095723695287], [-73.9653125098108, 40.709544388411]]]}}, {"type": "Feature", "properties": {"zone_id": "02014X55T19A4I0SQO1VBT", "tract_id": "36047054700", "city": "", "zone_code": "R6", "zone_category": "Residential", "ev_permitted": false}, "geometry": {"type": "Polygon", "coordinates": [[[-73.9653224197657, 40.7094943093504], [-73.9653125098108, 40.709544388411], [-73.9655623076578, 40.7095723695287], [-73.965572217429, 40.7095222904467], [-73.9653224197657, 40.7094943093504]]]}}, {"type": "Feature", "properties": {"zone_id": "02035S8YV5491H9LEYBYY0", "tract_id": "36047054700", "city": "", "zone_code": "R6", "zone_category": "Residential", "ev_permitted": false}, "geometry": {"type": "Polygon", "coordinates": [[[-73.9650427130645, 40.7092338170748], [-73.9649766961817, 40.7095674477879], [-73.9653007648607, 40.7096037497502], [-73.9653667801579, 40.7092701181503], [-73.9650427130645, 40.7092338170748]]]}}, {"type": "Feature", "properties": {"zone_id": "0203A84AKWW78FSBLBVVMV", "tract_id": "36047054700", "city": "BROOKLYN, NY", "zone_code": "R6", "zone_category": "Residential", "ev_permitted": false}, "geometry": {"type": "Polygon", "coordinates": [[[-73.9653341276418, 40.7094351405257], [-73.9653224197657, 40.7094943093504], [-73.965572217429, 40.7095222904467], [-73.9655839241649, 40.7094631215965], [-73.9653341276418, 40.7094351405257]]]}}, {"type": "Feature", "properties": {"zone_id": "0200OSPHIK3E1SD1BWBY7A", "tract_id": "36047054700", "city": "BROOKLYN, NY", "zone_code": "R6", "zone_category": "Residential", "ev_permitted": false}, "geometry": {"type": "Polygon", "coordinates": [[[-73.9641513906145, 40.7094153286632], [-73.9641398400192, 40.7094737006014], [-73.964471739458, 40.7095108821484], [-73.9644832906929, 40.7094525094748], [-73.9641513906145, 40.7094153286632]]]}}, {"type": "Feature", "properties": {"zone_id": "0207C557STZHICF8YJHIIA", "tract_id": "36047054700", "city": "BROOKLYN, NY", "zone_code": "C2-3", "zone_category": "Commercial", "ev_permitted": true}, "geometry": {"type": "Polygon", "coordinates": [[[-73.9641620254749, 40.7093615890717], [-73.9641513906145, 40.7094153286632], [-73.9644832906929, 40.7094525094748], [-73.9644939243683, 40.7093987698526], [-73.9641620254749, 40.7093615890717]]]}}, {"type": "Feature", "properties": {"zone_id": "02019LPWZUXB6RR04OJZ31", "tract_id": "36047054700", "city": "BROOKLYN, NY", "zone_code": "R6", "zone_category": "Residential", "ev_permitted": false}, "geometry": {"type": "Polygon", "coordinates": [[[-73.9650488355982, 40.7092028752194], [-73.9650427130645, 40.7092338170748], [-73.9656165760763, 40.7092980991508], [-73.9656226983495, 40.7092671572652], [-73.9650488355982, 40.7092028752194]]]}}, {"type": "Feature", "properties": {"zone_id": "02068OQ6VWOXX4H2UN2503", "tract_id": "36047054700", "city": "BROOKLYN, NY", "zone_code": "R6", "zone_category": "Residential", "ev_permitted": false}, "geometry": {"type": "Polygon", "coordinates": [[[-73.9653347863728, 40.7089248568208], [-73.9652747677769, 40.7092281838243], [-73.9653560232215, 40.709237285964], [-73.9654160414562, 40.7089339582158], [-73.9653347863728, 40.7089248568208]]]}}, {"type": "Feature", "properties": {"zone_id": "0200J1H7K18WDTPE919ZTT", "tract_id": "36047054700", "city": "BROOKLYN, NY", "zone_code": "R6", "zone_category": "Residential", "ev_permitted": false}, "geometry": {"type": "Polygon", "coordinates": [[[-73.9651088551994, 40.7088995483327], [-73.9650488355982, 40.7092028752194], [-73.9652747677769, 40.7092281838243], [-73.9653347863728, 40.7089248568208], [-73.9651088551994, 40.7088995483327]]]}}, {"type": "Feature", "properties": {"zone_id": "02003V7QZ2TO9VU9BWIOJ0", "tract_id": "36047054700", "city": "BROOKLYN, NY", "zone_code": "R6", "zone_category": "Residential", "ev_permitted": false}, "geometry": {"type": "Polygon", "coordinates": [[[-73.964956883079, 40.708882524512], [-73.9648968628016, 40.7091858513202], [-73.9649763785992, 40.7091947585607], [-73.9650363985229, 40.7088914317114], [-73.964956883079, 40.708882524512]]]}}, {"type": "Feature", "properties": {"zone_id": "020235ZPTY4LM3Y30I2IZQ", "tract_id": "36047054700", "city": "BROOKLYN, NY", "zone_code": "R6", "zone_category": "Residential", "ev_permitted": false}, "geometry": {"type": "Polygon", "coordinates": [[[-73.9650363985229, 40.7088914317114], [-73.9649763785992, 40.7091947585607], [-73.9650488355982, 40.7092028752194], [-73.9651088551994, 40.7088995483327], [-73.9650363985229, 40.7088914317114]]]}}, {"type": "Feature", "properties": {"zone_id": "0202KVL1PXA9JF8WI12L3G", "tract_id": "36047054700", "city": "BROOKLYN, NY", "zone_code": "C2-3", "zone_category": "Commercial", "ev_permitted": true}, "geometry": {"type": "Polygon", "coordinates": [[[-73.9647923428053, 40.708864092031], [-73.9647415833801, 40.7091410528919], [-73.9648333691555, 40.7091513348773], [-73.9648841272839, 40.7088743739761], [-73.9647923428053, 40.708864092031]]]}}, {"type": "Feature", "properties": {"zone_id": "0204UDNMB2PJ4KAWEO4ANR", "tract_id": "36047054700", "city": "BROOKLYN, NY", "zone_code": "C2-3", "zone_category": "Commercial", "ev_permitted": true}, "geometry": {"type": "Polygon", "coordinates": [[[-73.9648841272839, 40.7088743739761], [-73.9648333691555, 40.7091513348773], [-73.9645491858688, 40.7091194994497], [-73.9645130529024, 40.7093021031701], [-73.9641811544796, 40.7092649224439], [-73.9641620254749, 40.7093615890717], [-73.9644939243683, 40.7093987698526], [-73.964471739458, 40.7095108821484], [-73.9649766961817, 40.7095674477879], [-73.9650488355982, 40.7092028752194], [-73.9648968628016, 40.7091858513202], [-73.964956883079, 40.708882524512], [-73.9648841272839, 40.7088743739761]]]}}, {"type": "Feature", "properties": {"zone_id": "0202POL656XC361KI5SEL2", "tract_id": "36047054700", "city": "BROOKLYN, NY", "zone_code": "R6", "zone_category": "Residential", "ev_permitted": false}, "geometry": {"type": "Polygon", "coordinates": [[[-73.9642292832188, 40.7090217048297], [-73.9642009778497, 40.7091647427307], [-73.9645328767084, 40.7092019226979], [-73.9645611795336, 40.7090588861208], [-73.9642292832188, 40.7090217048297]]]}}, {"type": "Feature", "properties": {"zone_id": "02009TPCMMUMQ8IWF0DNXK", "tract_id": "36047054700", "city": "BROOKLYN, NY", "zone_code": "R6", "zone_category": "Residential", "ev_permitted": false}, "geometry": {"type": "Polygon", "coordinates": [[[-73.9641905532276, 40.7092174241875], [-73.9641811544796, 40.7092649224439], [-73.9645130529024, 40.7093021031701], [-73.9645224514188, 40.7092546055896], [-73.9641905532276, 40.7092174241875]]]}}, {"type": "Feature", "properties": {"zone_id": "0201MHHZWOJ51FTAZ2SK7A", "tract_id": "36047054700", "city": "BROOKLYN, NY", "zone_code": "R6", "zone_category": "Residential", "ev_permitted": false}, "geometry": {"type": "Polygon", "coordinates": [[[-73.9642009778497, 40.7091647427307], [-73.9641905532276, 40.7092174241875], [-73.9645224514188, 40.7092546055896], [-73.9645328767084, 40.7092019226979], [-73.9642009778497, 40.7091647427307]]]}}, {"type": "Feature", "properties": {"zone_id": "0204SMHWAYB2D2RL3MN84T", "tract_id": "36047054700", "city": "BROOKLYN, NY", "zone_code": "R6", "zone_category": "Residential", "ev_permitted": false}, "geometry": {"type": "Polygon", "coordinates": [[[-73.9646039015766, 40.7088429825648], [-73.9645491858688, 40.7091194994497], [-73.9647415833801, 40.7091410528919], [-73.9647923428053, 40.708864092031], [-73.9646039015766, 40.7088429825648]]]}}, {"type": "Feature", "properties": {"zone_id": "02013G27OF5LOZJR7IR95B", "tract_id": "36047054700", "city": "BROOKLYN, NY", "zone_code": "R6", "zone_category": "Residential", "ev_permitted": false}, "geometry": {"type": "Polygon", "coordinates": [[[-73.9642454482699, 40.7089400158569], [-73.9642292832188, 40.7090217048297], [-73.9644947797436, 40.7090514469817], [-73.9645109435537, 40.7089697572689], [-73.9642454482699, 40.7089400158569]]]}}, {"type": "Feature", "properties": {"zone_id": "020125EQGJVTTSIE7G9O5N", "tract_id": "36047054700", "city": "BROOKLYN, NY", "zone_code": "R6", "zone_category": "Residential", "ev_permitted": false}, "geometry": {"type": "Polygon", "coordinates": [[[-73.9642720063126, 40.7088058020985], [-73.9642454482699, 40.7089400158569], [-73.9645109435537, 40.7089697572689], [-73.9644947797436, 40.7090514469817], [-73.9645611795336, 40.7090588861208], [-73.9646039015766, 40.7088429825648], [-73.9642720063126, 40.7088058020985]]]}}, {"type": "Feature", "properties": {"zone_id": "02029Q6M6K9QPRII86NCTF", "tract_id": "36047054700", "city": "", "zone_code": "R6", "zone_category": "Residential", "ev_permitted": false}, "geometry": {"type": "Polygon", "coordinates": [[[-73.9630983223549, 40.7086743802258], [-73.9630342279179, 40.7090031593078], [-73.9637696931956, 40.7090871529484], [-73.9637909346715, 40.7089781834802], [-73.9640276098665, 40.7090054899522], [-73.9640702937015, 40.7087865257957], [-73.9630983223549, 40.7086743802258]]]}}, {"type": "Feature", "properties": {"zone_id": "0201C5DESRFDWKP0P7XTIW", "tract_id": "36047054700", "city": "BROOKLYN, NY", "zone_code": "R6", "zone_category": "Residential", "ev_permitted": false}, "geometry": {"type": "Polygon", "coordinates": [[[-73.9638208908311, 40.7091568356232], [-73.9637691379757, 40.7094223241166], [-73.9639424950637, 40.7094421211691], [-73.9639942481674, 40.7091766325987], [-73.9638208908311, 40.7091568356232]]]}}, {"type": "Feature", "properties": {"zone_id": "020635HIAN3C7E8P0GCMW7", "tract_id": "36047054700", "city": "BROOKLYN, NY", "zone_code": "C2-3", "zone_category": "Commercial", "ev_permitted": true}, "geometry": {"type": "Polygon", "coordinates": [[[-73.9635698675526, 40.7091281680544], [-73.9635181127962, 40.7093936564357], [-73.9637691379757, 40.7094223241166], [-73.9638208908311, 40.7091568356232], [-73.9635698675526, 40.7091281680544]]]}}, {"type": "Feature", "properties": {"zone_id": "0200I06NR4F2BOVMBUXGKW", "tract_id": "36047054700", "city": "BROOKLYN, NY", "zone_code": "C2-3", "zone_category": "Commercial", "ev_permitted": true}, "geometry": {"type": "Polygon", "coordinates": [[[-73.9635040078871, 40.7090568111012], [-73.9634903700685, 40.7091267726823], [-73.9635684017371, 40.7091356839381], [-73.9635698675526, 40.7091281680544], [-73.9639942481674, 40.7091766325987], [-73.9640064215482, 40.709114187551], [-73.9635040078871, 40.7090568111012]]]}}, {"type": "Feature", "properties": {"zone_id": "0200WR0ZGUDN9G9JLBEBHI", "tract_id": "36047054700", "city": "", "zone_code": "R6", "zone_category": "Residential", "ev_permitted": false}, "geometry": {"type": "Polygon", "coordinates": [[[-73.9637795518801, 40.7090365751129], [-73.9637696931956, 40.7090871529484], [-73.9640064215482, 40.709114187551], [-73.9640162272774, 40.7090638823107], [-73.9637795518801, 40.7090365751129]]]}}, {"type": "Feature", "properties": {"zone_id": "0204MOTJCI8WPI6R1YXQKO", "tract_id": "36047054700", "city": "BROOKLYN, NY", "zone_code": "C2-3", "zone_category": "Commercial", "ev_permitted": true}, "geometry": {"type": "Polygon", "coordinates": [[[-73.9637909346715, 40.7089781834802], [-73.9637795518801, 40.7090365751129], [-73.9640162272774, 40.7090638823107], [-73.9640276098665, 40.7090054899522], [-73.9637909346715, 40.7089781834802]]]}}, {"type": "Feature", "properties": {"zone_id": "02032AYVQY96UYV4FOPZE3", "tract_id": "36047054700", "city": "BROOKLYN, NY", "zone_code": "R6", "zone_category": "Residential", "ev_permitted": false}, "geometry": {"type": "Polygon", "coordinates": [[[-73.9634903700685, 40.7091267726823], [-73.963440079909, 40.7093847451457], [-73.9635181127962, 40.7093936564357], [-73.9635684017371, 40.7091356839381], [-73.9634903700685, 40.7091267726823]]]}}, {"type": "Feature", "properties": {"zone_id": "0205YK3NSSUR10WEQN06CN", "tract_id": "36047054700", "city": "BROOKLYN, NY", "zone_code": "R6", "zone_category": "Residential", "ev_permitted": false}, "geometry": {"type": "Polygon", "coordinates": [[[-73.9634226265172, 40.7090475171932], [-73.963358698148, 40.7093754504903], [-73.963440079909, 40.7093847451457], [-73.9635040078871, 40.7090568111012], [-73.9634226265172, 40.7090475171932]]]}}, {"type": "Feature", "properties": {"zone_id": "02060EX79BWNYC6ZGLMZMQ", "tract_id": "36047054700", "city": "BROOKLYN, NY", "zone_code": "R6", "zone_category": "Residential", "ev_permitted": false}, "geometry": {"type": "Polygon", "coordinates": [[[-73.9633358945364, 40.7090376123179], [-73.9632719657496, 40.7093655462698], [-73.963358698148, 40.7093754504903], [-73.9634226265172, 40.7090475171932], [-73.9633358945364, 40.7090376123179]]]}}, {"type": "Feature", "properties": {"zone_id": "02051LYN029GT08IPHEZNG", "tract_id": "36047054700", "city": "BROOKLYN, NY", "zone_code": "R6", "zone_category": "Residential", "ev_permitted": false}, "geometry": {"type": "Polygon", "coordinates": [[[-73.963097721735, 40.7090104107479], [-73.9630337918026, 40.7093383445688], [-73.9632719657496, 40.7093655462698], [-73.9633358945364, 40.7090376123179], [-73.963097721735, 40.7090104107479]]]}}, {"type": "Feature", "properties": {"zone_id": "0206Z17A6GQ4QSCGHUVUC3", "tract_id": "36047054700", "city": "BROOKLYN, NY", "zone_code": "R6", "zone_category": "Residential", "ev_permitted": false}, "geometry": {"type": "Polygon", "coordinates": [[[-73.9625999298566, 40.7089207467397], [-73.9625512502141, 40.7091693177632], [-73.962723441052, 40.709188984173], [-73.9627556262593, 40.7090238893031], [-73.9629319661746, 40.7090440296337], [-73.9629481668477, 40.7089609285088], [-73.9625999298566, 40.7089207467397]]]}}, {"type": "Feature", "properties": {"zone_id": "0203QWQ38AYD0RR7NIXVBD", "tract_id": "36047054700", "city": "BROOKLYN, NY", "zone_code": "R6", "zone_category": "Residential", "ev_permitted": false}, "geometry": {"type": "Polygon", "coordinates": [[[-73.962941987539, 40.7089926248917], [-73.9629319661746, 40.7090440296337], [-73.9628398088542, 40.709033504297], [-73.9627858991632, 40.7093100332474], [-73.9630337918026, 40.7093383445688], [-73.963097721735, 40.7090104107479], [-73.962941987539, 40.7089926248917]]]}}, {"type": "Feature", "properties": {"zone_id": "0205I3QFT1D6J549K56FKO", "tract_id": "36047054700", "city": "BROOKLYN, NY", "zone_code": "R6", "zone_category": "Residential", "ev_permitted": false}, "geometry": {"type": "Polygon", "coordinates": [[[-73.9627556262593, 40.7090238893031], [-73.9627017162269, 40.7093004182144], [-73.9627858991632, 40.7093100332474], [-73.9628398088542, 40.709033504297], [-73.9627556262593, 40.7090238893031]]]}}, {"type": "Feature", "properties": {"zone_id": "02026VR6AST9JXL760Q7QZ", "tract_id": "36047054700", "city": "BROOKLYN, NY", "zone_code": "R6", "zone_category": "Residential", "ev_permitted": false}, "geometry": {"type": "Polygon", "coordinates": [[[-73.9626245649442, 40.7087949520006], [-73.9625999298566, 40.7089207467397], [-73.9628690183054, 40.7089517951342], [-73.9628935439442, 40.7088259897631], [-73.9626245649442, 40.7087949520006]]]}}, {"type": "Feature", "properties": {"zone_id": "0206YRK776KZGN6123J4WA", "tract_id": "36047054700", "city": "BROOKLYN, NY", "zone_code": "R6", "zone_category": "Residential", "ev_permitted": false}, "geometry": {"type": "Polygon", "coordinates": [[[-73.9630061037172, 40.7086637397658], [-73.962941987539, 40.7089926248917], [-73.9630342279179, 40.7090031593078], [-73.9630983223549, 40.7086743802258], [-73.9630061037172, 40.7086637397658]]]}}, {"type": "Feature", "properties": {"zone_id": "0204NRDSOFPY04DNHFAFDW", "tract_id": "36047054700", "city": "BROOKLYN, NY", "zone_code": "R6", "zone_category": "Residential", "ev_permitted": false}, "geometry": {"type": "Polygon", "coordinates": [[[-73.9629269555195, 40.7086546071334], [-73.9628690183054, 40.7089517951342], [-73.9629481668477, 40.7089609285088], [-73.9630061037172, 40.7086637397658], [-73.9629269555195, 40.7086546071334]]]}}, {"type": "Feature", "properties": {"zone_id": "0202AWD2MFB7EXK61ARSXL", "tract_id": "36047054700", "city": "BROOKLYN, NY", "zone_code": "R6", "zone_category": "Residential", "ev_permitted": false}, "geometry": {"type": "Polygon", "coordinates": [[[-73.9656645587615, 40.707697006925], [-73.9648990273359, 40.7078388769801], [-73.9648770937301, 40.707768976044], [-73.9647621703953, 40.7077902736642], [-73.9647244202956, 40.7079811922599], [-73.9658588201811, 40.7081103627083], [-73.9659013557114, 40.7078940672087], [-73.9657200699105, 40.7078734254409], [-73.9657313383605, 40.7078164269479], [-73.9656429382873, 40.7078063617004], [-73.9656645587615, 40.707697006925]]]}}, {"type": "Feature", "properties": {"zone_id": "0200EZLSZ3KJXH8R8JH9YR", "tract_id": "36047054700", "city": "BROOKLYN, NY", "zone_code": "R6", "zone_category": "Residential", "ev_permitted": false}, "geometry": {"type": "Polygon", "coordinates": [[[-73.9651565030147, 40.7084706411708], [-73.9651028910595, 40.7087444506162], [-73.9651886922525, 40.7087541796197], [-73.9652423038628, 40.7084803708372], [-73.9651565030147, 40.7084706411708]]]}}, {"type": "Feature", "properties": {"zone_id": "0201DGHAWE892SOM8AJYHP", "tract_id": "36047054700", "city": "BROOKLYN, NY", "zone_code": "R6", "zone_category": "Residential", "ev_permitted": false}, "geometry": {"type": "Polygon", "coordinates": [[[-73.9647911558987, 40.7084277506896], [-73.9647372619391, 40.7087029897925], [-73.9651028910595, 40.7087444506162], [-73.9651565030147, 40.7084706411708], [-73.9649725408361, 40.7084483187641], [-73.9647911558987, 40.7084277506896]]]}}, {"type": "Feature", "properties": {"zone_id": "020320SL4U02AKX5V7Y8MT", "tract_id": "36047054700", "city": "BROOKLYN, NY", "zone_code": "R6", "zone_category": "Residential", "ev_permitted": false}, "geometry": {"type": "Polygon", "coordinates": [[[-73.9652114903198, 40.7081898005928], [-73.9651565030147, 40.7084706411708], [-73.9652423038628, 40.7084803708372], [-73.9652972908151, 40.7081995288133], [-73.9652114903198, 40.7081898005928]]]}}, {"type": "Feature", "properties": {"zone_id": "0200XGTQLDG62OOKY6DSYP", "tract_id": "36047054700", "city": "BROOKLYN, NY", "zone_code": "R6", "zone_category": "Residential", "ev_permitted": false}, "geometry": {"type": "Polygon", "coordinates": [[[-73.9652972908151, 40.7081995288133], [-73.9652423038628, 40.7084803708372], [-73.9653182455796, 40.7084889816465], [-73.9653732331418, 40.7082081409922], [-73.9652972908151, 40.7081995288133]]]}}, {"type": "Feature", "properties": {"zone_id": "0203YCIWRXTBTRZSOCY6D7", "tract_id": "36047054700", "city": "BROOKLYN, NY", "zone_code": "R6", "zone_category": "Residential", "ev_permitted": false}, "geometry": {"type": "Polygon", "coordinates": [[[-73.9653732331418, 40.7082081409922], [-73.9653182455796, 40.7084889816465], [-73.9654190263405, 40.7085004098054], [-73.9654740134878, 40.7082195684007], [-73.9653732331418, 40.7082081409922]]]}}, {"type": "Feature", "properties": {"zone_id": "0207K7YN0LQK959YROSDN2", "tract_id": "36047054700", "city": "BROOKLYN, NY", "zone_code": "R6", "zone_category": "Residential", "ev_permitted": false}, "geometry": {"type": "Polygon", "coordinates": [[[-73.9650272492914, 40.7081689081003], [-73.9649725408361, 40.7084483187641], [-73.9651565030147, 40.7084706411708], [-73.9652114903198, 40.7081898005928], [-73.9650272492914, 40.7081689081003]]]}}, {"type": "Feature", "properties": {"zone_id": "0202X4O7YZM1ASYX38CBIN", "tract_id": "36047054700", "city": "BROOKLYN, NY", "zone_code": "R6", "zone_category": "Residential", "ev_permitted": false}, "geometry": {"type": "Polygon", "coordinates": [[[-73.9647503496756, 40.7081375089176], [-73.9646956400854, 40.7084169194509], [-73.9648840809254, 40.7084382880498], [-73.9649387906667, 40.7081588774279], [-73.9647503496756, 40.7081375089176]]]}}, {"type": "Feature", "properties": {"zone_id": "0207C41VP62PK4ZCDKWDC9", "tract_id": "36047054700", "city": "BROOKLYN, NY", "zone_code": "R6", "zone_category": "Residential", "ev_permitted": false}, "geometry": {"type": "Polygon", "coordinates": [[[-73.9649387906667, 40.7081588774279], [-73.9648840809254, 40.7084382880498], [-73.9649725408361, 40.7084483187641], [-73.9650272492914, 40.7081689081003], [-73.9649387906667, 40.7081588774279]]]}}, {"type": "Feature", "properties": {"zone_id": "0202W0PQIVLVIKE90VCCLB", "tract_id": "36047054700", "city": "BROOKLYN, NY", "zone_code": "R6", "zone_category": "Residential", "ev_permitted": false}, "geometry": {"type": "Polygon", "coordinates": [[[-73.9643420161851, 40.7084473719238], [-73.9643016357882, 40.7086535899597], [-73.9646219572185, 40.7086899144592], [-73.9646623227598, 40.7084837644656], [-73.9643420161851, 40.7084473719238]]]}}, {"type": "Feature", "properties": {"zone_id": "0206INYHRTHAFBTHSLI9SP", "tract_id": "36047054700", "city": "BROOKLYN, NY", "zone_code": "R6", "zone_category": "Residential", "ev_permitted": false}, "geometry": {"type": "Polygon", "coordinates": [[[-73.9646956400854, 40.7084169194509], [-73.9646821112192, 40.708486012725], [-73.9646623227598, 40.7084837644656], [-73.9646219572185, 40.7086899144592], [-73.9647372619391, 40.7087029897925], [-73.9647911558987, 40.7084277506896], [-73.9646956400854, 40.7084169194509]]]}}, {"type": "Feature", "properties": {"zone_id": "02060L8PQJ3HRKZQZ1QWZF", "tract_id": "36047054700", "city": "BROOKLYN, NY", "zone_code": "R6", "zone_category": "Residential", "ev_permitted": false}, "geometry": {"type": "Polygon", "coordinates": [[[-73.964355531507, 40.7083783503563], [-73.9643420161851, 40.7084473719238], [-73.9646821112192, 40.708486012725], [-73.9646956400854, 40.7084169194509], [-73.964355531507, 40.7083783503563]]]}}, {"type": "Feature", "properties": {"zone_id": "0207BZJREZR31S4BQ2LMJC", "tract_id": "36047054700", "city": "BROOKLYN, NY", "zone_code": "R6", "zone_category": "Residential", "ev_permitted": false}, "geometry": {"type": "Polygon", "coordinates": [[[-73.9643961837819, 40.7081707425178], [-73.964355531507, 40.7083783503563], [-73.9646956400854, 40.7084169194509], [-73.964736291325, 40.7082093107907], [-73.9643961837819, 40.7081707425178]]]}}, {"type": "Feature", "properties": {"zone_id": "0202ITMC41IL2J4EOU7U4T", "tract_id": "36047054700", "city": "", "zone_code": "R6", "zone_category": "Residential", "ev_permitted": false}, "geometry": {"type": "Polygon", "coordinates": [[[-73.9644102424904, 40.7080989413885], [-73.9643961837819, 40.7081707425178], [-73.964736291325, 40.7082093107907], [-73.9647503496756, 40.7081375089176], [-73.9644102424904, 40.7080989413885]]]}}, {"type": "Feature", "properties": {"zone_id": "0204OJ6GDWLNW4U4BTGDR1", "tract_id": "36047054700", "city": "BROOKLYN, NY", "zone_code": "R6", "zone_category": "Residential", "ev_permitted": false}, "geometry": {"type": "Polygon", "coordinates": [[[-73.9647621703953, 40.7077902736642], [-73.9647183702262, 40.7077983900184], [-73.9646833179093, 40.7077943987033], [-73.9646481025443, 40.7079725015421], [-73.9647244202956, 40.7079811922599], [-73.9647621703953, 40.7077902736642]]]}}, {"type": "Feature", "properties": {"zone_id": "020669KH5AXEZW9BY3B5DN", "tract_id": "36047054700", "city": "BROOKLYN, NY", "zone_code": "R6", "zone_category": "Residential", "ev_permitted": false}, "geometry": {"type": "Polygon", "coordinates": [[[-73.964452915684, 40.7078878292816], [-73.9644408397082, 40.7079489000145], [-73.9646481025443, 40.7079725015421], [-73.9646601774111, 40.7079114307874], [-73.964452915684, 40.7078878292816]]]}}, {"type": "Feature", "properties": {"zone_id": "02045JNQBADPU446H73772", "tract_id": "36047054700", "city": "BROOKLYN, NY", "zone_code": "R6", "zone_category": "Residential", "ev_permitted": false}, "geometry": {"type": "Polygon", "coordinates": [[[-73.964464216697, 40.7078306756347], [-73.964452915684, 40.7078878292816], [-73.9646601774111, 40.7079114307874], [-73.9646714782504, 40.7078542771203], [-73.964464216697, 40.7078306756347]]]}}, {"type": "Feature", "properties": {"zone_id": "0201SGP9OL2F2Q052LZ8X1", "tract_id": "36047054700", "city": "BROOKLYN, NY", "zone_code": "R6", "zone_category": "Residential", "ev_permitted": false}, "geometry": {"type": "Polygon", "coordinates": [[[-73.9644760565379, 40.7077707972388], [-73.964464216697, 40.7078306756347], [-73.9646714782504, 40.7078542771203], [-73.9646833179093, 40.7077943987033], [-73.9644760565379, 40.7077707972388]]]}}, {"type": "Feature", "properties": {"zone_id": "0202D1T82DXKROV04L3D1E", "tract_id": "36047054700", "city": "BROOKLYN, NY", "zone_code": "R6", "zone_category": "Residential", "ev_permitted": false}, "geometry": {"type": "Polygon", "coordinates": [[[-73.9642849334456, 40.7076495925675], [-73.9640190056737, 40.7076954447138], [-73.9640871446978, 40.707925492129], [-73.9642356979319, 40.707897852189], [-73.9642849334456, 40.7076495925675]]]}}, {"type": "Feature", "properties": {"zone_id": "0205X94BE6D1KGYYXOIUUH", "tract_id": "36047054700", "city": "BROOKLYN, NY", "zone_code": "PARK", "zone_category": "Other", "ev_permitted": false}, "geometry": {"type": "Polygon", "coordinates": [[[-73.9642356979319, 40.707897852189], [-73.9639608022764, 40.7079489994659], [-73.9639728127957, 40.7080064372089], [-73.9639055451074, 40.7080196978061], [-73.9637098941063, 40.7080461785515], [-73.9636788701476, 40.7080493426797], [-73.9636724055729, 40.7080275153327], [-73.9635143367677, 40.7080547692829], [-73.9635204436901, 40.7080753872484], [-73.9635892499953, 40.7080635235474], [-73.9634879974124, 40.7085595746933], [-73.9640909029558, 40.7086279370709], [-73.9642356979319, 40.707897852189]]]}}, {"type": "Feature", "properties": {"zone_id": "0202XY9VW3KWVLWLICCSPW", "tract_id": "36047054700", "city": "", "zone_code": "R6", "zone_category": "Residential", "ev_permitted": false}, "geometry": {"type": "Polygon", "coordinates": [[[-73.9635892499953, 40.7080635235474], [-73.9633546232573, 40.7081039770888], [-73.9633186144907, 40.7081230512573], [-73.9633007771299, 40.7081210275338], [-73.9632175203786, 40.7085289053308], [-73.9634879974124, 40.7085595746933], [-73.9635892499953, 40.7080635235474]]]}}, {"type": "Feature", "properties": {"zone_id": "0205LOU831ADMIDPYNBHUI", "tract_id": "36047054700", "city": "BROOKLYN, NY", "zone_code": "R6", "zone_category": "Residential", "ev_permitted": false}, "geometry": {"type": "Polygon", "coordinates": [[[-73.9631278966391, 40.7081075297081], [-73.9631268197644, 40.7081129574079], [-73.9631164427256, 40.708111780642], [-73.9630355106802, 40.7085082661324], [-73.9632175203786, 40.7085289053308], [-73.9632995586971, 40.7081269948325], [-73.9631278966391, 40.7081075297081]]]}}, {"type": "Feature", "properties": {"zone_id": "0200NP9LPSTZ1Q3M45P6U2", "tract_id": "36047054700", "city": "", "zone_code": "R6", "zone_category": "Residential", "ev_permitted": false}, "geometry": {"type": "Polygon", "coordinates": [[[-73.9627946282611, 40.7086393378097], [-73.9627612163534, 40.7088107204013], [-73.9628935439442, 40.7088259897631], [-73.9629269555195, 40.7086546071334], [-73.9627946282611, 40.7086393378097]]]}}, {"type": "Feature", "properties": {"zone_id": "0205RMSQI30I6QSVJN8LWV", "tract_id": "36047054700", "city": "", "zone_code": "R6", "zone_category": "Residential", "ev_permitted": false}, "geometry": {"type": "Polygon", "coordinates": [[[-73.9626581240011, 40.7086235877651], [-73.9626245649442, 40.7087949520006], [-73.9627612163534, 40.7088107204013], [-73.9627946282611, 40.7086393378097], [-73.9626581240011, 40.7086235877651]]]}}, {"type": "Feature", "properties": {"zone_id": "0202QRHKPNWPIR8SQY5H4A", "tract_id": "36047054700", "city": "", "zone_code": "R6", "zone_category": "Residential", "ev_permitted": false}, "geometry": {"type": "Polygon", "coordinates": [[[-73.9629172821995, 40.7082148930685], [-73.962902952197, 40.708285103809], [-73.9628198590792, 40.7082756824432], [-73.9627783352778, 40.7084791036995], [-73.9630355106802, 40.7085082661324], [-73.9630913653855, 40.7082346333201], [-73.9629172821995, 40.7082148930685]]]}}, {"type": "Feature", "properties": {"zone_id": "02032SWEE730MP1E22HDRZ", "tract_id": "36047054700", "city": "", "zone_code": "R6", "zone_category": "Residential", "ev_permitted": false}, "geometry": {"type": "Polygon", "coordinates": [[[-73.9627258534114, 40.708265022209], [-73.9626843293297, 40.7084684434316], [-73.9627783352778, 40.7084791036995], [-73.9628198590792, 40.7082756824432], [-73.9627258534114, 40.708265022209]]]}}, {"type": "Feature", "properties": {"zone_id": "0200LJ1BY29HLC68OWS81G", "tract_id": "36047054700", "city": "BROOKLYN, NY", "zone_code": "R6", "zone_category": "Residential", "ev_permitted": false}, "geometry": {"type": "Polygon", "coordinates": [[[-73.9627401854432, 40.7081948107883], [-73.9627258534114, 40.708265022209], [-73.962902952197, 40.708285103809], [-73.9629172821995, 40.7082148930685], [-73.9627401854432, 40.7081948107883]]]}}, {"type": "Feature", "properties": {"zone_id": "020430B1LEZPVOGG8H7PBB", "tract_id": "36047054700", "city": "BROOKLYN, NY", "zone_code": "R6", "zone_category": "Residential", "ev_permitted": false}, "geometry": {"type": "Polygon", "coordinates": [[[-73.9640190056737, 40.7076954447138], [-73.9635956697067, 40.7077684366856], [-73.9636788701476, 40.7080493426797], [-73.9637098941063, 40.7080461785515], [-73.9639055451074, 40.7080196978061], [-73.9639728127957, 40.7080064372089], [-73.9639608022764, 40.7079489994659], [-73.9640871446978, 40.707925492129], [-73.9640190056737, 40.7076954447138]]]}}, {"type": "Feature", "properties": {"zone_id": "020533UWOODQ10CRGCZTLB", "tract_id": "36047054700", "city": "", "zone_code": "R6", "zone_category": "Residential", "ev_permitted": false}, "geometry": {"type": "Polygon", "coordinates": [[[-73.9635956697067, 40.7077684366856], [-73.9633559632032, 40.707809766246], [-73.9634388050837, 40.7080894630213], [-73.9635204436901, 40.7080753872484], [-73.9635143367677, 40.7080547692829], [-73.9636724055729, 40.7080275153327], [-73.9635956697067, 40.7077684366856]]]}}, {"type": "Feature", "properties": {"zone_id": "02005KF4W1LVOTI4BDQKDN", "tract_id": "36047054700", "city": "BROOKLYN, NY", "zone_code": "R6", "zone_category": "Residential", "ev_permitted": false}, "geometry": {"type": "Polygon", "coordinates": [[[-73.9627539693103, 40.7081272889684], [-73.9627401854432, 40.7081948107883], [-73.9630913653855, 40.7082346333201], [-73.9631051479817, 40.7081671114582], [-73.9627539693103, 40.7081272889684]]]}}, {"type": "Feature", "properties": {"zone_id": "02072PY3GXXW9S7BNQDFUH", "tract_id": "36047054700", "city": "", "zone_code": "R6", "zone_category": "Residential", "ev_permitted": false}, "geometry": {"type": "Polygon", "coordinates": [[[-73.9627891718916, 40.7079548339814], [-73.9627539693103, 40.7081272889684], [-73.9631051479817, 40.7081671114582], [-73.9631164427256, 40.708111780642], [-73.9631268197644, 40.7081129574079], [-73.9631416969267, 40.7080379567833], [-73.9630498519709, 40.7080293977544], [-73.9630596411166, 40.7079800404706], [-73.9627891718916, 40.7079548339814]]]}}, {"type": "Feature", "properties": {"zone_id": "02070NL4BUD0VWDJ0D1NUR", "tract_id": "36047054700", "city": "BROOKLYN, NY", "zone_code": "R6", "zone_category": "Residential", "ev_permitted": false}, "geometry": {"type": "Polygon", "coordinates": [[[-73.963041994307, 40.7078026188975], [-73.9630077628408, 40.7079752056744], [-73.9630596411166, 40.7079800404706], [-73.9630498519709, 40.7080293977544], [-73.9630676304076, 40.7080310547096], [-73.9631116508296, 40.707809110627], [-73.963041994307, 40.7078026188975]]]}}, {"type": "Feature", "properties": {"zone_id": "0202F3G2GG2CG3N6I07XQO", "tract_id": "36047054700", "city": "BROOKLYN, NY", "zone_code": "R6", "zone_category": "Residential", "ev_permitted": false}, "geometry": {"type": "Polygon", "coordinates": [[[-73.9631116508296, 40.707809110627], [-73.9630676304076, 40.7080310547096], [-73.9631416969267, 40.7080379567833], [-73.9631857161834, 40.7078160126722], [-73.9631116508296, 40.707809110627]]]}}, {"type": "Feature", "properties": {"zone_id": "0207957L8P2FW8HNNU2UEL", "tract_id": "36047054700", "city": "", "zone_code": "R6", "zone_category": "Residential", "ev_permitted": false}, "geometry": {"type": "Polygon", "coordinates": [[[-73.9633559632032, 40.707809766246], [-73.9632727134704, 40.7078241203444], [-73.9631857161834, 40.7078160126722], [-73.9631278966391, 40.7081075297081], [-73.9632995586971, 40.7081269948325], [-73.9633007771299, 40.7081210275338], [-73.9633186144907, 40.7081230512573], [-73.9633546232573, 40.7081039770888], [-73.9634388050837, 40.7080894630213], [-73.9633559632032, 40.707809766246]]]}}, {"type": "Feature", "properties": {"zone_id": "0204DDUD0DLKJYHNZQTKDV", "tract_id": "36047054700", "city": "BROOKLYN, NY", "zone_code": "R6", "zone_category": "Residential", "ev_permitted": false}, "geometry": {"type": "Polygon", "coordinates": [[[-73.9629003536332, 40.7077894188455], [-73.9628766768477, 40.7079087895529], [-73.9628845564043, 40.7079095242649], [-73.9628740013702, 40.7079627395907], [-73.9630077628408, 40.7079752056744], [-73.963041994307, 40.7078026188975], [-73.9629003536332, 40.7077894188455]]]}}, {"type": "Feature", "properties": {"zone_id": "0207AA2Y1854XJYJ3LVD2Z", "tract_id": "36047054700", "city": "", "zone_code": "R6", "zone_category": "Residential", "ev_permitted": false}, "geometry": {"type": "Polygon", "coordinates": [[[-73.9628243826238, 40.7077823382282], [-73.9627891718916, 40.7079548339814], [-73.9628740013702, 40.7079627395907], [-73.9628845564043, 40.7079095242649], [-73.9628766768477, 40.7079087895529], [-73.9629003536332, 40.7077894188455], [-73.9628243826238, 40.7077823382282]]]}}, {"type": "Feature", "properties": {"zone_id": "0200EMZXHEMJ1ZXA9IGN9I", "tract_id": "36047054700", "city": "BROOKLYN, NY", "zone_code": "R6", "zone_category": "Residential", "ev_permitted": false}, "geometry": {"type": "Polygon", "coordinates": [[[-73.9625512502141, 40.7091693177632], [-73.9625294290819, 40.7092807412011], [-73.9627017162269, 40.7093004182144], [-73.962723441052, 40.709188984173], [-73.9625512502141, 40.7091693177632]]]}}, {"type": "Feature", "properties": {"zone_id": "0204XUDBDBAUHI1L1ZQG8G", "tract_id": "36047054700", "city": "BROOKLYN, NY", "zone_code": "R6", "zone_category": "Residential", "ev_permitted": false}, "geometry": {"type": "Polygon", "coordinates": [[[-73.9651055499557, 40.7075016849741], [-73.9650352314315, 40.7075147162402], [-73.9651238726104, 40.7077972087525], [-73.9651941904919, 40.7077841774324], [-73.9651055499557, 40.7075016849741]]]}}, {"type": "Feature", "properties": {"zone_id": "020206KL212LDLNPV030PH", "tract_id": "36047054700", "city": "BROOKLYN, NY", "zone_code": "R6", "zone_category": "Residential", "ev_permitted": false}, "geometry": {"type": "Polygon", "coordinates": [[[-73.9652440888557, 40.707476010953], [-73.9651706953142, 40.7074896119329], [-73.9652593361104, 40.7077721043414], [-73.9653327308686, 40.7077585026031], [-73.9652440888557, 40.707476010953]]]}}, {"type": "Feature", "properties": {"zone_id": "0206SVWK0FE7E4UJM8WLTA", "tract_id": "36047054700", "city": "BROOKLYN, NY", "zone_code": "R6", "zone_category": "Residential", "ev_permitted": false}, "geometry": {"type": "Polygon", "coordinates": [[[-73.9653292535104, 40.7074602274983], [-73.9652440888557, 40.707476010953], [-73.9653327308686, 40.7077585026031], [-73.9654178949395, 40.7077427197859], [-73.9653292535104, 40.7074602274983]]]}}, {"type": "Feature", "properties": {"zone_id": "0207B72HF5SQAU3RNKLS4C", "tract_id": "36047054700", "city": "", "zone_code": "R6", "zone_category": "Residential", "ev_permitted": false}, "geometry": {"type": "Polygon", "coordinates": [[[-73.9651706953142, 40.7074896119329], [-73.9651055499557, 40.7075016849741], [-73.9651941904919, 40.7077841774324], [-73.9652593361104, 40.7077721043414], [-73.9651706953142, 40.7074896119329]]]}}, {"type": "Feature", "properties": {"zone_id": "0204911ULQKBJB9OYO9Z80", "tract_id": "36047054700", "city": "BROOKLYN, NY", "zone_code": "R6", "zone_category": "Residential", "ev_permitted": false}, "geometry": {"type": "Polygon", "coordinates": [[[-73.9654219617357, 40.7074430465491], [-73.9653292535104, 40.7074602274983], [-73.9654178949395, 40.7077427197859], [-73.9655106035349, 40.7077255387659], [-73.9654219617357, 40.7074430465491]]]}}, {"type": "Feature", "properties": {"zone_id": "0206TML2R8D19BUU857VW2", "tract_id": "36047054700", "city": "BROOKLYN, NY", "zone_code": "R6", "zone_category": "Residential", "ev_permitted": false}, "geometry": {"type": "Polygon", "coordinates": [[[-73.9648103879778, 40.7075563842965], [-73.9647332598388, 40.7075706773807], [-73.9647999653594, 40.7077832691724], [-73.9648770937301, 40.707768976044], [-73.9648103879778, 40.7075563842965]]]}}, {"type": "Feature", "properties": {"zone_id": "0204TPN9NQ8T24U1TRTY6H", "tract_id": "36047054700", "city": "BROOKLYN, NY", "zone_code": "R6", "zone_category": "Residential", "ev_permitted": false}, "geometry": {"type": "Polygon", "coordinates": [[[-73.9648964929061, 40.70754042719], [-73.9648103879778, 40.7075563842965], [-73.9648990273359, 40.7078388769801], [-73.9649833808231, 40.7078232446064], [-73.9649391392358, 40.707682248126], [-73.9649408910172, 40.7076819233281], [-73.9648964929061, 40.70754042719]]]}}, {"type": "Feature", "properties": {"zone_id": "0205DNT9KBD7YB75KVM3RV", "tract_id": "36047054700", "city": "BROOKLYN, NY", "zone_code": "R6", "zone_category": "Residential", "ev_permitted": false}, "geometry": {"type": "Polygon", "coordinates": [[[-73.9650352314315, 40.7075147162402], [-73.9649724731316, 40.7075263472557], [-73.9650611131369, 40.7078088391129], [-73.9651238726104, 40.7077972087525], [-73.9650352314315, 40.7075147162402]]]}}, {"type": "Feature", "properties": {"zone_id": "0206YS20RG73JU5IJPVWPE", "tract_id": "36047054700", "city": "BROOKLYN, NY", "zone_code": "R6", "zone_category": "Residential", "ev_permitted": false}, "geometry": {"type": "Polygon", "coordinates": [[[-73.9649724731316, 40.7075263472557], [-73.9648964929061, 40.70754042719], [-73.9649408910172, 40.7076819233281], [-73.9649391392358, 40.707682248126], [-73.9649833808231, 40.7078232446064], [-73.9650611131369, 40.7078088391129], [-73.9649724731316, 40.7075263472557]]]}}, {"type": "Feature", "properties": {"zone_id": "0200RB9NT4BPCPZ9TT0PM9", "tract_id": "36047054700", "city": "", "zone_code": "R6", "zone_category": "Residential", "ev_permitted": false}, "geometry": {"type": "Polygon", "coordinates": [[[-73.9647332598388, 40.7075706773807], [-73.9645816140486, 40.7075987800648], [-73.9646414996257, 40.7077896365898], [-73.9647183702262, 40.7077983900184], [-73.9647999653594, 40.7077832691724], [-73.9647332598388, 40.7075706773807]]]}}, {"type": "Feature", "properties": {"zone_id": "0205VEIZAW694CMJCHZQ71", "tract_id": "36047054700", "city": "BROOKLYN, NY", "zone_code": "R6", "zone_category": "Residential", "ev_permitted": false}, "geometry": {"type": "Polygon", "coordinates": [[[-73.9645816140486, 40.7075987800648], [-73.9645073475778, 40.7076125426674], [-73.9644760565379, 40.7077707972388], [-73.9646414996257, 40.7077896365898], [-73.9645816140486, 40.7075987800648]]]}}]}