{"type": "FeatureCollection", "features": [{"type": "Feature", "properties": {"zone_id": "0204X6O2C0V2Q53VMXPHNH", "tract_id": "06037271803", "city": "LOS ANGELES, CA", "zone_code": "R3-1", "zone_category": "Residential", "ev_permitted": false}, "geometry": {"type": "Polygon", "coordinates": [[[-118.412487217273, 34.0207722117615], [-118.412023828786, 34.0210285501596], [-118.412108250603, 34.0211369406185], [-118.412572396134, 34.020880132169], [-118.412487217273, 34.0207722117615]]]}}, {"type": "Feature", "properties": {"zone_id": "02071XH0P065F5JVDZL4WS", "tract_id": "06037271803", "city": "LOS ANGELES, CA", "zone_code": "R3-1", "zone_category": "Residential", "ev_permitted": false}, "geometry": {"type": "Polygon", "coordinates": [[[-118.412402038496, 34.0206642638162], [-118.411939374458, 34.0209202147116], [-118.412023828786, 34.0210285501596], [-118.412487217273, 34.0207722117615], [-118.412402038496, 34.0206642638162]]]}}, {"type": "Feature", "properties": {"zone_id": "0203B29M1G8NPBAF98BU2D", "tract_id": "06037271803", "city": "LOS ANGELES, CA", "zone_code": "R3-1", "zone_category": "Residential", "ev_permitted": false}, "geometry": {"type": "Polygon", "coordinates": [[[-118.412572396134, 34.020880132169], [-118.412108250603, 34.0211369406185], [-118.412169324938, 34.0212152665003], [-118.412592959184, 34.0209808541077], [-118.412599685949, 34.0209763727494], [-118.412605379719, 34.0209709971977], [-118.412609869949, 34.0209648884677], [-118.412613022141, 34.0209582295353], [-118.412614741876, 34.0209512198572], [-118.412614977643, 34.0209440693957], [-118.41261372238, 34.0209369923302], [-118.412611013687, 34.0209302006419], [-118.412606932697, 34.0209238977639], [-118.412572396134, 34.020880132169]]]}}, {"type": "Feature", "properties": {"zone_id": "02052VZO4ED14JVV587VP2", "tract_id": "06037271803", "city": "LOS ANGELES, CA", "zone_code": "R1-1", "zone_category": "Residential", "ev_permitted": false}, "geometry": {"type": "Polygon", "coordinates": [[[-118.411469940761, 34.0212228184157], [-118.411337965832, 34.0212958122001], [-118.411551363422, 34.0215670150191], [-118.411683338592, 34.0214940210003], [-118.411469940761, 34.0212228184157]]]}}, {"type": "Feature", "properties": {"zone_id": "0205RFGCWARUX7ZWO2NUPV", "tract_id": "06037271803", "city": "LOS ANGELES, CA", "zone_code": "R1-1", "zone_category": "Residential", "ev_permitted": false}, "geometry": {"type": "Polygon", "coordinates": [[[-118.410678219465, 34.0216607235564], [-118.410428122943, 34.0217991329552], [-118.410641551869, 34.0220703372782], [-118.410891681984, 34.0219319548011], [-118.410678219465, 34.0216607235564]]]}}, {"type": "Feature", "properties": {"zone_id": "0200QYZRWN7YSECNPSTBX4", "tract_id": "06037271803", "city": "LOS ANGELES, CA", "zone_code": "R1-1", "zone_category": "Residential", "ev_permitted": false}, "geometry": {"type": "Polygon", "coordinates": [[[-118.411074114149, 34.0214417715214], [-118.410942138529, 34.0215147648739], [-118.411155568531, 34.0217859957621], [-118.411287511391, 34.0217130022875], [-118.411074114149, 34.0214417715214]]]}}, {"type": "Feature", "properties": {"zone_id": "0202SPWK7XHL79ABRWRMH5", "tract_id": "06037271803", "city": "LOS ANGELES, CA", "zone_code": "R3-1", "zone_category": "Residential", "ev_permitted": false}, "geometry": {"type": "Polygon", "coordinates": [[[-118.410728212074, 34.0212429582518], [-118.410596036981, 34.0213156496372], [-118.41081019568, 34.0215877579702], [-118.410942138529, 34.0215147648739], [-118.410728212074, 34.0212429582518]]]}}, {"type": "Feature", "properties": {"zone_id": "0205ZUZSBIH9HSJ0MP2W56", "tract_id": "06037271803", "city": "LOS ANGELES, CA", "zone_code": "R3-1", "zone_category": "Residential", "ev_permitted": false}, "geometry": {"type": "Polygon", "coordinates": [[[-118.412030670131, 34.0210373200231], [-118.411702638214, 34.021217738342], [-118.411814056968, 34.0213593103171], [-118.411818638409, 34.021364794291], [-118.411830687138, 34.0213735732347], [-118.411837836239, 34.0213766363677], [-118.41185344492, 34.0213797076322], [-118.411869419164, 34.0213784823277], [-118.4118840827, 34.0213730890324], [-118.412169324938, 34.0212152665003], [-118.412030670131, 34.0210373200231]]]}}, {"type": "Feature", "properties": {"zone_id": "02005E0WMW2JBAD88PWDP7", "tract_id": "06037271803", "city": "LOS ANGELES, CA", "zone_code": "R3-1", "zone_category": "Residential", "ev_permitted": false}, "geometry": {"type": "Polygon", "coordinates": [[[-118.41186890254, 34.0208299400258], [-118.411539883916, 34.0210109383229], [-118.411702638214, 34.021217738342], [-118.412030670131, 34.0210373200231], [-118.41186890254, 34.0208299400258]]]}}, {"type": "Feature", "properties": {"zone_id": "020517XXRXT4SS9P0OSBDL", "tract_id": "06037271803", "city": "LOS ANGELES, CA", "zone_code": "R3-1", "zone_category": "Residential", "ev_permitted": false}, "geometry": {"type": "Polygon", "coordinates": [[[-118.41125691015, 34.0209521912664], [-118.411124735841, 34.0210248557511], [-118.411337965832, 34.0212958122001], [-118.411469940761, 34.0212228184157], [-118.41125691015, 34.0209521912664]]]}}, {"type": "Feature", "properties": {"zone_id": "0200O91AMXW5GFS2QIOYVC", "tract_id": "06037271803", "city": "LOS ANGELES, CA", "zone_code": "R3-1", "zone_category": "Residential", "ev_permitted": false}, "geometry": {"type": "Polygon", "coordinates": [[[-118.411124735841, 34.0210248557511], [-118.410860386803, 34.0211702392438], [-118.411074114149, 34.0214417715214], [-118.411337965832, 34.0212958122001], [-118.411124735841, 34.0210248557511]]]}}, {"type": "Feature", "properties": {"zone_id": "0202VEP356NFTI57NFP6PN", "tract_id": "06037271803", "city": "LOS ANGELES, CA", "zone_code": "R1-1", "zone_category": "Residential", "ev_permitted": false}, "geometry": {"type": "Polygon", "coordinates": [[[-118.410428122943, 34.0217991329552], [-118.410277715419, 34.0218823004398], [-118.410488083358, 34.0221552191229], [-118.410641551869, 34.0220703372782], [-118.410428122943, 34.0217991329552]]]}}, {"type": "Feature", "properties": {"zone_id": "0204YY0663T50B3N2ZTOBG", "tract_id": "06037271803", "city": "LOS ANGELES, CA", "zone_code": "R3-1", "zone_category": "Residential", "ev_permitted": false}, "geometry": {"type": "Polygon", "coordinates": [[[-118.410277715419, 34.0218823004398], [-118.410131224441, 34.0219633660421], [-118.410341559104, 34.0222362850938], [-118.410488083358, 34.0221552191229], [-118.410277715419, 34.0218823004398]]]}}, {"type": "Feature", "properties": {"zone_id": "0203OZHEGVEDIHF7BH7OEF", "tract_id": "06037271803", "city": "LOS ANGELES, CA", "zone_code": "R3-1", "zone_category": "Residential", "ev_permitted": false}, "geometry": {"type": "Polygon", "coordinates": [[[-118.41019004365, 34.0220396946345], [-118.409865695212, 34.0222191336713], [-118.410001168391, 34.0223948676618], [-118.410052952742, 34.0223959283202], [-118.410341559104, 34.0222362850938], [-118.41019004365, 34.0220396946345]]]}}, {"type": "Feature", "properties": {"zone_id": "0205ABFIUYZH63GWMG34AH", "tract_id": "06037271803", "city": "LOS ANGELES, CA", "zone_code": "R3-1", "zone_category": "Residential", "ev_permitted": false}, "geometry": {"type": "Polygon", "coordinates": [[[-118.410100934772, 34.0219240643552], [-118.40977658659, 34.0221035031514], [-118.409865695212, 34.0222191336713], [-118.41019004365, 34.0220396946345], [-118.410100934772, 34.0219240643552]]]}}, {"type": "Feature", "properties": {"zone_id": "0202MHZIPZNY44ELMYMSZE", "tract_id": "06037271803", "city": "LOS ANGELES, CA", "zone_code": "R3-1", "zone_category": "Residential", "ev_permitted": false}, "geometry": {"type": "Polygon", "coordinates": [[[-118.410011826139, 34.021808434011], [-118.409687478215, 34.0219878725666], [-118.40977658659, 34.0221035031514], [-118.410100934772, 34.0219240643552], [-118.410011826139, 34.021808434011]]]}}, {"type": "Feature", "properties": {"zone_id": "0205LF2D3HZ3A5X2Q8R27Q", "tract_id": "06037271803", "city": "LOS ANGELES, CA", "zone_code": "R3-1", "zone_category": "Residential", "ev_permitted": false}, "geometry": {"type": "Polygon", "coordinates": [[[-118.41071625194, 34.0202717335564], [-118.409541361203, 34.0209180419357], [-118.409556105281, 34.0209367874076], [-118.409561623463, 34.0209416595175], [-118.409575139367, 34.0209488662344], [-118.409582776373, 34.0209510085065], [-118.409598794839, 34.0209520865366], [-118.409614381893, 34.0209488417078], [-118.409621490423, 34.0209456885169], [-118.409674961379, 34.0210150833653], [-118.409668123799, 34.0210194864686], [-118.409662308723, 34.0210248038762], [-118.409657691624, 34.0210308751317], [-118.409654411826, 34.0210375170311], [-118.409652568298, 34.021044529151], [-118.409652216671, 34.0210516998962], [-118.409653367555, 34.021058812885], [-118.409655986221, 34.0210656534788], [-118.40965999365, 34.0210720152583], [-118.409981385496, 34.0214890139946], [-118.411123929239, 34.0208606452316], [-118.411126206254, 34.0208606374768], [-118.411127581735, 34.0208584894465], [-118.411136193373, 34.0208514530253], [-118.41114176791, 34.0208442071169], [-118.411146169621, 34.0208333380022], [-118.411146912493, 34.0208233331915], [-118.411144718752, 34.0208134208189], [-118.41113972364, 34.0208042599147], [-118.41071625194, 34.0202717335564]]]}}, {"type": "Feature", "properties": {"zone_id": "0202ZZ2L789RP8K95SIMI2", "tract_id": "06037271803", "city": "LOS ANGELES, CA", "zone_code": "R3-1", "zone_category": "Residential", "ev_permitted": false}, "geometry": {"type": "Polygon", "coordinates": [[[-118.410213267626, 34.0215261469893], [-118.410065754596, 34.0216072984217], [-118.410277715419, 34.0218823004398], [-118.410428122943, 34.0217991329552], [-118.410213267626, 34.0215261469893]]]}}, {"type": "Feature", "properties": {"zone_id": "0203WIQ45E4GE6PHMBM4U8", "tract_id": "06037271803", "city": "LOS ANGELES, CA", "zone_code": "R3-1", "zone_category": "Residential", "ev_permitted": false}, "geometry": {"type": "Polygon", "coordinates": [[[-118.410065754596, 34.0216072984217], [-118.40991899814, 34.0216880074436], [-118.410131224441, 34.0219633660421], [-118.410277715419, 34.0218823004398], [-118.410065754596, 34.0216072984217]]]}}, {"type": "Feature", "properties": {"zone_id": "020636AV5M57RZLXJI9H6Q", "tract_id": "06037271803", "city": "LOS ANGELES, CA", "zone_code": "R3-1", "zone_category": "Residential", "ev_permitted": false}, "geometry": {"type": "Polygon", "coordinates": [[[-118.410596036981, 34.0213156496372], [-118.410463861658, 34.0213883408781], [-118.410678219465, 34.0216607235564], [-118.41081019568, 34.0215877579702], [-118.410596036981, 34.0213156496372]]]}}, {"type": "Feature", "properties": {"zone_id": "0201DBTZN7E8J740AOH0VE", "tract_id": "06037271803", "city": "LOS ANGELES, CA", "zone_code": "R3-1", "zone_category": "Residential", "ev_permitted": false}, "geometry": {"type": "Polygon", "coordinates": [[[-118.410463861658, 34.0213883408781], [-118.410338564745, 34.0214572439986], [-118.410553154807, 34.0217299283766], [-118.410678219465, 34.0216607235564], [-118.410463861658, 34.0213883408781]]]}}, {"type": "Feature", "properties": {"zone_id": "0201O937XVT6BISC3KQCJH", "tract_id": "06037271803", "city": "LOS ANGELES, CA", "zone_code": "R3-1", "zone_category": "Residential", "ev_permitted": false}, "geometry": {"type": "Polygon", "coordinates": [[[-118.410338564745, 34.0214572439986], [-118.410213267626, 34.0215261469893], [-118.410428122943, 34.0217991329552], [-118.410553154807, 34.0217299283766], [-118.410338564745, 34.0214572439986]]]}}, {"type": "Feature", "properties": {"zone_id": "02042H0NK1U8J4PHOQT1U5", "tract_id": "06037271803", "city": "LOS ANGELES, CA", "zone_code": "R3-1", "zone_category": "Residential", "ev_permitted": false}, "geometry": {"type": "Polygon", "coordinates": [[[-118.40991899814, 34.0216880074436], [-118.409648791248, 34.0218375849421], [-118.409640014256, 34.0218434159689], [-118.409632547858, 34.0218503891308], [-118.409626605463, 34.021858305116], [-118.409622356921, 34.0218669376646], [-118.409619923665, 34.0218760400351], [-118.409619375246, 34.0218853520577], [-118.409620727338, 34.0218946075699], [-118.409623941295, 34.0219035420248], [-118.409628925253, 34.0219119000521], [-118.409687478215, 34.0219878725666], [-118.410011826139, 34.021808434011], [-118.40991899814, 34.0216880074436]]]}}, {"type": "Feature", "properties": {"zone_id": "0201P1THVWDFF1SP57IJ0K", "tract_id": "06037271803", "city": "LOS ANGELES, CA", "zone_code": "R4-1", "zone_category": "Residential", "ev_permitted": false}, "geometry": {"type": "Polygon", "coordinates": [[[-118.409651901176, 34.0214683418554], [-118.409395677667, 34.0216092704714], [-118.409488903522, 34.0217302456641], [-118.409529728116, 34.0217374440135], [-118.409761135729, 34.0216101463938], [-118.409651901176, 34.0214683418554]]]}}, {"type": "Feature", "properties": {"zone_id": "0206VQSXNVGIGZKB31M2A1", "tract_id": "06037271803", "city": "LOS ANGELES, CA", "zone_code": "R4-1", "zone_category": "Residential", "ev_permitted": false}, "geometry": {"type": "Polygon", "coordinates": [[[-118.409541637796, 34.0213252766864], [-118.409285414674, 34.0214662325456], [-118.409395677667, 34.0216092704714], [-118.409651901176, 34.0214683418554], [-118.409541637796, 34.0213252766864]]]}}, {"type": "Feature", "properties": {"zone_id": "020735XJ9W919RFO45X7UT", "tract_id": "06037271803", "city": "LOS ANGELES, CA", "zone_code": "R4-1", "zone_category": "Residential", "ev_permitted": false}, "geometry": {"type": "Polygon", "coordinates": [[[-118.409458718456, 34.0209634699326], [-118.409321079436, 34.0210392011184], [-118.409761135729, 34.0216101463938], [-118.409898775559, 34.0215344696605], [-118.409458718456, 34.0209634699326]]]}}, {"type": "Feature", "properties": {"zone_id": "0201SFLTLKUS0XC38G7AHW", "tract_id": "06037271803", "city": "LOS ANGELES, CA", "zone_code": "R4-1", "zone_category": "Residential", "ev_permitted": false}, "geometry": {"type": "Polygon", "coordinates": [[[-118.409431374794, 34.0211822114179], [-118.409175118655, 34.0213231121971], [-118.409285414674, 34.0214662325456], [-118.409541637796, 34.0213252766864], [-118.409431374794, 34.0211822114179]]]}}, {"type": "Feature", "properties": {"zone_id": "0203CSZTE8K01F2J3GHLL7", "tract_id": "06037271803", "city": "LOS ANGELES, CA", "zone_code": "R4-1", "zone_category": "Residential", "ev_permitted": false}, "geometry": {"type": "Polygon", "coordinates": [[[-118.409321079436, 34.0210392011184], [-118.409064856147, 34.0211800191155], [-118.409175118655, 34.0213231121971], [-118.409431374794, 34.0211822114179], [-118.409321079436, 34.0210392011184]]]}}, {"type": "Feature", "properties": {"zone_id": "0206DMMSAAJOW2VLL134DP", "tract_id": "06037271803", "city": "LOS ANGELES, CA", "zone_code": "R3-1", "zone_category": "Residential", "ev_permitted": false}, "geometry": {"type": "Polygon", "coordinates": [[[-118.410225744948, 34.0196549362921], [-118.409391139734, 34.0201080370806], [-118.409875748414, 34.0207340906413], [-118.41071625194, 34.0202717335564], [-118.410225744948, 34.0196549362921]]]}}, {"type": "Feature", "properties": {"zone_id": "0207GVS9FFFJOJOFOJNRDU", "tract_id": "06037271803", "city": "LOS ANGELES, CA", "zone_code": "R3-1", "zone_category": "Residential", "ev_permitted": false}, "geometry": {"type": "Polygon", "coordinates": [[[-118.41015417672, 34.0195625759593], [-118.409778510207, 34.0197665078496], [-118.40985004533, 34.0198588959967], [-118.410225744948, 34.0196549362921], [-118.41015417672, 34.0195625759593]]]}}, {"type": "Feature", "properties": {"zone_id": "0207IYKXT3SYGV5G0RZ676", "tract_id": "06037271803", "city": "LOS ANGELES, CA", "zone_code": "R3-1", "zone_category": "Residential", "ev_permitted": false}, "geometry": {"type": "Polygon", "coordinates": [[[-118.409778510207, 34.0197665078496], [-118.409402545537, 34.0199705769723], [-118.409474080554, 34.0200629928215], [-118.40985004533, 34.0198588959967], [-118.409778510207, 34.0197665078496]]]}}, {"type": "Feature", "properties": {"zone_id": "0202AHKFAPNWU8LZEBVJHA", "tract_id": "06037271803", "city": "LOS ANGELES, CA", "zone_code": "R3-1", "zone_category": "Residential", "ev_permitted": false}, "geometry": {"type": "Polygon", "coordinates": [[[-118.409706975242, 34.0196741196608], [-118.409331043947, 34.0198782159259], [-118.409402545537, 34.0199705769723], [-118.409778510207, 34.0197665078496], [-118.409706975242, 34.0196741196608]]]}}, {"type": "Feature", "properties": {"zone_id": "0206920GCANWJVU2K1FRRN", "tract_id": "06037271803", "city": "LOS ANGELES, CA", "zone_code": "R3-1", "zone_category": "Residential", "ev_permitted": false}, "geometry": {"type": "Polygon", "coordinates": [[[-118.409635506434, 34.019581731206], [-118.409259542246, 34.0197857998811], [-118.409331043947, 34.0198782159259], [-118.409706975242, 34.0196741196608], [-118.409635506434, 34.019581731206]]]}}, {"type": "Feature", "properties": {"zone_id": "0201B1I76X9SPN35XSO600", "tract_id": "06037271803", "city": "LOS ANGELES, CA", "zone_code": "R3-1", "zone_category": "Residential", "ev_permitted": false}, "geometry": {"type": "Polygon", "coordinates": [[[-118.409022159532, 34.019783499339], [-118.408729048338, 34.0199520028315], [-118.408738214538, 34.0199638975898], [-118.4086547088, 34.0200082013271], [-118.408666930976, 34.020024180085], [-118.408329221271, 34.0202102551294], [-118.409073183612, 34.0211755668113], [-118.409875748414, 34.0207340906413], [-118.409391139734, 34.0201080370806], [-118.40930819869, 34.0201530538045], [-118.409022159532, 34.019783499339]]]}}, {"type": "Feature", "properties": {"zone_id": "0203AVRXVN22J76PSSFCYN", "tract_id": "06037271803", "city": "LOS ANGELES, CA", "zone_code": "R3-1", "zone_category": "Residential", "ev_permitted": false}, "geometry": {"type": "Polygon", "coordinates": [[[-118.408867368135, 34.0195835384818], [-118.40871866494, 34.0196638129761], [-118.408875554717, 34.01986777882], [-118.409022159532, 34.019783499339], [-118.408867368135, 34.0195835384818]]]}}, {"type": "Feature", "properties": {"zone_id": "0206VSSI6WG5SCL032O8SA", "tract_id": "06037271803", "city": "LOS ANGELES, CA", "zone_code": "R3-1", "zone_category": "Residential", "ev_permitted": false}, "geometry": {"type": "Polygon", "coordinates": [[[-118.40871866494, 34.0196638129761], [-118.408569928325, 34.019744059921], [-118.408729048338, 34.0199520028315], [-118.408875554717, 34.01986777882], [-118.40871866494, 34.0196638129761]]]}}, {"type": "Feature", "properties": {"zone_id": "020231A9B8V9Y0ADHIM211", "tract_id": "06037271803", "city": "LOS ANGELES, CA", "zone_code": "R3-1", "zone_category": "Residential", "ev_permitted": false}, "geometry": {"type": "Polygon", "coordinates": [[[-118.40857524236, 34.0197510215474], [-118.408206641735, 34.0199499234775], [-118.408197591466, 34.0199558193438], [-118.408189902674, 34.0199629198663], [-118.408183805492, 34.0199710125203], [-118.408179482413, 34.0199798550862], [-118.408177062829, 34.0199891828988], [-118.408176619162, 34.0199987167692], [-118.40817816469, 34.0200081713412], [-118.408181653155, 34.0200172636321], [-118.408186980143, 34.0200257215027], [-118.408329221271, 34.0202102551294], [-118.408666930976, 34.020024180085], [-118.4086547088, 34.0200082013271], [-118.408738214538, 34.0199638975898], [-118.40857524236, 34.0197510215474]]]}}, {"type": "Feature", "properties": {"zone_id": "02036JTERJP7BLR42OHBUW", "tract_id": "06037271803", "city": "LOS ANGELES, CA", "zone_code": "C2-1", "zone_category": "Commercial", "ev_permitted": true}, "geometry": {"type": "Polygon", "coordinates": [[[-118.408259306522, 34.0195093703239], [-118.407927339867, 34.0196886375588], [-118.408057159141, 34.0198570559472], [-118.408389060856, 34.0196779259685], [-118.408259306522, 34.0195093703239]]]}}, {"type": "Feature", "properties": {"zone_id": "0202B9Q7DGCCQ16DPGEKZ7", "tract_id": "06037271803", "city": "LOS ANGELES, CA", "zone_code": "R3-1", "zone_category": "Residential", "ev_permitted": false}, "geometry": {"type": "Polygon", "coordinates": [[[-118.410736614474, 34.0193775868613], [-118.410391956855, 34.0195652851039], [-118.410555658052, 34.0197711766136], [-118.410898376993, 34.0195850782719], [-118.410736614474, 34.0193775868613]]]}}, {"type": "Feature", "properties": {"zone_id": "02070YO2SH6BHUWS9BMKIA", "tract_id": "06037271803", "city": "LOS ANGELES, CA", "zone_code": "R3-1", "zone_category": "Residential", "ev_permitted": false}, "geometry": {"type": "Polygon", "coordinates": [[[-118.410574886027, 34.0191701500809], [-118.41023052226, 34.0193571049353], [-118.410391956855, 34.0195652851039], [-118.410736614474, 34.0193775868613], [-118.410574886027, 34.0191701500809]]]}}, {"type": "Feature", "properties": {"zone_id": "0206PI3Y9R216SDV8J7D1L", "tract_id": "06037271803", "city": "LOS ANGELES, CA", "zone_code": "R3-1", "zone_category": "Residential", "ev_permitted": false}, "geometry": {"type": "Polygon", "coordinates": [[[-118.410494022036, 34.0190664178712], [-118.410149987703, 34.0192532065025], [-118.41023052226, 34.0193571049353], [-118.410574886027, 34.0191701500809], [-118.410494022036, 34.0190664178712]]]}}, {"type": "Feature", "properties": {"zone_id": "020767F9GFOV7G2LNNMC8Q", "tract_id": "06037271803", "city": "LOS ANGELES, CA", "zone_code": "R3-1", "zone_category": "Residential", "ev_permitted": false}, "geometry": {"type": "Polygon", "coordinates": [[[-118.409774049239, 34.0191036565209], [-118.409758613258, 34.0191049924453], [-118.40974444216, 34.0191102376591], [-118.409410175674, 34.0192906159417], [-118.409563971785, 34.0194893429334], [-118.409939374253, 34.0192855500021], [-118.409812944131, 34.0191224530128], [-118.409802629367, 34.0191128414514], [-118.409796235044, 34.0191091619937], [-118.409781764792, 34.0191045116205], [-118.409774049239, 34.0191036565209]]]}}, {"type": "Feature", "properties": {"zone_id": "0206KPLIC0WA1N33DOX17Z", "tract_id": "06037271803", "city": "LOS ANGELES, CA", "zone_code": "R3-1", "zone_category": "Residential", "ev_permitted": false}, "geometry": {"type": "Polygon", "coordinates": [[[-118.410082575784, 34.019470243175], [-118.409706975242, 34.0196741196608], [-118.409778510207, 34.0197665078496], [-118.41015417672, 34.0195625759593], [-118.410082575784, 34.019470243175]]]}}, {"type": "Feature", "properties": {"zone_id": "0204X74TGAYOZMY0RWWHTU", "tract_id": "06037271803", "city": "LOS ANGELES, CA", "zone_code": "R3-1", "zone_category": "Residential", "ev_permitted": false}, "geometry": {"type": "Polygon", "coordinates": [[[-118.410010974872, 34.0193778828704], [-118.409635506434, 34.019581731206], [-118.409706975242, 34.0196741196608], [-118.410082575784, 34.019470243175], [-118.410010974872, 34.0193778828704]]]}}, {"type": "Feature", "properties": {"zone_id": "0201WHIRX35724TVDZM1U6", "tract_id": "06037271803", "city": "LOS ANGELES, CA", "zone_code": "R3-1", "zone_category": "Residential", "ev_permitted": false}, "geometry": {"type": "Polygon", "coordinates": [[[-118.409939374253, 34.0192855500021], [-118.409563971785, 34.0194893429334], [-118.409635506434, 34.019581731206], [-118.410010974872, 34.0193778828704], [-118.409939374253, 34.0192855500021]]]}}, {"type": "Feature", "properties": {"zone_id": "0203S30Y25961GCIALWK9T", "tract_id": "06037271803", "city": "LOS ANGELES, CA", "zone_code": "R3-1", "zone_category": "Residential", "ev_permitted": false}, "geometry": {"type": "Polygon", "coordinates": [[[-118.409563971785, 34.0194893429334], [-118.409188008106, 34.0196934663412], [-118.409259542246, 34.0197857998811], [-118.409635506434, 34.019581731206], [-118.409563971785, 34.0194893429334]]]}}, {"type": "Feature", "properties": {"zone_id": "0205JZZHE4827QXMHEN4Y3", "tract_id": "06037271803", "city": "LOS ANGELES, CA", "zone_code": "R3-1", "zone_category": "Residential", "ev_permitted": false}, "geometry": {"type": "Polygon", "coordinates": [[[-118.409492470294, 34.0193969545068], [-118.409116506855, 34.0196010776909], [-118.409188008106, 34.0196934663412], [-118.409563971785, 34.0194893429334], [-118.409492470294, 34.0193969545068]]]}}, {"type": "Feature", "properties": {"zone_id": "02074V3DL6I7CP5X9VWPV2", "tract_id": "06037271803", "city": "LOS ANGELES, CA", "zone_code": "R3-1", "zone_category": "Residential", "ev_permitted": false}, "geometry": {"type": "Polygon", "coordinates": [[[-118.409410175674, 34.0192906159417], [-118.409074986308, 34.01947151852], [-118.409068188292, 34.0194759471748], [-118.409062414361, 34.0194812817577], [-118.409057837773, 34.0194873621934], [-118.409054595859, 34.019494006026], [-118.409052785898, 34.0195010138936], [-118.409052462202, 34.0195081755108], [-118.409053634485, 34.0195152759787], [-118.409056267569, 34.0195221022333], [-118.409060282444, 34.0195284494389], [-118.409116506855, 34.0196010776909], [-118.409492470294, 34.0193969545068], [-118.409410175674, 34.0192906159417]]]}}, {"type": "Feature", "properties": {"zone_id": "02004I8EV0XEMPZ15VPUCU", "tract_id": "06037271803", "city": "LOS ANGELES, CA", "zone_code": "R3-1", "zone_category": "Residential", "ev_permitted": false}, "geometry": {"type": "Polygon", "coordinates": [[[-118.410793014281, 34.0186250256904], [-118.410347404776, 34.0188783569102], [-118.410431854983, 34.0189866934592], [-118.410878155773, 34.0187329473923], [-118.410793014281, 34.0186250256904]]]}}, {"type": "Feature", "properties": {"zone_id": "02001GEVXQLNIJKA0JOU26", "tract_id": "06037271803", "city": "LOS ANGELES, CA", "zone_code": "R3-1", "zone_category": "Residential", "ev_permitted": false}, "geometry": {"type": "Polygon", "coordinates": [[[-118.410707806874, 34.0185170766753], [-118.410262921653, 34.0187699929367], [-118.410347404776, 34.0188783569102], [-118.410793014281, 34.0186250256904], [-118.410707806874, 34.0185170766753]]]}}, {"type": "Feature", "properties": {"zone_id": "0200QHHZBAVOBU1GSAMW53", "tract_id": "06037271803", "city": "LOS ANGELES, CA", "zone_code": "R3-1", "zone_category": "Residential", "ev_permitted": false}, "geometry": {"type": "Polygon", "coordinates": [[[-118.410622831761, 34.0184093466417], [-118.410159651057, 34.0186729040883], [-118.410232206762, 34.0187649038305], [-118.410250966583, 34.0187546729243], [-118.410262921653, 34.0187699929367], [-118.410707806874, 34.0185170766753], [-118.410622831761, 34.0184093466417]]]}}, {"type": "Feature", "properties": {"zone_id": "0201ZT83T3E72R06L4DMSO", "tract_id": "06037271803", "city": "LOS ANGELES, CA", "zone_code": "R3-1", "zone_category": "Residential", "ev_permitted": false}, "geometry": {"type": "Polygon", "coordinates": [[[-118.410332327791, 34.0188589806573], [-118.409988919325, 34.0190454369561], [-118.410149987703, 34.0192532065025], [-118.410494022036, 34.0190664178712], [-118.410332327791, 34.0188589806573]]]}}, {"type": "Feature", "properties": {"zone_id": "0203GIW9N8Q17N9G5CG33J", "tract_id": "06037271803", "city": "LOS ANGELES, CA", "zone_code": "R3-1", "zone_category": "Residential", "ev_permitted": false}, "geometry": {"type": "Polygon", "coordinates": [[[-118.410250966583, 34.0187546729243], [-118.409908319101, 34.0189414836315], [-118.409988919325, 34.0190454369561], [-118.410332327791, 34.0188589806573], [-118.410250966583, 34.0187546729243]]]}}, {"type": "Feature", "properties": {"zone_id": "0201Y2CIOE7UPAZMWCY7AL", "tract_id": "06037271803", "city": "LOS ANGELES, CA", "zone_code": "R3-1", "zone_category": "Residential", "ev_permitted": false}, "geometry": {"type": "Polygon", "coordinates": [[[-118.410157991125, 34.0186708762981], [-118.409836128745, 34.0188499221146], [-118.409908319101, 34.0189414836315], [-118.410232206762, 34.0187649038305], [-118.410157991125, 34.0186708762981]]]}}, {"type": "Feature", "properties": {"zone_id": "0205CY35V0I9J06Y2G5PIA", "tract_id": "06037271803", "city": "LOS ANGELES, CA", "zone_code": "R3-1", "zone_category": "Residential", "ev_permitted": false}, "geometry": {"type": "Polygon", "coordinates": [[[-118.410083542775, 34.0185764648086], [-118.409763872415, 34.0187583333008], [-118.409836128745, 34.0188499221146], [-118.410157991125, 34.0186708762981], [-118.410083542775, 34.0185764648086]]]}}, {"type": "Feature", "properties": {"zone_id": "0203IN2RGH6FYDUFJO4CDG", "tract_id": "06037271803", "city": "LOS ANGELES, CA", "zone_code": "R3-1", "zone_category": "Residential", "ev_permitted": false}, "geometry": {"type": "Polygon", "coordinates": [[[-118.409670183004, 34.0189398464211], [-118.409346080223, 34.0191200526392], [-118.409415182229, 34.019207722936], [-118.40974131068, 34.0190300651838], [-118.409670183004, 34.0189398464211]]]}}, {"type": "Feature", "properties": {"zone_id": "02004189OIIJ7FQ4CULAL3", "tract_id": "06037271803", "city": "LOS ANGELES, CA", "zone_code": "R3-1", "zone_category": "Residential", "ev_permitted": false}, "geometry": {"type": "Polygon", "coordinates": [[[-118.40960038393, 34.0188513542731], [-118.409278638414, 34.0190344375838], [-118.409346080223, 34.0191200526392], [-118.409670183004, 34.0189398464211], [-118.40960038393, 34.0188513542731]]]}}, {"type": "Feature", "properties": {"zone_id": "0200TZHU3KATLZZSFAXP1H", "tract_id": "06037271803", "city": "LOS ANGELES, CA", "zone_code": "R3-1", "zone_category": "Residential", "ev_permitted": false}, "geometry": {"type": "Polygon", "coordinates": [[[-118.409527928381, 34.0187594637281], [-118.40920621579, 34.0189424917763], [-118.409278638414, 34.0190344375838], [-118.40960038393, 34.0188513542731], [-118.409527928381, 34.0187594637281]]]}}, {"type": "Feature", "properties": {"zone_id": "0204C7NCSJCQUP0ULO69PM", "tract_id": "06037271803", "city": "LOS ANGELES, CA", "zone_code": "R3-1", "zone_category": "Residential", "ev_permitted": false}, "geometry": {"type": "Polygon", "coordinates": [[[-118.409455506125, 34.0186676005066], [-118.409133826728, 34.018850628249], [-118.40920621579, 34.0189424917763], [-118.409527928381, 34.0187594637281], [-118.409455506125, 34.0186676005066]]]}}, {"type": "Feature", "properties": {"zone_id": "0204IW6HD8L9G4YI83JUGD", "tract_id": "06037271803", "city": "LOS ANGELES, CA", "zone_code": "R3-1", "zone_category": "Residential", "ev_permitted": false}, "geometry": {"type": "Polygon", "coordinates": [[[-118.408536423424, 34.0180924234408], [-118.408305538501, 34.0182237838057], [-118.408706479437, 34.018742985108], [-118.408651152359, 34.0187728495082], [-118.408805348153, 34.0189728950799], [-118.408959381851, 34.0188897171461], [-118.409224996996, 34.0192268335631], [-118.409368992494, 34.019149129935], [-118.408536423424, 34.0180924234408]]]}}, {"type": "Feature", "properties": {"zone_id": "0207NO5G3VCG5339S6H7NC", "tract_id": "06037271803", "city": "LOS ANGELES, CA", "zone_code": "C2-1", "zone_category": "Commercial", "ev_permitted": true}, "geometry": {"type": "Polygon", "coordinates": [[[-118.408651152359, 34.0187728495082], [-118.407641633037, 34.0193179795835], [-118.407795794154, 34.0195179716058], [-118.408805348153, 34.0189728950799], [-118.408651152359, 34.0187728495082]]]}}, {"type": "Feature", "properties": {"zone_id": "0205XEYCGMUNP5DQV02T2M", "tract_id": "06037271803", "city": "LOS ANGELES, CA", "zone_code": "M1-1VL", "zone_category": "Industrial", "ev_permitted": true}, "geometry": {"type": "Polygon", "coordinates": [[[-118.408959381851, 34.0188897171461], [-118.408820158995, 34.018964876073], [-118.409081396287, 34.0193043433295], [-118.409224996996, 34.0192268335631], [-118.408959381851, 34.0188897171461]]]}}, {"type": "Feature", "properties": {"zone_id": "0203BB0G9E6752C1HWF28P", "tract_id": "06037271803", "city": "LOS ANGELES, CA", "zone_code": "M1-1", "zone_category": "Industrial", "ev_permitted": true}, "geometry": {"type": "Polygon", "coordinates": [[[-118.408820158995, 34.018964876073], [-118.408681725866, 34.0190396199833], [-118.408942929695, 34.0193790601744], [-118.409081396287, 34.0193043433295], [-118.408820158995, 34.018964876073]]]}}, {"type": "Feature", "properties": {"zone_id": "02074L6YM6CNVOOYFR8BVG", "tract_id": "06037271803", "city": "LOS ANGELES, CA", "zone_code": "M1-1", "zone_category": "Industrial", "ev_permitted": true}, "geometry": {"type": "Polygon", "coordinates": [[[-118.408681725866, 34.0190396199833], [-118.408543292623, 34.0191143912134], [-118.408804462856, 34.0194537768607], [-118.408942929695, 34.0193790601744], [-118.408681725866, 34.0190396199833]]]}}, {"type": "Feature", "properties": {"zone_id": "0204A44BXSL8XI4476PTDL", "tract_id": "06037271803", "city": "LOS ANGELES, CA", "zone_code": "M1-1", "zone_category": "Industrial", "ev_permitted": true}, "geometry": {"type": "Polygon", "coordinates": [[[-118.408543292623, 34.0191143912134], [-118.408404825999, 34.0191891349185], [-118.40866596277, 34.0195284935002], [-118.408804462856, 34.0194537768607], [-118.408543292623, 34.0191143912134]]]}}, {"type": "Feature", "properties": {"zone_id": "0207FYCT8JBCK7N26IOX0D", "tract_id": "06037271803", "city": "LOS ANGELES, CA", "zone_code": "M1-1", "zone_category": "Industrial", "ev_permitted": true}, "geometry": {"type": "Polygon", "coordinates": [[[-118.408404825999, 34.0191891349185], [-118.408266392262, 34.0192639058319], [-118.408527528571, 34.0196032372361], [-118.40866596277, 34.0195284935002], [-118.408404825999, 34.0191891349185]]]}}, {"type": "Feature", "properties": {"zone_id": "0201L0FO8IB57NOOZSTN6I", "tract_id": "06037271803", "city": "LOS ANGELES, CA", "zone_code": "M1-1", "zone_category": "Industrial", "ev_permitted": true}, "geometry": {"type": "Polygon", "coordinates": [[[-118.408266392262, 34.0192639058319], [-118.408127925144, 34.01933864922], [-118.408389060856, 34.0196779259685], [-118.408527528571, 34.0196032372361], [-118.408266392262, 34.0192639058319]]]}}, {"type": "Feature", "properties": {"zone_id": "0203PPFWNNYQQL611ATVXK", "tract_id": "06037271803", "city": "LOS ANGELES, CA", "zone_code": "C2-1", "zone_category": "Commercial", "ev_permitted": true}, "geometry": {"type": "Polygon", "coordinates": [[[-118.408127925144, 34.01933864922], [-118.407795794154, 34.0195179716058], [-118.407927339867, 34.0196886375588], [-118.408259306522, 34.0195093703239], [-118.408127925144, 34.01933864922]]]}}, {"type": "Feature", "properties": {"zone_id": "0201LJA12QEA0YH3NA69FC", "tract_id": "06037271803", "city": "LOS ANGELES, CA", "zone_code": "R3-1", "zone_category": "Residential", "ev_permitted": false}, "geometry": {"type": "Polygon", "coordinates": [[[-118.409165686289, 34.0183000652033], [-118.408844205265, 34.0184830090639], [-118.409061404557, 34.0187587098339], [-118.40938301776, 34.0185756825093], [-118.409165686289, 34.0183000652033]]]}}, {"type": "Feature", "properties": {"zone_id": "0202EEZ23M52EAMT6HGMEV", "tract_id": "06037271803", "city": "LOS ANGELES, CA", "zone_code": "R3-1", "zone_category": "Residential", "ev_permitted": false}, "geometry": {"type": "Polygon", "coordinates": [[[-118.40938301776, 34.0185756825093], [-118.409061404557, 34.0187587098339], [-118.409133826728, 34.018850628249], [-118.409455506125, 34.0186676005066], [-118.40938301776, 34.0185756825093]]]}}, {"type": "Feature", "properties": {"zone_id": "0206HB6I42X760NAZ6GRMB", "tract_id": "06037271803", "city": "LOS ANGELES, CA", "zone_code": "M1-1", "zone_category": "Industrial", "ev_permitted": true}, "geometry": {"type": "Polygon", "coordinates": [[[-118.408519576319, 34.0187041582318], [-118.408290598287, 34.0188344129623], [-118.408363161595, 34.0189283647904], [-118.408595726512, 34.0188027691749], [-118.408519576319, 34.0187041582318]]]}}, {"type": "Feature", "properties": {"zone_id": "0202SJFNG51ZB494MMTYZX", "tract_id": "06037271803", "city": "LOS ANGELES, CA", "zone_code": "M1-1", "zone_category": "Industrial", "ev_permitted": true}, "geometry": {"type": "Polygon", "coordinates": [[[-118.408290598287, 34.0188344129623], [-118.408061751405, 34.0189646393349], [-118.408130628712, 34.0190539048905], [-118.408363161595, 34.0189283647904], [-118.408290598287, 34.0188344129623]]]}}, {"type": "Feature", "properties": {"zone_id": "0203T5UNDAU12JHORS14LI", "tract_id": "06037271803", "city": "LOS ANGELES, CA", "zone_code": "M1-1", "zone_category": "Industrial", "ev_permitted": true}, "geometry": {"type": "Polygon", "coordinates": [[[-118.408210297235, 34.0187304300224], [-118.407981483379, 34.018860628652], [-118.408061751405, 34.0189646393349], [-118.408290598287, 34.0188344129623], [-118.408210297235, 34.0187304300224]]]}}, {"type": "Feature", "properties": {"zone_id": "0205HGY7QB9921I180EE7Y", "tract_id": "06037271803", "city": "LOS ANGELES, CA", "zone_code": "M1-1", "zone_category": "Industrial", "ev_permitted": true}, "geometry": {"type": "Polygon", "coordinates": [[[-118.408439241975, 34.0186001480784], [-118.408210297235, 34.0187304300224], [-118.408290598287, 34.0188344129623], [-118.408519576319, 34.0187041582318], [-118.408439241975, 34.0186001480784]]]}}, {"type": "Feature", "properties": {"zone_id": "02000TCY48OU2K78HMZ5MP", "tract_id": "06037271803", "city": "LOS ANGELES, CA", "zone_code": "M1-1", "zone_category": "Industrial", "ev_permitted": true}, "geometry": {"type": "Polygon", "coordinates": [[[-118.408358940963, 34.0184961652388], [-118.40812996325, 34.0186264196629], [-118.408210297235, 34.0187304300224], [-118.408439241975, 34.0186001480784], [-118.408358940963, 34.0184961652388]]]}}, {"type": "Feature", "properties": {"zone_id": "0202MYV2CV1ZC8G4M1P673", "tract_id": "06037271803", "city": "LOS ANGELES, CA", "zone_code": "M1-1", "zone_category": "Industrial", "ev_permitted": true}, "geometry": {"type": "Polygon", "coordinates": [[[-118.40812996325, 34.0186264196629], [-118.407901215417, 34.0187565904382], [-118.407981483379, 34.018860628652], [-118.408210297235, 34.0187304300224], [-118.40812996325, 34.0186264196629]]]}}, {"type": "Feature", "properties": {"zone_id": "0203W5SCZPV7147IRWQBXP", "tract_id": "06037271803", "city": "LOS ANGELES, CA", "zone_code": "M1-1", "zone_category": "Industrial", "ev_permitted": true}, "geometry": {"type": "Polygon", "coordinates": [[[-118.407942031077, 34.0190128021078], [-118.407734935897, 34.0191306438528], [-118.407809524934, 34.0192272820929], [-118.408019875099, 34.0191137159085], [-118.407942031077, 34.0190128021078]]]}}, {"type": "Feature", "properties": {"zone_id": "0200U90305YYYSQCUM1AP3", "tract_id": "06037271803", "city": "LOS ANGELES, CA", "zone_code": "C2-1", "zone_category": "Commercial", "ev_permitted": true}, "geometry": {"type": "Polygon", "coordinates": [[[-118.407734935897, 34.0191306438528], [-118.407564270325, 34.0192277531615], [-118.407636103421, 34.0193209384865], [-118.407809524934, 34.0192272820929], [-118.407734935897, 34.0191306438528]]]}}, {"type": "Feature", "properties": {"zone_id": "02010CK7GFUFILDUA3PLB6", "tract_id": "06037271803", "city": "LOS ANGELES, CA", "zone_code": "C2-1", "zone_category": "Commercial", "ev_permitted": true}, "geometry": {"type": "Polygon", "coordinates": [[[-118.407658221414, 34.0190312099094], [-118.407487621821, 34.0191282914079], [-118.407564270325, 34.0192277531615], [-118.407734935897, 34.0191306438528], [-118.407658221414, 34.0190312099094]]]}}, {"type": "Feature", "properties": {"zone_id": "0201KPFAIIP9F75V7LO28M", "tract_id": "06037271803", "city": "LOS ANGELES, CA", "zone_code": "M1-1", "zone_category": "Industrial", "ev_permitted": true}, "geometry": {"type": "Polygon", "coordinates": [[[-118.40786531659, 34.018913395775], [-118.407658221414, 34.0190312099094], [-118.407734935897, 34.0191306438528], [-118.407942031077, 34.0190128021078], [-118.40786531659, 34.018913395775]]]}}, {"type": "Feature", "properties": {"zone_id": "0201ZCXMY0D35VOACR6XPE", "tract_id": "06037271803", "city": "LOS ANGELES, CA", "zone_code": "M1-1", "zone_category": "Industrial", "ev_permitted": true}, "geometry": {"type": "Polygon", "coordinates": [[[-118.407559073846, 34.0186485179022], [-118.407422765717, 34.0187260560269], [-118.407658221414, 34.0190312099094], [-118.40786531659, 34.018913395775], [-118.407788602285, 34.0188139893939], [-118.407717815564, 34.0188542650913], [-118.407559073846, 34.0186485179022]]]}}, {"type": "Feature", "properties": {"zone_id": "0202S9A9S0QQWYYTVNDE80", "tract_id": "06037271803", "city": "LOS ANGELES, CA", "zone_code": "C2-1", "zone_category": "Commercial", "ev_permitted": true}, "geometry": {"type": "Polygon", "coordinates": [[[-118.407422765717, 34.0187260560269], [-118.407257760999, 34.0188199582562], [-118.407492985762, 34.019125195677], [-118.407658221414, 34.0190312099094], [-118.407422765717, 34.0187260560269]]]}}, {"type": "Feature", "properties": {"zone_id": "0201O7WYPKSQVJR46JVHPL", "tract_id": "06037271803", "city": "LOS ANGELES, CA", "zone_code": "M1-1", "zone_category": "Industrial", "ev_permitted": true}, "geometry": {"type": "Polygon", "coordinates": [[[-118.407893952197, 34.018457975539], [-118.407738887021, 34.0185462391695], [-118.407901215417, 34.0187565904382], [-118.408056379676, 34.018668298785], [-118.407893952197, 34.018457975539]]]}}, {"type": "Feature", "properties": {"zone_id": "0201UHTCMC2PXLBSW8X3AP", "tract_id": "06037271803", "city": "LOS ANGELES, CA", "zone_code": "M1-1", "zone_category": "Industrial", "ev_permitted": true}, "geometry": {"type": "Polygon", "coordinates": [[[-118.40762986047, 34.0186082422984], [-118.407559073846, 34.0186485179022], [-118.407717815564, 34.0188542650913], [-118.407788602285, 34.0188139893939], [-118.40762986047, 34.0186082422984]]]}}, {"type": "Feature", "properties": {"zone_id": "0205ZOXADO7BZCK711L2T0", "tract_id": "06037271803", "city": "LOS ANGELES, CA", "zone_code": "R3-1", "zone_category": "Residential", "ev_permitted": false}, "geometry": {"type": "Polygon", "coordinates": [[[-118.410537691197, 34.0183014797184], [-118.410074477553, 34.0185649819921], [-118.410159651057, 34.0186729040883], [-118.410622831761, 34.0184093466417], [-118.410537691197, 34.0183014797184]]]}}, {"type": "Feature", "properties": {"zone_id": "02031XG5I03C90BFFTJBSW", "tract_id": "06037271803", "city": "LOS ANGELES, CA", "zone_code": "R3-1", "zone_category": "Residential", "ev_permitted": false}, "geometry": {"type": "Polygon", "coordinates": [[[-118.41045248418, 34.0181934755685], [-118.409989304134, 34.0184570323582], [-118.410074477553, 34.0185649819921], [-118.410537691197, 34.0183014797184], [-118.41045248418, 34.0181934755685]]]}}, {"type": "Feature", "properties": {"zone_id": "0204DAA9T30EA1S0GHQ5LL", "tract_id": "06037271803", "city": "LOS ANGELES, CA", "zone_code": "R3-1", "zone_category": "Residential", "ev_permitted": false}, "geometry": {"type": "Polygon", "coordinates": [[[-118.410367343785, 34.0180855535698], [-118.409904164068, 34.0183491100311], [-118.409989304134, 34.0184570323582], [-118.41045248418, 34.0181934755685], [-118.410367343785, 34.0180855535698]]]}}, {"type": "Feature", "properties": {"zone_id": "0200IF9MYNB99LTQOKFMJ0", "tract_id": "06037271803", "city": "LOS ANGELES, CA", "zone_code": "R3-1", "zone_category": "Residential", "ev_permitted": false}, "geometry": {"type": "Polygon", "coordinates": [[[-118.410282170476, 34.0179776041455], [-118.409818991089, 34.0182411602783], [-118.409904164068, 34.0183491100311], [-118.410367343785, 34.0180855535698], [-118.410282170476, 34.0179776041455]]]}}, {"type": "Feature", "properties": {"zone_id": "0203KX4EZRYANBTNLTX62V", "tract_id": "06037271803", "city": "LOS ANGELES, CA", "zone_code": "R3-1", "zone_category": "Residential", "ev_permitted": false}, "geometry": {"type": "Polygon", "coordinates": [[[-118.410197030521, 34.017869682028], [-118.409733818463, 34.0181332379445], [-118.409818991089, 34.0182411602783], [-118.410282170476, 34.0179776041455], [-118.410197030521, 34.017869682028]]]}}, {"type": "Feature", "properties": {"zone_id": "0202H0AV2842V5654B7RSU", "tract_id": "06037271803", "city": "LOS ANGELES, CA", "zone_code": "R3-1", "zone_category": "Residential", "ev_permitted": false}, "geometry": {"type": "Polygon", "coordinates": [[[-118.409793621903, 34.0182090137863], [-118.409474051046, 34.0183908262143], [-118.409763872415, 34.0187583333008], [-118.410083542775, 34.0185764648086], [-118.409793621903, 34.0182090137863]]]}}, {"type": "Feature", "properties": {"zone_id": "0206TQ0RDR3HVPMJEZCH6T", "tract_id": "06037271803", "city": "LOS ANGELES, CA", "zone_code": "R3-1", "zone_category": "Residential", "ev_permitted": false}, "geometry": {"type": "Polygon", "coordinates": [[[-118.409721133833, 34.0181171509511], [-118.409401629168, 34.0182989629624], [-118.409474051046, 34.0183908262143], [-118.409793621903, 34.0182090137863], [-118.409721133833, 34.0181171509511]]]}}, {"type": "Feature", "properties": {"zone_id": "0205L40BPHXCY41BE77HZY", "tract_id": "06037271803", "city": "LOS ANGELES, CA", "zone_code": "R3-1", "zone_category": "Residential", "ev_permitted": false}, "geometry": {"type": "Polygon", "coordinates": [[[-118.409648645923, 34.0180252880729], [-118.409329141316, 34.018207072413], [-118.409401629168, 34.0182989629624], [-118.409721133833, 34.0181171509511], [-118.409648645923, 34.0180252880729]]]}}, {"type": "Feature", "properties": {"zone_id": "02005Z5GAZP8G2S7XVRAKT", "tract_id": "06037271803", "city": "LOS ANGELES, CA", "zone_code": "R3-1", "zone_category": "Residential", "ev_permitted": false}, "geometry": {"type": "Polygon", "coordinates": [[[-118.410825007717, 34.017512328164], [-118.410360383486, 34.0177764683534], [-118.410445523557, 34.0178843903551], [-118.410910115255, 34.017620277427], [-118.410825007717, 34.017512328164]]]}}, {"type": "Feature", "properties": {"zone_id": "0200AWYWFY9YNH2A6JAVYU", "tract_id": "06037271803", "city": "LOS ANGELES, CA", "zone_code": "R3-1", "zone_category": "Residential", "ev_permitted": false}, "geometry": {"type": "Polygon", "coordinates": [[[-118.410739867265, 34.0174043514757], [-118.4102752435, 34.017668518814], [-118.410360383486, 34.0177764683534], [-118.410825007717, 34.017512328164], [-118.410739867265, 34.0174043514757]]]}}, {"type": "Feature", "properties": {"zone_id": "0204BQEK3TXAPYHN5QRXBK", "tract_id": "06037271803", "city": "LOS ANGELES, CA", "zone_code": "R3-1", "zone_category": "Residential", "ev_permitted": false}, "geometry": {"type": "Polygon", "coordinates": [[[-118.410111857651, 34.0177617324849], [-118.409648645923, 34.0180252880729], [-118.409733818463, 34.0181332379445], [-118.410197030521, 34.017869682028], [-118.410111857651, 34.0177617324849]]]}}, {"type": "Feature", "properties": {"zone_id": "0204MT770RZJD57FWFEIDY", "tract_id": "06037271803", "city": "LOS ANGELES, CA", "zone_code": "R3-1", "zone_category": "Residential", "ev_permitted": false}, "geometry": {"type": "Polygon", "coordinates": [[[-118.409803776365, 34.0173713159887], [-118.409340631825, 34.0176348701646], [-118.409648645923, 34.0180252880729], [-118.410111857651, 34.0177617324849], [-118.409803776365, 34.0173713159887]]]}}, {"type": "Feature", "properties": {"zone_id": "0202UH8O9M59DCK2P4X01D", "tract_id": "06037271803", "city": "LOS ANGELES, CA", "zone_code": "R3-1", "zone_category": "Residential", "ev_permitted": false}, "geometry": {"type": "Polygon", "coordinates": [[[-118.409340631825, 34.0176348701646], [-118.409021226768, 34.0178165983933], [-118.409329141316, 34.018207072413], [-118.409648645923, 34.0180252880729], [-118.409340631825, 34.0176348701646]]]}}, {"type": "Feature", "properties": {"zone_id": "02051LIIZ5M7FCIKFWJ18O", "tract_id": "06037271803", "city": "LOS ANGELES, CA", "zone_code": "C2-1", "zone_category": "Commercial", "ev_permitted": true}, "geometry": {"type": "Polygon", "coordinates": [[[-118.408857805161, 34.0179095906527], [-118.408536423424, 34.0180924234408], [-118.408753653554, 34.0183680971682], [-118.40907513447, 34.0181851810284], [-118.408857805161, 34.0179095906527]]]}}, {"type": "Feature", "properties": {"zone_id": "0204HQBEKWHMXFPDIRBB7C", "tract_id": "06037271803", "city": "LOS ANGELES, CA", "zone_code": "R3-1", "zone_category": "Residential", "ev_permitted": false}, "geometry": {"type": "Polygon", "coordinates": [[[-118.40907513447, 34.0181851810284], [-118.408753653554, 34.0183680971682], [-118.408844205265, 34.0184830090639], [-118.409165686289, 34.0183000652033], [-118.40907513447, 34.0181851810284]]]}}, {"type": "Feature", "properties": {"zone_id": "0204CEBG49LFYTPR4IURHE", "tract_id": "06037271803", "city": "LOS ANGELES, CA", "zone_code": "M1-1", "zone_category": "Industrial", "ev_permitted": true}, "geometry": {"type": "Polygon", "coordinates": [[[-118.408196513058, 34.0182858424019], [-118.407893952197, 34.018457975539], [-118.408056379676, 34.018668298785], [-118.408358940963, 34.0184961652388], [-118.408196513058, 34.0182858424019]]]}}, {"type": "Feature", "properties": {"zone_id": "0203CJ1CRCPP1148GOHB7L", "tract_id": "06037271803", "city": "LOS ANGELES, CA", "zone_code": "R1-1", "zone_category": "Residential", "ev_permitted": false}, "geometry": {"type": "Polygon", "coordinates": [[[-118.411337965832, 34.0212958122001], [-118.411206023538, 34.0213687782497], [-118.411419454022, 34.021640008669], [-118.411551363422, 34.0215670150191], [-118.411337965832, 34.0212958122001]]]}}, {"type": "Feature", "properties": {"zone_id": "02000G9D7A61QGTOZ0R4N7", "tract_id": "06037271803", "city": "LOS ANGELES, CA", "zone_code": "R1-1", "zone_category": "Residential", "ev_permitted": false}, "geometry": {"type": "Polygon", "coordinates": [[[-118.410942138529, 34.0215147648739], [-118.41081019568, 34.0215877579702], [-118.411023625305, 34.0218589616144], [-118.411155568531, 34.0217859957621], [-118.410942138529, 34.0215147648739]]]}}, {"type": "Feature", "properties": {"zone_id": "0200AJBWN1V3XZKFRN0KHW", "tract_id": "06037271803", "city": "LOS ANGELES, CA", "zone_code": "R1-1", "zone_category": "Residential", "ev_permitted": false}, "geometry": {"type": "Polygon", "coordinates": [[[-118.41081019568, 34.0215877579702], [-118.410678219465, 34.0216607235564], [-118.410891681984, 34.0219319548011], [-118.411023625305, 34.0218589616144], [-118.41081019568, 34.0215877579702]]]}}, {"type": "Feature", "properties": {"zone_id": "02069JK8RW90MJPIYARCRS", "tract_id": "06037271803", "city": "LOS ANGELES, CA", "zone_code": "R1-1", "zone_category": "Residential", "ev_permitted": false}, "geometry": {"type": "Polygon", "coordinates": [[[-118.411206023538, 34.0213687782497], [-118.411074114149, 34.0214417715214], [-118.411287511391, 34.0217130022875], [-118.411419454022, 34.021640008669], [-118.411206023538, 34.0213687782497]]]}}, {"type": "Feature", "properties": {"zone_id": "02020GW1HOWI1I1M1BMC00", "tract_id": "06037271803", "city": "LOS ANGELES, CA", "zone_code": "R3-1", "zone_category": "Residential", "ev_permitted": false}, "geometry": {"type": "Polygon", "coordinates": [[[-118.410860386803, 34.0211702392438], [-118.410728212074, 34.0212429582518], [-118.410942138529, 34.0215147648739], [-118.411074114149, 34.0214417715214], [-118.410860386803, 34.0211702392438]]]}}, {"type": "Feature", "properties": {"zone_id": "0203KXFXUJVMGXKF4RJ1VO", "tract_id": "06037271803", "city": "LOS ANGELES, CA", "zone_code": "R3-1", "zone_category": "Residential", "ev_permitted": false}, "geometry": {"type": "Polygon", "coordinates": [[[-118.41367191288, 34.0202718633472], [-118.413204614498, 34.0205303905156], [-118.41328976131, 34.0206383654851], [-118.413757027031, 34.0203798380986], [-118.41367191288, 34.0202718633472]]]}}, {"type": "Feature", "properties": {"zone_id": "0202DXX59H3XQHD7ZL430C", "tract_id": "06037271803", "city": "LOS ANGELES, CA", "zone_code": "R3-1", "zone_category": "Residential", "ev_permitted": false}, "geometry": {"type": "Polygon", "coordinates": [[[-118.413416539015, 34.0199479938067], [-118.412949208517, 34.0202064926163], [-118.413204614498, 34.0205303905156], [-118.41367191288, 34.0202718633472], [-118.413416539015, 34.0199479938067]]]}}, {"type": "Feature", "properties": {"zone_id": "0204XQIQM0L55QOJPOPWNH", "tract_id": "06037271803", "city": "LOS ANGELES, CA", "zone_code": "R3-1", "zone_category": "Residential", "ev_permitted": false}, "geometry": {"type": "Polygon", "coordinates": [[[-118.41303432167, 34.0203144678768], [-118.412800622507, 34.0204437855788], [-118.413056127231, 34.0207676010232], [-118.41328976131, 34.0206383654851], [-118.41303432167, 34.0203144678768]]]}}, {"type": "Feature", "properties": {"zone_id": "0200KYPUA3HOL1SHAPCJCW", "tract_id": "06037271803", "city": "LOS ANGELES, CA", "zone_code": "R3-1", "zone_category": "Residential", "ev_permitted": false}, "geometry": {"type": "Polygon", "coordinates": [[[-118.412864759649, 34.0200993393891], [-118.412397926341, 34.0203587961153], [-118.412566955216, 34.0205730202816], [-118.41303432167, 34.0203144678768], [-118.412864759649, 34.0200993393891]]]}}, {"type": "Feature", "properties": {"zone_id": "0206CTWL59UK5HVGEG4GKS", "tract_id": "06037271803", "city": "LOS ANGELES, CA", "zone_code": "R3-1", "zone_category": "Residential", "ev_permitted": false}, "geometry": {"type": "Polygon", "coordinates": [[[-118.412923825138, 34.0205999383831], [-118.412690190737, 34.020729200691], [-118.412822492431, 34.0208968361101], [-118.413056127231, 34.0207676010232], [-118.412923825138, 34.0205999383831]]]}}, {"type": "Feature", "properties": {"zone_id": "0204CDXINRC05R6J0FVRGE", "tract_id": "06037271803", "city": "LOS ANGELES, CA", "zone_code": "R3-1", "zone_category": "Residential", "ev_permitted": false}, "geometry": {"type": "Polygon", "coordinates": [[[-118.412800622507, 34.0204437855788], [-118.412566955216, 34.0205730202816], [-118.412690190737, 34.020729200691], [-118.412923825138, 34.0205999383831], [-118.412800622507, 34.0204437855788]]]}}, {"type": "Feature", "properties": {"zone_id": "02055XGR34MAVTCW3VUZGG", "tract_id": "06037271803", "city": "LOS ANGELES, CA", "zone_code": "R3-1", "zone_category": "Residential", "ev_permitted": false}, "geometry": {"type": "Polygon", "coordinates": [[[-118.412316859939, 34.0205563158115], [-118.411854854618, 34.0208119343871], [-118.411939374458, 34.0209202147116], [-118.412402038496, 34.0206642638162], [-118.412316859939, 34.0205563158115]]]}}, {"type": "Feature", "properties": {"zone_id": "0201FBRG2566TZ9Z5I3NIV", "tract_id": "06037271803", "city": "LOS ANGELES, CA", "zone_code": "R3-1", "zone_category": "Residential", "ev_permitted": false}, "geometry": {"type": "Polygon", "coordinates": [[[-118.412233209077, 34.0204502860467], [-118.411772559526, 34.0207063942954], [-118.411854854618, 34.0208119343871], [-118.412316859939, 34.0205563158115], [-118.412233209077, 34.0204502860467]]]}}, {"type": "Feature", "properties": {"zone_id": "0200N2O9YNBYQW9KRWF0US", "tract_id": "06037271803", "city": "LOS ANGELES, CA", "zone_code": "R3-1", "zone_category": "Residential", "ev_permitted": false}, "geometry": {"type": "Polygon", "coordinates": [[[-118.413331392607, 34.0198399914527], [-118.412864759649, 34.0200993393891], [-118.412949208517, 34.0202064926163], [-118.413416539015, 34.0199479938067], [-118.413331392607, 34.0198399914527]]]}}, {"type": "Feature", "properties": {"zone_id": "0204B42XGRL5ECB9QWJAQ9", "tract_id": "06037271803", "city": "LOS ANGELES, CA", "zone_code": "R3-1", "zone_category": "Residential", "ev_permitted": false}, "geometry": {"type": "Polygon", "coordinates": [[[-118.413161096646, 34.0196240518415], [-118.41269575942, 34.0198850296771], [-118.412864759649, 34.0200993393891], [-118.413331392607, 34.0198399914527], [-118.413161096646, 34.0196240518415]]]}}, {"type": "Feature", "properties": {"zone_id": "02000KR8PPNJCSXWPKDK84", "tract_id": "06037271803", "city": "LOS ANGELES, CA", "zone_code": "R3-1", "zone_category": "Residential", "ev_permitted": false}, "geometry": {"type": "Polygon", "coordinates": [[[-118.412780244997, 34.0199921863291], [-118.412314010086, 34.020252465048], [-118.412397926341, 34.0203587961153], [-118.412864759649, 34.0200993393891], [-118.412780244997, 34.0199921863291]]]}}, {"type": "Feature", "properties": {"zone_id": "0204EAU12W580HZQH668Z9", "tract_id": "06037271803", "city": "LOS ANGELES, CA", "zone_code": "R3-1", "zone_category": "Residential", "ev_permitted": false}, "geometry": {"type": "Polygon", "coordinates": [[[-118.412442320553, 34.0195635730531], [-118.411978512736, 34.0198272495519], [-118.412106162778, 34.0199890486299], [-118.412569074949, 34.0197243305068], [-118.412442320553, 34.0195635730531]]]}}, {"type": "Feature", "properties": {"zone_id": "0204A3A4OI98J8WNR8GLFV", "tract_id": "06037271803", "city": "LOS ANGELES, CA", "zone_code": "R3-1", "zone_category": "Residential", "ev_permitted": false}, "geometry": {"type": "Polygon", "coordinates": [[[-118.41269575942, 34.0198850296771], [-118.412230141625, 34.0201461629566], [-118.412314010086, 34.020252465048], [-118.412780244997, 34.0199921863291], [-118.41269575942, 34.0198850296771]]]}}, {"type": "Feature", "properties": {"zone_id": "02078LE5LN0OFHR8D99LBZ", "tract_id": "06037271803", "city": "LOS ANGELES, CA", "zone_code": "R3-1", "zone_category": "Residential", "ev_permitted": false}, "geometry": {"type": "Polygon", "coordinates": [[[-118.412569074949, 34.0197243305068], [-118.412106162778, 34.0199890486299], [-118.412230141625, 34.0201461629566], [-118.41269575942, 34.0198850296771], [-118.412569074949, 34.0197243305068]]]}}, {"type": "Feature", "properties": {"zone_id": "02017KZ2XIAQ98EUPSJL0B", "tract_id": "06037271803", "city": "LOS ANGELES, CA", "zone_code": "R3-1", "zone_category": "Residential", "ev_permitted": false}, "geometry": {"type": "Polygon", "coordinates": [[[-118.41206590826, 34.0202382813018], [-118.411607903289, 34.0204951767789], [-118.411772559526, 34.0207063942954], [-118.412233209077, 34.0204502860467], [-118.41206590826, 34.0202382813018]]]}}, {"type": "Feature", "properties": {"zone_id": "0200Y3DECIPYFHX9NHF4E2", "tract_id": "06037271803", "city": "LOS ANGELES, CA", "zone_code": "R3-1", "zone_category": "Residential", "ev_permitted": false}, "geometry": {"type": "Polygon", "coordinates": [[[-118.411982291305, 34.0201323062091], [-118.411525575685, 34.020389609155], [-118.411607903289, 34.0204951767789], [-118.41206590826, 34.0202382813018], [-118.411982291305, 34.0201323062091]]]}}, {"type": "Feature", "properties": {"zone_id": "0200JIBOTJKQ95PG5RBBFG", "tract_id": "06037271803", "city": "LOS ANGELES, CA", "zone_code": "R3-1", "zone_category": "Residential", "ev_permitted": false}, "geometry": {"type": "Polygon", "coordinates": [[[-118.411656057882, 34.0205569222965], [-118.411325657645, 34.0207386941267], [-118.411539883916, 34.0210109383229], [-118.41186890254, 34.0208299400258], [-118.411656057882, 34.0205569222965]]]}}, {"type": "Feature", "properties": {"zone_id": "02008AFCHV6F3WUFPLO7YN", "tract_id": "06037271803", "city": "LOS ANGELES, CA", "zone_code": "R3-1", "zone_category": "Residential", "ev_permitted": false}, "geometry": {"type": "Polygon", "coordinates": [[[-118.41143444737, 34.0202726952518], [-118.41110059208, 34.0204563742776], [-118.411325657645, 34.0207386941267], [-118.411656057882, 34.0205569222965], [-118.41143444737, 34.0202726952518]]]}}, {"type": "Feature", "properties": {"zone_id": "02024MYKSZKB9L6ML77ECX", "tract_id": "06037271803", "city": "LOS ANGELES, CA", "zone_code": "R3-1", "zone_category": "Residential", "ev_permitted": false}, "geometry": {"type": "Polygon", "coordinates": [[[-118.411221771761, 34.0199999235083], [-118.410884291144, 34.0201844386485], [-118.41110059208, 34.0204563742776], [-118.41143444737, 34.0202726952518], [-118.411221771761, 34.0199999235083]]]}}, {"type": "Feature", "properties": {"zone_id": "0202QY5JRUO8GOTH5GZKF3", "tract_id": "06037271803", "city": "LOS ANGELES, CA", "zone_code": "R3-1", "zone_category": "Residential", "ev_permitted": false}, "geometry": {"type": "Polygon", "coordinates": [[[-118.411814991624, 34.019920273642], [-118.411360953829, 34.0201784186714], [-118.411525575685, 34.020389609155], [-118.411982291305, 34.0201323062091], [-118.411814991624, 34.019920273642]]]}}, {"type": "Feature", "properties": {"zone_id": "020189LB2CKQO1S4K39SQN", "tract_id": "06037271803", "city": "LOS ANGELES, CA", "zone_code": "R3-1", "zone_category": "Residential", "ev_permitted": false}, "geometry": {"type": "Polygon", "coordinates": [[[-118.411670008107, 34.0197365228597], [-118.411217155482, 34.0199939763359], [-118.411360953829, 34.0201784186714], [-118.411814991624, 34.019920273642], [-118.411670008107, 34.0197365228597]]]}}, {"type": "Feature", "properties": {"zone_id": "02038KEXJ0LNOT7Z3G69NR", "tract_id": "06037271803", "city": "LOS ANGELES, CA", "zone_code": "R3-1", "zone_category": "Residential", "ev_permitted": false}, "geometry": {"type": "Polygon", "coordinates": [[[-118.411533260628, 34.0195632132495], [-118.411082490477, 34.0198212636537], [-118.411217155482, 34.0199939763359], [-118.411670008107, 34.0197365228597], [-118.411533260628, 34.0195632132495]]]}}, {"type": "Feature", "properties": {"zone_id": "02021FMF83QGVYIEJKTM2N", "tract_id": "06037271803", "city": "LOS ANGELES, CA", "zone_code": "R3-1", "zone_category": "Residential", "ev_permitted": false}, "geometry": {"type": "Polygon", "coordinates": [[[-118.411139477996, 34.0198943280333], [-118.410801708986, 34.0200805476096], [-118.410884291144, 34.0201844386485], [-118.411221771761, 34.0199999235083], [-118.411139477996, 34.0198943280333]]]}}, {"type": "Feature", "properties": {"zone_id": "0206ET1AT5MJR4WVLM6MFK", "tract_id": "06037271803", "city": "LOS ANGELES, CA", "zone_code": "R3-1", "zone_category": "Residential", "ev_permitted": false}, "geometry": {"type": "Polygon", "coordinates": [[[-118.410977016835, 34.0196859325164], [-118.410636977518, 34.0198734233848], [-118.410801708986, 34.0200805476096], [-118.411139477996, 34.0198943280333], [-118.410977016835, 34.0196859325164]]]}}, {"type": "Feature", "properties": {"zone_id": "0207KDAIQBUAW1J09XOYY6", "tract_id": "06037271803", "city": "LOS ANGELES, CA", "zone_code": "R3-1", "zone_category": "Residential", "ev_permitted": false}, "geometry": {"type": "Polygon", "coordinates": [[[-118.410898376993, 34.0195850782719], [-118.410555658052, 34.0197711766136], [-118.410636977518, 34.0198734233848], [-118.410977016835, 34.0196859325164], [-118.410898376993, 34.0195850782719]]]}}, {"type": "Feature", "properties": {"zone_id": "0201PP47EH82X54HL7S2YR", "tract_id": "06037271803", "city": "LOS ANGELES, CA", "zone_code": "R3-1", "zone_category": "Residential", "ev_permitted": false}, "geometry": {"type": "Polygon", "coordinates": [[[-118.412990842848, 34.0194081187213], [-118.412527465533, 34.0196715760326], [-118.41269575942, 34.0198850296771], [-118.413161096646, 34.0196240518415], [-118.412990842848, 34.0194081187213]]]}}, {"type": "Feature", "properties": {"zone_id": "0203Y6MY12RP9R3PVBJMZK", "tract_id": "06037271803", "city": "LOS ANGELES, CA", "zone_code": "R3-1", "zone_category": "Residential", "ev_permitted": false}, "geometry": {"type": "Polygon", "coordinates": [[[-118.412820585719, 34.0191921682038], [-118.412357209064, 34.0194556248582], [-118.412527465533, 34.0196715760326], [-118.412990842848, 34.0194081187213], [-118.412820585719, 34.0191921682038]]]}}, {"type": "Feature", "properties": {"zone_id": "0205G6DQ688402HNJZ4PDF", "tract_id": "06037271803", "city": "LOS ANGELES, CA", "zone_code": "R3-1", "zone_category": "Residential", "ev_permitted": false}, "geometry": {"type": "Polygon", "coordinates": [[[-118.412735441119, 34.0190842203907], [-118.412272064658, 34.0193476492383], [-118.412357209064, 34.0194556248582], [-118.412820585719, 34.0191921682038], [-118.412735441119, 34.0190842203907]]]}}, {"type": "Feature", "properties": {"zone_id": "0205SUKSQC6MMFA2PVOBER", "tract_id": "06037271803", "city": "LOS ANGELES, CA", "zone_code": "R3-1", "zone_category": "Residential", "ev_permitted": false}, "geometry": {"type": "Polygon", "coordinates": [[[-118.412565218307, 34.0188682694043], [-118.412101809642, 34.0191317251862], [-118.412272064658, 34.0193476492383], [-118.412735441119, 34.0190842203907], [-118.412565218307, 34.0188682694043]]]}}, {"type": "Feature", "properties": {"zone_id": "0204TG7FG2HTD3NA11EEXB", "tract_id": "06037271803", "city": "LOS ANGELES, CA", "zone_code": "R3-1", "zone_category": "Residential", "ev_permitted": false}, "geometry": {"type": "Polygon", "coordinates": [[[-118.412272064658, 34.0193476492383], [-118.411808191772, 34.0196113802616], [-118.411978512736, 34.0198272495519], [-118.412442320553, 34.0195635730531], [-118.412272064658, 34.0193476492383]]]}}, {"type": "Feature", "properties": {"zone_id": "0204IUWJWP08UK0QMRH6XE", "tract_id": "06037271803", "city": "LOS ANGELES, CA", "zone_code": "R3-1", "zone_category": "Residential", "ev_permitted": false}, "geometry": {"type": "Polygon", "coordinates": [[[-118.412224709726, 34.0184364493797], [-118.411761335243, 34.018699876257], [-118.411846478331, 34.018807852233], [-118.412309853143, 34.0185444250273], [-118.412224709726, 34.0184364493797]]]}}, {"type": "Feature", "properties": {"zone_id": "02008AQG6LM97099A5VX5Y", "tract_id": "06037271803", "city": "LOS ANGELES, CA", "zone_code": "R3-1", "zone_category": "Residential", "ev_permitted": false}, "geometry": {"type": "Polygon", "coordinates": [[[-118.412480107501, 34.0187603487787], [-118.41201669903, 34.0190237767539], [-118.412101809642, 34.0191317251862], [-118.412565218307, 34.0188682694043], [-118.412480107501, 34.0187603487787]]]}}, {"type": "Feature", "properties": {"zone_id": "0202ASUE5YN2MBYLSMV6TM", "tract_id": "06037271803", "city": "LOS ANGELES, CA", "zone_code": "R3-1", "zone_category": "Residential", "ev_permitted": false}, "geometry": {"type": "Polygon", "coordinates": [[[-118.41239496351, 34.0186523457716], [-118.411931588503, 34.0189158007839], [-118.41201669903, 34.0190237767539], [-118.412480107501, 34.0187603487787], [-118.41239496351, 34.0186523457716]]]}}, {"type": "Feature", "properties": {"zone_id": "0205NRXAY5KSXXJ9NIDQIS", "tract_id": "06037271803", "city": "LOS ANGELES, CA", "zone_code": "R3-1", "zone_category": "Residential", "ev_permitted": false}, "geometry": {"type": "Polygon", "coordinates": [[[-118.412309853143, 34.0185444250273], [-118.411846478331, 34.018807852233], [-118.411931588503, 34.0189158007839], [-118.41239496351, 34.0186523457716], [-118.412309853143, 34.0185444250273]]]}}, {"type": "Feature", "properties": {"zone_id": "0207EL9LF70OWVCNTVWPSR", "tract_id": "06037271803", "city": "LOS ANGELES, CA", "zone_code": "R3-1", "zone_category": "Residential", "ev_permitted": false}, "geometry": {"type": "Polygon", "coordinates": [[[-118.41201669903, 34.0190237767539], [-118.411552695541, 34.0192875896758], [-118.411808191772, 34.0196113802616], [-118.412272064658, 34.0193476492383], [-118.41201669903, 34.0190237767539]]]}}, {"type": "Feature", "properties": {"zone_id": "0204T0XYPBNLVJKSAYZ3CL", "tract_id": "06037271803", "city": "LOS ANGELES, CA", "zone_code": "R3-1", "zone_category": "Residential", "ev_permitted": false}, "geometry": {"type": "Polygon", "coordinates": [[[-118.411931588503, 34.0189158007839], [-118.41146751948, 34.0191796410804], [-118.411552695541, 34.0192875896758], [-118.41201669903, 34.0190237767539], [-118.411931588503, 34.0189158007839]]]}}, {"type": "Feature", "properties": {"zone_id": "0204YSO5N7M54ZNCF17UNQ", "tract_id": "06037271803", "city": "LOS ANGELES, CA", "zone_code": "R3-1", "zone_category": "Residential", "ev_permitted": false}, "geometry": {"type": "Polygon", "coordinates": [[[-118.411388278483, 34.019379489611], [-118.410938759762, 34.0196369032006], [-118.411082490477, 34.0198212636537], [-118.411533260628, 34.0195632132495], [-118.411388278483, 34.019379489611]]]}}, {"type": "Feature", "properties": {"zone_id": "02003YL77DQ2KFCDTGY86S", "tract_id": "06037271803", "city": "LOS ANGELES, CA", "zone_code": "R3-1", "zone_category": "Residential", "ev_permitted": false}, "geometry": {"type": "Polygon", "coordinates": [[[-118.411303999066, 34.0192726644747], [-118.410854175434, 34.0195284025815], [-118.410938759762, 34.0196369032006], [-118.411388278483, 34.019379489611], [-118.411303999066, 34.0192726644747]]]}}, {"type": "Feature", "properties": {"zone_id": "02019SXH4AFPGBY606ZK5R", "tract_id": "06037271803", "city": "LOS ANGELES, CA", "zone_code": "R3-1", "zone_category": "Residential", "ev_permitted": false}, "geometry": {"type": "Polygon", "coordinates": [[[-118.411218823341, 34.0191647157038], [-118.410769690999, 34.0194200389585], [-118.410854175434, 34.0195284025815], [-118.411303999066, 34.0192726644747], [-118.411218823341, 34.0191647157038]]]}}, {"type": "Feature", "properties": {"zone_id": "0202XU0ZXZUZ4C7RT5PWL0", "tract_id": "06037271803", "city": "LOS ANGELES, CA", "zone_code": "R3-1", "zone_category": "Residential", "ev_permitted": false}, "geometry": {"type": "Polygon", "coordinates": [[[-118.411133647971, 34.019056794352], [-118.410685239917, 34.0193117026432], [-118.410769690999, 34.0194200389585], [-118.411218823341, 34.0191647157038], [-118.411133647971, 34.019056794352]]]}}, {"type": "Feature", "properties": {"zone_id": "0203VOJTRS18E53Y6DXCF0", "tract_id": "06037271803", "city": "LOS ANGELES, CA", "zone_code": "R3-1", "zone_category": "Residential", "ev_permitted": false}, "geometry": {"type": "Polygon", "coordinates": [[[-118.411761335243, 34.018699876257], [-118.411297168152, 34.0189637711895], [-118.41146751948, 34.0191796410804], [-118.411931588503, 34.0189158007839], [-118.411761335243, 34.018699876257]]]}}, {"type": "Feature", "properties": {"zone_id": "0204SDD2ZE2HAG0073S1R9", "tract_id": "06037271803", "city": "LOS ANGELES, CA", "zone_code": "R3-1", "zone_category": "Residential", "ev_permitted": false}, "geometry": {"type": "Polygon", "coordinates": [[[-118.41167622551, 34.0185919275874], [-118.411212025885, 34.0188558497817], [-118.411297168152, 34.0189637711895], [-118.411761335243, 34.018699876257], [-118.41167622551, 34.0185919275874]]]}}, {"type": "Feature", "properties": {"zone_id": "0207APK75DTAR9LFZJF566", "tract_id": "06037271803", "city": "LOS ANGELES, CA", "zone_code": "R3-1", "zone_category": "Residential", "ev_permitted": false}, "geometry": {"type": "Polygon", "coordinates": [[[-118.411505973568, 34.0183760027043], [-118.411041708875, 34.018639979422], [-118.411212025885, 34.0188558497817], [-118.41167622551, 34.0185919275874], [-118.411505973568, 34.0183760027043]]]}}, {"type": "Feature", "properties": {"zone_id": "02034UGBWLHGV0BDPTYYEM", "tract_id": "06037271803", "city": "LOS ANGELES, CA", "zone_code": "R3-1", "zone_category": "Residential", "ev_permitted": false}, "geometry": {"type": "Polygon", "coordinates": [[[-118.410878155773, 34.0187329473923], [-118.410431854983, 34.0189866934592], [-118.410516338409, 34.0190950298374], [-118.410963330754, 34.0188409238791], [-118.410878155773, 34.0187329473923]]]}}, {"type": "Feature", "properties": {"zone_id": "0204WO5AKVMXAZRMHGFNVA", "tract_id": "06037271803", "city": "LOS ANGELES, CA", "zone_code": "R3-1", "zone_category": "Residential", "ev_permitted": false}, "geometry": {"type": "Polygon", "coordinates": [[[-118.410963330754, 34.0188409238791], [-118.410516338409, 34.0190950298374], [-118.410685239917, 34.0193117026432], [-118.411133647971, 34.019056794352], [-118.410963330754, 34.0188409238791]]]}}, {"type": "Feature", "properties": {"zone_id": "0202609T5ASCIPGEUSOI6N", "tract_id": "06037271803", "city": "LOS ANGELES, CA", "zone_code": "R3-1", "zone_category": "Residential", "ev_permitted": false}, "geometry": {"type": "Polygon", "coordinates": [[[-118.411884204522, 34.0180046009273], [-118.411420831359, 34.0182680264908], [-118.411505973568, 34.0183760027043], [-118.411969347061, 34.0181125768123], [-118.411884204522, 34.0180046009273]]]}}, {"type": "Feature", "properties": {"zone_id": "020745GZI7SBURD7MC58OY", "tract_id": "06037271803", "city": "LOS ANGELES, CA", "zone_code": "R3-1", "zone_category": "Residential", "ev_permitted": false}, "geometry": {"type": "Polygon", "coordinates": [[[-118.411799128472, 34.0178966797144], [-118.411335722639, 34.0181601050621], [-118.411420831359, 34.0182680264908], [-118.411884204522, 34.0180046009273], [-118.411799128472, 34.0178966797144]]]}}, {"type": "Feature", "properties": {"zone_id": "0200PMXETZUREMASOX3WKO", "tract_id": "06037271803", "city": "LOS ANGELES, CA", "zone_code": "R3-1", "zone_category": "Residential", "ev_permitted": false}, "geometry": {"type": "Polygon", "coordinates": [[[-118.412054456685, 34.0182205252722], [-118.411591082862, 34.0184839514925], [-118.411761335243, 34.018699876257], [-118.412224709726, 34.0184364493797], [-118.412054456685, 34.0182205252722]]]}}, {"type": "Feature", "properties": {"zone_id": "02069DPVB7KEHTYXZD6FOR", "tract_id": "06037271803", "city": "LOS ANGELES, CA", "zone_code": "R3-1", "zone_category": "Residential", "ev_permitted": false}, "geometry": {"type": "Polygon", "coordinates": [[[-118.411969347061, 34.0181125768123], [-118.411505973568, 34.0183760027043], [-118.411591082862, 34.0184839514925], [-118.412054456685, 34.0182205252722], [-118.411969347061, 34.0181125768123]]]}}, {"type": "Feature", "properties": {"zone_id": "0200JCMBKA3B84LXV7K2EA", "tract_id": "06037271803", "city": "LOS ANGELES, CA", "zone_code": "R3-1", "zone_category": "Residential", "ev_permitted": false}, "geometry": {"type": "Polygon", "coordinates": [[[-118.411250580735, 34.0180521012516], [-118.410786185306, 34.018316132388], [-118.411041708875, 34.018639979422], [-118.411505973568, 34.0183760027043], [-118.411250580735, 34.0180521012516]]]}}, {"type": "Feature", "properties": {"zone_id": "02040IJC9NO4F0SM9I52NK", "tract_id": "06037271803", "city": "LOS ANGELES, CA", "zone_code": "R3-1", "zone_category": "Residential", "ev_permitted": false}, "geometry": {"type": "Polygon", "coordinates": [[[-118.411165472454, 34.0179441797043], [-118.410701044356, 34.0182082106238], [-118.410786185306, 34.018316132388], [-118.411250580735, 34.0180521012516], [-118.411165472454, 34.0179441797043]]]}}, {"type": "Feature", "properties": {"zone_id": "0202G4Q8HEVG0EJJ0D8HF2", "tract_id": "06037271803", "city": "LOS ANGELES, CA", "zone_code": "R3-1", "zone_category": "Residential", "ev_permitted": false}, "geometry": {"type": "Polygon", "coordinates": [[[-118.411080364123, 34.0178362031409], [-118.410615870492, 34.0181002614342], [-118.410701044356, 34.0182082106238], [-118.411165472454, 34.0179441797043], [-118.411080364123, 34.0178362031409]]]}}, {"type": "Feature", "properties": {"zone_id": "0202RQN1TQK5R3S1TXIAST", "tract_id": "06037271803", "city": "LOS ANGELES, CA", "zone_code": "R3-1", "zone_category": "Residential", "ev_permitted": false}, "geometry": {"type": "Polygon", "coordinates": [[[-118.411628877492, 34.0176807275351], [-118.411165472454, 34.0179441797043], [-118.411335722639, 34.0181601050621], [-118.411799128472, 34.0178966797144], [-118.411628877492, 34.0176807275351]]]}}, {"type": "Feature", "properties": {"zone_id": "0202267B86869RFLRZ2ALD", "tract_id": "06037271803", "city": "LOS ANGELES, CA", "zone_code": "R3-1", "zone_category": "Residential", "ev_permitted": false}, "geometry": {"type": "Polygon", "coordinates": [[[-118.411543735832, 34.0175727514127], [-118.411080364123, 34.0178362031409], [-118.411165472454, 34.0179441797043], [-118.411628877492, 34.0176807275351], [-118.411543735832, 34.0175727514127]]]}}, {"type": "Feature", "properties": {"zone_id": "02074Q5O095ZRYVLNMOSB4", "tract_id": "06037271803", "city": "LOS ANGELES, CA", "zone_code": "R3-1", "zone_category": "Residential", "ev_permitted": false}, "geometry": {"type": "Polygon", "coordinates": [[[-118.410910115255, 34.017620277427], [-118.410445523557, 34.0178843903551], [-118.410530696982, 34.0179923396636], [-118.410995256146, 34.0177282539966], [-118.410910115255, 34.017620277427]]]}}, {"type": "Feature", "properties": {"zone_id": "0200Z1UX6FPYAA21BRWC4Y", "tract_id": "06037271803", "city": "LOS ANGELES, CA", "zone_code": "R3-1", "zone_category": "Residential", "ev_permitted": false}, "geometry": {"type": "Polygon", "coordinates": [[[-118.411373486304, 34.0173568263556], [-118.410910115255, 34.017620277427], [-118.411080364123, 34.0178362031409], [-118.411543735832, 34.0175727514127], [-118.411373486304, 34.0173568263556]]]}}, {"type": "Feature", "properties": {"zone_id": "0200BVBBZ504BKCGL53Z79", "tract_id": "06037271803", "city": "LOS ANGELES, CA", "zone_code": "R3-1", "zone_category": "Residential", "ev_permitted": false}, "geometry": {"type": "Polygon", "coordinates": [[[-118.410995256146, 34.0177282539966], [-118.410530696982, 34.0179923396636], [-118.410615870492, 34.0181002614342], [-118.411080364123, 34.0178362031409], [-118.410995256146, 34.0177282539966]]]}}, {"type": "Feature", "properties": {"zone_id": "0201YVEVRLD4CIGQSMY4TW", "tract_id": "06037271803", "city": "LOS ANGELES, CA", "zone_code": "R3-1", "zone_category": "Residential", "ev_permitted": false}, "geometry": {"type": "Polygon", "coordinates": [[[-118.411203237655, 34.0171409010612], [-118.410739867265, 34.0174043514757], [-118.410910115255, 34.017620277427], [-118.411373486304, 34.0173568263556], [-118.411203237655, 34.0171409010612]]]}}, {"type": "Feature", "properties": {"zone_id": "0205208MNIKOQBAFGN6NY5", "tract_id": "06037271803", "city": "LOS ANGELES, CA", "zone_code": "R3-1", "zone_category": "Residential", "ev_permitted": false}, "geometry": {"type": "Polygon", "coordinates": [[[-118.411076456526, 34.0169800873533], [-118.410728953922, 34.017177633662], [-118.410855767817, 34.0173384751027], [-118.411203237655, 34.0171409010612], [-118.411076456526, 34.0169800873533]]]}}, {"type": "Feature", "properties": {"zone_id": "020312AGTDG830MIKVANWZ", "tract_id": "06037271803", "city": "LOS ANGELES, CA", "zone_code": "C2-1", "zone_category": "Commercial", "ev_permitted": true}, "geometry": {"type": "Polygon", "coordinates": [[[-118.410913381759, 34.0167732327076], [-118.410854413653, 34.0167735158633], [-118.410779483769, 34.0168161431604], [-118.410960655371, 34.0170459086431], [-118.411076456526, 34.0169800873533], [-118.410913381759, 34.0167732327076]]]}}, {"type": "Feature", "properties": {"zone_id": "0202K0PTI8W58N75XCRTUY", "tract_id": "06037271803", "city": "LOS ANGELES, CA", "zone_code": "C2-1", "zone_category": "Commercial", "ev_permitted": true}, "geometry": {"type": "Polygon", "coordinates": [[[-118.410663683012, 34.0168820465997], [-118.410547849073, 34.0169479500403], [-118.410728953922, 34.017177633662], [-118.410844821304, 34.017111784891], [-118.410663683012, 34.0168820465997]]]}}, {"type": "Feature", "properties": {"zone_id": "0207CSUDWVKKXQM8957FMF", "tract_id": "06037271803", "city": "LOS ANGELES, CA", "zone_code": "C2-1", "zone_category": "Commercial", "ev_permitted": true}, "geometry": {"type": "Polygon", "coordinates": [[[-118.410779483769, 34.0168161431604], [-118.410663683012, 34.0168820465997], [-118.410844821304, 34.017111784891], [-118.410960655371, 34.0170459086431], [-118.410779483769, 34.0168161431604]]]}}, {"type": "Feature", "properties": {"zone_id": "02037KQQFBMUDW3H1WBXL0", "tract_id": "06037271803", "city": "LOS ANGELES, CA", "zone_code": "R3-1", "zone_category": "Residential", "ev_permitted": false}, "geometry": {"type": "Polygon", "coordinates": [[[-118.410432080815, 34.0170138256673], [-118.41031627951, 34.0170797287741], [-118.410624098257, 34.0174701723319], [-118.410739867265, 34.0174043514757], [-118.410432080815, 34.0170138256673]]]}}, {"type": "Feature", "properties": {"zone_id": "02006U75QEECUMYOE9WK1W", "tract_id": "06037271803", "city": "LOS ANGELES, CA", "zone_code": "R3-1", "zone_category": "Residential", "ev_permitted": false}, "geometry": {"type": "Polygon", "coordinates": [[[-118.410547849073, 34.0169479500403], [-118.410432080815, 34.0170138256673], [-118.410739867265, 34.0174043514757], [-118.410855767817, 34.0173384751027], [-118.410547849073, 34.0169479500403]]]}}, {"type": "Feature", "properties": {"zone_id": "0200HV3LNEGFKJVI0R21VR", "tract_id": "06037271803", "city": "LOS ANGELES, CA", "zone_code": "R3-1", "zone_category": "Residential", "ev_permitted": false}, "geometry": {"type": "Polygon", "coordinates": [[[-118.41031627951, 34.0170797287741], [-118.409967327596, 34.0172782670465], [-118.4102752435, 34.017668518814], [-118.410624098257, 34.0174701723319], [-118.41031627951, 34.0170797287741]]]}}]}