{"type": "FeatureCollection", "features": [{"type": "Feature", "properties": {"zone_id": "0202AU9BAP543DCU3NMY0V", "tract_id": "36061010802", "city": "NEW YORK, NY", "zone_code": "TA", "zone_category": "Other", "ev_permitted": false}, "geometry": {"type": "Polygon", "coordinates": [[[-73.9642772677397, 40.7598500400915], [-73.9640983858643, 40.7600970103842], [-73.9640210316989, 40.7600644147051], [-73.9638414112457, 40.7603124053176], [-73.9642365846812, 40.7604789228573], [-73.9645971869872, 40.7599848468439], [-73.9642772677397, 40.7598500400915]]]}}, {"type": "Feature", "properties": {"zone_id": "0203OIDUAF49M1DX9KR934", "tract_id": "36061010802", "city": "NEW YORK, NY", "zone_code": "TA", "zone_category": "Other", "ev_permitted": false}, "geometry": {"type": "Polygon", "coordinates": [[[-73.9641999137735, 40.7598174445314], [-73.9640210316989, 40.7600644147051], [-73.9640983858643, 40.7600970103842], [-73.9642772677397, 40.7598500400915], [-73.9641999137735, 40.7598174445314]]]}}, {"type": "Feature", "properties": {"zone_id": "0202UYMZ4VVYZUBDJK62RC", "tract_id": "36061010802", "city": "NEW YORK, NY", "zone_code": "TA", "zone_category": "Other", "ev_permitted": false}, "geometry": {"type": "Polygon", "coordinates": [[[-73.9638837867646, 40.7596842335893], [-73.9635252826046, 40.7601791934014], [-73.963678411891, 40.7602437201634], [-73.9640369152603, 40.7597487598794], [-73.9638837867646, 40.7596842335893]]]}}, {"type": "Feature", "properties": {"zone_id": "0200STBT1Z7JI68AAZ8Q2G", "tract_id": "36061010802", "city": "NEW YORK, NY", "zone_code": "TA", "zone_category": "Other", "ev_permitted": false}, "geometry": {"type": "Polygon", "coordinates": [[[-73.9639408366991, 40.7600306221668], [-73.9637612160388, 40.7602786119529], [-73.9638414112457, 40.7603124053176], [-73.9640210316989, 40.7600644147051], [-73.9639408366991, 40.7600306221668]]]}}, {"type": "Feature", "properties": {"zone_id": "0203IUXKV04OJGUF3497R6", "tract_id": "36061010802", "city": "NEW YORK, NY", "zone_code": "TA", "zone_category": "Other", "ev_permitted": false}, "geometry": {"type": "Polygon", "coordinates": [[[-73.9638580327658, 40.7599957298025], [-73.963678411891, 40.7602437201634], [-73.9637612160388, 40.7602786119529], [-73.9639408366991, 40.7600306221668], [-73.9638580327658, 40.7599957298025]]]}}, {"type": "Feature", "properties": {"zone_id": "0207MX61XODO3KKWPVPI9L", "tract_id": "36061010802", "city": "NEW YORK, NY", "zone_code": "R8", "zone_category": "Residential", "ev_permitted": false}, "geometry": {"type": "Polygon", "coordinates": [[[-73.9636232531782, 40.7598967973435], [-73.9634436316963, 40.7601447866393], [-73.9635252826046, 40.7601791934014], [-73.9637049038753, 40.7599312039796], [-73.9636232531782, 40.7598967973435]]]}}, {"type": "Feature", "properties": {"zone_id": "0201C8GNZC744A4TGFKZT5", "tract_id": "36061010802", "city": "NEW YORK, NY", "zone_code": "R8", "zone_category": "Residential", "ev_permitted": false}, "geometry": {"type": "Polygon", "coordinates": [[[-73.9635404403387, 40.759861901234], [-73.9633608186427, 40.7601098904019], [-73.9634436316963, 40.7601447866393], [-73.9636232531782, 40.7598967973435], [-73.9635404403387, 40.759861901234]]]}}, {"type": "Feature", "properties": {"zone_id": "0207451T8KCY2LL8XK9VQP", "tract_id": "36061010802", "city": "NEW YORK, NY", "zone_code": "TA", "zone_category": "Other", "ev_permitted": false}, "geometry": {"type": "Polygon", "coordinates": [[[-73.9641197180566, 40.7597836514135], [-73.9639408366991, 40.7600306221668], [-73.9640210316989, 40.7600644147051], [-73.9641999137735, 40.7598174445314], [-73.9641197180566, 40.7597836514135]]]}}, {"type": "Feature", "properties": {"zone_id": "0205W1AUNQS6I95115W12K", "tract_id": "36061010802", "city": "NEW YORK, NY", "zone_code": "TA", "zone_category": "Other", "ev_permitted": false}, "geometry": {"type": "Polygon", "coordinates": [[[-73.9640369152603, 40.7597487598794], [-73.9638580327658, 40.7599957298025], [-73.9639408366991, 40.7600306221668], [-73.9641197180566, 40.7597836514135], [-73.9640369152603, 40.7597487598794]]]}}, {"type": "Feature", "properties": {"zone_id": "0201LYBE5FIHCIE50NLBFR", "tract_id": "36061010802", "city": "NEW YORK, NY", "zone_code": "R8B", "zone_category": "Residential", "ev_permitted": false}, "geometry": {"type": "Polygon", "coordinates": [[[-73.9637821373305, 40.7596414001817], [-73.9636032551033, 40.759888370416], [-73.9637049038753, 40.7599312039796], [-73.9638837867646, 40.7596842335893], [-73.9637821373305, 40.7596414001817]]]}}, {"type": "Feature", "properties": {"zone_id": "0201QPKAA65W2NEB7BBT87", "tract_id": "36061010802", "city": "NEW YORK, NY", "zone_code": "R8B", "zone_category": "Residential", "ev_permitted": false}, "geometry": {"type": "Polygon", "coordinates": [[[-73.9637091075411, 40.7596106269306], [-73.9635302251262, 40.75985759635], [-73.9636032551033, 40.759888370416], [-73.9637821373305, 40.7596414001817], [-73.9637091075411, 40.7596106269306]]]}}, {"type": "Feature", "properties": {"zone_id": "0203R2ZRD09Y3DHX9X1SHN", "tract_id": "36061010802", "city": "NEW YORK, NY", "zone_code": "R8", "zone_category": "Residential", "ev_permitted": false}, "geometry": {"type": "Polygon", "coordinates": [[[-73.9634626515779, 40.7598291216483], [-73.9632830296802, 40.7600771113988], [-73.9633608186427, 40.7601098904019], [-73.9635404403387, 40.759861901234], [-73.9634626515779, 40.7598291216483]]]}}, {"type": "Feature", "properties": {"zone_id": "02040G4QRKO20PYZCW0ICC", "tract_id": "36061010802", "city": "NEW YORK, NY", "zone_code": "R8B", "zone_category": "Residential", "ev_permitted": false}, "geometry": {"type": "Polygon", "coordinates": [[[-73.9633842466744, 40.7597960825345], [-73.9632046245735, 40.7600440728666], [-73.9632830296802, 40.7600771113988], [-73.9634626515779, 40.7598291216483], [-73.9633842466744, 40.7597960825345]]]}}, {"type": "Feature", "properties": {"zone_id": "02068B1W4DQCJKXFXVXP74", "tract_id": "36061010802", "city": "NEW YORK, NY", "zone_code": "R8", "zone_category": "Residential", "ev_permitted": false}, "geometry": {"type": "Polygon", "coordinates": [[[-73.9633072415051, 40.7597636333401], [-73.9631276192059, 40.7600116221481], [-73.9632046245735, 40.7600440728666], [-73.9633842466744, 40.7597960825345], [-73.9633072415051, 40.7597636333401]]]}}, {"type": "Feature", "properties": {"zone_id": "0206XZR8OS0TBY0HWFMUU8", "tract_id": "36061010802", "city": "NEW YORK, NY", "zone_code": "R8", "zone_category": "Residential", "ev_permitted": false}, "geometry": {"type": "Polygon", "coordinates": [[[-73.9632277373564, 40.7597301314227], [-73.9630481148515, 40.7599781201079], [-73.9631276192059, 40.7600116221481], [-73.9633072415051, 40.7597636333401], [-73.9632277373564, 40.7597301314227]]]}}, {"type": "Feature", "properties": {"zone_id": "0202DQ3O2LKU5SRZLLU9PK", "tract_id": "36061010802", "city": "NEW YORK, NY", "zone_code": "R8", "zone_category": "Residential", "ev_permitted": false}, "geometry": {"type": "Polygon", "coordinates": [[[-73.9630943692715, 40.7596739312231], [-73.9629147464215, 40.7599219197024], [-73.9630481148515, 40.7599781201079], [-73.9632277373564, 40.7597301314227], [-73.9630943692715, 40.7596739312231]]]}}, {"type": "Feature", "properties": {"zone_id": "0206YILW6W8LLS3J6VDE8X", "tract_id": "36061010802", "city": "NEW YORK, NY", "zone_code": "R8", "zone_category": "Residential", "ev_permitted": false}, "geometry": {"type": "Polygon", "coordinates": [[[-73.963045610557, 40.7596533840285], [-73.9628659875809, 40.7599013724325], [-73.9629147464215, 40.7599219197024], [-73.9630943692715, 40.7596739312231], [-73.963045610557, 40.7596533840285]]]}}, {"type": "Feature", "properties": {"zone_id": "020591BC15DKDGE4IXNZTJ", "tract_id": "36061010802", "city": "NEW YORK, NY", "zone_code": "R8", "zone_category": "Residential", "ev_permitted": false}, "geometry": {"type": "Polygon", "coordinates": [[[-73.9629920394748, 40.7596308095145], [-73.9628124154361, 40.7598787978355], [-73.9628659875809, 40.7599013724325], [-73.963045610557, 40.7596533840285], [-73.9629920394748, 40.7596308095145]]]}}, {"type": "Feature", "properties": {"zone_id": "02069WGIINARDYDS6QJZF3", "tract_id": "36061010802", "city": "NEW YORK, NY", "zone_code": "TA", "zone_category": "Other", "ev_permitted": false}, "geometry": {"type": "Polygon", "coordinates": [[[-73.9645031428554, 40.759119931734], [-73.9641405585949, 40.7596176178389], [-73.9646981074945, 40.759851484487], [-73.9650606888617, 40.759353797347], [-73.9645031428554, 40.759119931734]]]}}, {"type": "Feature", "properties": {"zone_id": "0202FRCG4E9BR6CJWIZXPL", "tract_id": "36061010802", "city": "NEW YORK, NY", "zone_code": "TA", "zone_category": "Other", "ev_permitted": false}, "geometry": {"type": "Polygon", "coordinates": [[[-73.9643453663178, 40.7590537505701], [-73.9639827821627, 40.7595514361836], [-73.9641405585949, 40.7596176178389], [-73.9645031428554, 40.759119931734], [-73.9643453663178, 40.7590537505701]]]}}, {"type": "Feature", "properties": {"zone_id": "0205OIM5UTPW2KDL2SX2ZY", "tract_id": "36061010802", "city": "NEW YORK, NY", "zone_code": "TA", "zone_category": "Other", "ev_permitted": false}, "geometry": {"type": "Polygon", "coordinates": [[[-73.9649835478117, 40.7587056313212], [-73.9648070674645, 40.758947876024], [-73.96522783325, 40.7591243672764], [-73.9653975666475, 40.7588913837069], [-73.9651650482013, 40.7587938533353], [-73.9651717950342, 40.7587845929828], [-73.9649835478117, 40.7587056313212]]]}}, {"type": "Feature", "properties": {"zone_id": "0203UFGHZ2JK86SXSK6E91", "tract_id": "36061010802", "city": "NEW YORK, NY", "zone_code": "TA", "zone_category": "Other", "ev_permitted": false}, "geometry": {"type": "Polygon", "coordinates": [[[-73.9652736779061, 40.7586447427804], [-73.9652367729713, 40.758695400774], [-73.9654692911792, 40.7587929302995], [-73.9655061950667, 40.7587422729345], [-73.9652736779061, 40.7586447427804]]]}}, {"type": "Feature", "properties": {"zone_id": "0203MYQU7E03RS20AI7WWP", "tract_id": "36061010802", "city": "NEW YORK, NY", "zone_code": "TA", "zone_category": "Other", "ev_permitted": false}, "geometry": {"type": "Polygon", "coordinates": [[[-73.9652367729713, 40.758695400774], [-73.9652008149034, 40.7587447584279], [-73.9654333332305, 40.758842288728], [-73.9654692911792, 40.7587929302995], [-73.9652367729713, 40.758695400774]]]}}, {"type": "Feature", "properties": {"zone_id": "0204IIXPZN9CJ42AS6I8PJ", "tract_id": "36061010802", "city": "NEW YORK, NY", "zone_code": "TA", "zone_category": "Other", "ev_permitted": false}, "geometry": {"type": "Polygon", "coordinates": [[[-73.9652008149034, 40.7587447584279], [-73.9651650482013, 40.7587938533353], [-73.9653975666475, 40.7588913837069], [-73.9654333332305, 40.758842288728], [-73.9652008149034, 40.7587447584279]]]}}, {"type": "Feature", "properties": {"zone_id": "0202BZXO9Y9UDFUULOH39D", "tract_id": "36061010802", "city": "NEW YORK, NY", "zone_code": "R10", "zone_category": "Residential", "ev_permitted": false}, "geometry": {"type": "Polygon", "coordinates": [[[-73.9642747813761, 40.7590241434328], [-73.9640960236283, 40.7592695089265], [-73.9641666078264, 40.7592991161721], [-73.9643453663178, 40.7590537505701], [-73.9642747813761, 40.7590241434328]]]}}, {"type": "Feature", "properties": {"zone_id": "02072PNRSXABUS3MP91KBX", "tract_id": "36061010802", "city": "NEW YORK, NY", "zone_code": "TA", "zone_category": "Other", "ev_permitted": false}, "geometry": {"type": "Polygon", "coordinates": [[[-73.9646848481552, 40.7585803397412], [-73.964508367054, 40.7588225832882], [-73.9648070674645, 40.758947876024], [-73.9649835478117, 40.7587056313212], [-73.9646848481552, 40.7585803397412]]]}}, {"type": "Feature", "properties": {"zone_id": "02021RU6EGATHQ009036GL", "tract_id": "36061010802", "city": "NEW YORK, NY", "zone_code": "R8B", "zone_category": "Residential", "ev_permitted": false}, "geometry": {"type": "Polygon", "coordinates": [[[-73.9638351921822, 40.759160099916], [-73.9636513647231, 40.7594124187008], [-73.9639827821627, 40.7595514361836], [-73.9641666078264, 40.7592991161721], [-73.9638351921822, 40.759160099916]]]}}, {"type": "Feature", "properties": {"zone_id": "0201FOWZT59D5RL5QFC28O", "tract_id": "36061010802", "city": "NEW YORK, NY", "zone_code": "R8B", "zone_category": "Residential", "ev_permitted": false}, "geometry": {"type": "Polygon", "coordinates": [[[-73.963637259443, 40.7595803507828], [-73.9634583768426, 40.7598273207944], [-73.9635302251262, 40.75985759635], [-73.9637091075411, 40.7596106269306], [-73.963637259443, 40.7595803507828]]]}}, {"type": "Feature", "properties": {"zone_id": "0204QF0X7IR8FM9R0O6C9E", "tract_id": "36061010802", "city": "NEW YORK, NY", "zone_code": "R8B", "zone_category": "Residential", "ev_permitted": false}, "geometry": {"type": "Polygon", "coordinates": [[[-73.9635630398507, 40.7595490753679], [-73.9633841561354, 40.7597960445624], [-73.9634583768426, 40.7598273207944], [-73.963637259443, 40.7595803507828], [-73.9635630398507, 40.7595490753679]]]}}, {"type": "Feature", "properties": {"zone_id": "0203BT45MQKRYIJ29BRJI8", "tract_id": "36061010802", "city": "NEW YORK, NY", "zone_code": "R8B", "zone_category": "Residential", "ev_permitted": false}, "geometry": {"type": "Polygon", "coordinates": [[[-73.9634861235704, 40.7595166642633], [-73.9633072415051, 40.7597636333401], [-73.9633841561354, 40.7597960445624], [-73.9635630398507, 40.7595490753679], [-73.9634861235704, 40.7595166642633]]]}}, {"type": "Feature", "properties": {"zone_id": "0200PFH9T8WFVSVAWWQAYE", "tract_id": "36061010802", "city": "NEW YORK, NY", "zone_code": "R8B", "zone_category": "Residential", "ev_permitted": false}, "geometry": {"type": "Polygon", "coordinates": [[[-73.9636979323654, 40.7591025233908], [-73.9635141045448, 40.7593548426614], [-73.9636513647231, 40.7594124187008], [-73.9638351921822, 40.759160099916], [-73.9636979323654, 40.7591025233908]]]}}, {"type": "Feature", "properties": {"zone_id": "0205QJVTGUPVT43F2IBLDV", "tract_id": "36061010802", "city": "NEW YORK, NY", "zone_code": "R8B", "zone_category": "Residential", "ev_permitted": false}, "geometry": {"type": "Polygon", "coordinates": [[[-73.9634234560975, 40.7594902561936], [-73.9632445729463, 40.7597372258764], [-73.9633072415051, 40.7597636333401], [-73.9634861235704, 40.7595166642633], [-73.9634234560975, 40.7594902561936]]]}}, {"type": "Feature", "properties": {"zone_id": "0201UO54AKUCJRA2DX3E59", "tract_id": "36061010802", "city": "NEW YORK, NY", "zone_code": "R8B", "zone_category": "Residential", "ev_permitted": false}, "geometry": {"type": "Polygon", "coordinates": [[[-73.963362901546, 40.7594647390249], [-73.9631840182392, 40.759711707912], [-73.9632445729463, 40.7597372258764], [-73.9634234560975, 40.7594902561936], [-73.963362901546, 40.7594647390249]]]}}, {"type": "Feature", "properties": {"zone_id": "020764MFBDSNYPBYAQJFP6", "tract_id": "36061010802", "city": "NEW YORK, NY", "zone_code": "R8B", "zone_category": "Residential", "ev_permitted": false}, "geometry": {"type": "Polygon", "coordinates": [[[-73.9631071594325, 40.7593569706857], [-73.9629282745428, 40.7596039391793], [-73.9631840182392, 40.759711707912], [-73.963362901546, 40.7594647390249], [-73.9631071594325, 40.7593569706857]]]}}, {"type": "Feature", "properties": {"zone_id": "0202DX9LM5NF5BDR44DQJ1", "tract_id": "36061010802", "city": "NEW YORK, NY", "zone_code": "R8B", "zone_category": "Residential", "ev_permitted": false}, "geometry": {"type": "Polygon", "coordinates": [[[-73.9627517322381, 40.7595295449004], [-73.9625721085014, 40.7597775335533], [-73.9628124154361, 40.7598787978355], [-73.9629920394748, 40.7596308095145], [-73.9627517322381, 40.7595295449004]]]}}, {"type": "Feature", "properties": {"zone_id": "02046V5IOM2VOHOQMRJS0Y", "tract_id": "36061010802", "city": "NEW YORK, NY", "zone_code": "R8B", "zone_category": "Residential", "ev_permitted": false}, "geometry": {"type": "Polygon", "coordinates": [[[-73.9630459122296, 40.7593311615264], [-73.9628670271822, 40.7595781299258], [-73.9629282745428, 40.7596039391793], [-73.9631071594325, 40.7593569706857], [-73.9630459122296, 40.7593311615264]]]}}, {"type": "Feature", "properties": {"zone_id": "0206AIB9H5EMGHEWDW8G6I", "tract_id": "36061010802", "city": "NEW YORK, NY", "zone_code": "R8B", "zone_category": "Residential", "ev_permitted": false}, "geometry": {"type": "Polygon", "coordinates": [[[-73.9629812662027, 40.759303919935], [-73.9628023819128, 40.7595508882353], [-73.9628670271822, 40.7595781299258], [-73.9630459122296, 40.7593311615264], [-73.9629812662027, 40.759303919935]]]}}, {"type": "Feature", "properties": {"zone_id": "0204MQF7U1O2IQMO92PL3R", "tract_id": "36061010802", "city": "NEW YORK, NY", "zone_code": "R8B", "zone_category": "Residential", "ev_permitted": false}, "geometry": {"type": "Polygon", "coordinates": [[[-73.9629182148056, 40.7592773498555], [-73.9627393294291, 40.7595243180586], [-73.9628023819128, 40.7595508882353], [-73.9629812662027, 40.759303919935], [-73.9629182148056, 40.7592773498555]]]}}, {"type": "Feature", "properties": {"zone_id": "0200RDHSD72GC7B8HE2JLR", "tract_id": "36061010802", "city": "NEW YORK, NY", "zone_code": "R8B", "zone_category": "Residential", "ev_permitted": false}, "geometry": {"type": "Polygon", "coordinates": [[[-73.9628534109039, 40.7592500413892], [-73.9626745253601, 40.7594970101952], [-73.9627393294291, 40.7595243180586], [-73.9629182148056, 40.7592773498555], [-73.9628534109039, 40.7592500413892]]]}}, {"type": "Feature", "properties": {"zone_id": "0201KFESBOC5T7MXQQNNY1", "tract_id": "36061010802", "city": "NEW YORK, NY", "zone_code": "R10", "zone_category": "Residential", "ev_permitted": false}, "geometry": {"type": "Polygon", "coordinates": [[[-73.9627766191109, 40.7592176818458], [-73.9625977342938, 40.7594646498314], [-73.9626745253601, 40.7594970101952], [-73.9628534109039, 40.7592500413892], [-73.9627766191109, 40.7592176818458]]]}}, {"type": "Feature", "properties": {"zone_id": "02049IUNQ0G5SFQQHARG0A", "tract_id": "36061010802", "city": "NEW YORK, NY", "zone_code": "R10", "zone_category": "Residential", "ev_permitted": false}, "geometry": {"type": "Polygon", "coordinates": [[[-73.9636283235335, 40.7587529764644], [-73.9634495373147, 40.7589983760889], [-73.9638351921822, 40.759160099916], [-73.9640139524454, 40.7589147348236], [-73.9636283235335, 40.7587529764644]]]}}, {"type": "Feature", "properties": {"zone_id": "0202MXTCE0FJCB0FPO4XOX", "tract_id": "36061010802", "city": "NEW YORK, NY", "zone_code": "R10", "zone_category": "Residential", "ev_permitted": false}, "geometry": {"type": "Polygon", "coordinates": [[[-73.9640139524454, 40.7589147348236], [-73.9638351921822, 40.759160099916], [-73.9640960236283, 40.7592695089265], [-73.9642747813761, 40.7590241434328], [-73.9640139524454, 40.7589147348236]]]}}, {"type": "Feature", "properties": {"zone_id": "0204T1SRQF06ZNVC9VAJT8", "tract_id": "36061010802", "city": "NEW YORK, NY", "zone_code": "R8B", "zone_category": "Residential", "ev_permitted": false}, "geometry": {"type": "Polygon", "coordinates": [[[-73.9634495373147, 40.7589983760889], [-73.9632657347345, 40.7592506591399], [-73.9635141045448, 40.7593548426614], [-73.9636979323654, 40.7591025233908], [-73.9634495373147, 40.7589983760889]]]}}, {"type": "Feature", "properties": {"zone_id": "0203YW831AC4U4BEX669TB", "tract_id": "36061010802", "city": "NEW YORK, NY", "zone_code": "R10", "zone_category": "Residential", "ev_permitted": false}, "geometry": {"type": "Polygon", "coordinates": [[[-73.9635053779892, 40.7587014041921], [-73.9633266173495, 40.7589467678005], [-73.9634495373147, 40.7589983760889], [-73.9636283235335, 40.7587529764644], [-73.9635053779892, 40.7587014041921]]]}}, {"type": "Feature", "properties": {"zone_id": "0204HYS4QTE3MV6RXI71YL", "tract_id": "36061010802", "city": "NEW YORK, NY", "zone_code": "R8B", "zone_category": "Residential", "ev_permitted": false}, "geometry": {"type": "Polygon", "coordinates": [[[-73.963262004771, 40.7589196647986], [-73.9630781758041, 40.7591719826777], [-73.9632657347345, 40.7592506591399], [-73.9634495373147, 40.7589983760889], [-73.963262004771, 40.7589196647986]]]}}, {"type": "Feature", "properties": {"zone_id": "020066198ICST26PVQ2I5R", "tract_id": "36061010802", "city": "NEW YORK, NY", "zone_code": "R8B", "zone_category": "Residential", "ev_permitted": false}, "geometry": {"type": "Polygon", "coordinates": [[[-73.9631349480558, 40.7588663672094], [-73.9629511187539, 40.759118686293], [-73.9630781758041, 40.7591719826777], [-73.963262004771, 40.7589196647986], [-73.9631349480558, 40.7588663672094]]]}}, {"type": "Feature", "properties": {"zone_id": "02040T3J25DEG92UAI00PU", "tract_id": "36061010802", "city": "NEW YORK, NY", "zone_code": "R10", "zone_category": "Residential", "ev_permitted": false}, "geometry": {"type": "Polygon", "coordinates": [[[-73.9630475164796, 40.7588296922483], [-73.9628636869482, 40.7590820104911], [-73.9629511187539, 40.759118686293], [-73.9631349480558, 40.7588663672094], [-73.9630475164796, 40.7588296922483]]]}}, {"type": "Feature", "properties": {"zone_id": "0202LFDOIUVPLJUPSN2HMA", "tract_id": "36061010802", "city": "NEW YORK, NY", "zone_code": "R10", "zone_category": "Residential", "ev_permitted": false}, "geometry": {"type": "Polygon", "coordinates": [[[-73.9626789174032, 40.7589182997238], [-73.9626308140161, 40.7589843252266], [-73.9628636869482, 40.7590820104911], [-73.9629117901751, 40.759015984892], [-73.9626789174032, 40.7589182997238]]]}}, {"type": "Feature", "properties": {"zone_id": "020541QN4MBU1KJQL3WH4D", "tract_id": "36061010802", "city": "NEW YORK, NY", "zone_code": "R10", "zone_category": "Residential", "ev_permitted": false}, "geometry": {"type": "Polygon", "coordinates": [[[-73.9632542289162, 40.7585960533479], [-73.9630754676338, 40.7588414172731], [-73.9633266173495, 40.7589467678005], [-73.9635053779892, 40.7587014041921], [-73.9632542289162, 40.7585960533479]]]}}, {"type": "Feature", "properties": {"zone_id": "0201M4O07VSQWVBD9VAJ94", "tract_id": "36061010802", "city": "NEW YORK, NY", "zone_code": "R10", "zone_category": "Residential", "ev_permitted": false}, "geometry": {"type": "Polygon", "coordinates": [[[-73.9628146432359, 40.7587320073515], [-73.9627700385466, 40.7587932306967], [-73.9630029110149, 40.7588909156825], [-73.9630475164796, 40.7588296922483], [-73.9628146432359, 40.7587320073515]]]}}, {"type": "Feature", "properties": {"zone_id": "0201K2P4H7B6O76SKAMQEY", "tract_id": "36061010802", "city": "NEW YORK, NY", "zone_code": "R10", "zone_category": "Residential", "ev_permitted": false}, "geometry": {"type": "Polygon", "coordinates": [[[-73.9627700385466, 40.7587932306967], [-73.9627247818072, 40.7588553482924], [-73.9629576544263, 40.7589530333688], [-73.9630029110149, 40.7588909156825], [-73.9627700385466, 40.7587932306967]]]}}, {"type": "Feature", "properties": {"zone_id": "0202HB6KDL85EFTC8IKLX2", "tract_id": "36061010802", "city": "NEW YORK, NY", "zone_code": "R10", "zone_category": "Residential", "ev_permitted": false}, "geometry": {"type": "Polygon", "coordinates": [[[-73.9627247818072, 40.7588553482924], [-73.9626789174032, 40.7589182997238], [-73.9629117901751, 40.759015984892], [-73.9629576544263, 40.7589530333688], [-73.9627247818072, 40.7588553482924]]]}}, {"type": "Feature", "properties": {"zone_id": "0202I9B97BK75DCCTHSFEZ", "tract_id": "36061010802", "city": "NEW YORK, NY", "zone_code": "TA", "zone_category": "Other", "ev_permitted": false}, "geometry": {"type": "Polygon", "coordinates": [[[-73.9653512281136, 40.7585382928818], [-73.9653104727428, 40.7585942351094], [-73.9655429907051, 40.7586917651903], [-73.9655837459407, 40.7586358221785], [-73.9653512281136, 40.7585382928818]]]}}, {"type": "Feature", "properties": {"zone_id": "0204S17ZJRNWVSKEDM4TAB", "tract_id": "36061010802", "city": "NEW YORK, NY", "zone_code": "TA", "zone_category": "Other", "ev_permitted": false}, "geometry": {"type": "Polygon", "coordinates": [[[-73.9653104727428, 40.7585942351094], [-73.9652736779061, 40.7586447427804], [-73.9655061950667, 40.7587422729345], [-73.9655429907051, 40.7586917651903], [-73.9653104727428, 40.7585942351094]]]}}, {"type": "Feature", "properties": {"zone_id": "0202E0W2GWMZHVEQACD608", "tract_id": "36061010802", "city": "NEW YORK, NY", "zone_code": "TA", "zone_category": "Other", "ev_permitted": false}, "geometry": {"type": "Polygon", "coordinates": [[[-73.9652885838552, 40.7585120165236], [-73.9651091506149, 40.7587583165279], [-73.9651717950342, 40.7587845929828], [-73.9653512281136, 40.7585382928818], [-73.9652885838552, 40.7585120165236]]]}}, {"type": "Feature", "properties": {"zone_id": "0200CYB4EKWCZUBOX0UZ8W", "tract_id": "36061010802", "city": "NEW YORK, NY", "zone_code": "TA", "zone_category": "Other", "ev_permitted": false}, "geometry": {"type": "Polygon", "coordinates": [[[-73.9652261946316, 40.7584858470116], [-73.965046760307, 40.7587321469195], [-73.9651091506149, 40.7587583165279], [-73.9652885838552, 40.7585120165236], [-73.9652261946316, 40.7584858470116]]]}}, {"type": "Feature", "properties": {"zone_id": "02018QTF8DIQN25OIL5PSL", "tract_id": "36061010802", "city": "NEW YORK, NY", "zone_code": "R8", "zone_category": "Residential", "ev_permitted": false}, "geometry": {"type": "Polygon", "coordinates": [[[-73.9650208688287, 40.7583997216057], [-73.9648414339769, 40.7586460211968], [-73.965046760307, 40.7587321469195], [-73.9652261946316, 40.7584858470116], [-73.9650208688287, 40.7583997216057]]]}}, {"type": "Feature", "properties": {"zone_id": "02067MLVK5S3VNCWN8F6TQ", "tract_id": "36061010802", "city": "NEW YORK, NY", "zone_code": "R8", "zone_category": "Residential", "ev_permitted": false}, "geometry": {"type": "Polygon", "coordinates": [[[-73.9649433923078, 40.7583672234665], [-73.9647639581811, 40.7586135229384], [-73.9648414339769, 40.7586460211968], [-73.9650208688287, 40.7583997216057], [-73.9649433923078, 40.7583672234665]]]}}, {"type": "Feature", "properties": {"zone_id": "0201H198DQ271EDIFHZKMH", "tract_id": "36061010802", "city": "NEW YORK, NY", "zone_code": "R8", "zone_category": "Residential", "ev_permitted": false}, "geometry": {"type": "Polygon", "coordinates": [[[-73.9645835250124, 40.7582162731194], [-73.9644268293185, 40.7584313601161], [-73.9647075874211, 40.7585491270636], [-73.9646848481552, 40.7585803397412], [-73.9647639581811, 40.7586135229384], [-73.9649433923078, 40.7583672234665], [-73.9645835250124, 40.7582162731194]]]}}, {"type": "Feature", "properties": {"zone_id": "0202L6BIIYA25BXX1YXEEP", "tract_id": "36061010802", "city": "NEW YORK, NY", "zone_code": "R8", "zone_category": "Residential", "ev_permitted": false}, "geometry": {"type": "Polygon", "coordinates": [[[-73.9639615186993, 40.7579553623143], [-73.9637439000727, 40.7582540691071], [-73.9643442379112, 40.7585447261714], [-73.9645835250124, 40.7582162731194], [-73.9639615186993, 40.7579553623143]]]}}, {"type": "Feature", "properties": {"zone_id": "02075NO4LISAH4526W8KSG", "tract_id": "36061010802", "city": "NEW YORK, NY", "zone_code": "R8", "zone_category": "Residential", "ev_permitted": false}, "geometry": {"type": "Polygon", "coordinates": [[[-73.9644926650819, 40.7584589757815], [-73.9644077794673, 40.7585754918779], [-73.9644174858349, 40.7585910551623], [-73.9643095617325, 40.7587391926563], [-73.964508367054, 40.7588225832882], [-73.9647075874211, 40.7585491270636], [-73.9644926650819, 40.7584589757815]]]}}, {"type": "Feature", "properties": {"zone_id": "0206Z96X45HGQ9E4WE0F6O", "tract_id": "36061010802", "city": "NEW YORK, NY", "zone_code": "R8", "zone_category": "Residential", "ev_permitted": false}, "geometry": {"type": "Polygon", "coordinates": [[[-73.9644268293185, 40.7584313601161], [-73.9643442379112, 40.7585447261714], [-73.9643095418677, 40.7585279283064], [-73.9643098290048, 40.7585301129484], [-73.9641930983903, 40.7586903402914], [-73.9643095617325, 40.7587391926563], [-73.9644174858349, 40.7585910551623], [-73.9644077794673, 40.7585754918779], [-73.9644926650819, 40.7584589757815], [-73.9644268293185, 40.7584313601161]]]}}, {"type": "Feature", "properties": {"zone_id": "0201V0C9O0H6HF9EXCF9ZG", "tract_id": "36061010802", "city": "NEW YORK, NY", "zone_code": "R10", "zone_category": "Residential", "ev_permitted": false}, "geometry": {"type": "Polygon", "coordinates": [[[-73.9639553858495, 40.7583564616602], [-73.9638247186702, 40.7585358175573], [-73.9641930983903, 40.7586903402914], [-73.9643098290048, 40.7585301129484], [-73.9643095418677, 40.7585279283064], [-73.9639553858495, 40.7583564616602]]]}}, {"type": "Feature", "properties": {"zone_id": "02003VFCGU7P6OW43IVM1K", "tract_id": "36061010802", "city": "NEW YORK, NY", "zone_code": "R10", "zone_category": "Residential", "ev_permitted": false}, "geometry": {"type": "Polygon", "coordinates": [[[-73.9636693915992, 40.7582179945322], [-73.9635283999434, 40.758411519384], [-73.9638247186702, 40.7585358175573], [-73.9639553858495, 40.7583564616602], [-73.9636693915992, 40.7582179945322]]]}}, {"type": "Feature", "properties": {"zone_id": "0200N7FFEKI6650NHGZ7BA", "tract_id": "36061010802", "city": "NEW YORK, NY", "zone_code": "R10", "zone_category": "Residential", "ev_permitted": false}, "geometry": {"type": "Polygon", "coordinates": [[[-73.9636072087309, 40.7581878872332], [-73.9634639716481, 40.7583844931408], [-73.9635283999434, 40.758411519384], [-73.9636693915992, 40.7582179945322], [-73.9636072087309, 40.7581878872332]]]}}, {"type": "Feature", "properties": {"zone_id": "02013JA2DDFF5ZWA398XZS", "tract_id": "36061010802", "city": "NEW YORK, NY", "zone_code": "R10", "zone_category": "Residential", "ev_permitted": false}, "geometry": {"type": "Polygon", "coordinates": [[[-73.9635466546009, 40.7581585694971], [-73.9634012321985, 40.7583581756739], [-73.9634639716481, 40.7583844931408], [-73.9636072087309, 40.7581878872332], [-73.9635466546009, 40.7581585694971]]]}}, {"type": "Feature", "properties": {"zone_id": "0205GPANAAIFPAEA7DEBUP", "tract_id": "36061010802", "city": "NEW YORK, NY", "zone_code": "R10", "zone_category": "Residential", "ev_permitted": false}, "geometry": {"type": "Polygon", "coordinates": [[[-73.9629934061096, 40.7584866438274], [-73.9628146432359, 40.7587320073515], [-73.9630754676338, 40.7588414172731], [-73.9632542289162, 40.7585960533479], [-73.9629934061096, 40.7584866438274]]]}}, {"type": "Feature", "properties": {"zone_id": "0202299EKD567FRCQPHTYW", "tract_id": "36061010802", "city": "NEW YORK, NY", "zone_code": "R10", "zone_category": "Residential", "ev_permitted": false}, "geometry": {"type": "Polygon", "coordinates": [[[-73.9633123961496, 40.7580488023087], [-73.9631605554421, 40.7582572174299], [-73.9634012321985, 40.7583581756739], [-73.9635530714586, 40.758149760941], [-73.9633123961496, 40.7580488023087]]]}}, {"type": "Feature", "properties": {"zone_id": "0205FKYRIO2KQHJX0M0PPM", "tract_id": "36061010802", "city": "NEW YORK, NY", "zone_code": "R8", "zone_category": "Residential", "ev_permitted": false}, "geometry": {"type": "Polygon", "coordinates": [[[-73.9635164786617, 40.7577686786572], [-73.9633123961496, 40.7580488023087], [-73.9635530714586, 40.758149760941], [-73.9635466546009, 40.7581585694971], [-73.9637439000727, 40.7582540691071], [-73.9639615186993, 40.7579553623143], [-73.9635164786617, 40.7577686786572]]]}}, {"type": "Feature", "properties": {"zone_id": "0200NJ4ZWLESU2AJELDDH2", "tract_id": "36061010802", "city": "NEW YORK, NY", "zone_code": "R8B", "zone_category": "Residential", "ev_permitted": false}, "geometry": {"type": "Polygon", "coordinates": [[[-73.9626745253601, 40.7594970101952], [-73.9624949014241, 40.7597449980263], [-73.9625721085014, 40.7597775335533], [-73.9627517322381, 40.7595295449004], [-73.9626745253601, 40.7594970101952]]]}}, {"type": "Feature", "properties": {"zone_id": "0204X9EPHDHRFLVO7OHF5I", "tract_id": "36061010802", "city": "NEW YORK, NY", "zone_code": "R10", "zone_category": "Residential", "ev_permitted": false}, "geometry": {"type": "Polygon", "coordinates": [[[-73.9623067200127, 40.7594182816676], [-73.9622180992406, 40.7595406290539], [-73.9625435818627, 40.7596777880996], [-73.9626322022195, 40.7595554404653], [-73.9623067200127, 40.7594182816676]]]}}, {"type": "Feature", "properties": {"zone_id": "0203RTTM9W0B37NHT62JNC", "tract_id": "36061010802", "city": "NEW YORK, NY", "zone_code": "R10", "zone_category": "Residential", "ev_permitted": false}, "geometry": {"type": "Polygon", "coordinates": [[[-73.9622180992406, 40.7595406290539], [-73.9621694185738, 40.7596078388444], [-73.9624949014241, 40.7597449980263], [-73.9625435818627, 40.7596777880996], [-73.9622180992406, 40.7595406290539]]]}}, {"type": "Feature", "properties": {"zone_id": "0202YKPSPDOR7C7YH4FHDT", "tract_id": "36061010802", "city": "NEW YORK, NY", "zone_code": "R10", "zone_category": "Residential", "ev_permitted": false}, "geometry": {"type": "Polygon", "coordinates": [[[-73.9624818964467, 40.7591764359784], [-73.9624377431753, 40.7592373937348], [-73.9626864328753, 40.759342192563], [-73.9627305869126, 40.7592812347126], [-73.9624818964467, 40.7591764359784]]]}}, {"type": "Feature", "properties": {"zone_id": "0205E66A45MMM78ABHIZXV", "tract_id": "36061010802", "city": "NEW YORK, NY", "zone_code": "R10", "zone_category": "Residential", "ev_permitted": false}, "geometry": {"type": "Polygon", "coordinates": [[[-73.9624377431753, 40.7592373937348], [-73.9623943213357, 40.7592973412952], [-73.9626430121156, 40.759402139514], [-73.9626864328753, 40.759342192563], [-73.9624377431753, 40.7592373937348]]]}}, {"type": "Feature", "properties": {"zone_id": "0206RKGBJMDDU7E7P40H1E", "tract_id": "36061010802", "city": "NEW YORK, NY", "zone_code": "R10", "zone_category": "Residential", "ev_permitted": false}, "geometry": {"type": "Polygon", "coordinates": [[[-73.9623943213357, 40.7592973412952], [-73.9623490433521, 40.7593598508132], [-73.9625977342938, 40.7594646498314], [-73.9626430121156, 40.759402139514], [-73.9623943213357, 40.7592973412952]]]}}, {"type": "Feature", "properties": {"zone_id": "0200HNFD248DHACN6GTK22", "tract_id": "36061010802", "city": "NEW YORK, NY", "zone_code": "R10", "zone_category": "Residential", "ev_permitted": false}, "geometry": {"type": "Polygon", "coordinates": [[[-73.9623490433521, 40.7593598508132], [-73.9623067200127, 40.7594182816676], [-73.9626322022195, 40.7595554404653], [-73.9626745253601, 40.7594970101952], [-73.9623490433521, 40.7593598508132]]]}}, {"type": "Feature", "properties": {"zone_id": "0202MG7O6LA29KI252E1HF", "tract_id": "36061010802", "city": "NEW YORK, NY", "zone_code": "R10", "zone_category": "Residential", "ev_permitted": false}, "geometry": {"type": "Polygon", "coordinates": [[[-73.962527929734, 40.7591128832103], [-73.9624818964467, 40.7591764359784], [-73.9627305869126, 40.7592812347126], [-73.9627766191109, 40.7592176818458], [-73.962527929734, 40.7591128832103]]]}}]}