{"type": "FeatureCollection", "features": [{"type": "Feature", "properties": {"zone_id": "0201HCU47T9SYIXW3YS8AM", "tract_id": "06037119340", "city": "PANORAMA CITY, CA", "zone_code": "R3-1", "zone_category": "Residential", "ev_permitted": false}, "geometry": {"type": "Polygon", "coordinates": [[[-118.452610317152, 34.2349640935262], [-118.45260945791, 34.2352938171308], [-118.453389115773, 34.2352991425774], [-118.453399496877, 34.235298525923], [-118.453409633034, 34.2352965726586], [-118.453419274044, 34.2352933309981], [-118.453428181934, 34.2352888809575], [-118.453436136822, 34.2352833323802], [-118.453442942353, 34.2352768222255], [-118.45344843054, 34.235269511188], [-118.453452465916, 34.235261579731], [-118.453454948871, 34.2352532236324], [-118.453455818117, 34.2352446491514], [-118.453456145253, 34.2349698580234], [-118.452610317152, 34.2349640935262]]]}}, {"type": "Feature", "properties": {"zone_id": "0201PKMGXIFHAWY0TN7DIO", "tract_id": "06037119340", "city": "PANORAMA CITY, CA", "zone_code": "R3-1", "zone_category": "Residential", "ev_permitted": false}, "geometry": {"type": "Polygon", "coordinates": [[[-118.451757359513, 34.2348758303295], [-118.451757540971, 34.2352334137251], [-118.451758494521, 34.2352428973221], [-118.451761417166, 34.2352521017662], [-118.451766220862, 34.2352607497814], [-118.451772760904, 34.235268580854], [-118.451780840277, 34.2352753590798], [-118.451790215598, 34.2352808802708], [-118.451800604443, 34.2352849781062], [-118.451811693857, 34.2352875291423], [-118.45182314978, 34.2352884565315], [-118.452278622857, 34.2352915640933], [-118.452279003575, 34.2348793778386], [-118.451757359513, 34.2348758303295]]]}}, {"type": "Feature", "properties": {"zone_id": "0202QUGYFFCNGOGKVRQZ5S", "tract_id": "06037119340", "city": "PANORAMA CITY, CA", "zone_code": "R3-1", "zone_category": "Residential", "ev_permitted": false}, "geometry": {"type": "Polygon", "coordinates": [[[-118.452279003575, 34.2348793778386], [-118.452278622857, 34.2352915640933], [-118.45260945791, 34.2352938171308], [-118.452609804059, 34.2348816584774], [-118.452279003575, 34.2348793778386]]]}}, {"type": "Feature", "properties": {"zone_id": "020705U0MMIXGN07LH3DAS", "tract_id": "06037119340", "city": "PANORAMA CITY, CA", "zone_code": "R3-1", "zone_category": "Residential", "ev_permitted": false}, "geometry": {"type": "Polygon", "coordinates": [[[-118.45260985248, 34.2345244314357], [-118.452609819952, 34.2346893054931], [-118.453462262653, 34.2346951276366], [-118.453462260264, 34.2345302262246], [-118.45260985248, 34.2345244314357]]]}}, {"type": "Feature", "properties": {"zone_id": "0200YA3V1D3Q5T334WTMGL", "tract_id": "06037119340", "city": "PANORAMA CITY, CA", "zone_code": "R3-1", "zone_category": "Residential", "ev_permitted": false}, "geometry": {"type": "Polygon", "coordinates": [[[-118.452609819952, 34.2346893054931], [-118.452610317152, 34.2349640935262], [-118.453462762659, 34.2349699156662], [-118.453462262653, 34.2346951276366], [-118.452609819952, 34.2346893054931]]]}}, {"type": "Feature", "properties": {"zone_id": "0201R5G4U66IO6AGQVQ3LE", "tract_id": "06037119340", "city": "PANORAMA CITY, CA", "zone_code": "R3-1", "zone_category": "Residential", "ev_permitted": false}, "geometry": {"type": "Polygon", "coordinates": [[[-118.451757410603, 34.2346835047003], [-118.451757359513, 34.2348758303295], [-118.452609804059, 34.2348816584774], [-118.452609819952, 34.2346893054931], [-118.451757410603, 34.2346835047003]]]}}, {"type": "Feature", "properties": {"zone_id": "02001E29RONWHD417KOWQO", "tract_id": "06037119340", "city": "PANORAMA CITY, CA", "zone_code": "R3-1", "zone_category": "Residential", "ev_permitted": false}, "geometry": {"type": "Polygon", "coordinates": [[[-118.451757427865, 34.2344910418022], [-118.451757410603, 34.2346835047003], [-118.452609819952, 34.2346893054931], [-118.452609835249, 34.2344968425949], [-118.451757427865, 34.2344910418022]]]}}, {"type": "Feature", "properties": {"zone_id": "0204VWVQL3CVWD232IIZOS", "tract_id": "06037119340", "city": "PANORAMA CITY, CA", "zone_code": "PF-1", "zone_category": "Other", "ev_permitted": false}, "geometry": {"type": "Polygon", "coordinates": [[[-118.450428283893, 34.2349492342877], [-118.450427749764, 34.2352243009306], [-118.45042870001, 34.2352337887419], [-118.450431621848, 34.2352429974695], [-118.450436427117, 34.2352516492604], [-118.45044297083, 34.2352594830661], [-118.450451055544, 34.2352662625189], [-118.450460437321, 34.2352717830641], [-118.450470833087, 34.2352758781317], [-118.450481929171, 34.2352784241622], [-118.450493390774, 34.2352793443348], [-118.450963521262, 34.2352825671595], [-118.450964089538, 34.2349528996329], [-118.450428283893, 34.2349492342877]]]}}, {"type": "Feature", "properties": {"zone_id": "0205VGKRWRTMGFMWYET956", "tract_id": "06037119340", "city": "PANORAMA CITY, CA", "zone_code": "PF-1", "zone_category": "Other", "ev_permitted": false}, "geometry": {"type": "Polygon", "coordinates": [[[-118.450964489552, 34.2347329563286], [-118.450963521262, 34.2352825671595], [-118.451492314769, 34.2352862013444], [-118.451503835762, 34.2352854186434], [-118.451515017643, 34.2352829948725], [-118.451525521079, 34.2352790035852], [-118.451535027324, 34.2352735659042], [-118.451543247893, 34.2352668468456], [-118.451549933319, 34.2352590503111], [-118.451554880719, 34.2352504129005], [-118.451557939956, 34.2352411967315], [-118.451559018192, 34.2352316814854], [-118.451558890409, 34.2347370601795], [-118.450964489552, 34.2347329563286]]]}}, {"type": "Feature", "properties": {"zone_id": "02054B94A8MY5XFFL7V1CK", "tract_id": "06037119340", "city": "PANORAMA CITY, CA", "zone_code": "R3-1", "zone_category": "Residential", "ev_permitted": false}, "geometry": {"type": "Polygon", "coordinates": [[[-118.450965073023, 34.2344306028575], [-118.450964489552, 34.2347329563286], [-118.451558890409, 34.2347370601795], [-118.451558942077, 34.2344346537237], [-118.450965073023, 34.2344306028575]]]}}, {"type": "Feature", "properties": {"zone_id": "02038KO32HMDAA7PWRXCE4", "tract_id": "06037119340", "city": "PANORAMA CITY, CA", "zone_code": "PF-1", "zone_category": "Other", "ev_permitted": false}, "geometry": {"type": "Polygon", "coordinates": [[[-118.450428760697, 34.2346880722247], [-118.450428283893, 34.2349492342877], [-118.450964089538, 34.2349528996329], [-118.450964564665, 34.2346917375679], [-118.450428760697, 34.2346880722247]]]}}, {"type": "Feature", "properties": {"zone_id": "0205NS5P0907E5WM6Z820S", "tract_id": "06037119340", "city": "PANORAMA CITY, CA", "zone_code": "R3-1", "zone_category": "Residential", "ev_permitted": false}, "geometry": {"type": "Polygon", "coordinates": [[[-118.450429237646, 34.2344269376397], [-118.450428760697, 34.2346880722247], [-118.450964564665, 34.2346917375679], [-118.450965073023, 34.2344306028575], [-118.450429237646, 34.2344269376397]]]}}, {"type": "Feature", "properties": {"zone_id": "020585WHS710XOZZHHXGNT", "tract_id": "06037119340", "city": "PANORAMA CITY, CA", "zone_code": "R3-1", "zone_category": "Residential", "ev_permitted": false}, "geometry": {"type": "Polygon", "coordinates": [[[-118.452609900268, 34.2341121639798], [-118.45260985248, 34.2345244314357], [-118.453462260264, 34.2345302262246], [-118.453462270758, 34.2341179588923], [-118.452609900268, 34.2341121639798]]]}}, {"type": "Feature", "properties": {"zone_id": "02004PKLO42N2GPYYV1G5P", "tract_id": "06037119340", "city": "PANORAMA CITY, CA", "zone_code": "R3-1", "zone_category": "Residential", "ev_permitted": false}, "geometry": {"type": "Polygon", "coordinates": [[[-118.451757445722, 34.2342986888175], [-118.451757427865, 34.2344910418022], [-118.452609835249, 34.2344968425949], [-118.45260985129, 34.2343045170885], [-118.451757445722, 34.2342986888175]]]}}, {"type": "Feature", "properties": {"zone_id": "02069B92I87EF7O1PRSHPQ", "tract_id": "06037119340", "city": "PANORAMA CITY, CA", "zone_code": "R3-1", "zone_category": "Residential", "ev_permitted": false}, "geometry": {"type": "Polygon", "coordinates": [[[-118.451757496663, 34.2341063357091], [-118.451757445722, 34.2342986888175], [-118.45260985129, 34.2343045170885], [-118.452609900268, 34.2341121639798], [-118.451757496663, 34.2341063357091]]]}}, {"type": "Feature", "properties": {"zone_id": "0203GLKD83VKB6WDOSWL8Y", "tract_id": "06037119340", "city": "PANORAMA CITY, CA", "zone_code": "R3-1", "zone_category": "Residential", "ev_permitted": false}, "geometry": {"type": "Polygon", "coordinates": [[[-118.453462351748, 34.2336699411279], [-118.452609944231, 34.2336747807405], [-118.452609900268, 34.2341121639798], [-118.453462270758, 34.2341179588923], [-118.453462351748, 34.2336699411279]]]}}, {"type": "Feature", "properties": {"zone_id": "0207AYNRKN61U7EW3JPX0B", "tract_id": "06037119340", "city": "PANORAMA CITY, CA", "zone_code": "R3-1", "zone_category": "Residential", "ev_permitted": false}, "geometry": {"type": "Polygon", "coordinates": [[[-118.45346234428, 34.2331203613443], [-118.452609975608, 34.2331252283115], [-118.452609944231, 34.2336747807405], [-118.453462351748, 34.2336699411279], [-118.45346234428, 34.2331203613443]]]}}, {"type": "Feature", "properties": {"zone_id": "0202XXND8L9RJGAMA3XUFI", "tract_id": "06037119340", "city": "PANORAMA CITY, CA", "zone_code": "R3-1", "zone_category": "Residential", "ev_permitted": false}, "geometry": {"type": "Polygon", "coordinates": [[[-118.452609944231, 34.2336747807405], [-118.451757536913, 34.2336796693061], [-118.451757496663, 34.2341063357091], [-118.452609900268, 34.2341121639798], [-118.452609944231, 34.2336747807405]]]}}, {"type": "Feature", "properties": {"zone_id": "0207KZ9XEXECMYJLKWT9AV", "tract_id": "06037119340", "city": "PANORAMA CITY, CA", "zone_code": "R3-1", "zone_category": "Residential", "ev_permitted": false}, "geometry": {"type": "Polygon", "coordinates": [[[-118.452609975608, 34.2331252283115], [-118.45175763992, 34.233130089152], [-118.451757536913, 34.2336796693061], [-118.452609944231, 34.2336747807405], [-118.452609975608, 34.2331252283115]]]}}, {"type": "Feature", "properties": {"zone_id": "0204H6IJXFPILAC3NMMINM", "tract_id": "06037119340", "city": "PANORAMA CITY, CA", "zone_code": "R3-1", "zone_category": "Residential", "ev_permitted": false}, "geometry": {"type": "Polygon", "coordinates": [[[-118.452610249232, 34.2329743126774], [-118.452609975608, 34.2331252283115], [-118.45346234428, 34.2331203613443], [-118.453462366816, 34.2329783223572], [-118.452610249232, 34.2329743126774]]]}}, {"type": "Feature", "properties": {"zone_id": "0205COL99E41GTC9HG5LFE", "tract_id": "06037119340", "city": "PANORAMA CITY, CA", "zone_code": "R3-1", "zone_category": "Residential", "ev_permitted": false}, "geometry": {"type": "Polygon", "coordinates": [[[-118.45261024428, 34.2326987808668], [-118.452610249232, 34.2329743126774], [-118.453462366816, 34.2329783223572], [-118.453462401986, 34.2327046039992], [-118.45261024428, 34.2326987808668]]]}}, {"type": "Feature", "properties": {"zone_id": "0201U8Z9O8CTQCJTQZVK30", "tract_id": "06037119340", "city": "PANORAMA CITY, CA", "zone_code": "R3-1", "zone_category": "Residential", "ev_permitted": false}, "geometry": {"type": "Polygon", "coordinates": [[[-118.451757704473, 34.2328240828944], [-118.45175763992, 34.233130089152], [-118.452609975608, 34.2331252283115], [-118.452610260555, 34.2328299380236], [-118.451757704473, 34.2328240828944]]]}}, {"type": "Feature", "properties": {"zone_id": "02055FAYIDG7521HK42CR6", "tract_id": "06037119340", "city": "PANORAMA CITY, CA", "zone_code": "R3-1", "zone_category": "Residential", "ev_permitted": false}, "geometry": {"type": "Polygon", "coordinates": [[[-118.452610225896, 34.2325062081759], [-118.45261024428, 34.2326987808668], [-118.453455751825, 34.2327045739588], [-118.453455764574, 34.232512001144], [-118.452610225896, 34.2325062081759]]]}}, {"type": "Feature", "properties": {"zone_id": "0205O7A9A3NQIKHZI9SPVP", "tract_id": "06037119340", "city": "PANORAMA CITY, CA", "zone_code": "R3-1", "zone_category": "Residential", "ev_permitted": false}, "geometry": {"type": "Polygon", "coordinates": [[[-118.451757739288, 34.2325003527995], [-118.451757704473, 34.2328240828944], [-118.452610260555, 34.2328299380236], [-118.452610225896, 34.2325062081759], [-118.451757739288, 34.2325003527995]]]}}, {"type": "Feature", "properties": {"zone_id": "0205J8KLWAN7ZWTXB28I6U", "tract_id": "06037119340", "city": "PANORAMA CITY, CA", "zone_code": "R3-1", "zone_category": "Residential", "ev_permitted": false}, "geometry": {"type": "Polygon", "coordinates": [[[-118.450430098695, 34.2339733113226], [-118.450429237646, 34.2344269376397], [-118.451558942077, 34.2344346537237], [-118.451559002962, 34.2339810303613], [-118.450430098695, 34.2339733113226]]]}}, {"type": "Feature", "properties": {"zone_id": "0203H678MLGX6GLLXR8B7O", "tract_id": "06037119340", "city": "PANORAMA CITY, CA", "zone_code": "R3-1", "zone_category": "Residential", "ev_permitted": false}, "geometry": {"type": "Polygon", "coordinates": [[[-118.4515591376, 34.2331312146696], [-118.450431715301, 34.2331384936862], [-118.450430098695, 34.2339733113226], [-118.451559002962, 34.2339810303613], [-118.4515591376, 34.2331312146696]]]}}, {"type": "Feature", "properties": {"zone_id": "0204UFK9V1IXPFAI51AU9L", "tract_id": "06037119340", "city": "PANORAMA CITY, CA", "zone_code": "R3-1", "zone_category": "Residential", "ev_permitted": false}, "geometry": {"type": "Polygon", "coordinates": [[[-118.450962425047, 34.2324949104085], [-118.450962307243, 34.2331345942001], [-118.4515591376, 34.2331312146696], [-118.451559225089, 34.2324990052583], [-118.450962425047, 34.2324949104085]]]}}, {"type": "Feature", "properties": {"zone_id": "0202OL02QX5S64QR8AVF49", "tract_id": "06037119340", "city": "PANORAMA CITY, CA", "zone_code": "R3-1", "zone_category": "Residential", "ev_permitted": false}, "geometry": {"type": "Polygon", "coordinates": [[[-118.450431762834, 34.2325402210052], [-118.450431715301, 34.2331384936862], [-118.450962307243, 34.2331345942001], [-118.45096239404, 34.2326116687426], [-118.45089622498, 34.2326116679779], [-118.450895266651, 34.2325885093051], [-118.450892372855, 34.2325793651903], [-118.450887621635, 34.232570768176], [-118.450881154324, 34.2325629739942], [-118.450873163303, 34.2325562144955], [-118.450863886278, 34.2325506907523], [-118.450853599209, 34.2325465670773], [-118.450842608099, 34.232543966136], [-118.450831239899, 34.2325429652977], [-118.450431762834, 34.2325402210052]]]}}, {"type": "Feature", "properties": {"zone_id": "0206CGELS31LOIE58AGGYW", "tract_id": "06037119340", "city": "PANORAMA CITY, CA", "zone_code": "R3-1", "zone_category": "Residential", "ev_permitted": false}, "geometry": {"type": "Polygon", "coordinates": [[[-118.453121479864, 34.2318965147487], [-118.45312143331, 34.232509703441], [-118.453455764574, 34.232512001144], [-118.45345580685, 34.2319532981449], [-118.453454847251, 34.2319438787402], [-118.453451945723, 34.2319347354383], [-118.453447188446, 34.2319261398059], [-118.453440716716, 34.2319183471434], [-118.45343272275, 34.2319115889021], [-118.45342344398, 34.2319060658099], [-118.453413155994, 34.2319019419094], [-118.453402164359, 34.2318993396852], [-118.453390795538, 34.2318983364266], [-118.453121479864, 34.2318965147487]]]}}, {"type": "Feature", "properties": {"zone_id": "0200STGC07IXTCWGB58QB7", "tract_id": "06037119340", "city": "PANORAMA CITY, CA", "zone_code": "R3-1", "zone_category": "Residential", "ev_permitted": false}, "geometry": {"type": "Polygon", "coordinates": [[[-118.452780537219, 34.2318886677844], [-118.452780484909, 34.232507357439], [-118.45312143331, 34.232509703441], [-118.453121483121, 34.2318910189384], [-118.452780537219, 34.2318886677844]]]}}, {"type": "Feature", "properties": {"zone_id": "02025M398H5KFRF3UAQFCR", "tract_id": "06037119340", "city": "PANORAMA CITY, CA", "zone_code": "R3-1", "zone_category": "Residential", "ev_permitted": false}, "geometry": {"type": "Polygon", "coordinates": [[[-118.452532462286, 34.2318869576782], [-118.452532408288, 34.2325056748112], [-118.452780484909, 34.232507357439], [-118.452780537219, 34.2318886677844], [-118.452532462286, 34.2318869576782]]]}}, {"type": "Feature", "properties": {"zone_id": "02013UX00RY7S4AF6306QA", "tract_id": "06037119340", "city": "PANORAMA CITY, CA", "zone_code": "R3-1", "zone_category": "Residential", "ev_permitted": false}, "geometry": {"type": "Polygon", "coordinates": [[[-118.45175783226, 34.2318816630218], [-118.451757739288, 34.2325003527995], [-118.452098654575, 34.2325027069587], [-118.452098678705, 34.2318839899495], [-118.45175783226, 34.2318816630218]]]}}, {"type": "Feature", "properties": {"zone_id": "0203FVJ8RPKQP2SFC13KIX", "tract_id": "06037119340", "city": "PANORAMA CITY, CA", "zone_code": "R3-1", "zone_category": "Residential", "ev_permitted": false}, "geometry": {"type": "Polygon", "coordinates": [[[-118.452098678705, 34.2318839899495], [-118.452098654575, 34.2325027069587], [-118.452532408288, 34.2325056748112], [-118.452532462286, 34.2318869576782], [-118.452098678705, 34.2318839899495]]]}}, {"type": "Feature", "properties": {"zone_id": "0204UUMBMV8U98OZIEU2OS", "tract_id": "06037119340", "city": "PANORAMA CITY, CA", "zone_code": "R3-1", "zone_category": "Residential", "ev_permitted": false}, "geometry": {"type": "Polygon", "coordinates": [[[-118.450962523765, 34.2318761931529], [-118.450962425047, 34.2324949104085], [-118.451559225089, 34.2324990052583], [-118.451559308949, 34.2319211767761], [-118.451558597236, 34.2319141127587], [-118.451556425992, 34.2319072553423], [-118.451552859984, 34.2319008090748], [-118.451548005581, 34.2318949662398], [-118.451542007583, 34.2318899011216], [-118.451535044902, 34.2318857648059], [-118.451527325226, 34.2318826806739], [-118.451510551672, 34.2318800028138], [-118.450962523765, 34.2318761931529]]]}}, {"type": "Feature", "properties": {"zone_id": "02070VLLCUV545VMZGJY2X", "tract_id": "06037119340", "city": "PANORAMA CITY, CA", "zone_code": "R3-1", "zone_category": "Residential", "ev_permitted": false}, "geometry": {"type": "Polygon", "coordinates": [[[-118.45049866555, 34.2318730020054], [-118.450488220446, 34.2318736228799], [-118.450478023581, 34.231875594698], [-118.450468328946, 34.231878868344], [-118.450459378023, 34.2318833622753], [-118.450451393768, 34.2318889645536], [-118.45044457506, 34.2318955356326], [-118.450439091743, 34.2319029118347], [-118.450435080401, 34.2319109094277], [-118.45043264095, 34.2319193292011], [-118.450431834156, 34.2319279614288], [-118.450431762834, 34.2325402210052], [-118.450795904286, 34.2325427122189], [-118.450796467719, 34.2324877521452], [-118.450839931293, 34.2324873633113], [-118.450850063454, 34.2324854057558], [-118.450859700381, 34.2324821616757], [-118.450868604707, 34.2324777109754], [-118.450876557113, 34.2324721632792], [-118.450883361723, 34.2324656552316], [-118.450888850934, 34.2324583471309], [-118.450892889542, 34.232450418982], [-118.450895378072, 34.2324420660618], [-118.45089625523, 34.2324334941097], [-118.450896319829, 34.2318757528566], [-118.45049866555, 34.2318730020054]]]}}]}