{"type": "FeatureCollection", "features": [{"type": "Feature", "properties": {"zone_id": "02062QKXET9FWYH46ZETKZ", "tract_id": "06037207303", "city": "LOS ANGELES, CA", "zone_code": "CPIO", "zone_category": "Other", "ev_permitted": false}, "geometry": {"type": "Polygon", "coordinates": [[[-118.254394086296, 34.0450777680362], [-118.254233028373, 34.0452511405251], [-118.254368800594, 34.0453384016924], [-118.254149176165, 34.0455751258866], [-118.254248169626, 34.045638805444], [-118.25442696205, 34.0454461055294], [-118.254599514699, 34.0455571679172], [-118.254802719687, 34.0453381738239], [-118.254394086296, 34.0450777680362]]]}}, {"type": "Feature", "properties": {"zone_id": "020399GWPTETHAZN8EVWY5", "tract_id": "06037207303", "city": "LOS ANGELES, CA", "zone_code": "CPIO", "zone_category": "Other", "ev_permitted": false}, "geometry": {"type": "Polygon", "coordinates": [[[-118.25442696205, 34.0454461055294], [-118.254248169626, 34.045638805444], [-118.254420689592, 34.0457499231149], [-118.254599514699, 34.0455571679172], [-118.25442696205, 34.0454461055294]]]}}, {"type": "Feature", "properties": {"zone_id": "0202M35ZYCHGJ4U6L5EBJI", "tract_id": "06037207303", "city": "LOS ANGELES, CA", "zone_code": "CPIO", "zone_category": "Other", "ev_permitted": false}, "geometry": {"type": "Polygon", "coordinates": [[[-118.254233028373, 34.0452511405251], [-118.254014817634, 34.0454860204252], [-118.254014822556, 34.0454876416573], [-118.254149176165, 34.0455751258866], [-118.254368800594, 34.0453384016924], [-118.254233028373, 34.0452511405251]]]}}, {"type": "Feature", "properties": {"zone_id": "02079QZ2TCG94QBG3WGYSF", "tract_id": "06037207303", "city": "LOS ANGELES, CA", "zone_code": "CPIO", "zone_category": "Other", "ev_permitted": false}, "geometry": {"type": "Polygon", "coordinates": [[[-118.25482859165, 34.0445876213301], [-118.254705833695, 34.0447197505449], [-118.255124765816, 34.044991097509], [-118.255247654457, 34.0448586103668], [-118.25482859165, 34.0445876213301]]]}}, {"type": "Feature", "properties": {"zone_id": "0202L4U48NKAJXKFJM4LUW", "tract_id": "06037207303", "city": "LOS ANGELES, CA", "zone_code": "CPIO", "zone_category": "Other", "ev_permitted": false}, "geometry": {"type": "Polygon", "coordinates": [[[-118.254705833695, 34.0447197505449], [-118.254583108279, 34.0448518520877], [-118.255001843692, 34.0451235571183], [-118.255124765816, 34.044991097509], [-118.254705833695, 34.0447197505449]]]}}, {"type": "Feature", "properties": {"zone_id": "0203TUV1N72VIVOZ7E17YN", "tract_id": "06037207303", "city": "LOS ANGELES, CA", "zone_code": "CDO", "zone_category": "Other", "ev_permitted": false}, "geometry": {"type": "Polygon", "coordinates": [[[-118.254148731179, 34.0445700389016], [-118.254027287563, 34.0447005159368], [-118.254448897205, 34.0449738380734], [-118.254570043639, 34.0448434161957], [-118.254148731179, 34.0445700389016]]]}}, {"type": "Feature", "properties": {"zone_id": "0202LWOHHF1TR99JSAM2FZ", "tract_id": "06037207303", "city": "LOS ANGELES, CA", "zone_code": "CDO", "zone_category": "Other", "ev_permitted": false}, "geometry": {"type": "Polygon", "coordinates": [[[-118.254027287563, 34.0447005159368], [-118.253906337299, 34.0448305246748], [-118.254328046481, 34.0451039294625], [-118.254448897205, 34.0449738380734], [-118.254027287563, 34.0447005159368]]]}}, {"type": "Feature", "properties": {"zone_id": "020691GW9SHPE5I8AR6A19", "tract_id": "06037207303", "city": "LOS ANGELES, CA", "zone_code": "CPIO", "zone_category": "Other", "ev_permitted": false}, "geometry": {"type": "Polygon", "coordinates": [[[-118.254596106901, 34.0448602881175], [-118.254495129614, 34.0449689868314], [-118.254901064423, 34.0452321733193], [-118.255001843692, 34.0451235571183], [-118.254596106901, 34.0448602881175]]]}}, {"type": "Feature", "properties": {"zone_id": "02066CSYCY5Y2ZCGT6NNHB", "tract_id": "06037207303", "city": "LOS ANGELES, CA", "zone_code": "CPIO", "zone_category": "Other", "ev_permitted": false}, "geometry": {"type": "Polygon", "coordinates": [[[-118.254495129614, 34.0449689868314], [-118.254394086296, 34.0450777680362], [-118.254802719687, 34.0453381738239], [-118.254901064423, 34.0452321733193], [-118.254495129614, 34.0449689868314]]]}}, {"type": "Feature", "properties": {"zone_id": "0202MV0UOSW1DGBJM7FPBR", "tract_id": "06037207303", "city": "LOS ANGELES, CA", "zone_code": "CDO", "zone_category": "Other", "ev_permitted": false}, "geometry": {"type": "Polygon", "coordinates": [[[-118.255500212541, 34.0431174663535], [-118.254893078273, 34.0437700217966], [-118.255747496684, 34.0443198498154], [-118.256105923636, 34.0439335366979], [-118.255686893089, 34.0436616987489], [-118.255934446882, 34.0433967469143], [-118.255500212541, 34.0431174663535]]]}}, {"type": "Feature", "properties": {"zone_id": "0205FLG9CG5QPJLFC1WX1F", "tract_id": "06037207303", "city": "LOS ANGELES, CA", "zone_code": "CDO", "zone_category": "Other", "ev_permitted": false}, "geometry": {"type": "Polygon", "coordinates": [[[-118.255933525732, 34.0433977655781], [-118.255686893089, 34.0436616987489], [-118.256105923636, 34.0439335366979], [-118.256350543028, 34.0436698817274], [-118.255933525732, 34.0433977655781]]]}}, {"type": "Feature", "properties": {"zone_id": "02067BJM8UFGE7Y26NY7BH", "tract_id": "06037207303", "city": "LOS ANGELES, CA", "zone_code": "CPIO", "zone_category": "Other", "ev_permitted": false}, "geometry": {"type": "Polygon", "coordinates": [[[-118.255319425169, 34.0442874790039], [-118.255083026182, 34.0445422663811], [-118.255370082248, 34.0447266736479], [-118.255606283412, 34.0444720784752], [-118.255319425169, 34.0442874790039]]]}}, {"type": "Feature", "properties": {"zone_id": "0201A2O28JWAZXFXA6QPRC", "tract_id": "06037207303", "city": "LOS ANGELES, CA", "zone_code": "CPIO", "zone_category": "Other", "ev_permitted": false}, "geometry": {"type": "Polygon", "coordinates": [[[-118.254950098951, 34.0444568410868], [-118.25482859165, 34.0445876213301], [-118.255247654457, 34.0448586103668], [-118.255370082248, 34.0447266736479], [-118.254950098951, 34.0444568410868]]]}}, {"type": "Feature", "properties": {"zone_id": "02045S43B2SIWLMYP8TARY", "tract_id": "06037207303", "city": "LOS ANGELES, CA", "zone_code": "CPIO", "zone_category": "Other", "ev_permitted": false}, "geometry": {"type": "Polygon", "coordinates": [[[-118.255186762429, 34.0442021358484], [-118.254950098951, 34.0444568410868], [-118.255083026182, 34.0445422663811], [-118.255319425169, 34.0442874790039], [-118.255186762429, 34.0442021358484]]]}}, {"type": "Feature", "properties": {"zone_id": "0202LH38Q10A0JFOKPUHBE", "tract_id": "06037207303", "city": "LOS ANGELES, CA", "zone_code": "CPIO", "zone_category": "Other", "ev_permitted": false}, "geometry": {"type": "Polygon", "coordinates": [[[-118.255056084219, 34.0441179974185], [-118.254820673073, 34.0443714065409], [-118.254951349217, 34.0444554919914], [-118.255186762429, 34.0442021358484], [-118.255056084219, 34.0441179974185]]]}}, {"type": "Feature", "properties": {"zone_id": "0203WXXRIGXPFE5P7GSED3", "tract_id": "06037207303", "city": "LOS ANGELES, CA", "zone_code": "CDO", "zone_category": "Other", "ev_permitted": false}, "geometry": {"type": "Polygon", "coordinates": [[[-118.254515954653, 34.044175331003], [-118.254393920097, 34.0443064966194], [-118.25482859165, 34.0445876213301], [-118.254951349217, 34.0444554919914], [-118.254515954653, 34.044175331003]]]}}, {"type": "Feature", "properties": {"zone_id": "0205NPA1FKD7PZE0Z74ZLN", "tract_id": "06037207303", "city": "LOS ANGELES, CA", "zone_code": "CDO", "zone_category": "Other", "ev_permitted": false}, "geometry": {"type": "Polygon", "coordinates": [[[-118.254393920097, 34.0443064966194], [-118.254271292822, 34.0444382678918], [-118.254705833695, 34.0447197505449], [-118.25482859165, 34.0445876213301], [-118.254393920097, 34.0443064966194]]]}}, {"type": "Feature", "properties": {"zone_id": "0200HKWCAUE0LK3YV0LZTI", "tract_id": "06037207303", "city": "LOS ANGELES, CA", "zone_code": "CDO", "zone_category": "Other", "ev_permitted": false}, "geometry": {"type": "Polygon", "coordinates": [[[-118.254271292822, 34.0444382678918], [-118.254210061396, 34.0445040983509], [-118.254644635499, 34.0447856086341], [-118.254705833695, 34.0447197505449], [-118.254271292822, 34.0444382678918]]]}}, {"type": "Feature", "properties": {"zone_id": "02060GCTNMIOD2L8HM0G6G", "tract_id": "06037207303", "city": "LOS ANGELES, CA", "zone_code": "SN", "zone_category": "Other", "ev_permitted": false}, "geometry": {"type": "Polygon", "coordinates": [[[-118.254210061396, 34.0445040983509], [-118.254148731179, 34.0445700389016], [-118.254583108279, 34.0448518520877], [-118.254644635499, 34.0447856086341], [-118.254210061396, 34.0445040983509]]]}}, {"type": "Feature", "properties": {"zone_id": "0204MWCN87WVBOHS0KZV3F", "tract_id": "06037207303", "city": "LOS ANGELES, CA", "zone_code": "CDO", "zone_category": "Other", "ev_permitted": false}, "geometry": {"type": "Polygon", "coordinates": [[[-118.254627723382, 34.0440552058641], [-118.254515954653, 34.044175331003], [-118.254820673073, 34.0443714065409], [-118.254932340373, 34.0442512280925], [-118.254627723382, 34.0440552058641]]]}}, {"type": "Feature", "properties": {"zone_id": "0204MA9FDEN8K104IAT6I3", "tract_id": "06037207303", "city": "LOS ANGELES, CA", "zone_code": "CDO", "zone_category": "Other", "ev_permitted": false}, "geometry": {"type": "Polygon", "coordinates": [[[-118.254751599796, 34.0439220851391], [-118.254627723382, 34.0440552058641], [-118.254932340373, 34.0442512280925], [-118.255056084219, 34.0441179974185], [-118.254751599796, 34.0439220851391]]]}}, {"type": "Feature", "properties": {"zone_id": "0202NWCP8EIHUNI3PS98IX", "tract_id": "06037207303", "city": "LOS ANGELES, CA", "zone_code": "CDO", "zone_category": "Other", "ev_permitted": false}, "geometry": {"type": "Polygon", "coordinates": [[[-118.254144698918, 34.0435141514301], [-118.253941627091, 34.0437326220265], [-118.254349467042, 34.0439952567558], [-118.254552769424, 34.0437767575049], [-118.254144698918, 34.0435141514301]]]}}, {"type": "Feature", "properties": {"zone_id": "0201CFDHZVECVT6490TTS2", "tract_id": "06037207303", "city": "LOS ANGELES, CA", "zone_code": "CDO", "zone_category": "Other", "ev_permitted": false}, "geometry": {"type": "Polygon", "coordinates": [[[-118.253906337299, 34.0448305246748], [-118.253564081392, 34.0451983590968], [-118.253987207908, 34.0454708278298], [-118.254328046481, 34.0451039294625], [-118.253906337299, 34.0448305246748]]]}}, {"type": "Feature", "properties": {"zone_id": "0202BTQ028BVVZNCAZZ4VH", "tract_id": "06037207303", "city": "LOS ANGELES, CA", "zone_code": "CDO", "zone_category": "Other", "ev_permitted": false}, "geometry": {"type": "Polygon", "coordinates": [[[-118.253164804371, 34.0445593831413], [-118.253020492298, 34.044714665399], [-118.252999589229, 34.0447011896835], [-118.252931973555, 34.0447739300189], [-118.253313091152, 34.0450193676218], [-118.253382588154, 34.0450119949181], [-118.253563949337, 34.0448170926037], [-118.253164804371, 34.0445593831413]]]}}, {"type": "Feature", "properties": {"zone_id": "0207F2U8C9RDGENWQMJP5A", "tract_id": "06037207303", "city": "LOS ANGELES, CA", "zone_code": "CDO", "zone_category": "Other", "ev_permitted": false}, "geometry": {"type": "Polygon", "coordinates": [[[-118.253738587213, 34.0439510922144], [-118.253533999736, 34.044171186553], [-118.253940424381, 34.0444348973119], [-118.254146196607, 34.0442137555973], [-118.253738587213, 34.0439510922144]]]}}, {"type": "Feature", "properties": {"zone_id": "0206E6PJXHZYC46LASGGNF", "tract_id": "06037207303", "city": "LOS ANGELES, CA", "zone_code": "SN", "zone_category": "Other", "ev_permitted": false}, "geometry": {"type": "Polygon", "coordinates": [[[-118.253533999736, 34.044171186553], [-118.253413674906, 34.0443006164286], [-118.253820922043, 34.044563336633], [-118.253940424381, 34.0444348973119], [-118.253533999736, 34.044171186553]]]}}, {"type": "Feature", "properties": {"zone_id": "0201RI7W7RANOBZ9F9VSBE", "tract_id": "06037207303", "city": "LOS ANGELES, CA", "zone_code": "CDO", "zone_category": "Other", "ev_permitted": false}, "geometry": {"type": "Polygon", "coordinates": [[[-118.253413674906, 34.0443006164286], [-118.253271469458, 34.0444536138343], [-118.253678486075, 34.0447164174413], [-118.253820922043, 34.044563336633], [-118.253413674906, 34.0443006164286]]]}}, {"type": "Feature", "properties": {"zone_id": "020278FGVF1PDWAAE439BZ", "tract_id": "06037207303", "city": "LOS ANGELES, CA", "zone_code": "CDO", "zone_category": "Other", "ev_permitted": false}, "geometry": {"type": "Polygon", "coordinates": [[[-118.253271469458, 34.0444536138343], [-118.253170063145, 34.0445627519941], [-118.253577013788, 34.0448255011261], [-118.253678486075, 34.0447164174413], [-118.253271469458, 34.0444536138343]]]}}, {"type": "Feature", "properties": {"zone_id": "0202RO9V3FG840TQI2O842", "tract_id": "06037207303", "city": "LOS ANGELES, CA", "zone_code": "[DM4-CHC1-5] [CX2-FA]", "zone_category": "Other", "ev_permitted": false}, "geometry": {"type": "Polygon", "coordinates": [[[-118.25296161469, 34.0440089712556], [-118.25283918224, 34.044140273522], [-118.253239282816, 34.0443984217039], [-118.253361483448, 34.0442669546439], [-118.25296161469, 34.0440089712556]]]}}, {"type": "Feature", "properties": {"zone_id": "0207JZTAL70EZY2G94UPOP", "tract_id": "06037207303", "city": "LOS ANGELES, CA", "zone_code": "[DM4-CHC1-5] [CX2-FA]", "zone_category": "Other", "ev_permitted": false}, "geometry": {"type": "Polygon", "coordinates": [[[-118.25283918224, 34.044140273522], [-118.252494783809, 34.0445097581037], [-118.252895776603, 34.0447679880004], [-118.253239282816, 34.0443984217039], [-118.25283918224, 34.044140273522]]]}}, {"type": "Feature", "properties": {"zone_id": "02042HSO7P1S5LB08LNBRQ", "tract_id": "06037207303", "city": "LOS ANGELES, CA", "zone_code": "CDO", "zone_category": "Other", "ev_permitted": false}, "geometry": {"type": "Polygon", "coordinates": [[[-118.253941627091, 34.0437326220265], [-118.253738587213, 34.0439510922144], [-118.254146196607, 34.0442137555973], [-118.254349467042, 34.0439952567558], [-118.253941627091, 34.0437326220265]]]}}, {"type": "Feature", "properties": {"zone_id": "0205BQJBZI3YSH4G65E7SE", "tract_id": "06037207303", "city": "LOS ANGELES, CA", "zone_code": "[DM4-CHC1-5] [CX2-FA]", "zone_category": "Other", "ev_permitted": false}, "geometry": {"type": "Polygon", "coordinates": [[[-118.25369353565, 34.0432238261014], [-118.253185255956, 34.0437690807675], [-118.253584858932, 34.044026651789], [-118.254068234217, 34.0435066183096], [-118.254063266894, 34.0435034223421], [-118.25408750955, 34.0434773473009], [-118.25369353565, 34.0432238261014]]]}}, {"type": "Feature", "properties": {"zone_id": "0205L2SQA306Q4WM9QTI83", "tract_id": "06037207303", "city": "LOS ANGELES, CA", "zone_code": "[DM4-CHC1-5] [CX2-FA]", "zone_category": "Other", "ev_permitted": false}, "geometry": {"type": "Polygon", "coordinates": [[[-118.253083125398, 34.043878632551], [-118.25296161469, 34.0440089712556], [-118.253361483448, 34.0442669546439], [-118.253481939933, 34.0441373871508], [-118.253083125398, 34.043878632551]]]}}, {"type": "Feature", "properties": {"zone_id": "0200WISBAP41Y5ZIPVRPWW", "tract_id": "06037207303", "city": "LOS ANGELES, CA", "zone_code": "[DM4-CHC1-5] [CX2-FA]", "zone_category": "Other", "ev_permitted": false}, "geometry": {"type": "Polygon", "coordinates": [[[-118.253185255956, 34.0437690807675], [-118.253083125398, 34.043878632551], [-118.253481939933, 34.0441373871508], [-118.253584858932, 34.044026651789], [-118.253185255956, 34.0437690807675]]]}}, {"type": "Feature", "properties": {"zone_id": "020095424O1D23QNFD1NQT", "tract_id": "06037207303", "city": "LOS ANGELES, CA", "zone_code": "[DM4-CHC1-5] [CX2-FA]", "zone_category": "Other", "ev_permitted": false}, "geometry": {"type": "Polygon", "coordinates": [[[-118.252052405212, 34.0440234028078], [-118.251935630761, 34.0441486470343], [-118.252286019271, 34.0443751367183], [-118.252402793348, 34.0442498371945], [-118.252052405212, 34.0440234028078]]]}}, {"type": "Feature", "properties": {"zone_id": "02060EOQ28W3A2HU8LNZ7T", "tract_id": "06037207303", "city": "LOS ANGELES, CA", "zone_code": "[DM4-CHC1-5] [CX2-FA]", "zone_category": "Other", "ev_permitted": false}, "geometry": {"type": "Polygon", "coordinates": [[[-118.252373977136, 34.04341850237], [-118.252251024799, 34.043497815454], [-118.25278345042, 34.0438415045564], [-118.252874822042, 34.0437434891276], [-118.252373977136, 34.04341850237]]]}}, {"type": "Feature", "properties": {"zone_id": "02070YWQIUCM0YTP5UBVUW", "tract_id": "06037207303", "city": "LOS ANGELES, CA", "zone_code": "[DM4-CHC1-5] [CX2-FA]", "zone_category": "Other", "ev_permitted": false}, "geometry": {"type": "Polygon", "coordinates": [[[-118.252116707574, 34.0435740195721], [-118.251880224299, 34.0437266076063], [-118.252196279785, 34.0439308564624], [-118.252509136958, 34.0441357981517], [-118.252660294217, 34.0439736325159], [-118.252348799864, 34.0437717385061], [-118.252381242813, 34.0437370750392], [-118.252116707574, 34.0435740195721]]]}}, {"type": "Feature", "properties": {"zone_id": "02060WP1D219TWIELRLL70", "tract_id": "06037207303", "city": "LOS ANGELES, CA", "zone_code": "[DM4-CHC1-5] [CX2-FA]", "zone_category": "Other", "ev_permitted": false}, "geometry": {"type": "Polygon", "coordinates": [[[-118.252081909628, 34.0438569577883], [-118.251857212049, 34.044097975056], [-118.251935630761, 34.0441486470343], [-118.252052405212, 34.0440234028078], [-118.252402793348, 34.0442498371945], [-118.252509136958, 34.0441357981517], [-118.252196279785, 34.0439308564624], [-118.252081909628, 34.0438569577883]]]}}, {"type": "Feature", "properties": {"zone_id": "02052RSWL0W4VGPE9ZH4A5", "tract_id": "06037207303", "city": "LOS ANGELES, CA", "zone_code": "[DM4-CHC1-5] [CX2-FA]", "zone_category": "Other", "ev_permitted": false}, "geometry": {"type": "Polygon", "coordinates": [[[-118.252519783264, 34.0436711388222], [-118.252396658412, 34.0438027718294], [-118.252660294217, 34.0439736325159], [-118.25278345042, 34.0438415045564], [-118.252519783264, 34.0436711388222]]]}}, {"type": "Feature", "properties": {"zone_id": "0206A75CDA8LVW9JVKOELF", "tract_id": "06037207303", "city": "LOS ANGELES, CA", "zone_code": "[DM4-CHC1-5] [CX2-FA]", "zone_category": "Other", "ev_permitted": false}, "geometry": {"type": "Polygon", "coordinates": [[[-118.252242954787, 34.0434926113624], [-118.252116707574, 34.0435740195721], [-118.252381242813, 34.0437370750392], [-118.252348799864, 34.0437717385061], [-118.252396658412, 34.0438027718294], [-118.252519783264, 34.0436711388222], [-118.252242954787, 34.0434926113624]]]}}, {"type": "Feature", "properties": {"zone_id": "0204P38ASS83PNJTW8IZVN", "tract_id": "06037207303", "city": "LOS ANGELES, CA", "zone_code": "[DM4-CHC1-5] [CX2-FA]", "zone_category": "Other", "ev_permitted": false}, "geometry": {"type": "Polygon", "coordinates": [[[-118.251880224299, 34.0437266076063], [-118.25171582543, 34.043832688394], [-118.251958357255, 34.0439894430795], [-118.252081909628, 34.0438569577883], [-118.251880224299, 34.0437266076063]]]}}, {"type": "Feature", "properties": {"zone_id": "0203ALPWFHKPA48FEPEKIT", "tract_id": "06037207303", "city": "LOS ANGELES, CA", "zone_code": "[DM4-CHC1-5] [CX2-FA]", "zone_category": "Other", "ev_permitted": false}, "geometry": {"type": "Polygon", "coordinates": [[[-118.25171582543, 34.043832688394], [-118.251581110113, 34.0439195544744], [-118.251857212049, 34.044097975056], [-118.251958357255, 34.0439894430795], [-118.25171582543, 34.043832688394]]]}}, {"type": "Feature", "properties": {"zone_id": "0200FMLWVXN68PX4XHGC77", "tract_id": "06037207303", "city": "CA", "zone_code": "CPIO", "zone_category": "Other", "ev_permitted": false}, "geometry": {"type": "Polygon", "coordinates": [[[-118.256618132697, 34.0428456122602], [-118.256405855607, 34.0430736416771], [-118.256301899546, 34.0430058526306], [-118.25605843079, 34.0432673891987], [-118.256472473718, 34.0435384395631], [-118.256917751436, 34.0430585394824], [-118.256888326615, 34.0430218905613], [-118.256618132697, 34.0428456122602]]]}}, {"type": "Feature", "properties": {"zone_id": "0206MLPJ0OKW4MJN7030OV", "tract_id": "06037207303", "city": "LOS ANGELES, CA", "zone_code": "SN", "zone_category": "Other", "ev_permitted": false}, "geometry": {"type": "Polygon", "coordinates": [[[-118.255880454779, 34.0427312176731], [-118.255634946075, 34.0429950933936], [-118.25605843079, 34.0432673891987], [-118.256301899546, 34.0430058526306], [-118.255880454779, 34.0427312176731]]]}}, {"type": "Feature", "properties": {"zone_id": "0206GLV2WP2K2P9PG7DXLP", "tract_id": "06037207303", "city": "LOS ANGELES, CA", "zone_code": "CPIO", "zone_category": "Other", "ev_permitted": false}, "geometry": {"type": "Polygon", "coordinates": [[[-118.255621881703, 34.0429866850946], [-118.255500212541, 34.0431174663535], [-118.255934446882, 34.0433967469143], [-118.255933525732, 34.0433977655781], [-118.256350543028, 34.0436698817274], [-118.256472473718, 34.0435384395631], [-118.25605843079, 34.0432673891987], [-118.255621881703, 34.0429866850946]]]}}, {"type": "Feature", "properties": {"zone_id": "0207EV5C7DQW3M04J4M4UH", "tract_id": "06037207303", "city": "LOS ANGELES, CA", "zone_code": "CDO", "zone_category": "Other", "ev_permitted": false}, "geometry": {"type": "Polygon", "coordinates": [[[-118.256113031821, 34.0424812181398], [-118.255880454779, 34.0427312176731], [-118.256405855607, 34.0430736416771], [-118.256618132697, 34.0428456122602], [-118.256511596819, 34.0427761251994], [-118.256531797981, 34.0427544290801], [-118.256113031821, 34.0424812181398]]]}}, {"type": "Feature", "properties": {"zone_id": "0200K482LBWA4U6PDL4DOD", "tract_id": "06037207303", "city": "LOS ANGELES, CA", "zone_code": "CPIO", "zone_category": "Other", "ev_permitted": false}, "geometry": {"type": "Polygon", "coordinates": [[[-118.254761114073, 34.0428186584816], [-118.2546600396, 34.0429270827461], [-118.255085713478, 34.0432039937564], [-118.255186951522, 34.0430951566077], [-118.254761114073, 34.0428186584816]]]}}, {"type": "Feature", "properties": {"zone_id": "02030XIVW1IW3JR9980LQD", "tract_id": "06037207303", "city": "LOS ANGELES, CA", "zone_code": "CPIO", "zone_category": "Other", "ev_permitted": false}, "geometry": {"type": "Polygon", "coordinates": [[[-118.2546600396, 34.0429270827461], [-118.254558997625, 34.0430354244215], [-118.254984508013, 34.0433127757942], [-118.255085713478, 34.0432039937564], [-118.2546600396, 34.0429270827461]]]}}, {"type": "Feature", "properties": {"zone_id": "0205X8AQS4VOE5QTT09T9L", "tract_id": "06037207303", "city": "LOS ANGELES, CA", "zone_code": "CDO", "zone_category": "Other", "ev_permitted": false}, "geometry": {"type": "Polygon", "coordinates": [[[-118.254558997625, 34.0430354244215], [-118.254448315116, 34.0431541183128], [-118.254863281098, 34.0434205764262], [-118.254971462204, 34.0433043605159], [-118.254558997625, 34.0430354244215]]]}}, {"type": "Feature", "properties": {"zone_id": "02037LGP9PU3V5ENZS8FR8", "tract_id": "06037207303", "city": "LOS ANGELES, CA", "zone_code": "CDO", "zone_category": "Other", "ev_permitted": false}, "geometry": {"type": "Polygon", "coordinates": [[[-118.254448315116, 34.0431541183128], [-118.25434694367, 34.0432628452067], [-118.254772291556, 34.0435408846408], [-118.254876326915, 34.0434289917162], [-118.254448315116, 34.0431541183128]]]}}, {"type": "Feature", "properties": {"zone_id": "0206A122J4OFEXXIIUO2IW", "tract_id": "06037207303", "city": "LOS ANGELES, CA", "zone_code": "SN", "zone_category": "Other", "ev_permitted": false}, "geometry": {"type": "Polygon", "coordinates": [[[-118.254029171614, 34.0428637542467], [-118.253918324203, 34.0429826678265], [-118.25434694367, 34.0432628452067], [-118.254457823936, 34.0431439586407], [-118.254029171614, 34.0428637542467]]]}}, {"type": "Feature", "properties": {"zone_id": "02071UJ3YS1LF5H71DFP1V", "tract_id": "06037207303", "city": "LOS ANGELES, CA", "zone_code": "CDO", "zone_category": "Other", "ev_permitted": false}, "geometry": {"type": "Polygon", "coordinates": [[[-118.25434694367, 34.0432628452067], [-118.254276434199, 34.0433384501731], [-118.254302562784, 34.0433552670609], [-118.254272193934, 34.0433878108192], [-118.254674046251, 34.0436464176879], [-118.254772291556, 34.0435408846408], [-118.25434694367, 34.0432628452067]]]}}, {"type": "Feature", "properties": {"zone_id": "0206UTF3GBF6HCLM2476GW", "tract_id": "06037207303", "city": "LOS ANGELES, CA", "zone_code": "CDO", "zone_category": "Other", "ev_permitted": false}, "geometry": {"type": "Polygon", "coordinates": [[[-118.254862155608, 34.0427103441169], [-118.254761114073, 34.0428186584816], [-118.255186951522, 34.0430951566077], [-118.255288156461, 34.0429863744015], [-118.254862155608, 34.0427103441169]]]}}, {"type": "Feature", "properties": {"zone_id": "02017RDW4MYPRBU25FWKMH", "tract_id": "06037207303", "city": "LOS ANGELES, CA", "zone_code": "CDO", "zone_category": "Other", "ev_permitted": false}, "geometry": {"type": "Polygon", "coordinates": [[[-118.254985372494, 34.0425782137807], [-118.254862155608, 34.0427103441169], [-118.255288156461, 34.0429863744015], [-118.255410977391, 34.0428543818592], [-118.254985372494, 34.0425782137807]]]}}, {"type": "Feature", "properties": {"zone_id": "0205KOUI0X3MTSXFJV2AFM", "tract_id": "06037207303", "city": "LOS ANGELES, CA", "zone_code": "CDO", "zone_category": "Other", "ev_permitted": false}, "geometry": {"type": "Polygon", "coordinates": [[[-118.255265693477, 34.0422775817571], [-118.254985372494, 34.0425782137807], [-118.255410977391, 34.0428543818592], [-118.255690045446, 34.0425544109835], [-118.255265693477, 34.0422775817571]]]}}, {"type": "Feature", "properties": {"zone_id": "0204BHD150DWJX28PHRFWK", "tract_id": "06037207303", "city": "LOS ANGELES, CA", "zone_code": "[DM4-CHC1-5] [CX2-FA]", "zone_category": "Other", "ev_permitted": false}, "geometry": {"type": "Polygon", "coordinates": [[[-118.254344309002, 34.0425481027126], [-118.25404213703, 34.0428722453618], [-118.254457823936, 34.0431439586407], [-118.254761114073, 34.0428186584816], [-118.254344309002, 34.0425481027126]]]}}, {"type": "Feature", "properties": {"zone_id": "0205F55VU16LHVN9OU7F19", "tract_id": "06037207303", "city": "LOS ANGELES, CA", "zone_code": "[DM4-CHC1-5] [CX2-FA]", "zone_category": "Other", "ev_permitted": false}, "geometry": {"type": "Polygon", "coordinates": [[[-118.254432023266, 34.0424316281337], [-118.254331277755, 34.0425396667262], [-118.254761114073, 34.0428186584816], [-118.254862155608, 34.0427103441169], [-118.254432023266, 34.0424316281337]]]}}, {"type": "Feature", "properties": {"zone_id": "0202L85W5OK4HEOHUEE96I", "tract_id": "06037207303", "city": "LOS ANGELES, CA", "zone_code": "CPIO", "zone_category": "Other", "ev_permitted": false}, "geometry": {"type": "Polygon", "coordinates": [[[-118.254535170139, 34.0423209464416], [-118.254432023266, 34.0424316281337], [-118.254862155608, 34.0427103441169], [-118.254965137965, 34.0425999097109], [-118.254535170139, 34.0423209464416]]]}}, {"type": "Feature", "properties": {"zone_id": "0201C50RGM78JNJIZW5MMO", "tract_id": "06037207303", "city": "LOS ANGELES, CA", "zone_code": "CDO", "zone_category": "Other", "ev_permitted": false}, "geometry": {"type": "Polygon", "coordinates": [[[-118.255494066222, 34.0420774661212], [-118.255473832029, 34.0420991896146], [-118.255447835132, 34.0420822078309], [-118.255265693477, 34.0422775817571], [-118.255690045446, 34.0425544109835], [-118.255892189382, 34.0423371759512], [-118.255494066222, 34.0420774661212]]]}}, {"type": "Feature", "properties": {"zone_id": "02029LTCNGBY0VUTEZDCGY", "tract_id": "06037207303", "city": "LOS ANGELES, CA", "zone_code": "[DM4-CHC1-5] [CX2-FA]", "zone_category": "Other", "ev_permitted": false}, "geometry": {"type": "Polygon", "coordinates": [[[-118.254678818693, 34.0421668453607], [-118.254535170139, 34.0423209464416], [-118.254965137965, 34.0425999097109], [-118.255108555981, 34.0424460833895], [-118.254678818693, 34.0421668453607]]]}}, {"type": "Feature", "properties": {"zone_id": "02062BU5LDB5G5NYV3O9BG", "tract_id": "06037207303", "city": "LOS ANGELES, CA", "zone_code": "[DM4-CHC1-5] [CX2-FA]", "zone_category": "Other", "ev_permitted": false}, "geometry": {"type": "Polygon", "coordinates": [[[-118.254921796023, 34.0419061644681], [-118.254678818693, 34.0421668453607], [-118.255108555981, 34.0424460833895], [-118.255351269887, 34.0421857868859], [-118.254921796023, 34.0419061644681]]]}}, {"type": "Feature", "properties": {"zone_id": "0201PWS7WI5L76GHMHXL5O", "tract_id": "06037207303", "city": "LOS ANGELES, CA", "zone_code": "CDO", "zone_category": "Other", "ev_permitted": false}, "geometry": {"type": "Polygon", "coordinates": [[[-118.255038891873, 34.0417805594504], [-118.254921796023, 34.0419061644681], [-118.255351269887, 34.0421857868859], [-118.255447835132, 34.0420822078309], [-118.255421871423, 34.0420652809288], [-118.255442105704, 34.0420435849228], [-118.255038891873, 34.0417805594504]]]}}, {"type": "Feature", "properties": {"zone_id": "020172HXQ32HBQAKBHP5P9", "tract_id": "06037207303", "city": "LOS ANGELES, CA", "zone_code": "[DM4-CHC1-5] [CX2-FA]", "zone_category": "Other", "ev_permitted": false}, "geometry": {"type": "Polygon", "coordinates": [[[-118.254414748839, 34.0420915608731], [-118.253991709058, 34.0423644904235], [-118.254095825546, 34.042433677374], [-118.254414748839, 34.0420915608731]]]}}, {"type": "Feature", "properties": {"zone_id": "02075TSK7E9CUUQH73A8H5", "tract_id": "06037207303", "city": "LOS ANGELES, CA", "zone_code": "[DM3-CHC1-5] [CX3-FA]", "zone_category": "Other", "ev_permitted": false}, "geometry": {"type": "Polygon", "coordinates": [[[-118.25415756467, 34.0414031844427], [-118.253911932302, 34.0415615387614], [-118.254248063336, 34.0419209670766], [-118.25458926681, 34.0417008308781], [-118.25415756467, 34.0414031844427]]]}}, {"type": "Feature", "properties": {"zone_id": "0204U44ZV52OS6WUCIYXD9", "tract_id": "06037207303", "city": "LOS ANGELES, CA", "zone_code": "[DM3-CHC1-5] [CX3-FA]", "zone_category": "Other", "ev_permitted": false}, "geometry": {"type": "Polygon", "coordinates": [[[-118.254446743762, 34.0412153081993], [-118.25415756467, 34.0414031844427], [-118.25458926681, 34.0417008308781], [-118.25471260964, 34.0416212672783], [-118.254411957134, 34.0413470593408], [-118.254516916759, 34.0412793230275], [-118.254446743762, 34.0412153081993]]]}}, {"type": "Feature", "properties": {"zone_id": "02066YY4AAQWQ0X2BQ2A05", "tract_id": "06037207303", "city": "LOS ANGELES, CA", "zone_code": "[DM3-CHC1-5] [CX3-FA]", "zone_category": "Other", "ev_permitted": false}, "geometry": {"type": "Polygon", "coordinates": [[[-118.254516916759, 34.0412793230275], [-118.254411957134, 34.0413470593408], [-118.254580504993, 34.041500777067], [-118.254685497683, 34.0414330405371], [-118.254516916759, 34.0412793230275]]]}}, {"type": "Feature", "properties": {"zone_id": "0206K48YAEAWMYFPHVIZNA", "tract_id": "06037207303", "city": "LOS ANGELES, CA", "zone_code": "[DM3-CHC1-5] [CX3-FA]", "zone_category": "Other", "ev_permitted": false}, "geometry": {"type": "Polygon", "coordinates": [[[-118.254685497683, 34.0414330405371], [-118.254580504993, 34.041500777067], [-118.25471260964, 34.0416212672783], [-118.254817602374, 34.0415535306332], [-118.254685497683, 34.0414330405371]]]}}, {"type": "Feature", "properties": {"zone_id": "0204OZ98LAV781HF1IWV5W", "tract_id": "06037207303", "city": "LOS ANGELES, CA", "zone_code": "[DM4-CHC1-5] [CX2-FA]", "zone_category": "Other", "ev_permitted": false}, "geometry": {"type": "Polygon", "coordinates": [[[-118.253918324203, 34.0429826678265], [-118.253814978311, 34.0430935692397], [-118.254219936849, 34.0433542045032], [-118.254250338633, 34.0433216332101], [-118.254276434199, 34.0433384501731], [-118.25434694367, 34.0432628452067], [-118.253918324203, 34.0429826678265]]]}}, {"type": "Feature", "properties": {"zone_id": "0200G2JJF3NYLFRKSG5YGT", "tract_id": "06037207303", "city": "LOS ANGELES, CA", "zone_code": "[DM4-CHC1-5] [CX2-FA]", "zone_category": "Other", "ev_permitted": false}, "geometry": {"type": "Polygon", "coordinates": [[[-118.253041481834, 34.0429774739597], [-118.25236594005, 34.0434132707391], [-118.252874822042, 34.0437434891276], [-118.25338366318, 34.0431977124997], [-118.253041481834, 34.0429774739597]]]}}, {"type": "Feature", "properties": {"zone_id": "0203RAWESO7NKMHA6OQXLK", "tract_id": "06037207303", "city": "LOS ANGELES, CA", "zone_code": "[DM4-CHC1-5] [CX2-FA]", "zone_category": "Other", "ev_permitted": false}, "geometry": {"type": "Polygon", "coordinates": [[[-118.253170563714, 34.0428802929441], [-118.253030691542, 34.0429705290076], [-118.253399313421, 34.0432078175749], [-118.253504323578, 34.0430951131706], [-118.253170563714, 34.0428802929441]]]}}, {"type": "Feature", "properties": {"zone_id": "0201FX5F9U5YYVBE1VV51I", "tract_id": "06037207303", "city": "LOS ANGELES, CA", "zone_code": "[DM4-CHC1-5] [CX2-FA]", "zone_category": "Other", "ev_permitted": false}, "geometry": {"type": "Polygon", "coordinates": [[[-118.253653466197, 34.0425826677262], [-118.253337723156, 34.042786398047], [-118.253606050636, 34.0429591153641], [-118.253844822128, 34.0427029519774], [-118.253653466197, 34.0425826677262]]]}}, {"type": "Feature", "properties": {"zone_id": "020161KSOE1GX52LPTNIJ9", "tract_id": "06037207303", "city": "LOS ANGELES, CA", "zone_code": "[DM4-CHC1-5] [CX2-FA]", "zone_category": "Other", "ev_permitted": false}, "geometry": {"type": "Polygon", "coordinates": [[[-118.253991709058, 34.0423644904235], [-118.253812885643, 34.0424798372482], [-118.253964190904, 34.0425748976214], [-118.254095825546, 34.042433677374], [-118.253991709058, 34.0423644904235]]]}}, {"type": "Feature", "properties": {"zone_id": "0203GYIYUM11EKRBAWUMJQ", "tract_id": "06037207303", "city": "LOS ANGELES, CA", "zone_code": "[DM4-CHC1-5] [CX2-FA]", "zone_category": "Other", "ev_permitted": false}, "geometry": {"type": "Polygon", "coordinates": [[[-118.253734609108, 34.0425303427055], [-118.253653466197, 34.0425826677262], [-118.253844822128, 34.0427029519774], [-118.253905592398, 34.0426377821655], [-118.253734609108, 34.0425303427055]]]}}, {"type": "Feature", "properties": {"zone_id": "0206D31I6NIFL42A2K7WDU", "tract_id": "06037207303", "city": "LOS ANGELES, CA", "zone_code": "[DM4-CHC1-5] [CX2-FA]", "zone_category": "Other", "ev_permitted": false}, "geometry": {"type": "Polygon", "coordinates": [[[-118.253812885643, 34.0424798372482], [-118.253734609108, 34.0425303427055], [-118.253905592398, 34.0426377821655], [-118.253964190904, 34.0425748976214], [-118.253812885643, 34.0424798372482]]]}}, {"type": "Feature", "properties": {"zone_id": "0200SB1ATIQ96MDKG57P2G", "tract_id": "06037207303", "city": "LOS ANGELES, CA", "zone_code": "[DM3-CHC1-5] [CX3-FA]", "zone_category": "Other", "ev_permitted": false}, "geometry": {"type": "Polygon", "coordinates": [[[-118.252085623005, 34.0429529288469], [-118.25196855638, 34.0430244803663], [-118.252182058654, 34.0432537839294], [-118.252312719851, 34.0431694811667], [-118.252085623005, 34.0429529288469]]]}}, {"type": "Feature", "properties": {"zone_id": "0203W7L2GSG1JVM8MTHGDX", "tract_id": "06037207303", "city": "LOS ANGELES, CA", "zone_code": "[DM3-CHC1-5] [CX3-FA]", "zone_category": "Other", "ev_permitted": false}, "geometry": {"type": "Polygon", "coordinates": [[[-118.251851778623, 34.042808219453], [-118.251698556695, 34.0429202947347], [-118.25207755588, 34.0433212149914], [-118.252182058654, 34.0432537839294], [-118.25196855638, 34.0430244803663], [-118.252064768058, 34.0429661896294], [-118.251851778623, 34.042808219453]]]}}, {"type": "Feature", "properties": {"zone_id": "02037GM0SNMJJAGJ6NPPNT", "tract_id": "06037207303", "city": "LOS ANGELES, CA", "zone_code": "[DM3-CHC1-5] [CX3-FA]", "zone_category": "Other", "ev_permitted": false}, "geometry": {"type": "Polygon", "coordinates": [[[-118.251698556695, 34.0429202947347], [-118.251598858863, 34.0429932128194], [-118.25197301993, 34.0433886460322], [-118.25207755588, 34.0433212149914], [-118.251698556695, 34.0429202947347]]]}}, {"type": "Feature", "properties": {"zone_id": "0204HUQ6OS7TTD54FYA1QG", "tract_id": "06037207303", "city": "LOS ANGELES, CA", "zone_code": "[DM3-CHC1-5] [CX3-FA]", "zone_category": "Other", "ev_permitted": false}, "geometry": {"type": "Polygon", "coordinates": [[[-118.251598858863, 34.0429932128194], [-118.251474256391, 34.0430843426647], [-118.251842357965, 34.0434729209497], [-118.25197301993, 34.0433886460322], [-118.251598858863, 34.0429932128194]]]}}, {"type": "Feature", "properties": {"zone_id": "0206FJA9EC5R7E7Y4ZXFT1", "tract_id": "06037207303", "city": "LOS ANGELES, CA", "zone_code": "[DM3-CHC1-5] [CX3-FA]", "zone_category": "Other", "ev_permitted": false}, "geometry": {"type": "Polygon", "coordinates": [[[-118.251474256391, 34.0430843426647], [-118.251203151644, 34.0432826435579], [-118.251171718316, 34.0432592455864], [-118.250940866185, 34.0434832886809], [-118.251365271704, 34.0437806870494], [-118.251842357965, 34.0434729209497], [-118.251474256391, 34.0430843426647]]]}}, {"type": "Feature", "properties": {"zone_id": "0203CY7A5VAO5KNJS3SNE6", "tract_id": "06037207303", "city": "LOS ANGELES, CA", "zone_code": "[DM3-CHC1-5] [CX3-FA]", "zone_category": "Other", "ev_permitted": false}, "geometry": {"type": "Polygon", "coordinates": [[[-118.252295738283, 34.0427485707128], [-118.252033735992, 34.0429431723115], [-118.252064768058, 34.0429661896294], [-118.252085623005, 34.0429529288469], [-118.252312719851, 34.0431694811667], [-118.252569429219, 34.043003880042], [-118.252295738283, 34.0427485707128]]]}}, {"type": "Feature", "properties": {"zone_id": "0205SSXDGU94AF2SZJQALG", "tract_id": "06037207303", "city": "LOS ANGELES, CA", "zone_code": "[DM3-CHC1-5] [CX3-FA]", "zone_category": "Other", "ev_permitted": false}, "geometry": {"type": "Polygon", "coordinates": [[[-118.252643657659, 34.042388477061], [-118.252210003239, 34.0426685670238], [-118.252569429219, 34.043003880042], [-118.253003184032, 34.0427240633611], [-118.252643657659, 34.042388477061]]]}}, {"type": "Feature", "properties": {"zone_id": "0201LIMZBMRV7OLZ5E5GGW", "tract_id": "06037207303", "city": "LOS ANGELES, CA", "zone_code": "[DM3-CHC1-5] [CX3-FA]", "zone_category": "Other", "ev_permitted": false}, "geometry": {"type": "Polygon", "coordinates": [[[-118.251867230326, 34.0423487436674], [-118.251548374303, 34.0425831969585], [-118.252033735992, 34.0429431723115], [-118.252295738283, 34.0427485707128], [-118.251867230326, 34.0423487436674]]]}}, {"type": "Feature", "properties": {"zone_id": "0205Z5IJDMY2MO4C7Y5V1J", "tract_id": "06037207303", "city": "LOS ANGELES, CA", "zone_code": "[DM3-CHC1-5] [CX3-FA]", "zone_category": "Other", "ev_permitted": false}, "geometry": {"type": "Polygon", "coordinates": [[[-118.251548374303, 34.0425831969585], [-118.251301352437, 34.042765290434], [-118.251603797339, 34.0429896011046], [-118.251851778623, 34.042808219453], [-118.251548374303, 34.0425831969585]]]}}, {"type": "Feature", "properties": {"zone_id": "0201QT44PRLZLTFOT147MZ", "tract_id": "06037207303", "city": "LOS ANGELES, CA", "zone_code": "[DM3-CHC1-5] [CX3-FA]", "zone_category": "Other", "ev_permitted": false}, "geometry": {"type": "Polygon", "coordinates": [[[-118.253434204377, 34.0418693143937], [-118.253303677709, 34.0419533982593], [-118.25323498202, 34.0419629400571], [-118.253222957123, 34.0419706593061], [-118.253575929618, 34.0423545651625], [-118.253770599499, 34.0422290182746], [-118.253434204377, 34.0418693143937]]]}}, {"type": "Feature", "properties": {"zone_id": "0205ICPQLTG215VCOA7ZJZ", "tract_id": "06037207303", "city": "LOS ANGELES, CA", "zone_code": "[DM3-CHC1-5] [CX3-FA]", "zone_category": "Other", "ev_permitted": false}, "geometry": {"type": "Polygon", "coordinates": [[[-118.25372085479, 34.0416846602042], [-118.253625282732, 34.0417461934034], [-118.253961578821, 34.0421057870439], [-118.254057051849, 34.0420441988287], [-118.25372085479, 34.0416846602042]]]}}, {"type": "Feature", "properties": {"zone_id": "0205I4B8GLSGQ407T3DD1Q", "tract_id": "06037207303", "city": "LOS ANGELES, CA", "zone_code": "[DM3-CHC1-5] [CX3-FA]", "zone_category": "Other", "ev_permitted": false}, "geometry": {"type": "Polygon", "coordinates": [[[-118.253625282732, 34.0417461934034], [-118.253529743625, 34.0418077539362], [-118.25386001236, 34.0421609030252], [-118.253955485443, 34.0420992874117], [-118.253625282732, 34.0417461934034]]]}}, {"type": "Feature", "properties": {"zone_id": "02023HMCZQP3B38A5MLNET", "tract_id": "06037207303", "city": "LOS ANGELES, CA", "zone_code": "[DM3-CHC1-5] [CX3-FA]", "zone_category": "Other", "ev_permitted": false}, "geometry": {"type": "Polygon", "coordinates": [[[-118.253529743625, 34.0418077539362], [-118.253434204377, 34.0418693143937], [-118.253770599499, 34.0422290182746], [-118.253866072726, 34.0421674027316], [-118.253529743625, 34.0418077539362]]]}}, {"type": "Feature", "properties": {"zone_id": "0207FXSRPX2EMHIXUO89GA", "tract_id": "06037207303", "city": "LOS ANGELES, CA", "zone_code": "[DM3-CHC1-5] [CX3-FA]", "zone_category": "Other", "ev_permitted": false}, "geometry": {"type": "Polygon", "coordinates": [[[-118.253217197641, 34.0419653954774], [-118.253188063004, 34.0419694409797], [-118.252810056061, 34.0422135292465], [-118.253168456803, 34.0425480457395], [-118.253240532538, 34.0425535826883], [-118.253565927883, 34.042343677129], [-118.253222957123, 34.0419706593061], [-118.253217197641, 34.0419653954774]]]}}, {"type": "Feature", "properties": {"zone_id": "020473LV6UBC42H1C0LQXL", "tract_id": "06037207303", "city": "LOS ANGELES, CA", "zone_code": "CPIO", "zone_category": "Other", "ev_permitted": false}, "geometry": {"type": "Polygon", "coordinates": [[[-118.252721916916, 34.0417965324087], [-118.252510050257, 34.0419334897392], [-118.252766029835, 34.0421724033928], [-118.252974306122, 34.0420378987367], [-118.252721916916, 34.0417965324087]]]}}, {"type": "Feature", "properties": {"zone_id": "0203TXCRZMWWK4NYXWYTLN", "tract_id": "06037207303", "city": "LOS ANGELES, CA", "zone_code": "CPIO", "zone_category": "Other", "ev_permitted": false}, "geometry": {"type": "Polygon", "coordinates": [[[-118.252903671246, 34.0416789003346], [-118.252721916916, 34.0417965324087], [-118.252974306122, 34.0420378987367], [-118.253160772552, 34.0419175085341], [-118.253164269977, 34.0419170065852], [-118.252903671246, 34.0416789003346]]]}}, {"type": "Feature", "properties": {"zone_id": "02015GSJW29J0K6P5UIAIO", "tract_id": "06037207303", "city": "LOS ANGELES, CA", "zone_code": "[DM3-CHC1-5] [CX3-FA]", "zone_category": "Other", "ev_permitted": false}, "geometry": {"type": "Polygon", "coordinates": [[[-118.253911932302, 34.0415615387614], [-118.25372085479, 34.0416846602042], [-118.254057051849, 34.0420441988287], [-118.254248063336, 34.0419209670766], [-118.253911932302, 34.0415615387614]]]}}, {"type": "Feature", "properties": {"zone_id": "0204FMPLCF6RB49CCCK1M4", "tract_id": "06037207303", "city": "LOS ANGELES, CA", "zone_code": "CPIO", "zone_category": "Other", "ev_permitted": false}, "geometry": {"type": "Polygon", "coordinates": [[[-118.253677424369, 34.0411650471559], [-118.253449858704, 34.041316190639], [-118.253755862, 34.0415925880147], [-118.253986307694, 34.0414441033273], [-118.253677424369, 34.0411650471559]]]}}, {"type": "Feature", "properties": {"zone_id": "0203HSQ0SFV8QUNDF9PI68", "tract_id": "06037207303", "city": "LOS ANGELES, CA", "zone_code": "CPIO", "zone_category": "Other", "ev_permitted": false}, "geometry": {"type": "Polygon", "coordinates": [[[-118.253449858704, 34.041316190639], [-118.253189613202, 34.0414890279436], [-118.253487331602, 34.0417656082457], [-118.253755862, 34.0415925880147], [-118.253449858704, 34.041316190639]]]}}, {"type": "Feature", "properties": {"zone_id": "020751AHR1B5VP0SBWDTS4", "tract_id": "06037207303", "city": "LOS ANGELES, CA", "zone_code": "CPIO", "zone_category": "Other", "ev_permitted": false}, "geometry": {"type": "Polygon", "coordinates": [[[-118.253189613202, 34.0414890279436], [-118.25304680718, 34.0415838814421], [-118.253341815324, 34.0418593411578], [-118.253487331602, 34.0417656082457], [-118.253189613202, 34.0414890279436]]]}}, {"type": "Feature", "properties": {"zone_id": "0202MKM3YJTZ8DZRAH3F95", "tract_id": "06037207303", "city": "LOS ANGELES, CA", "zone_code": "CPIO", "zone_category": "Other", "ev_permitted": false}, "geometry": {"type": "MultiPolygon", "coordinates": [[[[-118.25323498202, 34.0419629400571], [-118.253217197641, 34.0419653954774], [-118.253222957123, 34.0419706593061], [-118.25323498202, 34.0419629400571]]], [[[-118.25304680718, 34.0415838814421], [-118.252903671246, 34.0416789003346], [-118.253164269977, 34.0419170065852], [-118.253276420199, 34.0419014657707], [-118.253341815324, 34.0418593411578], [-118.25304680718, 34.0415838814421]]]]}}, {"type": "Feature", "properties": {"zone_id": "02065DKN8V6I8ZPC3D7301", "tract_id": "06037207303", "city": "LOS ANGELES, CA", "zone_code": "[DM3-CHC1-5] [CX3-FA]", "zone_category": "Other", "ev_permitted": false}, "geometry": {"type": "Polygon", "coordinates": [[[-118.252170192068, 34.0421530676683], [-118.251867230326, 34.0423487436674], [-118.252210003239, 34.0426685670238], [-118.252643657659, 34.042388477061], [-118.252641505859, 34.042386420662], [-118.252510681669, 34.0424708889933], [-118.252170192068, 34.0421530676683]]]}}, {"type": "Feature", "properties": {"zone_id": "02041KXVEXIY3K3JOT72QF", "tract_id": "06037207303", "city": "LOS ANGELES, CA", "zone_code": "CPIO", "zone_category": "Other", "ev_permitted": false}, "geometry": {"type": "Polygon", "coordinates": [[[-118.252300983097, 34.0420685997763], [-118.252170192068, 34.0421530676683], [-118.252510681669, 34.0424708889933], [-118.252641505859, 34.042386420662], [-118.252300983097, 34.0420685997763]]]}}, {"type": "Feature", "properties": {"zone_id": "0206CHM9RDFIIO5SDB4WAL", "tract_id": "06037207303", "city": "LOS ANGELES, CA", "zone_code": "CPIO", "zone_category": "Other", "ev_permitted": false}, "geometry": {"type": "Polygon", "coordinates": [[[-118.254090749836, 34.0408905453917], [-118.253677424369, 34.0411650471559], [-118.253986307694, 34.0414441033273], [-118.25440212436, 34.0411745963739], [-118.254090749836, 34.0408905453917]]]}}, {"type": "Feature", "properties": {"zone_id": "02024O81YOZXW60LHSB6LW", "tract_id": "06037207303", "city": "LOS ANGELES, CA", "zone_code": "[DM3-CHC1-5] [CX3-FA]", "zone_category": "Other", "ev_permitted": false}, "geometry": {"type": "Polygon", "coordinates": [[[-118.251301352437, 34.042765290434], [-118.250902821566, 34.0430590694105], [-118.251203151644, 34.0432826435579], [-118.251603797339, 34.0429896011046], [-118.251301352437, 34.042765290434]]]}}, {"type": "Feature", "properties": {"zone_id": "0206QT54RILTEJB7IT2A3N", "tract_id": "06037207303", "city": "LOS ANGELES, CA", "zone_code": "[DM3-CHC1-5] [CX3-FA]", "zone_category": "Other", "ev_permitted": false}, "geometry": {"type": "Polygon", "coordinates": [[[-118.251088286325, 34.0431971489752], [-118.250852875898, 34.0434215895154], [-118.250940866185, 34.0434832886809], [-118.251171718316, 34.0432592455864], [-118.251088286325, 34.0431971489752]]]}}, {"type": "Feature", "properties": {"zone_id": "0204408IH3JXENF6TV5TZF", "tract_id": "06037207303", "city": "LOS ANGELES, CA", "zone_code": "CPIO", "zone_category": "Other", "ev_permitted": false}, "geometry": {"type": "Polygon", "coordinates": [[[-118.250902821566, 34.0430590694105], [-118.25062641744, 34.0432628482749], [-118.250852875898, 34.0434215895154], [-118.251088286325, 34.0431971489752], [-118.250902821566, 34.0430590694105]]]}}]}