{"type": "FeatureCollection", "features": [{"type": "Feature", "properties": {"zone_id": "0202SVTPGJCIBX7G6MXXMR", "tract_id": "06037265521", "city": "LOS ANGELES, CA", "zone_code": "O", "zone_category": "Other", "ev_permitted": false}, "geometry": {"type": "Polygon", "coordinates": [[[-118.447275318427, 34.0572167581975], [-118.446866908278, 34.0573256575677], [-118.447118504656, 34.0577433946803], [-118.447440672993, 34.0576577863628], [-118.447450305232, 34.0576544993897], [-118.447459197717, 34.0576500038339], [-118.447467131225, 34.0576444105233], [-118.447473910171, 34.0576378573482], [-118.447479367437, 34.0576305058625], [-118.447483368485, 34.0576225373004], [-118.447485814678, 34.0576141481092], [-118.447486645711, 34.0576055451055], [-118.447485841098, 34.0575969403773], [-118.447483420672, 34.057588546055], [-118.447496201991, 34.0575831952708], [-118.447275318427, 34.0572167581975]]]}}, {"type": "Feature", "properties": {"zone_id": "0202V8WCG3LCKCH1L9YOBJ", "tract_id": "06037265521", "city": "LOS ANGELES, CA", "zone_code": "O", "zone_category": "Other", "ev_permitted": false}, "geometry": {"type": "Polygon", "coordinates": [[[-118.44675720248, 34.0569739489999], [-118.445236830277, 34.0573780350185], [-118.44522893803, 34.0573807978319], [-118.445221733276, 34.0573846393253], [-118.445215428781, 34.0573894460537], [-118.445210210727, 34.0573950760673], [-118.445206233209, 34.0574013631035], [-118.445203613691, 34.0574081214971], [-118.445202429529, 34.0574151516628], [-118.445202715695, 34.0574222459896], [-118.445204463736, 34.057429194972], [-118.445207622032, 34.0574357933964], [-118.44560600398, 34.0580965927552], [-118.445611335223, 34.0581039658099], [-118.445617996334, 34.0581105548658], [-118.445625822427, 34.0581161968227], [-118.445634619782, 34.0581207520241], [-118.445644170635, 34.0581241077143], [-118.445654238573, 34.0581261808294], [-118.445664574381, 34.0581269200531], [-118.445674922215, 34.0581263070873], [-118.445685025933, 34.0581243571048], [-118.447118504656, 34.0577433946803], [-118.446866908278, 34.0573256575677], [-118.446954966832, 34.0573022494387], [-118.44675720248, 34.0569739489999]]]}}, {"type": "Feature", "properties": {"zone_id": "02078SN2N2MT9M7YWLNBE4", "tract_id": "06037265521", "city": "LOS ANGELES, CA", "zone_code": "O", "zone_category": "Other", "ev_permitted": false}, "geometry": {"type": "Polygon", "coordinates": [[[-118.444021139383, 34.0577068989758], [-118.443566630194, 34.0578276901249], [-118.443556109031, 34.0578313740155], [-118.443546504342, 34.0578364956331], [-118.443538099666, 34.0578429037822], [-118.443531143119, 34.0578504092876], [-118.443525840065, 34.0578587905792], [-118.443522347054, 34.0578678002328], [-118.443520767204, 34.0578771722743], [-118.443521147154, 34.0578866300318], [-118.443523475687, 34.057895894303], [-118.443527684062, 34.0579046915975], [-118.443914364922, 34.05854635922], [-118.4439201819, 34.0585542829437], [-118.443927532983, 34.0585612772417], [-118.443936206281, 34.0585671405101], [-118.443945951795, 34.0585717037459], [-118.44395648862, 34.0585748354184], [-118.443967513042, 34.0585764452601], [-118.443978707292, 34.0585764868689], [-118.44399352718, 34.0585741482048], [-118.444467713352, 34.0584479830528], [-118.444021139383, 34.0577068989758]]]}}, {"type": "Feature", "properties": {"zone_id": "020304T711RJ5EO93RDTZQ", "tract_id": "06037265521", "city": "LOS ANGELES, CA", "zone_code": "O", "zone_category": "Other", "ev_permitted": false}, "geometry": {"type": "Polygon", "coordinates": [[[-118.444565390518, 34.0575564833053], [-118.444018141663, 34.0577019363192], [-118.444467713352, 34.0584479830528], [-118.445014966159, 34.0583025005183], [-118.444565390518, 34.0575564833053]]]}}, {"type": "Feature", "properties": {"zone_id": "0200WCK2OG8S9XHGLQZ49V", "tract_id": "06037265521", "city": "LOS ANGELES, CA", "zone_code": "O", "zone_category": "Other", "ev_permitted": false}, "geometry": {"type": "Polygon", "coordinates": [[[-118.444935774483, 34.0574594763589], [-118.444925540533, 34.0574607670491], [-118.444565390518, 34.0575564833053], [-118.445014966159, 34.0583025005183], [-118.445286069646, 34.0582304133748], [-118.44529644587, 34.0582268039559], [-118.445305935988, 34.0582217929285], [-118.445314266687, 34.0582155246081], [-118.445321198046, 34.0582081795197], [-118.445326530445, 34.0581999691989], [-118.445330110313, 34.0581911300997], [-118.44533183455, 34.0581819167847], [-118.445331653499, 34.0581725945939], [-118.445329535149, 34.0581533689025], [-118.445320908097, 34.0581069860756], [-118.445307404866, 34.0580614086393], [-118.445289129489, 34.0580169877391], [-118.445266222767, 34.0579740656104], [-118.444965100538, 34.057474635531], [-118.444959093127, 34.0574676511353], [-118.444950768997, 34.0574625528283], [-118.44494094766, 34.0574598425385], [-118.444935774483, 34.0574594763589]]]}}, {"type": "Feature", "properties": {"zone_id": "020655B05NG80PTAXTZPWJ", "tract_id": "06037265521", "city": "LOS ANGELES, CA", "zone_code": "R4-1L", "zone_category": "Residential", "ev_permitted": false}, "geometry": {"type": "Polygon", "coordinates": [[[-118.44427507103, 34.0570747476709], [-118.44391024029, 34.0571716882648], [-118.444110657862, 34.0575042702782], [-118.444475489674, 34.0574073015991], [-118.44427507103, 34.0570747476709]]]}}, {"type": "Feature", "properties": {"zone_id": "0203E4376WKF28AZ63QVM8", "tract_id": "06037265521", "city": "LOS ANGELES, CA", "zone_code": "R4-1L", "zone_category": "Residential", "ev_permitted": false}, "geometry": {"type": "Polygon", "coordinates": [[[-118.443727824675, 34.0572201718877], [-118.443546167164, 34.057268460098], [-118.443746583375, 34.0576010152388], [-118.443928241639, 34.0575527542046], [-118.443727824675, 34.0572201718877]]]}}, {"type": "Feature", "properties": {"zone_id": "0201AKH25H3QKE29SIOH3X", "tract_id": "06037265521", "city": "LOS ANGELES, CA", "zone_code": "R4-1L", "zone_category": "Residential", "ev_permitted": false}, "geometry": {"type": "Polygon", "coordinates": [[[-118.44391024029, 34.0571716882648], [-118.443727824675, 34.0572201718877], [-118.443928241639, 34.0575527542046], [-118.444110657862, 34.0575042702782], [-118.44391024029, 34.0571716882648]]]}}, {"type": "Feature", "properties": {"zone_id": "0206ULBQ461CQR88XVWYDJ", "tract_id": "06037265521", "city": "LOS ANGELES, CA", "zone_code": "O", "zone_category": "Other", "ev_permitted": false}, "geometry": {"type": "Polygon", "coordinates": [[[-118.446905035101, 34.0569354229297], [-118.446899491219, 34.056936092483], [-118.44675720248, 34.0569739489999], [-118.446954966832, 34.0573022494387], [-118.447187294829, 34.0572404961779], [-118.446934183589, 34.0569468594786], [-118.446926228166, 34.0569403686376], [-118.446921383456, 34.0569380375923], [-118.446910636101, 34.0569355295418], [-118.446905035101, 34.0569354229297]]]}}, {"type": "Feature", "properties": {"zone_id": "02049YD41OFILUS9HPXKUP", "tract_id": "06037265521", "city": "LOS ANGELES, CA", "zone_code": "R4-1L", "zone_category": "Residential", "ev_permitted": false}, "geometry": {"type": "Polygon", "coordinates": [[[-118.44621191228, 34.0561772775631], [-118.446200850222, 34.0561787059782], [-118.446125353383, 34.056197986542], [-118.44632515394, 34.0565297290624], [-118.44619274147, 34.0565649241813], [-118.446393134381, 34.0568976399111], [-118.44669578285, 34.0568171893179], [-118.446706220028, 34.0568135459313], [-118.446715758291, 34.0568084863745], [-118.446724120288, 34.0568021577685], [-118.44673106287, 34.0567947441353], [-118.44673638416, 34.0567864610471], [-118.446739929428, 34.0567775493584], [-118.446741595584, 34.0567682682018], [-118.44674133418, 34.0567588874534], [-118.446739152817, 34.0567496798854], [-118.446735114925, 34.0567409132342], [-118.446729337917, 34.0567328424156], [-118.446270097101, 34.0562000759932], [-118.446262858696, 34.056192999943], [-118.446254276819, 34.0561870432811], [-118.44624460004, 34.0561823785389], [-118.446234108641, 34.0561791408277], [-118.446223106497, 34.0561774239261], [-118.44621191228, 34.0561772775631]]]}}, {"type": "Feature", "properties": {"zone_id": "02066ZX560WABU1QHZ6XHI", "tract_id": "06037265521", "city": "LOS ANGELES, CA", "zone_code": "R4-1L", "zone_category": "Residential", "ev_permitted": false}, "geometry": {"type": "Polygon", "coordinates": [[[-118.445814497247, 34.056665464875], [-118.445434867416, 34.0567663667171], [-118.445635422575, 34.0570990281418], [-118.446014888895, 34.056998181234], [-118.445814497247, 34.056665464875]]]}}, {"type": "Feature", "properties": {"zone_id": "0200VAWZ6M8MEWQMTMNJ7C", "tract_id": "06037265521", "city": "LOS ANGELES, CA", "zone_code": "R4-1L", "zone_category": "Residential", "ev_permitted": false}, "geometry": {"type": "Polygon", "coordinates": [[[-118.44619274147, 34.0565649241813], [-118.445814497247, 34.056665464875], [-118.446014888895, 34.056998181234], [-118.446393134381, 34.0568976399111], [-118.44619274147, 34.0565649241813]]]}}, {"type": "Feature", "properties": {"zone_id": "0202B48KSOD73X08P40HPF", "tract_id": "06037265521", "city": "LOS ANGELES, CA", "zone_code": "R4-1L", "zone_category": "Residential", "ev_permitted": false}, "geometry": {"type": "Polygon", "coordinates": [[[-118.445390626439, 34.0563917797363], [-118.44476735016, 34.0565575967285], [-118.444757170009, 34.056561130377], [-118.444747836267, 34.0565660113143], [-118.444739606432, 34.0565721048853], [-118.444732707547, 34.056579242981], [-118.444727329939, 34.0565872286762], [-118.444723621964, 34.0565958416622], [-118.444721685918, 34.0566048443248], [-118.444721575212, 34.0566139882994], [-118.444723292899, 34.0566230213229], [-118.444728105163, 34.056634342076], [-118.444894416561, 34.0569099850413], [-118.445591332817, 34.056724753239], [-118.445390626439, 34.0563917797363]]]}}, {"type": "Feature", "properties": {"zone_id": "0203H49PSPSEBY4WXYNWP7", "tract_id": "06037265521", "city": "LOS ANGELES, CA", "zone_code": "R4-1L", "zone_category": "Residential", "ev_permitted": false}, "geometry": {"type": "Polygon", "coordinates": [[[-118.445434867416, 34.0567663667171], [-118.445057445415, 34.0568666546913], [-118.445257966446, 34.0571993443444], [-118.445635422575, 34.0570990281418], [-118.445434867416, 34.0567663667171]]]}}, {"type": "Feature", "properties": {"zone_id": "0205960GO04EN4JZPQL0Q7", "tract_id": "06037265521", "city": "LOS ANGELES, CA", "zone_code": "R4-1L", "zone_category": "Residential", "ev_permitted": false}, "geometry": {"type": "Polygon", "coordinates": [[[-118.445057445415, 34.0568666546913], [-118.444894416561, 34.0569099850413], [-118.445069622061, 34.0572006706109], [-118.445074948408, 34.0572080464856], [-118.445081607735, 34.0572146371989], [-118.445089434537, 34.0572202789506], [-118.445098234292, 34.0572248315251], [-118.445107788298, 34.0572281817765], [-118.445117859106, 34.0572302464405], [-118.445128196426, 34.0572309742035], [-118.445138543341, 34.0572303469783], [-118.445148642698, 34.0572283803536], [-118.445257966446, 34.0571993443444], [-118.445057445415, 34.0568666546913]]]}}, {"type": "Feature", "properties": {"zone_id": "0202S0OI1SZHN71U7IXY2N", "tract_id": "06037265521", "city": "LOS ANGELES, CA", "zone_code": "R4-1L", "zone_category": "Residential", "ev_permitted": false}, "geometry": {"type": "Polygon", "coordinates": [[[-118.445941588856, 34.0562451663854], [-118.445390626439, 34.0563917797363], [-118.445591332817, 34.056724753239], [-118.446142246598, 34.0565783469657], [-118.445941588856, 34.0562451663854]]]}}, {"type": "Feature", "properties": {"zone_id": "0202FCXV18IJJDOSECEBCO", "tract_id": "06037265521", "city": "LOS ANGELES, CA", "zone_code": "R4-1L", "zone_category": "Residential", "ev_permitted": false}, "geometry": {"type": "Polygon", "coordinates": [[[-118.446125353383, 34.056197986542], [-118.445941588856, 34.0562451663854], [-118.446142246598, 34.0565783469657], [-118.44632515394, 34.0565297290624], [-118.446125353383, 34.056197986542]]]}}, {"type": "Feature", "properties": {"zone_id": "0205TRIE1OCYVTSSRHS3VF", "tract_id": "06037265521", "city": "LOS ANGELES, CA", "zone_code": "R4-1L", "zone_category": "Residential", "ev_permitted": false}, "geometry": {"type": "Polygon", "coordinates": [[[-118.444620680097, 34.0569828778969], [-118.44445748601, 34.0570262632216], [-118.444657905409, 34.0573588443247], [-118.444747579993, 34.0573349921954], [-118.444758101066, 34.0573313082349], [-118.444767705651, 34.0573261865443], [-118.444776110207, 34.0573197783223], [-118.44478306662, 34.057312272748], [-118.444788369529, 34.0573038913954], [-118.444791862385, 34.0572948816929], [-118.444793442073, 34.0572855096186], [-118.444793061959, 34.0572760518485], [-118.444790733265, 34.0572667875884], [-118.444786524737, 34.0572579903315], [-118.444620680097, 34.0569828778969]]]}}, {"type": "Feature", "properties": {"zone_id": "02077WWEVQO13HZ07V0MC4", "tract_id": "06037265521", "city": "LOS ANGELES, CA", "zone_code": "R4-1L", "zone_category": "Residential", "ev_permitted": false}, "geometry": {"type": "Polygon", "coordinates": [[[-118.444444770666, 34.0566448779856], [-118.44443453533, 34.0566461773364], [-118.444256934834, 34.0566934349719], [-118.44445748601, 34.0570262632216], [-118.444662088666, 34.0569718987603], [-118.444474094869, 34.0566600459786], [-118.444468094069, 34.0566530546215], [-118.444459770191, 34.0566479518798], [-118.444449945616, 34.0566452418938], [-118.444444770666, 34.0566448779856]]]}}, {"type": "Feature", "properties": {"zone_id": "0205X41790W785950U9SX2", "tract_id": "06037265521", "city": "LOS ANGELES, CA", "zone_code": "R4-1L", "zone_category": "Residential", "ev_permitted": false}, "geometry": {"type": "Polygon", "coordinates": [[[-118.444256934834, 34.0566934349719], [-118.443892172347, 34.0567904851799], [-118.444092655838, 34.0571232318447], [-118.44427507103, 34.0570747476709], [-118.444475489674, 34.0574073015991], [-118.444657905409, 34.0573588443247], [-118.444256934834, 34.0566934349719]]]}}, {"type": "Feature", "properties": {"zone_id": "0204SWC40VOPZDX18XF90Z", "tract_id": "06037265521", "city": "LOS ANGELES, CA", "zone_code": "R4-1L", "zone_category": "Residential", "ev_permitted": false}, "geometry": {"type": "Polygon", "coordinates": [[[-118.443892172347, 34.0567904851799], [-118.443527376146, 34.0568875618863], [-118.443727824675, 34.0572201718877], [-118.444092655838, 34.0571232318447], [-118.443892172347, 34.0567904851799]]]}}, {"type": "Feature", "properties": {"zone_id": "0203HGHRQG54RC0CQ954H6", "tract_id": "06037265521", "city": "LOS ANGELES, CA", "zone_code": "R4-1L", "zone_category": "Residential", "ev_permitted": false}, "geometry": {"type": "Polygon", "coordinates": [[[-118.444944893678, 34.05595345151], [-118.444756217564, 34.0560036359728], [-118.444955602763, 34.0563344342425], [-118.445144279503, 34.0562842494674], [-118.444944893678, 34.05595345151]]]}}, {"type": "Feature", "properties": {"zone_id": "0206F3MTG40RTWLJJZ54N7", "tract_id": "06037265521", "city": "LOS ANGELES, CA", "zone_code": "R4-1L", "zone_category": "Residential", "ev_permitted": false}, "geometry": {"type": "Polygon", "coordinates": [[[-118.444756217564, 34.0560036359728], [-118.444567541369, 34.0560538476194], [-118.444766925942, 34.0563846462014], [-118.444955602763, 34.0563344342425], [-118.444756217564, 34.0560036359728]]]}}, {"type": "Feature", "properties": {"zone_id": "0206LW9CQRC7C4UY8BLY56", "tract_id": "06037265521", "city": "LOS ANGELES, CA", "zone_code": "R4-1L", "zone_category": "Residential", "ev_permitted": false}, "geometry": {"type": "Polygon", "coordinates": [[[-118.444140374026, 34.0561676431015], [-118.443967719352, 34.0562135356594], [-118.44396172388, 34.0562035828659], [-118.443779310407, 34.0562520665644], [-118.443785305715, 34.0562619918887], [-118.443420478097, 34.0563589584777], [-118.443619892604, 34.0566898962286], [-118.44428457176, 34.0565130082892], [-118.444292465591, 34.0565102445657], [-118.4442996712, 34.0565064012655], [-118.444305975517, 34.0565015920353], [-118.444311192122, 34.0564959590843], [-118.44431516676, 34.0564896689793], [-118.4443177819, 34.0564829077192], [-118.444318960213, 34.0564758752348], [-118.444318666856, 34.0564687794775], [-118.444316910502, 34.0564618302696], [-118.444313743089, 34.0564552330996], [-118.444140374026, 34.0561676431015]]]}}, {"type": "Feature", "properties": {"zone_id": "020008CT6XOR2QLRQHQH2T", "tract_id": "06037265521", "city": "LOS ANGELES, CA", "zone_code": "R4-1L", "zone_category": "Residential", "ev_permitted": false}, "geometry": {"type": "Polygon", "coordinates": [[[-118.443891627975, 34.0558525669269], [-118.443881273084, 34.0558531912696], [-118.443871164644, 34.055855153781], [-118.443220998848, 34.0560279656882], [-118.443420478097, 34.0563589584777], [-118.443785305715, 34.0562619918887], [-118.443779310407, 34.0562520665644], [-118.44396172388, 34.0562035828659], [-118.443967719352, 34.0562135356594], [-118.444124450243, 34.0561718509737], [-118.443950282655, 34.0558828639421], [-118.443944938519, 34.055875489347], [-118.443938264098, 34.0558689006867], [-118.44393042469, 34.0558632611358], [-118.443921614447, 34.0558587103633], [-118.443912051561, 34.0558553610737], [-118.443901972868, 34.0558532962155], [-118.443891627975, 34.0558525669269]]]}}, {"type": "Feature", "properties": {"zone_id": "020270DUG1B0UCKP6DF5P2", "tract_id": "06037265521", "city": "LOS ANGELES, CA", "zone_code": "R4-1L", "zone_category": "Residential", "ev_permitted": false}, "geometry": {"type": "Polygon", "coordinates": [[[-118.445849895667, 34.0557126138121], [-118.445700419608, 34.0557524054041], [-118.445901108085, 34.0560855604946], [-118.446036150128, 34.0560506307709], [-118.44604643875, 34.0560468954021], [-118.446055820795, 34.0560417774472], [-118.44606402809, 34.0560354231953], [-118.446070826042, 34.0560280142736], [-118.446076020341, 34.0560197624555], [-118.446079462514, 34.0560109036073], [-118.446081054172, 34.0560016909467], [-118.446080749821, 34.0559923878045], [-118.446078558158, 34.0559832600979], [-118.446074541831, 34.0559745687298], [-118.44606881564, 34.0559665621308], [-118.445849895667, 34.0557126138121]]]}}, {"type": "Feature", "properties": {"zone_id": "0201Q2N9YTZRD1SGVHL8RR", "tract_id": "06037265521", "city": "LOS ANGELES, CA", "zone_code": "R4-1L", "zone_category": "Residential", "ev_permitted": false}, "geometry": {"type": "Polygon", "coordinates": [[[-118.445700419608, 34.0557524054041], [-118.445511744401, 34.0558025910469], [-118.445711000344, 34.0561334435102], [-118.445901108085, 34.0560855604946], [-118.445700419608, 34.0557524054041]]]}}, {"type": "Feature", "properties": {"zone_id": "0202VDVB1K4A9YW7XRBWH5", "tract_id": "06037265521", "city": "LOS ANGELES, CA", "zone_code": "R4-1L", "zone_category": "Residential", "ev_permitted": false}, "geometry": {"type": "Polygon", "coordinates": [[[-118.445533666281, 34.055421900996], [-118.445523336797, 34.0554225536205], [-118.445513263907, 34.0554245584509], [-118.445440536843, 34.0554438695884], [-118.445437538974, 34.0554388794892], [-118.44507584879, 34.0555350151568], [-118.445275100764, 34.0558655660733], [-118.44582348842, 34.0557196359787], [-118.445586697472, 34.0554449241694], [-118.44558011136, 34.0554382992109], [-118.445572337778, 34.0554326259676], [-118.445563574448, 34.0554280487391], [-118.445554044264, 34.0554246839477], [-118.445543989629, 34.0554226171771], [-118.445533666281, 34.055421900996]]]}}, {"type": "Feature", "properties": {"zone_id": "020015Q0I7K3R8EFS80F6M", "tract_id": "06037265521", "city": "LOS ANGELES, CA", "zone_code": "R4-1L", "zone_category": "Residential", "ev_permitted": false}, "geometry": {"type": "Polygon", "coordinates": [[[-118.445511744401, 34.0558025910469], [-118.444944893678, 34.05595345151], [-118.445144279503, 34.0562842494674], [-118.445711000344, 34.0561334435102], [-118.445511744401, 34.0558025910469]]]}}, {"type": "Feature", "properties": {"zone_id": "0207M9JHYCFG3VKZU25HK8", "tract_id": "06037265521", "city": "LOS ANGELES, CA", "zone_code": "R4-1L", "zone_category": "Residential", "ev_permitted": false}, "geometry": {"type": "Polygon", "coordinates": [[[-118.445098032489, 34.0555718650161], [-118.44473630818, 34.0556679723107], [-118.444913442148, 34.0559618110481], [-118.445275100764, 34.0558655660733], [-118.445098032489, 34.0555718650161]]]}}, {"type": "Feature", "properties": {"zone_id": "0206CXU0J1KK1K1D7UKVXN", "tract_id": "06037265521", "city": "LOS ANGELES, CA", "zone_code": "R4-1L", "zone_category": "Residential", "ev_permitted": false}, "geometry": {"type": "Polygon", "coordinates": [[[-118.445160056683, 34.0549308838358], [-118.444782501095, 34.0550914876079], [-118.445026928198, 34.0553749386002], [-118.445360265564, 34.0552863544171], [-118.445370706767, 34.055282706322], [-118.445380248209, 34.0552776417453], [-118.445388612534, 34.0552713079074], [-118.445395556602, 34.0552638889244], [-118.445400878557, 34.0552556004564], [-118.445404423697, 34.0552466834381], [-118.44540608897, 34.0552373970754], [-118.445405825968, 34.0552280113109], [-118.445403642337, 34.0552187989765], [-118.445399601551, 34.0552100278629], [-118.445393821071, 34.0552019529352], [-118.445160056683, 34.0549308838358]]]}}, {"type": "Feature", "properties": {"zone_id": "02023HRP2XZRIGDAQO80P4", "tract_id": "06037265521", "city": "LOS ANGELES, CA", "zone_code": "R4-1L", "zone_category": "Residential", "ev_permitted": false}, "geometry": {"type": "Polygon", "coordinates": [[[-118.444555778409, 34.0557165052076], [-118.444307529002, 34.055782461298], [-118.444297003182, 34.0557861405869], [-118.44428739379, 34.0557912594687], [-118.444278984961, 34.055797666586], [-118.44427202533, 34.0558051724906], [-118.444266720681, 34.0558135552449], [-118.444263227865, 34.0558225669841], [-118.444261650159, 34.0558319412458], [-118.444262034212, 34.0558414008482], [-118.444264368669, 34.0558506660862], [-118.444268584504, 34.0558594630021], [-118.444584946506, 34.0563843270233], [-118.444590779312, 34.0563922832653], [-118.444598160352, 34.0563993017773], [-118.444606874583, 34.0564051780773], [-118.444616668118, 34.0564097409614], [-118.444627255624, 34.0564128574916], [-118.444638328639, 34.0564144368689], [-118.444649564554, 34.0564144330787], [-118.444663966211, 34.0564120370821], [-118.444766925942, 34.0563846462014], [-118.444567541369, 34.0560538476194], [-118.444732645542, 34.0560099330079], [-118.444555778409, 34.0557165052076]]]}}, {"type": "Feature", "properties": {"zone_id": "0207MU8LL48C0JGLXPVDW5", "tract_id": "06037265521", "city": "LOS ANGELES, CA", "zone_code": "R4-1L", "zone_category": "Residential", "ev_permitted": false}, "geometry": {"type": "Polygon", "coordinates": [[[-118.444714124616, 34.0556311223848], [-118.444533295304, 34.0556791892103], [-118.444732645542, 34.0560099330079], [-118.444913442148, 34.0559618110481], [-118.444714124616, 34.0556311223848]]]}}, {"type": "Feature", "properties": {"zone_id": "0200DKTDPF3O1DA1BZFE5J", "tract_id": "06037265521", "city": "LOS ANGELES, CA", "zone_code": "R4-1L", "zone_category": "Residential", "ev_permitted": false}, "geometry": {"type": "Polygon", "coordinates": [[[-118.444782501095, 34.0550914876079], [-118.444397104449, 34.0552554439941], [-118.444410364314, 34.0552979371362], [-118.44441848613, 34.0553413084877], [-118.444421390244, 34.0553851326957], [-118.444419205782, 34.0554378420946], [-118.444421087016, 34.0554465670664], [-118.44442464259, 34.0554549262963], [-118.444429779351, 34.0554627007807], [-118.444436362722, 34.0554696868361], [-118.444444220224, 34.0554757014348], [-118.444453145999, 34.0554805870007], [-118.4444629062, 34.0554842155368], [-118.44447324512, 34.0554864919793], [-118.44448389189, 34.0554873566878], [-118.444494567573, 34.0554867870077], [-118.444504992479, 34.0554847978641], [-118.445006697546, 34.0553514637472], [-118.444782501095, 34.0550914876079]]]}}, {"type": "Feature", "properties": {"zone_id": "020774V9PKV7FM8GNLQ1Y5", "tract_id": "06037265521", "city": "LOS ANGELES, CA", "zone_code": "R4-1L", "zone_category": "Residential", "ev_permitted": false}, "geometry": {"type": "Polygon", "coordinates": [[[-118.444667810333, 34.0549239590405], [-118.444322125656, 34.055130526098], [-118.444352414412, 34.0551698858048], [-118.444377501404, 34.0552116818148], [-118.444397104449, 34.0552554439941], [-118.44480434022, 34.0550822017469], [-118.444667810333, 34.0549239590405]]]}}, {"type": "Feature", "properties": {"zone_id": "0202EAV5QNA3SBW035LZIY", "tract_id": "06037265521", "city": "LOS ANGELES, CA", "zone_code": "R4-1L", "zone_category": "Residential", "ev_permitted": false}, "geometry": {"type": "Polygon", "coordinates": [[[-118.444759269898, 34.0544849219151], [-118.444449031001, 34.0546703099705], [-118.44480434022, 34.0550822017469], [-118.445148165379, 34.0549359288246], [-118.444759269898, 34.0544849219151]]]}}, {"type": "Feature", "properties": {"zone_id": "0202I8PFU8280E4XJUG4IP", "tract_id": "06037265521", "city": "LOS ANGELES, CA", "zone_code": "R4-1L", "zone_category": "Residential", "ev_permitted": false}, "geometry": {"type": "Polygon", "coordinates": [[[-118.444520559924, 34.0542080992509], [-118.44421025579, 34.0543935418902], [-118.444449031001, 34.0546703099705], [-118.444759269898, 34.0544849219151], [-118.444520559924, 34.0542080992509]]]}}, {"type": "Feature", "properties": {"zone_id": "02046RQYI9AHS1Q3DDWE3G", "tract_id": "06037265521", "city": "LOS ANGELES, CA", "zone_code": "R4-1L", "zone_category": "Residential", "ev_permitted": false}, "geometry": {"type": "Polygon", "coordinates": [[[-118.444321936504, 34.054522996229], [-118.44397625263, 34.0547295622925], [-118.444322125656, 34.055130526098], [-118.444667810333, 34.0549239590405], [-118.444321936504, 34.054522996229]]]}}, {"type": "Feature", "properties": {"zone_id": "020674ZBV6GBOY68JDX8RD", "tract_id": "06037265521", "city": "LOS ANGELES, CA", "zone_code": "R4-1L", "zone_category": "Residential", "ev_permitted": false}, "geometry": {"type": "Polygon", "coordinates": [[[-118.444206402456, 34.0543890770065], [-118.443860718849, 34.054595642738], [-118.44397625263, 34.0547295622925], [-118.444321936504, 34.054522996229], [-118.444206402456, 34.0543890770065]]]}}, {"type": "Feature", "properties": {"zone_id": "0201MVXG5C8AILBBRUYU8C", "tract_id": "06037265521", "city": "LOS ANGELES, CA", "zone_code": "R4-1L", "zone_category": "Residential", "ev_permitted": false}, "geometry": {"type": "Polygon", "coordinates": [[[-118.444436089537, 34.0540488402934], [-118.444090868631, 34.054255130196], [-118.44421025579, 34.0543935418902], [-118.444555377932, 34.0541872520095], [-118.444436089537, 34.0540488402934]]]}}, {"type": "Feature", "properties": {"zone_id": "02023LV8D99IGPF5MF58FU", "tract_id": "06037265521", "city": "LOS ANGELES, CA", "zone_code": "R4-1L", "zone_category": "Residential", "ev_permitted": false}, "geometry": {"type": "Polygon", "coordinates": [[[-118.443965735136, 34.0541100621439], [-118.443646873472, 34.0543005909048], [-118.443638846744, 34.0543074308259], [-118.443634115908, 34.054316128352], [-118.443633181285, 34.0543208533751], [-118.44363431386, 34.0543303470134], [-118.443639285579, 34.0543389518158], [-118.443860718849, 34.054595642738], [-118.444206402456, 34.0543890770065], [-118.443965735136, 34.0541100621439]]]}}, {"type": "Feature", "properties": {"zone_id": "0202GCT9P4A5VLZVCZVM4G", "tract_id": "06037265521", "city": "LOS ANGELES, CA", "zone_code": "R4-1L", "zone_category": "Residential", "ev_permitted": false}, "geometry": {"type": "Polygon", "coordinates": [[[-118.444301848958, 34.0539146398732], [-118.44429119126, 34.0539165131233], [-118.444286286011, 34.0539185113219], [-118.443965735136, 34.0541100621439], [-118.444090868631, 34.054255130196], [-118.444436089537, 34.0540488402934], [-118.44433018904, 34.0539260421653], [-118.444322463929, 34.053919677107], [-118.44431776082, 34.053917369292], [-118.444307310927, 34.0539148158779], [-118.444301848958, 34.0539146398732]]]}}, {"type": "Feature", "properties": {"zone_id": "0204JDL7XKKWDPNXVX6VIY", "tract_id": "06037265521", "city": "LOS ANGELES, CA", "zone_code": "POD", "zone_category": "Other", "ev_permitted": false}, "geometry": {"type": "Polygon", "coordinates": [[[-118.443606777727, 34.0574916133174], [-118.443324070048, 34.0575667619669], [-118.443374898204, 34.0576510729393], [-118.443380223915, 34.0576584452734], [-118.443386880597, 34.0576650335149], [-118.443394703166, 34.057670674277], [-118.443403497624, 34.0576752276701], [-118.44341304587, 34.0576785807713], [-118.44342311111, 34.0576806504247], [-118.443433443728, 34.0576813853033], [-118.443443787478, 34.0576807671823], [-118.443453885836, 34.0576788113911], [-118.443682920659, 34.0576179563005], [-118.443606777727, 34.0574916133174]]]}}, {"type": "Feature", "properties": {"zone_id": "0202AJJTWUIESYL0UPFN99", "tract_id": "06037265521", "city": "LOS ANGELES, CA", "zone_code": "POD", "zone_category": "Other", "ev_permitted": false}, "geometry": {"type": "Polygon", "coordinates": [[[-118.443482604578, 34.0572855655602], [-118.443199897484, 34.0573607139183], [-118.443324070048, 34.0575667619669], [-118.443606777727, 34.0574916133174], [-118.443482604578, 34.0572855655602]]]}}, {"type": "Feature", "properties": {"zone_id": "0203MXHILST28EWBQFALNR", "tract_id": "06037265521", "city": "LOS ANGELES, CA", "zone_code": "POD", "zone_category": "Other", "ev_permitted": false}, "geometry": {"type": "Polygon", "coordinates": [[[-118.443420418243, 34.0571823633888], [-118.443137678281, 34.0572574842438], [-118.443199897484, 34.0573607139183], [-118.443482604578, 34.0572855655602], [-118.443420418243, 34.0571823633888]]]}}, {"type": "Feature", "properties": {"zone_id": "0205JTWXFO7E5QV57LBY66", "tract_id": "06037265521", "city": "LOS ANGELES, CA", "zone_code": "R4-1L", "zone_category": "Residential", "ev_permitted": false}, "geometry": {"type": "Polygon", "coordinates": [[[-118.443527376146, 34.0568875618863], [-118.443345752401, 34.0569358771514], [-118.443546167164, 34.057268460098], [-118.443727824675, 34.0572201718877], [-118.443527376146, 34.0568875618863]]]}}, {"type": "Feature", "properties": {"zone_id": "0201EDK0YVV2G29Z5ICBMQ", "tract_id": "06037265521", "city": "LOS ANGELES, CA", "zone_code": "POD", "zone_category": "Other", "ev_permitted": false}, "geometry": {"type": "Polygon", "coordinates": [[[-118.44328209011, 34.0569528180013], [-118.44307287935, 34.0570084267077], [-118.44306236893, 34.0570121254418], [-118.443052776752, 34.0570172587215], [-118.443044385387, 34.0570236753282], [-118.44303744203, 34.0570311862386], [-118.443032151223, 34.0570395701929], [-118.443028668823, 34.0570485802129], [-118.443027097417, 34.0570579508774], [-118.443027483296, 34.0570674061414], [-118.443029815093, 34.0570766674679], [-118.443034024116, 34.0570854620329], [-118.443075492392, 34.0571542818949], [-118.443358232061, 34.0570791611859], [-118.44328209011, 34.0569528180013]]]}}, {"type": "Feature", "properties": {"zone_id": "02029ARS4JHIIFMIJKUP0O", "tract_id": "06037265521", "city": "LOS ANGELES, CA", "zone_code": "POD", "zone_category": "Other", "ev_permitted": false}, "geometry": {"type": "Polygon", "coordinates": [[[-118.443358232061, 34.0570791611859], [-118.443075492392, 34.0571542818949], [-118.443137678281, 34.0572574842438], [-118.443420418243, 34.0571823633888], [-118.443358232061, 34.0570791611859]]]}}, {"type": "Feature", "properties": {"zone_id": "02009TU0SI034V7D1VLURN", "tract_id": "06037265521", "city": "LOS ANGELES, CA", "zone_code": "POD", "zone_category": "Other", "ev_permitted": false}, "geometry": {"type": "Polygon", "coordinates": [[[-118.443117216296, 34.0566791838226], [-118.442834510923, 34.0567543313232], [-118.442884206003, 34.0568368330439], [-118.442889541113, 34.0568442066641], [-118.4428962065, 34.0568507955074], [-118.442904037077, 34.0568564363822], [-118.442912838897, 34.0568609895761], [-118.442922393956, 34.0568643423162], [-118.442932465596, 34.0568664115624], [-118.442942804365, 34.0568671460637], [-118.442953154191, 34.0568665276283], [-118.442963258732, 34.0568645715734], [-118.443192192349, 34.0568036628224], [-118.443117216296, 34.0566791838226]]]}}, {"type": "Feature", "properties": {"zone_id": "0203465W1SAJ53BX03K3VY", "tract_id": "06037265521", "city": "LOS ANGELES, CA", "zone_code": "POD", "zone_category": "Other", "ev_permitted": false}, "geometry": {"type": "Polygon", "coordinates": [[[-118.443054964543, 34.0565759267516], [-118.442772259317, 34.0566510466277], [-118.442834510923, 34.0567543313232], [-118.443117216296, 34.0566791838226], [-118.443054964543, 34.0565759267516]]]}}, {"type": "Feature", "properties": {"zone_id": "0201A9FV7UV9YP2LK33UA7", "tract_id": "06037265521", "city": "LOS ANGELES, CA", "zone_code": "R4-1L", "zone_category": "Residential", "ev_permitted": false}, "geometry": {"type": "Polygon", "coordinates": [[[-118.443420478097, 34.0563589584777], [-118.443056407796, 34.0564557013525], [-118.443255854545, 34.05678672202], [-118.443619892604, 34.0566898962286], [-118.443420478097, 34.0563589584777]]]}}, {"type": "Feature", "properties": {"zone_id": "0201X9DT8WPCZ4XVEK0SCZ", "tract_id": "06037265521", "city": "LOS ANGELES, CA", "zone_code": "R4-1L", "zone_category": "Residential", "ev_permitted": false}, "geometry": {"type": "Polygon", "coordinates": [[[-118.443220998848, 34.0560279656882], [-118.443038585183, 34.0560764207892], [-118.443238063971, 34.056407441359], [-118.443420478097, 34.0563589584777], [-118.443220998848, 34.0560279656882]]]}}, {"type": "Feature", "properties": {"zone_id": "020102JZBH0Z0VGY3IFQV7", "tract_id": "06037265521", "city": "LOS ANGELES, CA", "zone_code": "R4-1L", "zone_category": "Residential", "ev_permitted": false}, "geometry": {"type": "Polygon", "coordinates": [[[-118.443038585183, 34.0560764207892], [-118.442856929612, 34.0561246804818], [-118.443056407796, 34.0564557013525], [-118.443238063971, 34.056407441359], [-118.443038585183, 34.0560764207892]]]}}, {"type": "Feature", "properties": {"zone_id": "0205S6TTH9PSAJXVKJH6T2", "tract_id": "06037265521", "city": "LOS ANGELES, CA", "zone_code": "POD", "zone_category": "Other", "ev_permitted": false}, "geometry": {"type": "Polygon", "coordinates": [[[-118.442992745666, 34.0564726145711], [-118.442710040879, 34.0565477617796], [-118.442772259317, 34.0566510466277], [-118.443054964543, 34.0565759267516], [-118.442992745666, 34.0564726145711]]]}}, {"type": "Feature", "properties": {"zone_id": "0201AJM15ZYY9UPIH88ZTY", "tract_id": "06037265521", "city": "LOS ANGELES, CA", "zone_code": "POD", "zone_category": "Other", "ev_permitted": false}, "geometry": {"type": "Polygon", "coordinates": [[[-118.44293049422, 34.0563693574369], [-118.44264778958, 34.0564444770209], [-118.442710040879, 34.0565477617796], [-118.442992745666, 34.0564726145711], [-118.44293049422, 34.0563693574369]]]}}, {"type": "Feature", "properties": {"zone_id": "0202KBDZ6PC1FQWLH7LM5T", "tract_id": "06037265521", "city": "LOS ANGELES, CA", "zone_code": "POD", "zone_category": "Other", "ev_permitted": false}, "geometry": {"type": "Polygon", "coordinates": [[[-118.442793267839, 34.0561416210733], [-118.442584116303, 34.0561971806319], [-118.442573893459, 34.0562007307195], [-118.442564525212, 34.056205639391], [-118.442556272279, 34.0562117700388], [-118.442549364338, 34.0562189520478], [-118.442543993635, 34.0562269855435], [-118.442540309637, 34.056235646955], [-118.442538414868, 34.0562446952364], [-118.442538362059, 34.0562538785755], [-118.442540152681, 34.0562629414015], [-118.4425437369, 34.0562716314975], [-118.44264778958, 34.0564444770209], [-118.44293049422, 34.0563693574369], [-118.442793267839, 34.0561416210733]]]}}]}