{"type": "FeatureCollection", "features": [{"type": "Feature", "properties": {"zone_id": "0204SB8A28BBAMAE621Y63", "tract_id": "36005011701", "city": "BRONX, NY", "zone_code": "HP", "zone_category": "Other", "ev_permitted": false}, "geometry": {"type": "Polygon", "coordinates": [[[-73.8874737577987, 40.8163386110252], [-73.8873959130316, 40.8163499031825], [-73.8874014609352, 40.8163708946131], [-73.8870944886608, 40.8164154241234], [-73.8871572497786, 40.8166529253518], [-73.8877156079328, 40.8165719280613], [-73.8874737577987, 40.8163386110252]]]}}, {"type": "Feature", "properties": {"zone_id": "020596VRQXINAN5A3RLH1O", "tract_id": "36005011701", "city": "BRONX, NY", "zone_code": "HP", "zone_category": "Other", "ev_permitted": false}, "geometry": {"type": "Polygon", "coordinates": [[[-73.8873635420043, 40.8162322818763], [-73.8872618440432, 40.8162971388548], [-73.8872857695843, 40.8163876767657], [-73.8874014609352, 40.8163708946131], [-73.8873959130316, 40.8163499031825], [-73.8874737577987, 40.8163386110252], [-73.8873635420043, 40.8162322818763]]]}}, {"type": "Feature", "properties": {"zone_id": "0206VTAQVAOGNDWBFEKM07", "tract_id": "36005011701", "city": "BRONX, NY", "zone_code": "HP", "zone_category": "Other", "ev_permitted": false}, "geometry": {"type": "Polygon", "coordinates": [[[-73.8866657059513, 40.8155933476382], [-73.886330494417, 40.8156432928848], [-73.8863089047426, 40.8156572620408], [-73.8863588844402, 40.8158509114632], [-73.8860013302982, 40.8159041846613], [-73.8861028794356, 40.8162941265578], [-73.8864612811336, 40.8162407267013], [-73.886515452353, 40.8164506092438], [-73.886359177417, 40.8164738928786], [-73.8864783075811, 40.8165326104411], [-73.8868922154962, 40.8164709396021], [-73.8866657059513, 40.8155933476382]]]}}, {"type": "Feature", "properties": {"zone_id": "0206VYZKW9C65WLNGG0JLT", "tract_id": "36005011701", "city": "BRONX, NY", "zone_code": "HP", "zone_category": "Other", "ev_permitted": false}, "geometry": {"type": "Polygon", "coordinates": [[[-73.8868922154962, 40.8164709396021], [-73.8865344567773, 40.8165242444642], [-73.8865893754398, 40.8167370254209], [-73.8869471361835, 40.8166837203912], [-73.8868922154962, 40.8164709396021]]]}}, {"type": "Feature", "properties": {"zone_id": "0206K5K3C02KB9JZOFJMNA", "tract_id": "36005011701", "city": "BRONX, NY", "zone_code": "HP", "zone_category": "Other", "ev_permitted": false}, "geometry": {"type": "Polygon", "coordinates": [[[-73.8859493418626, 40.8165389462763], [-73.8858758928114, 40.8165538351015], [-73.8855979523289, 40.8166036620366], [-73.8856707115225, 40.816879499267], [-73.886024838951, 40.8168251549811], [-73.8859493418626, 40.8165389462763]]]}}, {"type": "Feature", "properties": {"zone_id": "0204SR16YOG1CDRTONW49T", "tract_id": "36005011701", "city": "BRONX, NY", "zone_code": "R6", "zone_category": "Residential", "ev_permitted": false}, "geometry": {"type": "Polygon", "coordinates": [[[-73.8863095168076, 40.8164494163357], [-73.8861525210743, 40.8164847430833], [-73.8862320850026, 40.8167902595399], [-73.8865893754398, 40.8167370254209], [-73.8865344567773, 40.8165242444642], [-73.8864783075811, 40.8165326104411], [-73.8863095168076, 40.8164494163357]]]}}, {"type": "Feature", "properties": {"zone_id": "0201HEYV9ZZNMVMZSHT9IB", "tract_id": "36005011701", "city": "BRONX, NY", "zone_code": "HP", "zone_category": "Other", "ev_permitted": false}, "geometry": {"type": "Polygon", "coordinates": [[[-73.8869939277502, 40.8158757039345], [-73.8869534190732, 40.8158815805281], [-73.8870944886608, 40.8164154241234], [-73.8872857695843, 40.8163876767657], [-73.8872618440432, 40.8162971388548], [-73.8873635420043, 40.8162322818763], [-73.8869939277502, 40.8158757039345]]]}}, {"type": "Feature", "properties": {"zone_id": "0201YLC7KDPWHAER8BR2A4", "tract_id": "36005011701", "city": "BRONX, NY", "zone_code": "HP", "zone_category": "Other", "ev_permitted": false}, "geometry": {"type": "Polygon", "coordinates": [[[-73.8864612811336, 40.8162407267013], [-73.8861028794356, 40.8162941265578], [-73.8861204097664, 40.8163614393638], [-73.8864786610203, 40.8163080624923], [-73.8864612811336, 40.8162407267013]]]}}, {"type": "Feature", "properties": {"zone_id": "0207AM6TURR7LX84XIS9NE", "tract_id": "36005011701", "city": "BRONX, NY", "zone_code": "HP", "zone_category": "Other", "ev_permitted": false}, "geometry": {"type": "Polygon", "coordinates": [[[-73.8864786610203, 40.8163080624923], [-73.8861204097664, 40.8163614393638], [-73.8861525210743, 40.8164847430833], [-73.8863095168076, 40.8164494163357], [-73.886359177417, 40.8164738928786], [-73.886515452353, 40.8164506092438], [-73.8864786610203, 40.8163080624923]]]}}, {"type": "Feature", "properties": {"zone_id": "0202DXP7PWOFFYCCSR9F87", "tract_id": "36005011701", "city": "BRONX, NY", "zone_code": "M1-2", "zone_category": "Industrial", "ev_permitted": true}, "geometry": {"type": "Polygon", "coordinates": [[[-73.8848393390665, 40.815948717563], [-73.8844810694505, 40.8160018356687], [-73.8845166271911, 40.8161363884999], [-73.8841579057828, 40.8161895719003], [-73.884279878257, 40.8166563206732], [-73.8846399222121, 40.8166029414766], [-73.8847488416366, 40.8170150892793], [-73.8851066386819, 40.8169601612562], [-73.8848393390665, 40.815948717563]]]}}, {"type": "Feature", "properties": {"zone_id": "02034DD43SQOU4JPLE8UER", "tract_id": "36005011701", "city": "BRONX, NY", "zone_code": "HP", "zone_category": "Other", "ev_permitted": false}, "geometry": {"type": "Polygon", "coordinates": [[[-73.8858791851053, 40.8162729790808], [-73.8855246405765, 40.8163257274944], [-73.8855979523289, 40.8166036620366], [-73.8858758928114, 40.8165538351015], [-73.8859493418626, 40.8165389462763], [-73.8858791851053, 40.8162729790808]]]}}, {"type": "Feature", "properties": {"zone_id": "0201KVIHH6M37CRE8M1ETU", "tract_id": "36005011701", "city": "BRONX, NY", "zone_code": "HP", "zone_category": "Other", "ev_permitted": false}, "geometry": {"type": "Polygon", "coordinates": [[[-73.8846758178113, 40.8167387705932], [-73.8843153892284, 40.8167922071327], [-73.8843881058102, 40.817070466454], [-73.8847488416366, 40.8170150892793], [-73.8846758178113, 40.8167387705932]]]}}, {"type": "Feature", "properties": {"zone_id": "02067J4LVZDYCHKGPKG7H5", "tract_id": "36005011701", "city": "BRONX, NY", "zone_code": "HP", "zone_category": "Other", "ev_permitted": false}, "geometry": {"type": "Polygon", "coordinates": [[[-73.8846399222121, 40.8166029414766], [-73.884279878257, 40.8166563206732], [-73.8843153892284, 40.8167922071327], [-73.8846758178113, 40.8167387705932], [-73.8846399222121, 40.8166029414766]]]}}, {"type": "Feature", "properties": {"zone_id": "02048X1WYY7ALY8I4DWR69", "tract_id": "36005011701", "city": "BRONX, NY", "zone_code": "HP", "zone_category": "Other", "ev_permitted": false}, "geometry": {"type": "Polygon", "coordinates": [[[-73.8857903378996, 40.8159361515547], [-73.8854357950936, 40.8159889004007], [-73.8855246405765, 40.8163257274944], [-73.8858791851053, 40.8162729790808], [-73.8857903378996, 40.8159361515547]]]}}, {"type": "Feature", "properties": {"zone_id": "0207406D09WLKFJOIYADMQ", "tract_id": "36005011701", "city": "BRONX, NY", "zone_code": "M1-2", "zone_category": "Industrial", "ev_permitted": true}, "geometry": {"type": "Polygon", "coordinates": [[[-73.8840482107035, 40.8165535377389], [-73.8836832827885, 40.8166098113986], [-73.8837542503318, 40.8168822661899], [-73.8833933418814, 40.8169379197338], [-73.8834660676573, 40.8172183255323], [-73.884192403822, 40.8171071043135], [-73.8840482107035, 40.8165535377389]]]}}, {"type": "Feature", "properties": {"zone_id": "0203XOV71P6FD3ZI10ZJWM", "tract_id": "36005011701", "city": "BRONX, NY", "zone_code": "M1-2", "zone_category": "Industrial", "ev_permitted": true}, "geometry": {"type": "Polygon", "coordinates": [[[-73.8839773378586, 40.8162814471821], [-73.8836124113744, 40.8163377213227], [-73.8836832827885, 40.8166098113986], [-73.8840482107035, 40.8165535377389], [-73.8839773378586, 40.8162814471821]]]}}, {"type": "Feature", "properties": {"zone_id": "02067JQKTLXYKV2ZYYLPVE", "tract_id": "36005011701", "city": "BRONX, NY", "zone_code": "M1-2", "zone_category": "Industrial", "ev_permitted": true}, "geometry": {"type": "Polygon", "coordinates": [[[-73.8836124113744, 40.8163377213227], [-73.8832520885828, 40.816393284376], [-73.8833933418814, 40.8169379197338], [-73.8837542503318, 40.8168822661899], [-73.8836124113744, 40.8163377213227]]]}}, {"type": "Feature", "properties": {"zone_id": "02037UH462XPTR7VRMOCHP", "tract_id": "36005011701", "city": "BRONX, NY", "zone_code": "M1-2", "zone_category": "Industrial", "ev_permitted": true}, "geometry": {"type": "Polygon", "coordinates": [[[-73.8839420922843, 40.8161461349375], [-73.8835771665122, 40.8162024089678], [-73.8836124113744, 40.8163377213227], [-73.8839773378586, 40.8162814471821], [-73.8839420922843, 40.8161461349375]]]}}, {"type": "Feature", "properties": {"zone_id": "02073BD7CW9QC5FAUI4SUH", "tract_id": "36005011701", "city": "BRONX, NY", "zone_code": "M1-2", "zone_category": "Industrial", "ev_permitted": true}, "geometry": {"type": "Polygon", "coordinates": [[[-73.8844971415798, 40.8160626533843], [-73.884138629626, 40.8161158060183], [-73.8841579057828, 40.8161895719003], [-73.8845166271911, 40.8161363884999], [-73.8844971415798, 40.8160626533843]]]}}, {"type": "Feature", "properties": {"zone_id": "0201WFKTDXIXUZ1ZL3P0DT", "tract_id": "36005011701", "city": "BRONX, NY", "zone_code": "HP", "zone_category": "Other", "ev_permitted": false}, "geometry": {"type": "Polygon", "coordinates": [[[-73.8838368929501, 40.8157422539098], [-73.8831122256589, 40.8158540008755], [-73.8831811725028, 40.8161198505135], [-73.8835412033868, 40.816064333058], [-73.8835771665122, 40.8162024089678], [-73.8839420922843, 40.8161461349375], [-73.8838368929501, 40.8157422539098]]]}}, {"type": "Feature", "properties": {"zone_id": "0202ZLAJENVLT62VFG9G34", "tract_id": "36005011701", "city": "BRONX, NY", "zone_code": "M1-2", "zone_category": "Industrial", "ev_permitted": true}, "geometry": {"type": "Polygon", "coordinates": [[[-73.8835412033868, 40.816064333058], [-73.8831811725028, 40.8161198505135], [-73.8832520885828, 40.816393284376], [-73.8836124113744, 40.8163377213227], [-73.8835412033868, 40.816064333058]]]}}, {"type": "Feature", "properties": {"zone_id": "0200N6N9Z4V3AHWWKH8N5V", "tract_id": "36005011701", "city": "BRONX, NY", "zone_code": "HP", "zone_category": "Other", "ev_permitted": false}, "geometry": {"type": "Polygon", "coordinates": [[[-73.8869374743373, 40.8158212403787], [-73.8869534190732, 40.8158815805281], [-73.8869939277502, 40.8158757039345], [-73.8869374743373, 40.8158212403787]]]}}, {"type": "Feature", "properties": {"zone_id": "0206A5ANN30GP5PGDFI8AR", "tract_id": "36005011701", "city": "BRONX, NY", "zone_code": "HP", "zone_category": "Other", "ev_permitted": false}, "geometry": {"type": "Polygon", "coordinates": [[[-73.8864326470754, 40.8153243937415], [-73.8861375238917, 40.8154914420325], [-73.8863089047426, 40.8156572620408], [-73.886330494417, 40.8156432928848], [-73.8866657059513, 40.8155933476382], [-73.8866507562718, 40.8155354248337], [-73.8864326470754, 40.8153243937415]]]}}, {"type": "Feature", "properties": {"zone_id": "0205JRQPIE6PCC40K3HQA2", "tract_id": "36005011701", "city": "BRONX, NY", "zone_code": "HP", "zone_category": "Other", "ev_permitted": false}, "geometry": {"type": "Polygon", "coordinates": [[[-73.8862385063829, 40.8155891466758], [-73.8859312129286, 40.815634931922], [-73.8860013302982, 40.8159041846613], [-73.8863588844402, 40.8158509114632], [-73.8863089047426, 40.8156572620408], [-73.8862385063829, 40.8155891466758]]]}}, {"type": "Feature", "properties": {"zone_id": "0204W976F2QI5MLTTOSMAD", "tract_id": "36005011701", "city": "BRONX, NY", "zone_code": "R6", "zone_category": "Residential", "ev_permitted": false}, "geometry": {"type": "Polygon", "coordinates": [[[-73.8861102737757, 40.8154650763231], [-73.8858953187948, 40.8154971013283], [-73.8859136673532, 40.8155675635545], [-73.8861758271753, 40.81552850383], [-73.8861102737757, 40.8154650763231]]]}}, {"type": "Feature", "properties": {"zone_id": "0201PSI616CG3N5A7H8WOL", "tract_id": "36005011701", "city": "BRONX, NY", "zone_code": "HP", "zone_category": "Other", "ev_permitted": false}, "geometry": {"type": "Polygon", "coordinates": [[[-73.8861758271753, 40.81552850383], [-73.8859136673532, 40.8155675635545], [-73.8859312129286, 40.815634931922], [-73.8862385063829, 40.8155891466758], [-73.8861758271753, 40.81552850383]]]}}, {"type": "Feature", "properties": {"zone_id": "0207HFHJFR6JISWO13Z7GC", "tract_id": "36005011701", "city": "BRONX, NY", "zone_code": "HP", "zone_category": "Other", "ev_permitted": false}, "geometry": {"type": "Polygon", "coordinates": [[[-73.8860276066979, 40.8153850915063], [-73.8858721796249, 40.8154082488441], [-73.8858953187948, 40.8154971013283], [-73.8861102737757, 40.8154650763231], [-73.8860276066979, 40.8153850915063]]]}}, {"type": "Feature", "properties": {"zone_id": "0202GXUKG6BS9V5NO5QNC6", "tract_id": "36005011701", "city": "BRONX, NY", "zone_code": "HP", "zone_category": "Other", "ev_permitted": false}, "geometry": {"type": "Polygon", "coordinates": [[[-73.8862053420522, 40.8151044639403], [-73.8859126882317, 40.8152739002943], [-73.8861375238917, 40.8154914420325], [-73.8864326470754, 40.8153243937415], [-73.8862053420522, 40.8151044639403]]]}}, {"type": "Feature", "properties": {"zone_id": "0202XPN1VVMYDCGEIOZUHT", "tract_id": "36005011701", "city": "BRONX, NY", "zone_code": "HP", "zone_category": "Other", "ev_permitted": false}, "geometry": {"type": "Polygon", "coordinates": [[[-73.8858587525264, 40.8152217138723], [-73.8858249156031, 40.8152267563062], [-73.8858721796249, 40.8154082488441], [-73.8860276066979, 40.8153850915063], [-73.8858587525264, 40.8152217138723]]]}}, {"type": "Feature", "properties": {"zone_id": "020353AM95CSI11GYDWKRA", "tract_id": "36005011701", "city": "BRONX, NY", "zone_code": "R6", "zone_category": "Residential", "ev_permitted": false}, "geometry": {"type": "Polygon", "coordinates": [[[-73.8859867860251, 40.8148929973089], [-73.8857699615543, 40.8150157273007], [-73.8858249156031, 40.8152267563062], [-73.8858587525264, 40.8152217138723], [-73.8859126882317, 40.8152739002943], [-73.8862053420522, 40.8151044639403], [-73.8859867860251, 40.8148929973089]]]}}, {"type": "Feature", "properties": {"zone_id": "0201U3T6L47AV9HQNGHK1D", "tract_id": "36005011701", "city": "BRONX, NY", "zone_code": "HP", "zone_category": "Other", "ev_permitted": false}, "geometry": {"type": "Polygon", "coordinates": [[[-73.8858128909981, 40.8147247417375], [-73.8856984788969, 40.8147412291565], [-73.8857699615543, 40.8150157273007], [-73.8859867860251, 40.8148929973089], [-73.8858128909981, 40.8147247417375]]]}}, {"type": "Feature", "properties": {"zone_id": "02054IWXJAW7XMFRLK7CHQ", "tract_id": "36005011701", "city": "BRONX, NY", "zone_code": "R6", "zone_category": "Residential", "ev_permitted": false}, "geometry": {"type": "Polygon", "coordinates": [[[-73.885488991853, 40.8147936988867], [-73.8847812790993, 40.8148989905444], [-73.8853095119047, 40.8169349266444], [-73.8856707115225, 40.816879499267], [-73.8854357950936, 40.8159889004007], [-73.8857903378996, 40.8159361515547], [-73.885488991853, 40.8147936988867]]]}}, {"type": "Feature", "properties": {"zone_id": "0200E3DED3PI1ZC8T2PEA4", "tract_id": "36005011701", "city": "BRONX, NY", "zone_code": "M1-2", "zone_category": "Industrial", "ev_permitted": true}, "geometry": {"type": "Polygon", "coordinates": [[[-73.8847490511075, 40.8156070676002], [-73.8840331090085, 40.8157120042452], [-73.884138629626, 40.8161158060183], [-73.8844971415798, 40.8160626533843], [-73.8844810694505, 40.8160018356687], [-73.8848393390665, 40.815948717563], [-73.8847490511075, 40.8156070676002]]]}}, {"type": "Feature", "properties": {"zone_id": "02027FOJLCFGRC9MT14OSA", "tract_id": "36005011701", "city": "BRONX, NY", "zone_code": "HP", "zone_category": "Other", "ev_permitted": false}, "geometry": {"type": "Polygon", "coordinates": [[[-73.8846421351839, 40.8152024927479], [-73.8842838694277, 40.8152556102474], [-73.8843906288961, 40.815659602075], [-73.8847490511075, 40.8156070676002], [-73.8846421351839, 40.8152024927479]]]}}, {"type": "Feature", "properties": {"zone_id": "0204WBSG9VW08ESEFBSMGX", "tract_id": "36005011701", "city": "BRONX, NY", "zone_code": "M1-2", "zone_category": "Industrial", "ev_permitted": true}, "geometry": {"type": "Polygon", "coordinates": [[[-73.8845713942982, 40.8149348005095], [-73.8843954745437, 40.8149608829527], [-73.8844662156743, 40.8152285752989], [-73.8846421351839, 40.8152024927479], [-73.8845713942982, 40.8149348005095]]]}}, {"type": "Feature", "properties": {"zone_id": "02076GO53YCDCHCVZTT39M", "tract_id": "36005011701", "city": "BRONX, NY", "zone_code": "HP", "zone_category": "Other", "ev_permitted": false}, "geometry": {"type": "Polygon", "coordinates": [[[-73.8837317922679, 40.8153387501802], [-73.8833686423178, 40.8153947506086], [-73.883473739037, 40.8157982546637], [-73.8838368929501, 40.8157422539098], [-73.8837317922679, 40.8153387501802]]]}}, {"type": "Feature", "properties": {"zone_id": "0200XFE0MSAWWAVXMP6RPN", "tract_id": "36005011701", "city": "BRONX, NY", "zone_code": "HP", "zone_category": "Other", "ev_permitted": false}, "geometry": {"type": "Polygon", "coordinates": [[[-73.8832952103999, 40.8151128255233], [-73.8829344323511, 40.8151684580954], [-73.8830773050636, 40.8157193537417], [-73.8834386743491, 40.8156636290997], [-73.8832952103999, 40.8151128255233]]]}}, {"type": "Feature", "properties": {"zone_id": "020745WRXF93KT1QV8NIHA", "tract_id": "36005011701", "city": "BRONX, NY", "zone_code": "HP", "zone_category": "Other", "ev_permitted": false}, "geometry": {"type": "Polygon", "coordinates": [[[-73.8834386743491, 40.8156636290997], [-73.8830773050636, 40.8157193537417], [-73.8831122256589, 40.8158540008755], [-73.883473739037, 40.8157982546637], [-73.8834386743491, 40.8156636290997]]]}}, {"type": "Feature", "properties": {"zone_id": "0200UVJJ7N912FEIZV4Z9C", "tract_id": "36005011701", "city": "BRONX, NY", "zone_code": "M1-2", "zone_category": "Industrial", "ev_permitted": true}, "geometry": {"type": "Polygon", "coordinates": [[[-73.8843954745437, 40.8149608829527], [-73.8838576652252, 40.8150406180017], [-73.8840331090085, 40.8157120042452], [-73.8843906288961, 40.815659602075], [-73.8842838694277, 40.8152556102474], [-73.8844662156743, 40.8152285752989], [-73.8843954745437, 40.8149608829527]]]}}, {"type": "Feature", "properties": {"zone_id": "0204RVCCL8LWR8TIALJFDI", "tract_id": "36005011701", "city": "BRONX, NY", "zone_code": "M1-2", "zone_category": "Industrial", "ev_permitted": true}, "geometry": {"type": "Polygon", "coordinates": [[[-73.8834737619529, 40.8150852915297], [-73.8832952103999, 40.8151128255233], [-73.8833686423178, 40.8153947506086], [-73.8835471927471, 40.8153672165007], [-73.8834737619529, 40.8150852915297]]]}}, {"type": "Feature", "properties": {"zone_id": "0201IONZC1B9X3UDJ0V0Y7", "tract_id": "36005011701", "city": "BRONX, NY", "zone_code": "HP", "zone_category": "Other", "ev_permitted": false}, "geometry": {"type": "Polygon", "coordinates": [[[-73.883658361648, 40.8150568253264], [-73.8834737619529, 40.8150852915297], [-73.8835471927471, 40.8153672165007], [-73.8837317922679, 40.8153387501802], [-73.883658361648, 40.8150568253264]]]}}, {"type": "Feature", "properties": {"zone_id": "02054Q1JGYWH34FT1INUYB", "tract_id": "36005011701", "city": "BRONX, NY", "zone_code": "M1-2", "zone_category": "Industrial", "ev_permitted": true}, "geometry": {"type": "Polygon", "coordinates": [[[-73.8848665116124, 40.813810253479], [-73.8845276961126, 40.8140073829408], [-73.884700545069, 40.8146521071741], [-73.8854434905767, 40.8145378486823], [-73.8853821815386, 40.814292655975], [-73.8848665116124, 40.813810253479]]]}}, {"type": "Feature", "properties": {"zone_id": "020611ZVUFCGJ0SNQIPZIJ", "tract_id": "36005011701", "city": "BRONX, NY", "zone_code": "HP", "zone_category": "Other", "ev_permitted": false}, "geometry": {"type": "Polygon", "coordinates": [[[-73.884745039447, 40.8136966163327], [-73.8844863586031, 40.8138471143424], [-73.8845276961126, 40.8140073829408], [-73.8848665116124, 40.813810253479], [-73.884745039447, 40.8136966163327]]]}}, {"type": "Feature", "properties": {"zone_id": "0203RH87RUJ742JH4WATUQ", "tract_id": "36005011701", "city": "BRONX, NY", "zone_code": "HP", "zone_category": "Other", "ev_permitted": false}, "geometry": {"type": "Polygon", "coordinates": [[[-73.8844013538468, 40.8142612204265], [-73.8840385225169, 40.8143158706881], [-73.8841485005996, 40.8147329268825], [-73.8845082435277, 40.8146776042609], [-73.8844013538468, 40.8142612204265]]]}}, {"type": "Feature", "properties": {"zone_id": "0202J4RI33KPBA2IMJFRZ1", "tract_id": "36005011701", "city": "BRONX, NY", "zone_code": "HP", "zone_category": "Other", "ev_permitted": false}, "geometry": {"type": "Polygon", "coordinates": [[[-73.8840359031108, 40.8143059375139], [-73.8839217961885, 40.8143231240188], [-73.8839204474439, 40.8143180108888], [-73.8836788854245, 40.8143543944234], [-73.883793116113, 40.8147875782316], [-73.8841485005996, 40.8147329268825], [-73.8840359031108, 40.8143059375139]]]}}, {"type": "Feature", "properties": {"zone_id": "0201ZKW60UPPQMOZ0MZWQO", "tract_id": "36005011701", "city": "BRONX, NY", "zone_code": "HP", "zone_category": "Other", "ev_permitted": false}, "geometry": {"type": "Polygon", "coordinates": [[[-73.8834956905664, 40.8144679760725], [-73.8831322002896, 40.8145223466752], [-73.8831555895986, 40.814613435809], [-73.8831226856305, 40.8146776386366], [-73.8830856237485, 40.8146637841697], [-73.8831409513385, 40.8148782838325], [-73.8835840306815, 40.8148120071019], [-73.8834956905664, 40.8144679760725]]]}}, {"type": "Feature", "properties": {"zone_id": "02054N47KWQUHN31KT6R0J", "tract_id": "36005011701", "city": "BRONX, NY", "zone_code": "M1-2", "zone_category": "Industrial", "ev_permitted": true}, "geometry": {"type": "Polygon", "coordinates": [[[-73.884297318712, 40.8138559489137], [-73.8839317605325, 40.8139110099647], [-73.8840385225169, 40.8143158706881], [-73.8844013538468, 40.8142612204265], [-73.884297318712, 40.8138559489137]]]}}, {"type": "Feature", "properties": {"zone_id": "02053P8OAW93153KI9BPXC", "tract_id": "36005011701", "city": "BRONX, NY", "zone_code": "M1-2", "zone_category": "Industrial", "ev_permitted": true}, "geometry": {"type": "Polygon", "coordinates": [[[-73.8842620634233, 40.8137186102628], [-73.8836786296795, 40.8138064873479], [-73.8836422555628, 40.8138972286992], [-73.8835964175473, 40.8139615176884], [-73.884297318712, 40.8138559489137], [-73.8842620634233, 40.8137186102628]]]}}, {"type": "Feature", "properties": {"zone_id": "0205I4VP534TKJKY194GHT", "tract_id": "36005011701", "city": "BRONX, NY", "zone_code": "HP", "zone_category": "Other", "ev_permitted": false}, "geometry": {"type": "Polygon", "coordinates": [[[-73.8839317605325, 40.8139110099647], [-73.8835964175473, 40.8139615176884], [-73.8835809923187, 40.8139831549499], [-73.8836788854245, 40.8143543944234], [-73.8839204474439, 40.8143180108888], [-73.8839217961885, 40.8143231240188], [-73.8840359031108, 40.8143059375139], [-73.8839317605325, 40.8139110099647]]]}}, {"type": "Feature", "properties": {"zone_id": "0200LHWAZKZ9X7RGHQRNKI", "tract_id": "36005011701", "city": "BRONX, NY", "zone_code": "HP", "zone_category": "Other", "ev_permitted": false}, "geometry": {"type": "Polygon", "coordinates": [[[-73.8834088422077, 40.814129747535], [-73.883045353706, 40.8141841185695], [-73.8831322002896, 40.8145223466752], [-73.8834956905664, 40.8144679760725], [-73.8834088422077, 40.814129747535]]]}}, {"type": "Feature", "properties": {"zone_id": "020717MVE1HBNKXGFAM9GD", "tract_id": "36005011701", "city": "BRONX, NY", "zone_code": "M1-2", "zone_category": "Industrial", "ev_permitted": true}, "geometry": {"type": "Polygon", "coordinates": [[[-73.8836786296795, 40.8138064873479], [-73.8835399146672, 40.8138273797129], [-73.8835809923187, 40.8139831549499], [-73.8836422555628, 40.8138972286992], [-73.8836786296795, 40.8138064873479]]]}}, {"type": "Feature", "properties": {"zone_id": "0205E7X1FOGP43U6FNFNU7", "tract_id": "36005011701", "city": "BRONX, NY", "zone_code": "M1-2", "zone_category": "Industrial", "ev_permitted": true}, "geometry": {"type": "Polygon", "coordinates": [[[-73.883340949224, 40.8138653387401], [-73.8829409419505, 40.8139251721249], [-73.882976075991, 40.8139785009182], [-73.88295926521, 40.8140937147999], [-73.8833833032794, 40.8140302863149], [-73.883340949224, 40.8138653387401]]]}}, {"type": "Feature", "properties": {"zone_id": "0204U2JEVC396I6HVL95NF", "tract_id": "36005011701", "city": "BRONX, NY", "zone_code": "HP", "zone_category": "Other", "ev_permitted": false}, "geometry": {"type": "Polygon", "coordinates": [[[-73.8833048865755, 40.8137248932684], [-73.8828534774189, 40.8137924161019], [-73.8829409419505, 40.8139251721249], [-73.883340949224, 40.8138653387401], [-73.8833048865755, 40.8137248932684]]]}}, {"type": "Feature", "properties": {"zone_id": "020058OFI2YKXA6EUNA1FQ", "tract_id": "36005011701", "city": "BRONX, NY", "zone_code": "M1-2", "zone_category": "Industrial", "ev_permitted": true}, "geometry": {"type": "Polygon", "coordinates": [[[-73.8825300806877, 40.8158714722381], [-73.8821762690438, 40.8159247409035], [-73.8822727583547, 40.8162962175191], [-73.8831958380349, 40.8170030359496], [-73.8829975836235, 40.8162386171965], [-73.8828135532673, 40.8162663254632], [-73.8827437828079, 40.8159973009077], [-73.8825695184529, 40.8160235382354], [-73.8825300806877, 40.8158714722381]]]}}, {"type": "Feature", "properties": {"zone_id": "0201OAQ9KMQ8DP6IZFKJE8", "tract_id": "36005011701", "city": "BRONX, NY", "zone_code": "HP", "zone_category": "Other", "ev_permitted": false}, "geometry": {"type": "Polygon", "coordinates": [[[-73.8828848831261, 40.8158040626836], [-73.8825265890627, 40.8158580073324], [-73.8825695184529, 40.8160235382354], [-73.8827437828079, 40.8159973009077], [-73.8828135532673, 40.8162663254632], [-73.8829975836235, 40.8162386171965], [-73.8828848831261, 40.8158040626836]]]}}, {"type": "Feature", "properties": {"zone_id": "0204AJX40BB9IV0435A3SM", "tract_id": "36005011701", "city": "BRONX, NY", "zone_code": "M1-2", "zone_category": "Industrial", "ev_permitted": true}, "geometry": {"type": "Polygon", "coordinates": [[[-73.8827282579359, 40.8152001347886], [-73.8823699669968, 40.815254078956], [-73.8825265890627, 40.8158580073324], [-73.8828848831261, 40.8158040626836], [-73.8827282579359, 40.8152001347886]]]}}, {"type": "Feature", "properties": {"zone_id": "0204BQIL3DDSP5TY0IHT5G", "tract_id": "36005011701", "city": "BRONX, NY", "zone_code": "HP", "zone_category": "Other", "ev_permitted": false}, "geometry": {"type": "Polygon", "coordinates": [[[-73.8823699669968, 40.815254078956], [-73.8820159152066, 40.8153073834243], [-73.8821762690438, 40.8159247409035], [-73.8825300806877, 40.8158714722381], [-73.8823699669968, 40.815254078956]]]}}, {"type": "Feature", "properties": {"zone_id": "0203JYATQ4LGES8AHGX9BK", "tract_id": "36005011701", "city": "BRONX, NY", "zone_code": "HP", "zone_category": "Other", "ev_permitted": false}, "geometry": {"type": "Polygon", "coordinates": [[[-73.8822914528308, 40.813523175229], [-73.8815793930326, 40.8136333936744], [-73.8819539809237, 40.8150595498258], [-73.8826681460862, 40.8149490051911], [-73.8822914528308, 40.813523175229]]]}}, {"type": "Feature", "properties": {"zone_id": "0202R3IK8WLN29WF61N63I", "tract_id": "36005011701", "city": "BRONX, NY", "zone_code": "M1-2", "zone_category": "Industrial", "ev_permitted": true}, "geometry": {"type": "Polygon", "coordinates": [[[-73.883045353706, 40.8141841185695], [-73.8826894752534, 40.8142373501806], [-73.88286799436, 40.814919112528], [-73.8831409513385, 40.8148782838325], [-73.8830856237485, 40.8146637841697], [-73.8831226856305, 40.8146776386366], [-73.8831555895986, 40.814613435809], [-73.883045353706, 40.8141841185695]]]}}, {"type": "Feature", "properties": {"zone_id": "0205W05CO70NDC0MGWEQ3E", "tract_id": "36005011701", "city": "BRONX, NY", "zone_code": "HP", "zone_category": "Other", "ev_permitted": false}, "geometry": {"type": "Polygon", "coordinates": [[[-73.882757916262, 40.813629920581], [-73.8825379828529, 40.8136587916713], [-73.8826634507659, 40.8141379620858], [-73.88295926521, 40.8140937147999], [-73.882976075991, 40.8139785009182], [-73.882769235051, 40.8136645502105], [-73.882757916262, 40.813629920581]]]}}, {"type": "Feature", "properties": {"zone_id": "02041KHPQ0BZSAWQ26JPJA", "tract_id": "36005011701", "city": "BRONX, NY", "zone_code": "HP", "zone_category": "Other", "ev_permitted": false}, "geometry": {"type": "Polygon", "coordinates": [[[-73.8833833032794, 40.8140302863149], [-73.8826634507659, 40.8141379620858], [-73.8826894752534, 40.8142373501806], [-73.8834088422077, 40.814129747535], [-73.8833833032794, 40.8140302863149]]]}}, {"type": "Feature", "properties": {"zone_id": "0202GZCOPMLU4B3TRSEEGR", "tract_id": "36005011701", "city": "BRONX, NY", "zone_code": "M1-2", "zone_category": "Industrial", "ev_permitted": true}, "geometry": {"type": "Polygon", "coordinates": [[[-73.8843525074518, 40.8133293996435], [-73.8844674479099, 40.8137739728054], [-73.884670912241, 40.8136562010115], [-73.8847065032052, 40.8136605656289], [-73.8843525074518, 40.8133293996435]]]}}, {"type": "Feature", "properties": {"zone_id": "0202Z9Q9FDAV6IC4YJ4XD7", "tract_id": "36005011701", "city": "BRONX, NY", "zone_code": "M1-2", "zone_category": "Industrial", "ev_permitted": true}, "geometry": {"type": "Polygon", "coordinates": [[[-73.884670912241, 40.8136562010115], [-73.8844674479099, 40.8137739728054], [-73.8844863586031, 40.8138471143424], [-73.884745039447, 40.8136966163327], [-73.8847065032052, 40.8136605656289], [-73.884670912241, 40.8136562010115]]]}}, {"type": "Feature", "properties": {"zone_id": "02070BFTYMMF9LHBS7RYK5", "tract_id": "36005011701", "city": "BRONX, NY", "zone_code": "HP", "zone_category": "Other", "ev_permitted": false}, "geometry": {"type": "Polygon", "coordinates": [[[-73.8841526084304, 40.8132922206403], [-73.8837837475424, 40.8133496064849], [-73.8838107629857, 40.8134521572583], [-73.8838170225686, 40.8134546010563], [-73.8838128384262, 40.8134600290208], [-73.8838279876033, 40.8135174816417], [-73.883472323615, 40.8135710510505], [-73.8835399146672, 40.8138273797129], [-73.8842620634233, 40.8137186102628], [-73.8841526084304, 40.8132922206403]]]}}, {"type": "Feature", "properties": {"zone_id": "02040TE1IXD8CADLYO0CJA", "tract_id": "36005011701", "city": "BRONX, NY", "zone_code": "HP", "zone_category": "Other", "ev_permitted": false}, "geometry": {"type": "Polygon", "coordinates": [[[-73.8837540206333, 40.8132369762772], [-73.8833983571596, 40.8132905454593], [-73.883472323615, 40.8135710510505], [-73.8838279876033, 40.8135174816417], [-73.8838128384262, 40.8134600290208], [-73.8838170225686, 40.8134546010563], [-73.8838107629857, 40.8134521572583], [-73.8837540206333, 40.8132369762772]]]}}, {"type": "Feature", "properties": {"zone_id": "02031O0OOM1YD0ID86N3WH", "tract_id": "36005011701", "city": "BRONX, NY", "zone_code": "M1-2", "zone_category": "Industrial", "ev_permitted": true}, "geometry": {"type": "Polygon", "coordinates": [[[-73.8839685026836, 40.8129246574611], [-73.8836348214827, 40.8129749168288], [-73.8836701778032, 40.8131090439821], [-73.8837183718418, 40.8131017850467], [-73.8837837475424, 40.8133496064849], [-73.8841526084304, 40.8132922206403], [-73.8840885008285, 40.813042483858], [-73.8839685026836, 40.8129246574611]]]}}, {"type": "Feature", "properties": {"zone_id": "0205114EJ4POQZO7IJSUES", "tract_id": "36005011701", "city": "BRONX, NY", "zone_code": "HP", "zone_category": "Other", "ev_permitted": false}, "geometry": {"type": "Polygon", "coordinates": [[[-73.8837183718418, 40.8131017850467], [-73.8833627081371, 40.8131553541191], [-73.8833983571596, 40.8132905454593], [-73.8837540206333, 40.8132369762772], [-73.8837183718418, 40.8131017850467]]]}}, {"type": "Feature", "properties": {"zone_id": "02035FU9E7IYLL2N6JF24Z", "tract_id": "36005011701", "city": "BRONX, NY", "zone_code": "HP", "zone_category": "Other", "ev_permitted": false}, "geometry": {"type": "Polygon", "coordinates": [[[-73.8836348214827, 40.8129749168288], [-73.8833273533365, 40.8130212268735], [-73.8833627081371, 40.8131553541191], [-73.8836701778032, 40.8131090439821], [-73.8836348214827, 40.8129749168288]]]}}, {"type": "Feature", "properties": {"zone_id": "02078I7OYSWLM9TPYOF7DS", "tract_id": "36005011701", "city": "BRONX, NY", "zone_code": "M1-2", "zone_category": "Industrial", "ev_permitted": true}, "geometry": {"type": "Polygon", "coordinates": [[[-73.8837128641608, 40.8126790902882], [-73.883432492452, 40.8127213195502], [-73.8834867941092, 40.8129272591075], [-73.8839057593698, 40.8128641552208], [-73.8837128641608, 40.8126790902882]]]}}, {"type": "Feature", "properties": {"zone_id": "0203VCH01HJ16WF1D85R1G", "tract_id": "36005011701", "city": "BRONX, NY", "zone_code": "M1-2", "zone_category": "Industrial", "ev_permitted": true}, "geometry": {"type": "Polygon", "coordinates": [[[-73.8839057593698, 40.8128641552208], [-73.8834867941092, 40.8129272591075], [-73.8835045327471, 40.8129945402403], [-73.8839685026836, 40.8129246574611], [-73.8839057593698, 40.8128641552208]]]}}, {"type": "Feature", "properties": {"zone_id": "02006MYG2HTNB9PUMR8GTO", "tract_id": "36005011701", "city": "BRONX, NY", "zone_code": "M1-2", "zone_category": "Industrial", "ev_permitted": true}, "geometry": {"type": "Polygon", "coordinates": [[[-73.883432492452, 40.8127213195502], [-73.8832553118902, 40.8127480060719], [-73.8833273533365, 40.8130212268735], [-73.8835045327471, 40.8129945402403], [-73.883432492452, 40.8127213195502]]]}}, {"type": "Feature", "properties": {"zone_id": "0201CTBL61IPZC2W4GBYWA", "tract_id": "36005011701", "city": "BRONX, NY", "zone_code": "M1-2", "zone_category": "Industrial", "ev_permitted": true}, "geometry": {"type": "Polygon", "coordinates": [[[-73.8830867752828, 40.8120882843701], [-73.8831860898806, 40.8124984870255], [-73.8834652354642, 40.8124567672459], [-73.8830867752828, 40.8120882843701]]]}}, {"type": "Feature", "properties": {"zone_id": "0205DQYAHGW0O8ZEPZ2XSJ", "tract_id": "36005011701", "city": "BRONX, NY", "zone_code": "M1-2", "zone_category": "Industrial", "ev_permitted": true}, "geometry": {"type": "Polygon", "coordinates": [[[-73.882696768231, 40.8128365406985], [-73.8823379284752, 40.8128947549181], [-73.8825379828529, 40.8136587916713], [-73.882757916262, 40.813629920581], [-73.8827125398008, 40.8134910962948], [-73.8827889728283, 40.813349962611], [-73.8828222251197, 40.8133251556531], [-73.882696768231, 40.8128365406985]]]}}, {"type": "Feature", "properties": {"zone_id": "0200ZU8N3P3M0XGNNYL1R5", "tract_id": "36005011701", "city": "BRONX, NY", "zone_code": "HP", "zone_category": "Other", "ev_permitted": false}, "geometry": {"type": "Polygon", "coordinates": [[[-73.8831619684788, 40.813168290408], [-73.8830996827782, 40.8131987341937], [-73.8828973445723, 40.8132691155971], [-73.8827889728283, 40.813349962611], [-73.8827125398008, 40.8134910962948], [-73.882769235051, 40.8136645502105], [-73.8828534774189, 40.8137924161019], [-73.8833048865755, 40.8137248932684], [-73.8831619684788, 40.813168290408]]]}}, {"type": "Feature", "properties": {"zone_id": "02027FWJHRB0ZBPFV15MKR", "tract_id": "36005011701", "city": "BRONX, NY", "zone_code": "HP", "zone_category": "Other", "ev_permitted": false}, "geometry": {"type": "Polygon", "coordinates": [[[-73.8830615898549, 40.8127773554496], [-73.882696768231, 40.8128365406985], [-73.8828222251197, 40.8133251556531], [-73.8828973445723, 40.8132691155971], [-73.8830996827782, 40.8131987341937], [-73.8831619684788, 40.813168290408], [-73.8830615898549, 40.8127773554496]]]}}, {"type": "Feature", "properties": {"zone_id": "0206VUDZ53Q08RQVJ43FTK", "tract_id": "36005011701", "city": "BRONX, NY", "zone_code": "M1-2", "zone_category": "Industrial", "ev_permitted": true}, "geometry": {"type": "Polygon", "coordinates": [[[-73.8821341666052, 40.8129278102085], [-73.8814228373729, 40.8130373278969], [-73.8815793930326, 40.8136333936744], [-73.8822914528308, 40.813523175229], [-73.8821341666052, 40.8129278102085]]]}}, {"type": "Feature", "properties": {"zone_id": "0201AAQE463Z9AXNQA03RI", "tract_id": "36005011701", "city": "BRONX, NY", "zone_code": "HP", "zone_category": "Other", "ev_permitted": false}, "geometry": {"type": "Polygon", "coordinates": [[[-73.8825126036501, 40.8121361364283], [-73.8821523289087, 40.8121889002677], [-73.8822705612153, 40.8126353115933], [-73.8829855145707, 40.8125284631216], [-73.8829129181813, 40.8122495416276], [-73.8825557365036, 40.8123018566593], [-73.8825126036501, 40.8121361364283]]]}}, {"type": "Feature", "properties": {"zone_id": "0200A8U2BM8P446MRLK8FS", "tract_id": "36005011701", "city": "BRONX, NY", "zone_code": "M1-2", "zone_category": "Industrial", "ev_permitted": true}, "geometry": {"type": "Polygon", "coordinates": [[[-73.8825967771145, 40.8116175242854], [-73.8820226624068, 40.8117016102945], [-73.8820806507312, 40.8119195330927], [-73.8827996168786, 40.8118142300806], [-73.8825967771145, 40.8116175242854]]]}}, {"type": "Feature", "properties": {"zone_id": "0203MIMA5XMRT7A1W5QZCW", "tract_id": "36005011701", "city": "BRONX, NY", "zone_code": "M1-2", "zone_category": "Industrial", "ev_permitted": true}, "geometry": {"type": "Polygon", "coordinates": [[[-73.8827996168786, 40.8118142300806], [-73.8823337725423, 40.8118824602927], [-73.8823562692565, 40.8119670019589], [-73.8824644590531, 40.811951156015], [-73.8825126036501, 40.8121361364283], [-73.8828697835524, 40.8120838187172], [-73.8827996168786, 40.8118142300806]]]}}, {"type": "Feature", "properties": {"zone_id": "0202347E3MASHDYQYOT20T", "tract_id": "36005011701", "city": "BRONX, NY", "zone_code": "HP", "zone_category": "Other", "ev_permitted": false}, "geometry": {"type": "Polygon", "coordinates": [[[-73.8828697835524, 40.8120838187172], [-73.8825126036501, 40.8121361364283], [-73.8825557365036, 40.8123018566593], [-73.8829129181813, 40.8122495416276], [-73.8828697835524, 40.8120838187172]]]}}, {"type": "Feature", "properties": {"zone_id": "0200L36BXTXDXQCS3DMSG1", "tract_id": "36005011701", "city": "BRONX, NY", "zone_code": "M1-2", "zone_category": "Industrial", "ev_permitted": true}, "geometry": {"type": "Polygon", "coordinates": [[[-73.8823337725423, 40.8118824602927], [-73.8820806507312, 40.8119195330927], [-73.8821523289087, 40.8121889002677], [-73.8825126036501, 40.8121361364283], [-73.8824644590531, 40.811951156015], [-73.8823562692565, 40.8119670019589], [-73.8823337725423, 40.8118824602927]]]}}, {"type": "Feature", "properties": {"zone_id": "0204LSRE39CSW7FZNK9C8S", "tract_id": "36005011701", "city": "BRONX, NY", "zone_code": "M1-2", "zone_category": "Industrial", "ev_permitted": true}, "geometry": {"type": "Polygon", "coordinates": [[[-73.8818905187888, 40.8119713148529], [-73.8811653948457, 40.8120875271291], [-73.8813461349169, 40.8127731125788], [-73.8820689449941, 40.8126572706141], [-73.8818905187888, 40.8119713148529]]]}}, {"type": "Feature", "properties": {"zone_id": "02011W8TBKFZ28M3AHJVOG", "tract_id": "36005011701", "city": "BRONX, NY", "zone_code": "HP", "zone_category": "Other", "ev_permitted": false}, "geometry": {"type": "Polygon", "coordinates": [[[-73.8822022775785, 40.8112349473405], [-73.8819100446271, 40.8112783890165], [-73.8820226624068, 40.8117016102945], [-73.8825967771145, 40.8116175242854], [-73.8822022775785, 40.8112349473405]]]}}, {"type": "Feature", "properties": {"zone_id": "0206S62GNZKT43TASR3ERS", "tract_id": "36005011701", "city": "BRONX, NY", "zone_code": "M1-2", "zone_category": "Industrial", "ev_permitted": true}, "geometry": {"type": "Polygon", "coordinates": [[[-73.8819448596354, 40.8109853067108], [-73.8818363234628, 40.8110013388935], [-73.8819100446271, 40.8112783890165], [-73.8822022775785, 40.8112349473405], [-73.8819448596354, 40.8109853067108]]]}}, {"type": "Feature", "properties": {"zone_id": "0201XTV73VNO54IBXBIGZK", "tract_id": "36005011701", "city": "BRONX, NY", "zone_code": "M1-2", "zone_category": "Industrial", "ev_permitted": true}, "geometry": {"type": "Polygon", "coordinates": [[[-73.8817176257677, 40.8113066097216], [-73.8809883024617, 40.8114157598724], [-73.8811653948457, 40.8120875271291], [-73.8818905187888, 40.8119713148529], [-73.8817176257677, 40.8113066097216]]]}}, {"type": "Feature", "properties": {"zone_id": "0207C08O803ESU01A74A9D", "tract_id": "36005011701", "city": "BRONX, NY", "zone_code": "M1-2", "zone_category": "Industrial", "ev_permitted": true}, "geometry": {"type": "Polygon", "coordinates": [[[-73.8816439643943, 40.811023412057], [-73.8809136838772, 40.8111327055009], [-73.8809883024617, 40.8114157598724], [-73.8817176257677, 40.8113066097216], [-73.8816439643943, 40.811023412057]]]}}, {"type": "Feature", "properties": {"zone_id": "0202RNMZOJ3KSC37KOVAPR", "tract_id": "36005011701", "city": "BRONX, NY", "zone_code": "HP", "zone_category": "Other", "ev_permitted": false}, "geometry": {"type": "Polygon", "coordinates": [[[-73.8811403544156, 40.8105538817216], [-73.880775187264, 40.8106094271435], [-73.8808473036517, 40.8108864987939], [-73.8812124722633, 40.810830953146], [-73.8811403544156, 40.8105538817216]]]}}, {"type": "Feature", "properties": {"zone_id": "02069S0U87K7BNV16XG14Q", "tract_id": "36005011701", "city": "BRONX, NY", "zone_code": "M1-2", "zone_category": "Industrial", "ev_permitted": true}, "geometry": {"type": "Polygon", "coordinates": [[[-73.8810778228592, 40.8101446503334], [-73.8806703505685, 40.8102066309108], [-73.880738781201, 40.8104695523893], [-73.881013061741, 40.8104284539472], [-73.8810493122146, 40.8105677297973], [-73.8814516218861, 40.8105065337571], [-73.8810778228592, 40.8101446503334]]]}}, {"type": "Feature", "properties": {"zone_id": "0201HTNVOARAQQT6ELR8YD", "tract_id": "36005011701", "city": "BRONX, NY", "zone_code": "HP", "zone_category": "Other", "ev_permitted": false}, "geometry": {"type": "Polygon", "coordinates": [[[-73.8814516218861, 40.8105065337571], [-73.8811403544156, 40.8105538817216], [-73.8812124722633, 40.810830953146], [-73.8815674222793, 40.8107769599428], [-73.8815147416105, 40.8105676399181], [-73.8814516218861, 40.8105065337571]]]}}, {"type": "Feature", "properties": {"zone_id": "0200QUTS1WPL5G6JY5HVT1", "tract_id": "36005011701", "city": "BRONX, NY", "zone_code": "M1-2", "zone_category": "Industrial", "ev_permitted": true}, "geometry": {"type": "Polygon", "coordinates": [[[-73.881013061741, 40.8104284539472], [-73.880738781201, 40.8104695523893], [-73.880775187264, 40.8106094271435], [-73.8810493122146, 40.8105677297973], [-73.881013061741, 40.8104284539472]]]}}, {"type": "Feature", "properties": {"zone_id": "0203KG3YPCX8KIRO3CTZGS", "tract_id": "36005011701", "city": "BRONX, NY", "zone_code": "HP", "zone_category": "Other", "ev_permitted": false}, "geometry": {"type": "Polygon", "coordinates": [[[-73.8808259645556, 40.809900817476], [-73.8805997134433, 40.8099352324376], [-73.8806703505685, 40.8102066309108], [-73.8810778228592, 40.8101446503334], [-73.8808259645556, 40.809900817476]]]}}, {"type": "Feature", "properties": {"zone_id": "0207808KCL7NYIBCB1IJ96", "tract_id": "36005011701", "city": "BRONX, NY", "zone_code": "M1-2", "zone_category": "Industrial", "ev_permitted": true}, "geometry": {"type": "Polygon", "coordinates": [[[-73.880511523692, 40.8095963936716], [-73.8805997134433, 40.8099352324376], [-73.8808259645556, 40.809900817476], [-73.880511523692, 40.8095963936716]]]}}]}