{"type": "FeatureCollection", "features": [{"type": "Feature", "properties": {"zone_id": "0206IXGOHR3L7N821HSEG9", "tract_id": "36061010801", "city": "NEW YORK, NY", "zone_code": "MID", "zone_category": "Other", "ev_permitted": false}, "geometry": {"type": "Polygon", "coordinates": [[[-73.9671322463581, 40.7584705905476], [-73.9669534103765, 40.7587171922226], [-73.9671944750711, 40.7588185241854], [-73.967016963487, 40.7590632916929], [-73.9679170460029, 40.7594431289811], [-73.9682742214709, 40.7589506136816], [-73.9671322463581, 40.7584705905476]]]}}, {"type": "Feature", "properties": {"zone_id": "02033RYC77WX4XA1PFWW8H", "tract_id": "36061010801", "city": "NEW YORK, NY", "zone_code": "MID", "zone_category": "Other", "ev_permitted": false}, "geometry": {"type": "Polygon", "coordinates": [[[-73.9669534103765, 40.7587171922226], [-73.9667761145608, 40.7589616544725], [-73.967016963487, 40.7590632916929], [-73.9671944750711, 40.7588185241854], [-73.9669534103765, 40.7587171922226]]]}}, {"type": "Feature", "properties": {"zone_id": "020684H9221OFGBVY920OP", "tract_id": "36061010801", "city": "NEW YORK, NY", "zone_code": "MID", "zone_category": "Other", "ev_permitted": false}, "geometry": {"type": "Polygon", "coordinates": [[[-73.9674351122303, 40.757782890807], [-73.9670777207345, 40.7582732407561], [-73.9683711652538, 40.7588169350156], [-73.9687238161227, 40.7583306481776], [-73.9674351122303, 40.757782890807]]]}}, {"type": "Feature", "properties": {"zone_id": "0204EY954R157JGRZ4X19N", "tract_id": "36061010801", "city": "NEW YORK, NY", "zone_code": "MID", "zone_category": "Other", "ev_permitted": false}, "geometry": {"type": "Polygon", "coordinates": [[[-73.9669802938097, 40.7584067193551], [-73.9668014555906, 40.7586533172827], [-73.9669534103765, 40.7587171922226], [-73.9671322463581, 40.7584705905476], [-73.9669802938097, 40.7584067193551]]]}}, {"type": "Feature", "properties": {"zone_id": "0202DRVY775U412XE4M9LF", "tract_id": "36061010801", "city": "NEW YORK, NY", "zone_code": "C1-9", "zone_category": "Commercial", "ev_permitted": true}, "geometry": {"type": "Polygon", "coordinates": [[[-73.9670218558859, 40.7579240370442], [-73.9668401291505, 40.758173368251], [-73.9670777207345, 40.7582732407561], [-73.9672588254679, 40.7580247627269], [-73.9670218558859, 40.7579240370442]]]}}, {"type": "Feature", "properties": {"zone_id": "0201VC4VB504COIWDY027X", "tract_id": "36061010801", "city": "NEW YORK, NY", "zone_code": "C1-9", "zone_category": "Commercial", "ev_permitted": true}, "geometry": {"type": "Polygon", "coordinates": [[[-73.9673586129064, 40.7577503734859], [-73.9671823259523, 40.75799224529], [-73.9672588254679, 40.7580247627269], [-73.9674351122303, 40.757782890807], [-73.9673586129064, 40.7577503734859]]]}}, {"type": "Feature", "properties": {"zone_id": "0204ULVB6HNU4SW6Z9EF9C", "tract_id": "36061010801", "city": "NEW YORK, NY", "zone_code": "C1-9", "zone_category": "Commercial", "ev_permitted": true}, "geometry": {"type": "Polygon", "coordinates": [[[-73.9672777327183, 40.7577159942401], [-73.9671014446371, 40.7579578666239], [-73.9671823259523, 40.75799224529], [-73.9673586129064, 40.7577503734859], [-73.9672777327183, 40.7577159942401]]]}}, {"type": "Feature", "properties": {"zone_id": "0200PGXB0ELX289AYJKRUP", "tract_id": "36061010801", "city": "NEW YORK, NY", "zone_code": "C1-9", "zone_category": "Commercial", "ev_permitted": true}, "geometry": {"type": "Polygon", "coordinates": [[[-73.9671981450903, 40.7576821654839], [-73.9670218558859, 40.7579240370442], [-73.9671014446371, 40.7579578666239], [-73.9672777327183, 40.7577159942401], [-73.9671981450903, 40.7576821654839]]]}}, {"type": "Feature", "properties": {"zone_id": "0204TPYOQZJ8J2X91QNIOU", "tract_id": "36061010801", "city": "NEW YORK, NY", "zone_code": "C1-9", "zone_category": "Commercial", "ev_permitted": true}, "geometry": {"type": "Polygon", "coordinates": [[[-73.9671180207825, 40.7576481081566], [-73.9669417323013, 40.7578899795958], [-73.9670218558859, 40.7579240370442], [-73.9671981450903, 40.7576821654839], [-73.9671180207825, 40.7576481081566]]]}}, {"type": "Feature", "properties": {"zone_id": "0201H0ZEG1ACZ80V36RRTC", "tract_id": "36061010801", "city": "NEW YORK, NY", "zone_code": "MID", "zone_category": "Other", "ev_permitted": false}, "geometry": {"type": "Polygon", "coordinates": [[[-73.9666615292204, 40.7582727198466], [-73.9663044798665, 40.7587625854422], [-73.9667761145608, 40.7589616544725], [-73.9669534103765, 40.7587171922226], [-73.9668014555906, 40.7586533172827], [-73.9669802938097, 40.7584067193551], [-73.9666615292204, 40.7582727198466]]]}}, {"type": "Feature", "properties": {"zone_id": "0203FIQ3DJZ34O3PEAAY1N", "tract_id": "36061010801", "city": "NEW YORK, NY", "zone_code": "TA", "zone_category": "Other", "ev_permitted": false}, "geometry": {"type": "Polygon", "coordinates": [[[-73.9661647695369, 40.7583856799212], [-73.9661211576182, 40.758445502359], [-73.9664383957204, 40.7585788557699], [-73.966482000974, 40.7585190311033], [-73.9661647695369, 40.7583856799212]]]}}, {"type": "Feature", "properties": {"zone_id": "0203RQW95VEBIZ6DDZ94VY", "tract_id": "36061010801", "city": "NEW YORK, NY", "zone_code": "TA", "zone_category": "Other", "ev_permitted": false}, "geometry": {"type": "Polygon", "coordinates": [[[-73.9661211576182, 40.758445502359], [-73.966079375611, 40.7585028315975], [-73.9663966111307, 40.7586361844188], [-73.9664383957204, 40.7585788557699], [-73.9661211576182, 40.758445502359]]]}}, {"type": "Feature", "properties": {"zone_id": "0207KX3IH91II1O1ZH5TXF", "tract_id": "36061010801", "city": "NEW YORK, NY", "zone_code": "TA", "zone_category": "Other", "ev_permitted": false}, "geometry": {"type": "Polygon", "coordinates": [[[-73.966079375611, 40.7585028315975], [-73.966032105369, 40.7585677029019], [-73.9663493300166, 40.7587010509303], [-73.9663966111307, 40.7586361844188], [-73.966079375611, 40.7585028315975]]]}}, {"type": "Feature", "properties": {"zone_id": "0207G2BDYHMO4T6GNL47IE", "tract_id": "36061010801", "city": "NEW YORK, NY", "zone_code": "TA", "zone_category": "Other", "ev_permitted": false}, "geometry": {"type": "Polygon", "coordinates": [[[-73.966032105369, 40.7585677029019], [-73.9659875444576, 40.758628826324], [-73.9663044798665, 40.7587625854422], [-73.9663493300166, 40.7587010509303], [-73.966032105369, 40.7585677029019]]]}}, {"type": "Feature", "properties": {"zone_id": "02068M2QFWAMPAHWZSRMNT", "tract_id": "36061010801", "city": "NEW YORK, NY", "zone_code": "TA", "zone_category": "Other", "ev_permitted": false}, "geometry": {"type": "Polygon", "coordinates": [[[-73.966556995799, 40.7582287799576], [-73.9663774571224, 40.7584750861313], [-73.966482000974, 40.7585190311033], [-73.9666615292204, 40.7582727198466], [-73.966556995799, 40.7582287799576]]]}}, {"type": "Feature", "properties": {"zone_id": "0203KKAM5C5Z07UYKCVMC8", "tract_id": "36061010801", "city": "NEW YORK, NY", "zone_code": "TA", "zone_category": "Other", "ev_permitted": false}, "geometry": {"type": "Polygon", "coordinates": [[[-73.9663442985966, 40.7581393698569], [-73.9662700553519, 40.7582412309552], [-73.9664827527799, 40.7583306411917], [-73.966556995799, 40.7582287799576], [-73.9663442985966, 40.7581393698569]]]}}, {"type": "Feature", "properties": {"zone_id": "0201PSP11RIJ7TYNPJKX8A", "tract_id": "36061010801", "city": "NEW YORK, NY", "zone_code": "TA", "zone_category": "Other", "ev_permitted": false}, "geometry": {"type": "Polygon", "coordinates": [[[-73.9662348315972, 40.7582895569502], [-73.9662009550858, 40.7583360339425], [-73.9664136536479, 40.7584254443056], [-73.9664475291323, 40.7583789672511], [-73.9662348315972, 40.7582895569502]]]}}, {"type": "Feature", "properties": {"zone_id": "02031PC82H0DTCP4NHFH1U", "tract_id": "36061010801", "city": "NEW YORK, NY", "zone_code": "TA", "zone_category": "Other", "ev_permitted": false}, "geometry": {"type": "Polygon", "coordinates": [[[-73.9662009550858, 40.7583360339425], [-73.9661647695369, 40.7583856799212], [-73.9663774571224, 40.7584750861313], [-73.9664136536479, 40.7584254443056], [-73.9662009550858, 40.7583360339425]]]}}, {"type": "Feature", "properties": {"zone_id": "0200VCYBY6DC4D8PYDNDWY", "tract_id": "36061010801", "city": "NEW YORK, NY", "zone_code": "TA", "zone_category": "Other", "ev_permitted": false}, "geometry": {"type": "Polygon", "coordinates": [[[-73.9662700553519, 40.7582412309552], [-73.9662348315972, 40.7582895569502], [-73.9664475291323, 40.7583789672511], [-73.9664827527799, 40.7583306411917], [-73.9662700553519, 40.7582412309552]]]}}, {"type": "Feature", "properties": {"zone_id": "0206N2XOFQTR1J3KHZQXAR", "tract_id": "36061010801", "city": "NEW YORK, NY", "zone_code": "TA", "zone_category": "Other", "ev_permitted": false}, "geometry": {"type": "Polygon", "coordinates": [[[-73.9668006774818, 40.7575132177542], [-73.9664416173875, 40.7580058495995], [-73.9668401291505, 40.758173368251], [-73.9670218558859, 40.7579240370442], [-73.9669417323013, 40.7578899795958], [-73.9671180207825, 40.7576481081566], [-73.9668006774818, 40.7575132177542]]]}}, {"type": "Feature", "properties": {"zone_id": "02043IPK8O90OVF9IGEIK5", "tract_id": "36061010801", "city": "NEW YORK, NY", "zone_code": "TA", "zone_category": "Other", "ev_permitted": false}, "geometry": {"type": "Polygon", "coordinates": [[[-73.9661402610153, 40.7574942646523], [-73.966104865717, 40.75754253435], [-73.9663108904542, 40.7576291625455], [-73.9663462856492, 40.7575808927852], [-73.9661402610153, 40.7574942646523]]]}}, {"type": "Feature", "properties": {"zone_id": "0202BV7W4YCEX7EGR06NL6", "tract_id": "36061010801", "city": "NEW YORK, NY", "zone_code": "TA", "zone_category": "Other", "ev_permitted": false}, "geometry": {"type": "Polygon", "coordinates": [[[-73.9662484337531, 40.7573467431245], [-73.9662097753903, 40.7573994646222], [-73.9664157988974, 40.7574860926316], [-73.9664544580714, 40.7574333710657], [-73.9662484337531, 40.7573467431245]]]}}, {"type": "Feature", "properties": {"zone_id": "02078X49XFF9R6M2AGZ1WT", "tract_id": "36061010801", "city": "NEW YORK, NY", "zone_code": "TA", "zone_category": "Other", "ev_permitted": false}, "geometry": {"type": "Polygon", "coordinates": [[[-73.9662097753903, 40.7573994646222], [-73.966175895757, 40.7574456675767], [-73.9663819202869, 40.7575322956464], [-73.9664157988974, 40.7574860926316], [-73.9662097753903, 40.7573994646222]]]}}, {"type": "Feature", "properties": {"zone_id": "02042EST2X99MY7FXDBO52", "tract_id": "36061010801", "city": "NEW YORK, NY", "zone_code": "TA", "zone_category": "Other", "ev_permitted": false}, "geometry": {"type": "Polygon", "coordinates": [[[-73.966175895757, 40.7574456675767], [-73.9661402610153, 40.7574942646523], [-73.9663462856492, 40.7575808927852], [-73.9663819202869, 40.7575322956464], [-73.966175895757, 40.7574456675767]]]}}, {"type": "Feature", "properties": {"zone_id": "0201GRWUGDX808FJK7G8X1", "tract_id": "36061010801", "city": "NEW YORK, NY", "zone_code": "TA", "zone_category": "Other", "ev_permitted": false}, "geometry": {"type": "Polygon", "coordinates": [[[-73.9662878974544, 40.7572929235998], [-73.9662484337531, 40.7573467431245], [-73.9664544580714, 40.7574333710657], [-73.9664939216572, 40.7573795521739], [-73.9662878974544, 40.7572929235998]]]}}, {"type": "Feature", "properties": {"zone_id": "0202YTTZGHLRQYG424JN6F", "tract_id": "36061010801", "city": "NEW YORK, NY", "zone_code": "TA", "zone_category": "Other", "ev_permitted": false}, "geometry": {"type": "Polygon", "coordinates": [[[-73.9661808705103, 40.7572479209217], [-73.9660771205742, 40.757389409292], [-73.9661841485996, 40.757434412066], [-73.9662878974544, 40.7572929235998], [-73.9661808705103, 40.7572479209217]]]}}, {"type": "Feature", "properties": {"zone_id": "0201GCTMDRQJM5FVLJRLHV", "tract_id": "36061010801", "city": "NEW YORK, NY", "zone_code": "TA", "zone_category": "Other", "ev_permitted": false}, "geometry": {"type": "Polygon", "coordinates": [[[-73.9660771205742, 40.757389409292], [-73.9658180840936, 40.7577426682532], [-73.9661311377729, 40.7578743004821], [-73.9663108904542, 40.7576291625455], [-73.966104865717, 40.75754253435], [-73.9661841485996, 40.757434412066], [-73.9660771205742, 40.757389409292]]]}}, {"type": "Feature", "properties": {"zone_id": "0203FFUZDALHKJR4K8XRJX", "tract_id": "36061010801", "city": "NEW YORK, NY", "zone_code": "R8B", "zone_category": "Residential", "ev_permitted": false}, "geometry": {"type": "Polygon", "coordinates": [[[-73.9658409540111, 40.7574262640093], [-73.9656582475599, 40.7576754602785], [-73.9658180840936, 40.7577426682532], [-73.9660007892068, 40.7574934724354], [-73.9658409540111, 40.7574262640093]]]}}, {"type": "Feature", "properties": {"zone_id": "0207KKCVNRBRAI8PRRB0I1", "tract_id": "36061010801", "city": "NEW YORK, NY", "zone_code": "R8B", "zone_category": "Residential", "ev_permitted": false}, "geometry": {"type": "Polygon", "coordinates": [[[-73.9656028850687, 40.7573261597318], [-73.9654201789251, 40.7575753563299], [-73.9656582475599, 40.7576754602785], [-73.9658409540111, 40.7574262640093], [-73.9656028850687, 40.7573261597318]]]}}, {"type": "Feature", "properties": {"zone_id": "0200HGF8X6M8CWHK3N1ZKC", "tract_id": "36061010801", "city": "NEW YORK, NY", "zone_code": "R8B", "zone_category": "Residential", "ev_permitted": false}, "geometry": {"type": "Polygon", "coordinates": [[[-73.966021034798, 40.7571807127428], [-73.9658409540111, 40.7574262640093], [-73.9660007892068, 40.7574934724354], [-73.9661808705103, 40.7572479209217], [-73.966021034798, 40.7571807127428]]]}}, {"type": "Feature", "properties": {"zone_id": "0203YMJYMWY2EV0VHCY7EH", "tract_id": "36061010801", "city": "NEW YORK, NY", "zone_code": "R8B", "zone_category": "Residential", "ev_permitted": false}, "geometry": {"type": "Polygon", "coordinates": [[[-73.9658617047508, 40.7571137173956], [-73.9656816244817, 40.7573592684158], [-73.9658409540111, 40.7574262640093], [-73.966021034798, 40.7571807127428], [-73.9658617047508, 40.7571137173956]]]}}, {"type": "Feature", "properties": {"zone_id": "0201BGHA7OWWJBC0CH9ANH", "tract_id": "36061010801", "city": "NEW YORK, NY", "zone_code": "R8B", "zone_category": "Residential", "ev_permitted": false}, "geometry": {"type": "Polygon", "coordinates": [[[-73.9656261857729, 40.7570146854654], [-73.9654461039792, 40.7572602361207], [-73.9656816244817, 40.7573592684158], [-73.9658617047508, 40.7571137173956], [-73.9656261857729, 40.7570146854654]]]}}, {"type": "Feature", "properties": {"zone_id": "0205W0YSYQ4CHU2M6AVBJZ", "tract_id": "36061010801", "city": "NEW YORK, NY", "zone_code": "R8B", "zone_category": "Residential", "ev_permitted": false}, "geometry": {"type": "Polygon", "coordinates": [[[-73.9654734610506, 40.7569504663338], [-73.9652933788676, 40.7571960167527], [-73.9654461039792, 40.7572602361207], [-73.9656261857729, 40.7570146854654], [-73.9654734610506, 40.7569504663338]]]}}, {"type": "Feature", "properties": {"zone_id": "0203JF07IZ2QPB1JI3HQ2O", "tract_id": "36061010801", "city": "NEW YORK, NY", "zone_code": "TA", "zone_category": "Other", "ev_permitted": false}, "geometry": {"type": "Polygon", "coordinates": [[[-73.9648813132983, 40.7575288532368], [-73.9647046432694, 40.7577697781801], [-73.9647809595081, 40.7578018685885], [-73.9645995861578, 40.7580492057551], [-73.9656721684122, 40.7585002102273], [-73.9660302061625, 40.7580119446999], [-73.9648813132983, 40.7575288532368]]]}}, {"type": "Feature", "properties": {"zone_id": "0202G45S6BEFULDWY9621O", "tract_id": "36061010801", "city": "NEW YORK, NY", "zone_code": "R8", "zone_category": "Residential", "ev_permitted": false}, "geometry": {"type": "Polygon", "coordinates": [[[-73.9645325197352, 40.7576974017715], [-73.9643511457464, 40.7579447392534], [-73.9645995861578, 40.7580492057551], [-73.9647809595081, 40.7578018685885], [-73.9645325197352, 40.7576974017715]]]}}, {"type": "Feature", "properties": {"zone_id": "0207DFH1NWH0Z5GQGMCHKS", "tract_id": "36061010801", "city": "NEW YORK, NY", "zone_code": "R8", "zone_category": "Residential", "ev_permitted": false}, "geometry": {"type": "Polygon", "coordinates": [[[-73.9644764913476, 40.7576738420626], [-73.9642951172158, 40.7579211780518], [-73.9643511457464, 40.7579447392534], [-73.9645325197352, 40.7576974017715], [-73.9644764913476, 40.7576738420626]]]}}, {"type": "Feature", "properties": {"zone_id": "02065W6ULIAG65GKIJM1RS", "tract_id": "36061010801", "city": "NEW YORK, NY", "zone_code": "R8B", "zone_category": "Residential", "ev_permitted": false}, "geometry": {"type": "Polygon", "coordinates": [[[-73.9654461039792, 40.7572602361207], [-73.9652633965067, 40.757509431067], [-73.9654201789251, 40.7575753563299], [-73.9656028850687, 40.7573261597318], [-73.9654461039792, 40.7572602361207]]]}}, {"type": "Feature", "properties": {"zone_id": "0202BDDYO31DEMDURZ1L5H", "tract_id": "36061010801", "city": "NEW YORK, NY", "zone_code": "R8B", "zone_category": "Residential", "ev_permitted": false}, "geometry": {"type": "Polygon", "coordinates": [[[-73.9652898128368, 40.7571945176184], [-73.9651071058837, 40.7574437123194], [-73.9652222807368, 40.7574921424905], [-73.9654049873922, 40.7572429469059], [-73.9652898128368, 40.7571945176184]]]}}, {"type": "Feature", "properties": {"zone_id": "0207BE5O15P5CQ01C24X2P", "tract_id": "36061010801", "city": "NEW YORK, NY", "zone_code": "R8B", "zone_category": "Residential", "ev_permitted": false}, "geometry": {"type": "Polygon", "coordinates": [[[-73.9654049873922, 40.7572429469059], [-73.9652222807368, 40.7574921424905], [-73.9652633965067, 40.757509431067], [-73.9654461039792, 40.7572602361207], [-73.9654049873922, 40.7572429469059]]]}}, {"type": "Feature", "properties": {"zone_id": "0200XYYW5QJCM6TS5Q84VW", "tract_id": "36061010801", "city": "NEW YORK, NY", "zone_code": "R8B", "zone_category": "Residential", "ev_permitted": false}, "geometry": {"type": "Polygon", "coordinates": [[[-73.9648770421838, 40.7570209499127], [-73.9646943341623, 40.7572701446681], [-73.964771660505, 40.7573026605008], [-73.9649543692505, 40.7570534656243], [-73.9648770421838, 40.7570209499127]]]}}, {"type": "Feature", "properties": {"zone_id": "0202XJGPUNKNQ2789UIQQP", "tract_id": "36061010801", "city": "NEW YORK, NY", "zone_code": "R8B", "zone_category": "Residential", "ev_permitted": false}, "geometry": {"type": "Polygon", "coordinates": [[[-73.9649543692505, 40.7570534656243], [-73.964771660505, 40.7573026605008], [-73.9648346784681, 40.7573291585955], [-73.9650173861261, 40.7570799643224], [-73.9649543692505, 40.7570534656243]]]}}, {"type": "Feature", "properties": {"zone_id": "0202OPMM8YX5DFP8IU10Z6", "tract_id": "36061010801", "city": "NEW YORK, NY", "zone_code": "R8B", "zone_category": "Residential", "ev_permitted": false}, "geometry": {"type": "Polygon", "coordinates": [[[-73.9650173861261, 40.7570799643224], [-73.9648346784681, 40.7573291585955], [-73.9648967476947, 40.7573552593666], [-73.9650794561164, 40.7571060642936], [-73.9650173861261, 40.7570799643224]]]}}, {"type": "Feature", "properties": {"zone_id": "02025GGBMOUU3S1B8BB6V7", "tract_id": "36061010801", "city": "NEW YORK, NY", "zone_code": "R8B", "zone_category": "Residential", "ev_permitted": false}, "geometry": {"type": "Polygon", "coordinates": [[[-73.9650794561164, 40.7571060642936], [-73.9648967476947, 40.7573552593666], [-73.9651071058837, 40.7574437123194], [-73.9652898128368, 40.7571945176184], [-73.9650794561164, 40.7571060642936]]]}}, {"type": "Feature", "properties": {"zone_id": "0206RJKAI9FNRGZ60KQ020", "tract_id": "36061010801", "city": "NEW YORK, NY", "zone_code": "R8", "zone_category": "Residential", "ev_permitted": false}, "geometry": {"type": "Polygon", "coordinates": [[[-73.9644845702554, 40.7573620246667], [-73.9643078983099, 40.7576029490073], [-73.9647046432694, 40.7577697781801], [-73.9648813132983, 40.7575288532368], [-73.9644845702554, 40.7573620246667]]]}}, {"type": "Feature", "properties": {"zone_id": "0202OLW11N78NVQIMFUIOH", "tract_id": "36061010801", "city": "NEW YORK, NY", "zone_code": "R8", "zone_category": "Residential", "ev_permitted": false}, "geometry": {"type": "Polygon", "coordinates": [[[-73.9644217103771, 40.757335592479], [-73.9642450391984, 40.7575765167243], [-73.9643078983099, 40.7576029490073], [-73.9644845702554, 40.7573620246667], [-73.9644217103771, 40.757335592479]]]}}, {"type": "Feature", "properties": {"zone_id": "0203LYIYXR9XUYBRRVFZ6G", "tract_id": "36061010801", "city": "NEW YORK, NY", "zone_code": "R8B", "zone_category": "Residential", "ev_permitted": false}, "geometry": {"type": "Polygon", "coordinates": [[[-73.965271893322, 40.7568657091445], [-73.9650918115492, 40.7571112592515], [-73.9652933788676, 40.7571960167527], [-73.9654734610506, 40.7569504663338], [-73.965271893322, 40.7568657091445]]]}}, {"type": "Feature", "properties": {"zone_id": "0202Y4TTHU2Z1L8MVAGH6M", "tract_id": "36061010801", "city": "NEW YORK, NY", "zone_code": "R8B", "zone_category": "Residential", "ev_permitted": false}, "geometry": {"type": "Polygon", "coordinates": [[[-73.9652096655044, 40.7568395424762], [-73.9650295817247, 40.7570850924863], [-73.9650918115492, 40.7571112592515], [-73.965271893322, 40.7568657091445], [-73.9652096655044, 40.7568395424762]]]}}, {"type": "Feature", "properties": {"zone_id": "0200VLIOJ5PW0T370QMTFM", "tract_id": "36061010801", "city": "NEW YORK, NY", "zone_code": "R8B", "zone_category": "Residential", "ev_permitted": false}, "geometry": {"type": "Polygon", "coordinates": [[[-73.9651424416304, 40.7568112754326], [-73.9649623586034, 40.757056825339], [-73.9650295817247, 40.7570850924863], [-73.9652096655044, 40.7568395424762], [-73.9651424416304, 40.7568112754326]]]}}, {"type": "Feature", "properties": {"zone_id": "0202HR4XJSJLR1DFF0GO0Q", "tract_id": "36061010801", "city": "NEW YORK, NY", "zone_code": "R8B", "zone_category": "Residential", "ev_permitted": false}, "geometry": {"type": "Polygon", "coordinates": [[[-73.9648812006607, 40.756701424547], [-73.964701116968, 40.7569469733462], [-73.9649623586034, 40.757056825339], [-73.9651424416304, 40.7568112754326], [-73.9648812006607, 40.756701424547]]]}}, {"type": "Feature", "properties": {"zone_id": "02057ABE71XLFU49FAY5A6", "tract_id": "36061010801", "city": "NEW YORK, NY", "zone_code": "R10", "zone_category": "Residential", "ev_permitted": false}, "geometry": {"type": "Polygon", "coordinates": [[[-73.9643547472456, 40.75662119112], [-73.9640710580111, 40.75700805708], [-73.9643280963203, 40.7571161420227], [-73.9646128035508, 40.756727885195], [-73.9645748987457, 40.7567119464688], [-73.9645738797166, 40.7567133367092], [-73.9643547472456, 40.75662119112]]]}}, {"type": "Feature", "properties": {"zone_id": "0204H8F5F4PFJSRHE4S0B9", "tract_id": "36061010801", "city": "NEW YORK, NY", "zone_code": "R8B", "zone_category": "Residential", "ev_permitted": false}, "geometry": {"type": "Polygon", "coordinates": [[[-73.9645739807116, 40.7568935135851], [-73.9643912709822, 40.7571427071614], [-73.9644601328346, 40.7571716637489], [-73.9646428414622, 40.7569224693615], [-73.9645739807116, 40.7568935135851]]]}}, {"type": "Feature", "properties": {"zone_id": "0202CVUZRX1T5PPO9P2OVS", "tract_id": "36061010801", "city": "NEW YORK, NY", "zone_code": "R8B", "zone_category": "Residential", "ev_permitted": false}, "geometry": {"type": "Polygon", "coordinates": [[[-73.9646428414622, 40.7569224693615], [-73.9644601328346, 40.7571716637489], [-73.9645347742761, 40.7572030504493], [-73.9647174827105, 40.7569538559447], [-73.9646428414622, 40.7569224693615]]]}}, {"type": "Feature", "properties": {"zone_id": "0201MOU5SR6465QQL38LRO", "tract_id": "36061010801", "city": "NEW YORK, NY", "zone_code": "R8B", "zone_category": "Residential", "ev_permitted": false}, "geometry": {"type": "Polygon", "coordinates": [[[-73.9647174827105, 40.7569538559447], [-73.9645347742761, 40.7572030504493], [-73.9646133642747, 40.7572360972821], [-73.9647960725057, 40.756986902654], [-73.9647174827105, 40.7569538559447]]]}}, {"type": "Feature", "properties": {"zone_id": "0206PSCT2B7THWCHRVVT6R", "tract_id": "36061010801", "city": "NEW YORK, NY", "zone_code": "R8B", "zone_category": "Residential", "ev_permitted": false}, "geometry": {"type": "Polygon", "coordinates": [[[-73.9647960725057, 40.756986902654], [-73.9646133642747, 40.7572360972821], [-73.9646943341623, 40.7572701446681], [-73.9648770421838, 40.7570209499127], [-73.9647960725057, 40.756986902654]]]}}, {"type": "Feature", "properties": {"zone_id": "020300JKTMLEQFSMBCYTW1", "tract_id": "36061010801", "city": "NEW YORK, NY", "zone_code": "R8B", "zone_category": "Residential", "ev_permitted": false}, "geometry": {"type": "Polygon", "coordinates": [[[-73.9645108052891, 40.7568669485453], [-73.9643280963203, 40.7571161420227], [-73.9643912709822, 40.7571427071614], [-73.9645739807116, 40.7568935135851], [-73.9645108052891, 40.7568669485453]]]}}, {"type": "Feature", "properties": {"zone_id": "02002QWG56MGXO6CWGC5HP", "tract_id": "36061010801", "city": "NEW YORK, NY", "zone_code": "R8B", "zone_category": "Residential", "ev_permitted": false}, "geometry": {"type": "Polygon", "coordinates": [[[-73.9648142348147, 40.7566732655988], [-73.9646341509509, 40.756918814997], [-73.964701116968, 40.7569469733462], [-73.9648812006607, 40.756701424547], [-73.9648142348147, 40.7566732655988]]]}}, {"type": "Feature", "properties": {"zone_id": "0201GHGLM374DWZ9WGJY4H", "tract_id": "36061010801", "city": "NEW YORK, NY", "zone_code": "R8B", "zone_category": "Residential", "ev_permitted": false}, "geometry": {"type": "Polygon", "coordinates": [[[-73.9647540647288, 40.7566479642801], [-73.9645739807116, 40.7568935135851], [-73.9646341509509, 40.756918814997], [-73.9648142348147, 40.7566732655988], [-73.9647540647288, 40.7566479642801]]]}}, {"type": "Feature", "properties": {"zone_id": "0205JACTBZO1H1LYFO57MV", "tract_id": "36061010801", "city": "NEW YORK, NY", "zone_code": "R10", "zone_category": "Residential", "ev_permitted": false}, "geometry": {"type": "Polygon", "coordinates": [[[-73.964433853403, 40.7565133144948], [-73.9643547472456, 40.75662119112], [-73.9645738797166, 40.7567133367092], [-73.9645748987457, 40.7567119464688], [-73.9646128035508, 40.756727885195], [-73.9646908894674, 40.756621399338], [-73.964433853403, 40.7565133144948]]]}}, {"type": "Feature", "properties": {"zone_id": "0207AXXULQBU21VCNGEVC2", "tract_id": "36061010801", "city": "NEW YORK, NY", "zone_code": "R8B", "zone_category": "Residential", "ev_permitted": false}, "geometry": {"type": "Polygon", "coordinates": [[[-73.9646908894674, 40.756621399338], [-73.9645108052891, 40.7568669485453], [-73.9645739807116, 40.7568935135851], [-73.9647540647288, 40.7566479642801], [-73.9646908894674, 40.756621399338]]]}}, {"type": "Feature", "properties": {"zone_id": "0206A0SB6D5G2QC1MJM7ZF", "tract_id": "36061010801", "city": "NEW YORK, NY", "zone_code": "R8", "zone_category": "Residential", "ev_permitted": false}, "geometry": {"type": "Polygon", "coordinates": [[[-73.9639701243803, 40.7571456995106], [-73.9636120752614, 40.7576339586964], [-73.9642951172158, 40.7579211780518], [-73.9644764913476, 40.7576738420626], [-73.9642450391984, 40.7575765167243], [-73.9644217103771, 40.757335592479], [-73.9639701243803, 40.7571456995106]]]}}]}