{"type": "FeatureCollection", "features": [{"type": "Feature", "properties": {"zone_id": "0203CRAG7L5B68PDHPA18N", "tract_id": "36047051800", "city": "BROOKLYN, NY", "zone_code": "R1-2", "zone_category": "Residential", "ev_permitted": false}, "geometry": {"type": "Polygon", "coordinates": [[[-73.963041491577, 40.6394863573549], [-73.9626878488082, 40.6395294352839], [-73.9627310566162, 40.6397589320521], [-73.963063732935, 40.6396044951865], [-73.963041491577, 40.6394863573549]]]}}, {"type": "Feature", "properties": {"zone_id": "02065XF88FN2KSNCUI9HL8", "tract_id": "36047051800", "city": "BROOKLYN, NY", "zone_code": "R1-2", "zone_category": "Residential", "ev_permitted": false}, "geometry": {"type": "Polygon", "coordinates": [[[-73.963015866696, 40.6393502576011], [-73.962662224632, 40.639393335452], [-73.9626878488082, 40.6395294352839], [-73.963041491577, 40.6394863573549], [-73.963015866696, 40.6393502576011]]]}}, {"type": "Feature", "properties": {"zone_id": "0206YECYK00V65DYWOAFCB", "tract_id": "36047051800", "city": "BROOKLYN, NY", "zone_code": "R1-2", "zone_category": "Residential", "ev_permitted": false}, "geometry": {"type": "Polygon", "coordinates": [[[-73.9629904635685, 40.63921533347], [-73.9626368222031, 40.6392584112434], [-73.962662224632, 40.639393335452], [-73.963015866696, 40.6393502576011], [-73.9629904635685, 40.63921533347]]]}}, {"type": "Feature", "properties": {"zone_id": "02046O0K8Y7ZZ75TKGF8QC", "tract_id": "36047051800", "city": "BROOKLYN, NY", "zone_code": "R1-2", "zone_category": "Residential", "ev_permitted": false}, "geometry": {"type": "Polygon", "coordinates": [[[-73.9629388758799, 40.6389413363968], [-73.9625852359332, 40.6389844140128], [-73.9626120204225, 40.6391266780258], [-73.9629656611057, 40.639083600328], [-73.9629388758799, 40.6389413363968]]]}}, {"type": "Feature", "properties": {"zone_id": "0203DNJE6W44RZF7RSW1JL", "tract_id": "36047051800", "city": "BROOKLYN, NY", "zone_code": "R1-2", "zone_category": "Residential", "ev_permitted": false}, "geometry": {"type": "Polygon", "coordinates": [[[-73.9629656611057, 40.639083600328], [-73.9626120204225, 40.6391266780258], [-73.9626368222031, 40.6392584112434], [-73.9629904635685, 40.63921533347], [-73.9629656611057, 40.639083600328]]]}}, {"type": "Feature", "properties": {"zone_id": "0200NY7OD9FNKK4TM0UO9M", "tract_id": "36047051800", "city": "BROOKLYN, NY", "zone_code": "R1-2", "zone_category": "Residential", "ev_permitted": false}, "geometry": {"type": "Polygon", "coordinates": [[[-73.9621334694537, 40.6399317765799], [-73.961757156156, 40.6399748540154], [-73.9618011834002, 40.640206755213], [-73.9621545437966, 40.6400378494351], [-73.9621334694537, 40.6399317765799]]]}}, {"type": "Feature", "properties": {"zone_id": "02075PY2NO38UU4P7F5OOK", "tract_id": "36047051800", "city": "BROOKLYN, NY", "zone_code": "R1-2", "zone_category": "Residential", "ev_permitted": false}, "geometry": {"type": "Polygon", "coordinates": [[[-73.9617486549629, 40.6399300745459], [-73.9613893049545, 40.6399712093336], [-73.961413440634, 40.6400995044387], [-73.9617730071794, 40.6400583450546], [-73.9617486549629, 40.6399300745459]]]}}, {"type": "Feature", "properties": {"zone_id": "0205JDR0Q8YCU3OPT4X9XW", "tract_id": "36047051800", "city": "BROOKLYN, NY", "zone_code": "R1-2", "zone_category": "Residential", "ev_permitted": false}, "geometry": {"type": "Polygon", "coordinates": [[[-73.9617730071794, 40.6400583450546], [-73.961413440634, 40.6400995044387], [-73.9614639441516, 40.6403679542577], [-73.9618011834002, 40.640206755213], [-73.9617730071794, 40.6400583450546]]]}}, {"type": "Feature", "properties": {"zone_id": "0201OPNUN81F4AG55E995O", "tract_id": "36047051800", "city": "BROOKLYN, NY", "zone_code": "R1-2", "zone_category": "Residential", "ev_permitted": false}, "geometry": {"type": "Polygon", "coordinates": [[[-73.9603321065992, 40.6407382309246], [-73.9599087798745, 40.6407868378401], [-73.9599613643469, 40.6410630794751], [-73.9603579899651, 40.6408734354482], [-73.9603321065992, 40.6407382309246]]]}}, {"type": "Feature", "properties": {"zone_id": "0204SFPFHZX7H78V5OOH61", "tract_id": "36047051800", "city": "BROOKLYN, NY", "zone_code": "R1-2", "zone_category": "Residential", "ev_permitted": false}, "geometry": {"type": "Polygon", "coordinates": [[[-73.960300906364, 40.6405752657677], [-73.9598777540795, 40.6406238522524], [-73.9599087798745, 40.6407868378401], [-73.9603321065992, 40.6407382309246], [-73.960300906364, 40.6405752657677]]]}}, {"type": "Feature", "properties": {"zone_id": "0206AA0U8PKZLQ96FG4J13", "tract_id": "36047051800", "city": "BROOKLYN, NY", "zone_code": "R1-2", "zone_category": "Residential", "ev_permitted": false}, "geometry": {"type": "Polygon", "coordinates": [[[-73.9611786605967, 40.6400033359417], [-73.9608252248905, 40.6400452284362], [-73.9608338044484, 40.6400906186165], [-73.9604665783363, 40.640133216408], [-73.9605875240008, 40.6407730774888], [-73.9612621839559, 40.6404451951032], [-73.9611786605967, 40.6400033359417]]]}}, {"type": "Feature", "properties": {"zone_id": "0205VB05LIB9YCM5ZCBDOE", "tract_id": "36047051800", "city": "BROOKLYN, NY", "zone_code": "R1-2", "zone_category": "Residential", "ev_permitted": false}, "geometry": {"type": "Polygon", "coordinates": [[[-73.9602697072036, 40.6404123005997], [-73.9598467293581, 40.6404608673565], [-73.9598777540795, 40.6406238522524], [-73.960300906364, 40.6405752657677], [-73.9602697072036, 40.6404123005997]]]}}, {"type": "Feature", "properties": {"zone_id": "0205MQV3VT6O7V68Y5K0ZI", "tract_id": "36047051800", "city": "BROOKLYN, NY", "zone_code": "R1-2", "zone_category": "Residential", "ev_permitted": false}, "geometry": {"type": "Polygon", "coordinates": [[[-73.9602437083274, 40.6402764959331], [-73.9598208752321, 40.640325046484], [-73.9598467293581, 40.6404608673565], [-73.9602697072036, 40.6404123005997], [-73.9602437083274, 40.6402764959331]]]}}, {"type": "Feature", "properties": {"zone_id": "0205XV2Q179F8S7Q1YS1R1", "tract_id": "36047051800", "city": "BROOKLYN, NY", "zone_code": "R1-2", "zone_category": "Residential", "ev_permitted": false}, "geometry": {"type": "Polygon", "coordinates": [[[-73.9607989225929, 40.6399060790999], [-73.9604318694289, 40.639949583981], [-73.9604665783363, 40.640133216408], [-73.9608338044484, 40.6400906186165], [-73.9607989225929, 40.6399060790999]]]}}, {"type": "Feature", "properties": {"zone_id": "02018LQXKS40ZQDLHGLF9N", "tract_id": "36047051800", "city": "BROOKLYN, NY", "zone_code": "R1-2", "zone_category": "Residential", "ev_permitted": false}, "geometry": {"type": "Polygon", "coordinates": [[[-73.9602128809515, 40.6401154660129], [-73.9597902185923, 40.6401639961334], [-73.9598208752321, 40.640325046484], [-73.9602437083274, 40.6402764959331], [-73.9602128809515, 40.6401154660129]]]}}, {"type": "Feature", "properties": {"zone_id": "0205ITF6SR6M9B7TGCTIZ8", "tract_id": "36047051800", "city": "BROOKLYN, NY", "zone_code": "R1-2", "zone_category": "Residential", "ev_permitted": false}, "geometry": {"type": "Polygon", "coordinates": [[[-73.9601868823062, 40.6399796620317], [-73.9597643646963, 40.6400281752437], [-73.9597902185923, 40.6401639961334], [-73.9602128809515, 40.6401154660129], [-73.9601868823062, 40.6399796620317]]]}}, {"type": "Feature", "properties": {"zone_id": "0205JIZ9Q0VWNGNJM906FY", "tract_id": "36047051800", "city": "BROOKLYN, NY", "zone_code": "R1-2", "zone_category": "Residential", "ev_permitted": false}, "geometry": {"type": "Polygon", "coordinates": [[[-73.9627107029899, 40.6396508239119], [-73.9623277509967, 40.6396974713048], [-73.9623709627789, 40.639926096198], [-73.9627310566162, 40.6397589320521], [-73.9627107029899, 40.6396508239119]]]}}, {"type": "Feature", "properties": {"zone_id": "0207I053IY58DA6TZTPWFU", "tract_id": "36047051800", "city": "BROOKLYN, NY", "zone_code": "R1-2", "zone_category": "Residential", "ev_permitted": false}, "geometry": {"type": "Polygon", "coordinates": [[[-73.9626833754659, 40.639505679529], [-73.9623003191246, 40.6395523387424], [-73.9623277509967, 40.6396974713048], [-73.9627107029899, 40.6396508239119], [-73.9626833754659, 40.639505679529]]]}}, {"type": "Feature", "properties": {"zone_id": "0201XZGQNFXWYHDZGDMZPR", "tract_id": "36047051800", "city": "BROOKLYN, NY", "zone_code": "R1-2", "zone_category": "Residential", "ev_permitted": false}, "geometry": {"type": "Polygon", "coordinates": [[[-73.9621063695401, 40.6397890401729], [-73.9619497593684, 40.639806967555], [-73.9617437514244, 40.639904245047], [-73.961757156156, 40.6399748540154], [-73.9621334694537, 40.6399317765799], [-73.9621063695401, 40.6397890401729]]]}}, {"type": "Feature", "properties": {"zone_id": "0200O68TTN6IETXDD09GAS", "tract_id": "36047051800", "city": "BROOKLYN, NY", "zone_code": "R1-2", "zone_category": "Residential", "ev_permitted": false}, "geometry": {"type": "Polygon", "coordinates": [[[-73.9620774846734, 40.6396369043175], [-73.9617011739249, 40.6396799815715], [-73.9617437514244, 40.639904245047], [-73.9619497593684, 40.639806967555], [-73.9621063695401, 40.6397890401729], [-73.9620774846734, 40.6396369043175]]]}}, {"type": "Feature", "properties": {"zone_id": "0207DFX9TBYTFO31QFANXN", "tract_id": "36047051800", "city": "BROOKLYN, NY", "zone_code": "R1-2", "zone_category": "Residential", "ev_permitted": false}, "geometry": {"type": "Polygon", "coordinates": [[[-73.9617196466984, 40.6397772864883], [-73.9613605557892, 40.6398183917609], [-73.9613893049545, 40.6399712093336], [-73.9617486549629, 40.6399300745459], [-73.9617196466984, 40.6397772864883]]]}}, {"type": "Feature", "properties": {"zone_id": "02029PEU97GK6SQ5ZITXLP", "tract_id": "36047051800", "city": "BROOKLYN, NY", "zone_code": "R1-2", "zone_category": "Residential", "ev_permitted": false}, "geometry": {"type": "Polygon", "coordinates": [[[-73.9620471671123, 40.6394772157327], [-73.9616708563219, 40.6395202935906], [-73.9617011739249, 40.6396799815715], [-73.9620774846734, 40.6396369043175], [-73.9620471671123, 40.6394772157327]]]}}, {"type": "Feature", "properties": {"zone_id": "02066DTICSCFJWPGIOESYR", "tract_id": "36047051800", "city": "BROOKLYN, NY", "zone_code": "R1-2", "zone_category": "Residential", "ev_permitted": false}, "geometry": {"type": "Polygon", "coordinates": [[[-73.9616910174572, 40.6396264927111], [-73.9613321828686, 40.639667568469], [-73.9613605557892, 40.6398183917609], [-73.9617196466984, 40.6397772864883], [-73.9616910174572, 40.6396264927111]]]}}, {"type": "Feature", "properties": {"zone_id": "0202MB3MJ0XOQ6F9EP9BK0", "tract_id": "36047051800", "city": "BROOKLYN, NY", "zone_code": "R1-2", "zone_category": "Residential", "ev_permitted": false}, "geometry": {"type": "Polygon", "coordinates": [[[-73.9616662783926, 40.6394961801044], [-73.961307663116, 40.6395372312659], [-73.9613321828686, 40.639667568469], [-73.9616910174572, 40.6396264927111], [-73.9616662783926, 40.6394961801044]]]}}, {"type": "Feature", "properties": {"zone_id": "0204E0822WBCTU5ZXYT7M5", "tract_id": "36047051800", "city": "BROOKLYN, NY", "zone_code": "R1-2", "zone_category": "Residential", "ev_permitted": false}, "geometry": {"type": "Polygon", "coordinates": [[[-73.9626557813579, 40.6393591114507], [-73.9622726197536, 40.6394057838888], [-73.9623003191246, 40.6395523387424], [-73.9626833754659, 40.639505679529], [-73.9626557813579, 40.6393591114507]]]}}, {"type": "Feature", "properties": {"zone_id": "0200NG0GYY70B0JCTGWJQZ", "tract_id": "36047051800", "city": "BROOKLYN, NY", "zone_code": "R1-2", "zone_category": "Residential", "ev_permitted": false}, "geometry": {"type": "Polygon", "coordinates": [[[-73.9626299982084, 40.6392221669536], [-73.9622467386676, 40.6392688512194], [-73.9622726197536, 40.6394057838888], [-73.9626557813579, 40.6393591114507], [-73.9626299982084, 40.6392221669536]]]}}, {"type": "Feature", "properties": {"zone_id": "0201C4X60TJJ6YCW6YGJEG", "tract_id": "36047051800", "city": "BROOKLYN, NY", "zone_code": "R1-2", "zone_category": "Residential", "ev_permitted": false}, "geometry": {"type": "Polygon", "coordinates": [[[-73.9626045388894, 40.6390869412735], [-73.9622211832477, 40.6391336373685], [-73.9622467386676, 40.6392688512194], [-73.9626299982084, 40.6392221669536], [-73.9626045388894, 40.6390869412735]]]}}, {"type": "Feature", "properties": {"zone_id": "0202AE80ZT0OFYIIEVHTLB", "tract_id": "36047051800", "city": "BROOKLYN, NY", "zone_code": "R1-2", "zone_category": "Residential", "ev_permitted": false}, "geometry": {"type": "Polygon", "coordinates": [[[-73.9625732379472, 40.6389206860905], [-73.9621897614726, 40.638967396798], [-73.9622211832477, 40.6391336373685], [-73.9626045388894, 40.6390869412735], [-73.9625732379472, 40.6389206860905]]]}}, {"type": "Feature", "properties": {"zone_id": "0204FCYD9KEZ02OVXMENHI", "tract_id": "36047051800", "city": "BROOKLYN, NY", "zone_code": "R1-2", "zone_category": "Residential", "ev_permitted": false}, "geometry": {"type": "Polygon", "coordinates": [[[-73.9620191938948, 40.6393298786598], [-73.9616428839173, 40.6393729564268], [-73.9616708563219, 40.6395202935906], [-73.9620471671123, 40.6394772157327], [-73.9620191938948, 40.6393298786598]]]}}, {"type": "Feature", "properties": {"zone_id": "02070AH8CNEAIG7QJ4W1HL", "tract_id": "36047051800", "city": "BROOKLYN, NY", "zone_code": "R1-2", "zone_category": "Residential", "ev_permitted": false}, "geometry": {"type": "Polygon", "coordinates": [[[-73.9619907149941, 40.6391798747955], [-73.9616144058441, 40.63922295247], [-73.9616428839173, 40.6393729564268], [-73.9620191938948, 40.6393298786598], [-73.9619907149941, 40.6391798747955]]]}}, {"type": "Feature", "properties": {"zone_id": "0203N0ABQS2NPVPS4Q7HVR", "tract_id": "36047051800", "city": "BROOKLYN, NY", "zone_code": "R1-2", "zone_category": "Residential", "ev_permitted": false}, "geometry": {"type": "Polygon", "coordinates": [[[-73.9616144058441, 40.63922295247], [-73.9612562523183, 40.6392639502236], [-73.9612825815967, 40.6394039089444], [-73.9616409720105, 40.639362884487], [-73.9616144058441, 40.63922295247]]]}}, {"type": "Feature", "properties": {"zone_id": "0201AKEI72JNWPJNLNQ3EQ", "tract_id": "36047051800", "city": "BROOKLYN, NY", "zone_code": "R1-2", "zone_category": "Residential", "ev_permitted": false}, "geometry": {"type": "Polygon", "coordinates": [[[-73.9616409720105, 40.639362884487], [-73.9612825815967, 40.6394039089444], [-73.961307663116, 40.6395372312659], [-73.9616662783926, 40.6394961801044], [-73.9616409720105, 40.639362884487]]]}}, {"type": "Feature", "properties": {"zone_id": "0203U9HN8KLLO0EJCGPMZU", "tract_id": "36047051800", "city": "BROOKLYN, NY", "zone_code": "R1-2", "zone_category": "Residential", "ev_permitted": false}, "geometry": {"type": "Polygon", "coordinates": [[[-73.9619640221737, 40.6390392823094], [-73.9615877137997, 40.6390823591946], [-73.9616144058441, 40.63922295247], [-73.9619907149941, 40.6391798747955], [-73.9619640221737, 40.6390392823094]]]}}, {"type": "Feature", "properties": {"zone_id": "0205OVKFGXGPH9HPFLU0LJ", "tract_id": "36047051800", "city": "BROOKLYN, NY", "zone_code": "R1-2", "zone_category": "Residential", "ev_permitted": false}, "geometry": {"type": "Polygon", "coordinates": [[[-73.9619375906452, 40.6389000643149], [-73.9615612839612, 40.6389431418172], [-73.9615877137997, 40.6390823591946], [-73.9619640221737, 40.6390392823094], [-73.9619375906452, 40.6389000643149]]]}}, {"type": "Feature", "properties": {"zone_id": "02063NY2XVJP4LUKNKTY6Z", "tract_id": "36047051800", "city": "BROOKLYN, NY", "zone_code": "R1-2", "zone_category": "Residential", "ev_permitted": false}, "geometry": {"type": "Polygon", "coordinates": [[[-73.9615877137997, 40.6390823591946], [-73.9612297990092, 40.6391233302446], [-73.9612562523183, 40.6392639502236], [-73.9616144058441, 40.63922295247], [-73.9615877137997, 40.6390823591946]]]}}, {"type": "Feature", "properties": {"zone_id": "0200XMUQ8KVJKJEBP8B6TX", "tract_id": "36047051800", "city": "BROOKLYN, NY", "zone_code": "R1-2", "zone_category": "Residential", "ev_permitted": false}, "geometry": {"type": "Polygon", "coordinates": [[[-73.9615580303568, 40.6389260062349], [-73.9612003802127, 40.6389669470676], [-73.9612297990092, 40.6391233302446], [-73.9615877137997, 40.6390823591946], [-73.9615580303568, 40.6389260062349]]]}}, {"type": "Feature", "properties": {"zone_id": "0201BUGOMZVXPSVP72IZY9", "tract_id": "36047051800", "city": "BROOKLYN, NY", "zone_code": "R1-2", "zone_category": "Residential", "ev_permitted": false}, "geometry": {"type": "Polygon", "coordinates": [[[-73.9611463048549, 40.6398321683996], [-73.9607928709578, 40.6398740600931], [-73.9608252248905, 40.6400452284362], [-73.9611786605967, 40.6400033359417], [-73.9611463048549, 40.6398321683996]]]}}, {"type": "Feature", "properties": {"zone_id": "0204AKNGLM9Y7LZIEP03GW", "tract_id": "36047051800", "city": "BROOKLYN, NY", "zone_code": "R1-2", "zone_category": "Residential", "ev_permitted": false}, "geometry": {"type": "Polygon", "coordinates": [[[-73.9611154914224, 40.639669152284], [-73.9607620574469, 40.6397110438834], [-73.9607928709578, 40.6398740600931], [-73.9611463048549, 40.6398321683996], [-73.9611154914224, 40.639669152284]]]}}, {"type": "Feature", "properties": {"zone_id": "020325MQJ2IZMJDAG32GIJ", "tract_id": "36047051800", "city": "BROOKLYN, NY", "zone_code": "R1-2", "zone_category": "Residential", "ev_permitted": false}, "geometry": {"type": "Polygon", "coordinates": [[[-73.9610846772183, 40.6395061354544], [-73.960731244087, 40.6395480269597], [-73.9607620574469, 40.6397110438834], [-73.9611154914224, 40.639669152284], [-73.9610846772183, 40.6395061354544]]]}}, {"type": "Feature", "properties": {"zone_id": "0205B291YMIQ6KTYTTJZJ6", "tract_id": "36047051800", "city": "BROOKLYN, NY", "zone_code": "R1-2", "zone_category": "Residential", "ev_permitted": false}, "geometry": {"type": "Polygon", "coordinates": [[[-73.9607667747773, 40.6397359985429], [-73.9603997216059, 40.6397795026192], [-73.9604318694289, 40.639949583981], [-73.9607989225929, 40.6399060790999], [-73.9607667747773, 40.6397359985429]]]}}, {"type": "Feature", "properties": {"zone_id": "0204DZY35929M6NK53KLE9", "tract_id": "36047051800", "city": "BROOKLYN, NY", "zone_code": "R1-2", "zone_category": "Residential", "ev_permitted": false}, "geometry": {"type": "Polygon", "coordinates": [[[-73.9607375448648, 40.6395813593375], [-73.9603704934473, 40.6396248633215], [-73.9603997216059, 40.6397795026192], [-73.9607667747773, 40.6397359985429], [-73.9607375448648, 40.6395813593375]]]}}, {"type": "Feature", "properties": {"zone_id": "02043AZTR20FKNN0RM1872", "tract_id": "36047051800", "city": "BROOKLYN, NY", "zone_code": "R1-2", "zone_category": "Residential", "ev_permitted": false}, "geometry": {"type": "Polygon", "coordinates": [[[-73.9607064713918, 40.6394169664974], [-73.9603394208583, 40.6394604703831], [-73.9603704934473, 40.6396248633215], [-73.9607375448648, 40.6395813593375], [-73.9607064713918, 40.6394169664974]]]}}, {"type": "Feature", "properties": {"zone_id": "0203I2SJFGI5SUWESYTC8T", "tract_id": "36047051800", "city": "BROOKLYN, NY", "zone_code": "R1-2", "zone_category": "Residential", "ev_permitted": false}, "geometry": {"type": "Polygon", "coordinates": [[[-73.9610564315345, 40.6393567041121], [-73.9607029991768, 40.6393985955314], [-73.960731244087, 40.6395480269597], [-73.9610846772183, 40.6395061354544], [-73.9610564315345, 40.6393567041121]]]}}, {"type": "Feature", "properties": {"zone_id": "0207NS2Y4MMBJ85WD8MYK7", "tract_id": "36047051800", "city": "BROOKLYN, NY", "zone_code": "R1-2", "zone_category": "Residential", "ev_permitted": false}, "geometry": {"type": "Polygon", "coordinates": [[[-73.9610252415155, 40.6391916971854], [-73.9606718100122, 40.6392335885095], [-73.9607029991768, 40.6393985955314], [-73.9610564315345, 40.6393567041121], [-73.9610252415155, 40.6391916971854]]]}}, {"type": "Feature", "properties": {"zone_id": "02030R1L6NXLTA0IAI9T3B", "tract_id": "36047051800", "city": "BROOKLYN, NY", "zone_code": "R1-2", "zone_category": "Residential", "ev_permitted": false}, "geometry": {"type": "Polygon", "coordinates": [[[-73.9609918603291, 40.6390150969309], [-73.9606384297411, 40.6390569867479], [-73.9606718100122, 40.6392335885095], [-73.9610252415155, 40.6391916971854], [-73.9609918603291, 40.6390150969309]]]}}, {"type": "Feature", "properties": {"zone_id": "02058TXH00Q1M3PSMEDDK6", "tract_id": "36047051800", "city": "BROOKLYN, NY", "zone_code": "R1-2", "zone_category": "Residential", "ev_permitted": false}, "geometry": {"type": "Polygon", "coordinates": [[[-73.9606756592258, 40.639253949554], [-73.9603086086462, 40.6392974540444], [-73.9603394208583, 40.6394604703831], [-73.9607064713918, 40.6394169664974], [-73.9606756592258, 40.639253949554]]]}}, {"type": "Feature", "properties": {"zone_id": "0202N5NBNJ7BYHP4WGECL1", "tract_id": "36047051800", "city": "BROOKLYN, NY", "zone_code": "R1-2", "zone_category": "Residential", "ev_permitted": false}, "geometry": {"type": "Polygon", "coordinates": [[[-73.9606443175519, 40.6390881365126], [-73.9602772687867, 40.6391316402014], [-73.9603086086462, 40.6392974540444], [-73.9606756592258, 40.639253949554], [-73.9606443175519, 40.6390881365126]]]}}, {"type": "Feature", "properties": {"zone_id": "02015EFSJC1BVHX2EAHL72", "tract_id": "36047051800", "city": "BROOKLYN, NY", "zone_code": "R1-2", "zone_category": "Residential", "ev_permitted": false}, "geometry": {"type": "Polygon", "coordinates": [[[-73.9629132173908, 40.6388050525027], [-73.9625595781503, 40.6388481293378], [-73.9625852359332, 40.6389844140128], [-73.9629388758799, 40.6389413363968], [-73.9629132173908, 40.6388050525027]]]}}, {"type": "Feature", "properties": {"zone_id": "02053CR3JUX7G4BMZKYH8P", "tract_id": "36047051800", "city": "BROOKLYN, NY", "zone_code": "R1-2", "zone_category": "Residential", "ev_permitted": false}, "geometry": {"type": "Polygon", "coordinates": [[[-73.9628889486508, 40.6386761533597], [-73.9625353100774, 40.6387192308234], [-73.9625595781503, 40.6388481293378], [-73.9629132173908, 40.6388050525027], [-73.9628889486508, 40.6386761533597]]]}}, {"type": "Feature", "properties": {"zone_id": "0204YDCUQQJKYJJRZZNESK", "tract_id": "36047051800", "city": "BROOKLYN, NY", "zone_code": "R1-2", "zone_category": "Residential", "ev_permitted": false}, "geometry": {"type": "Polygon", "coordinates": [[[-73.962543615547, 40.6387633419422], [-73.9621600255697, 40.6388100665674], [-73.9621897614726, 40.638967396798], [-73.9625732379472, 40.6389206860905], [-73.962543615547, 40.6387633419422]]]}}, {"type": "Feature", "properties": {"zone_id": "0203J27IJUOD7585B5G22W", "tract_id": "36047051800", "city": "BROOKLYN, NY", "zone_code": "R1-2", "zone_category": "Residential", "ev_permitted": false}, "geometry": {"type": "Polygon", "coordinates": [[[-73.9625196206743, 40.6386358945163], [-73.9621359391661, 40.6386826302744], [-73.9621600255697, 40.6388100665674], [-73.962543615547, 40.6387633419422], [-73.9625196206743, 40.6386358945163]]]}}, {"type": "Feature", "properties": {"zone_id": "0207L5S7XE36JUMRXJSN3V", "tract_id": "36047051800", "city": "BROOKLYN, NY", "zone_code": "R1-2", "zone_category": "Residential", "ev_permitted": false}, "geometry": {"type": "Polygon", "coordinates": [[[-73.9628620754631, 40.6385334192926], [-73.9625084376288, 40.6385764966744], [-73.9625353100774, 40.6387192308234], [-73.9628889486508, 40.6386761533597], [-73.9628620754631, 40.6385334192926]]]}}, {"type": "Feature", "properties": {"zone_id": "0205S7GBOR77U00FB43BHJ", "tract_id": "36047051800", "city": "BROOKLYN, NY", "zone_code": "R1-2", "zone_category": "Residential", "ev_permitted": false}, "geometry": {"type": "Polygon", "coordinates": [[[-73.9628367649263, 40.6383989820923], [-73.9624831268656, 40.6384420593965], [-73.9625084376288, 40.6385764966744], [-73.9628620754631, 40.6385334192926], [-73.9628367649263, 40.6383989820923]]]}}, {"type": "Feature", "properties": {"zone_id": "0201FJEMRDE0I45YPTTQL6", "tract_id": "36047051800", "city": "BROOKLYN, NY", "zone_code": "R1-2", "zone_category": "Residential", "ev_permitted": false}, "geometry": {"type": "Polygon", "coordinates": [[[-73.9624934711422, 40.638496999259], [-73.9621096898658, 40.6385437468427], [-73.9621359391661, 40.6386826302744], [-73.9625196206743, 40.6386358945163], [-73.9624934711422, 40.638496999259]]]}}, {"type": "Feature", "properties": {"zone_id": "0200C6KPO1SQQ6U989VX2A", "tract_id": "36047051800", "city": "BROOKLYN, NY", "zone_code": "R1-2", "zone_category": "Residential", "ev_permitted": false}, "geometry": {"type": "Polygon", "coordinates": [[[-73.9624662365296, 40.6383523410806], [-73.9620823518278, 40.6383991011877], [-73.9621096898658, 40.6385437468427], [-73.9624934711422, 40.638496999259], [-73.9624662365296, 40.6383523410806]]]}}, {"type": "Feature", "properties": {"zone_id": "0201OUM0476JSYK26EHP60", "tract_id": "36047051800", "city": "BROOKLYN, NY", "zone_code": "R1-2", "zone_category": "Residential", "ev_permitted": false}, "geometry": {"type": "Polygon", "coordinates": [[[-73.9619106663018, 40.6387582469897], [-73.9615343594779, 40.6388013244042], [-73.9615612839612, 40.6389431418172], [-73.9619375906452, 40.6389000643149], [-73.9619106663018, 40.6387582469897]]]}}, {"type": "Feature", "properties": {"zone_id": "0205XAOD9IMWU726ANA6DO", "tract_id": "36047051800", "city": "BROOKLYN, NY", "zone_code": "R1-2", "zone_category": "Residential", "ev_permitted": false}, "geometry": {"type": "Polygon", "coordinates": [[[-73.9618842294792, 40.6386189980595], [-73.9615079234234, 40.6386620753882], [-73.9615343594779, 40.6388013244042], [-73.9619106663018, 40.6387582469897], [-73.9618842294792, 40.6386189980595]]]}}, {"type": "Feature", "properties": {"zone_id": "0202XXCWOGXTCG2URA18IZ", "tract_id": "36047051800", "city": "BROOKLYN, NY", "zone_code": "R1-2", "zone_category": "Residential", "ev_permitted": false}, "geometry": {"type": "Polygon", "coordinates": [[[-73.9615295039259, 40.6387757450579], [-73.9611721073259, 40.638816656376], [-73.9612003802127, 40.6389669470676], [-73.9615580303568, 40.6389260062349], [-73.9615295039259, 40.6387757450579]]]}}, {"type": "Feature", "properties": {"zone_id": "0202F7J826QGLGR8LI3MPQ", "tract_id": "36047051800", "city": "BROOKLYN, NY", "zone_code": "R1-2", "zone_category": "Residential", "ev_permitted": false}, "geometry": {"type": "Polygon", "coordinates": [[[-73.9618431081696, 40.6383974438626], [-73.9616513936214, 40.6384894039571], [-73.9616548511448, 40.6384935838612], [-73.9614908692994, 40.6385722416388], [-73.9615079234234, 40.6386620753882], [-73.9618842294792, 40.6386189980595], [-73.9618431081696, 40.6383974438626]]]}}, {"type": "Feature", "properties": {"zone_id": "0200Q3Y1NFSWVVEITYDQKZ", "tract_id": "36047051800", "city": "BROOKLYN, NY", "zone_code": "R1-2", "zone_category": "Residential", "ev_permitted": false}, "geometry": {"type": "Polygon", "coordinates": [[[-73.9614908692994, 40.6385722416388], [-73.9613730209496, 40.638628769486], [-73.9611420543054, 40.6386569008734], [-73.9611721073259, 40.638816656376], [-73.9615295039259, 40.6387757450579], [-73.9614908692994, 40.6385722416388]]]}}, {"type": "Feature", "properties": {"zone_id": "02040OHQR6FFOQIF2OTK46", "tract_id": "36047051800", "city": "BROOKLYN, NY", "zone_code": "R1-2", "zone_category": "Residential", "ev_permitted": false}, "geometry": {"type": "Polygon", "coordinates": [[[-73.9623296539887, 40.6378412225641], [-73.9620054892301, 40.6379924236693], [-73.9620484624626, 40.6382197922827], [-73.9622890659976, 40.6381904852703], [-73.9625228539561, 40.6380753814915], [-73.9623296539887, 40.6378412225641]]]}}, {"type": "Feature", "properties": {"zone_id": "0202FPZ2LXQ5AT92K5G9ZJ", "tract_id": "36047051800", "city": "BROOKLYN, NY", "zone_code": "R1-2", "zone_category": "Residential", "ev_permitted": false}, "geometry": {"type": "Polygon", "coordinates": [[[-73.9628131926777, 40.6382737777672], [-73.9624595561878, 40.6383168549999], [-73.9624831268656, 40.6384420593965], [-73.9628367649263, 40.6383989820923], [-73.9628131926777, 40.6382737777672]]]}}, {"type": "Feature", "properties": {"zone_id": "0206V1G5NM1MVI66XATJR9", "tract_id": "36047051800", "city": "BROOKLYN, NY", "zone_code": "R1-2", "zone_category": "Residential", "ev_permitted": false}, "geometry": {"type": "Polygon", "coordinates": [[[-73.9627861119687, 40.6381299390189], [-73.9624324762236, 40.6381730161689], [-73.9624595561878, 40.6383168549999], [-73.9628131926777, 40.6382737777672], [-73.9627861119687, 40.6381299390189]]]}}, {"type": "Feature", "properties": {"zone_id": "0203N75T0I59X7VMJSZJXD", "tract_id": "36047051800", "city": "BROOKLYN, NY", "zone_code": "R1-2", "zone_category": "Residential", "ev_permitted": false}, "geometry": {"type": "Polygon", "coordinates": [[[-73.9624233202292, 40.6381243866227], [-73.9622890659976, 40.6381904852703], [-73.9620484624626, 40.6382197922827], [-73.9620823518278, 40.6383991011877], [-73.9624662365296, 40.6383523410806], [-73.9624233202292, 40.6381243866227]]]}}, {"type": "Feature", "properties": {"zone_id": "0205V5Q1ECATYD49IL2MI6", "tract_id": "36047051800", "city": "BROOKLYN, NY", "zone_code": "R1-2", "zone_category": "Residential", "ev_permitted": false}, "geometry": {"type": "Polygon", "coordinates": [[[-73.9627543796994, 40.6379613923362], [-73.9624233202292, 40.6381243866227], [-73.9624324762236, 40.6381730161689], [-73.9627861119687, 40.6381299390189], [-73.9627543796994, 40.6379613923362]]]}}, {"type": "Feature", "properties": {"zone_id": "02076QZH3DSQSTXGCXWNFP", "tract_id": "36047051800", "city": "BROOKLYN, NY", "zone_code": "R1-2", "zone_category": "Residential", "ev_permitted": false}, "geometry": {"type": "Polygon", "coordinates": [[[-73.9617864186397, 40.6380990754136], [-73.9614579919912, 40.6382530792985], [-73.9616513936214, 40.6384894039571], [-73.9618431081696, 40.6383974438626], [-73.9617864186397, 40.6380990754136]]]}}, {"type": "Feature", "properties": {"zone_id": "0206Z17YT8I6USIAZS1UH2", "tract_id": "36047051800", "city": "BROOKLYN, NY", "zone_code": "R1-2", "zone_category": "Residential", "ev_permitted": false}, "geometry": {"type": "Polygon", "coordinates": [[[-73.9614579919912, 40.6382530792985], [-73.9612552851507, 40.6383481302903], [-73.9614549613132, 40.6385894652871], [-73.9616548511448, 40.6384935838612], [-73.9614579919912, 40.6382530792985]]]}}, {"type": "Feature", "properties": {"zone_id": "0205X26Q3E28YTR8926ZFG", "tract_id": "36047051800", "city": "BROOKLYN, NY", "zone_code": "R1-2", "zone_category": "Residential", "ev_permitted": false}, "geometry": {"type": "Polygon", "coordinates": [[[-73.9609543449807, 40.638816626908], [-73.9606224353003, 40.6389723677154], [-73.9606384297411, 40.6390569867479], [-73.9609918603291, 40.6390150969309], [-73.9609543449807, 40.638816626908]]]}}, {"type": "Feature", "properties": {"zone_id": "02055OI6SDEEB9U49Z168B", "tract_id": "36047051800", "city": "BROOKLYN, NY", "zone_code": "R1-2", "zone_category": "Residential", "ev_permitted": false}, "geometry": {"type": "Polygon", "coordinates": [[[-73.960899457684, 40.638526243033], [-73.9606133818001, 40.6386599378098], [-73.9607975242139, 40.6388902114767], [-73.9609543449807, 40.638816626908], [-73.960899457684, 40.638526243033]]]}}, {"type": "Feature", "properties": {"zone_id": "02045MCXLULDWWCYU97K1H", "tract_id": "36047051800", "city": "BROOKLYN, NY", "zone_code": "R1-2", "zone_category": "Residential", "ev_permitted": false}, "geometry": {"type": "Polygon", "coordinates": [[[-73.9612552851507, 40.6383481302903], [-73.9610978559738, 40.6384219497571], [-73.9611420543054, 40.6386569008734], [-73.9613730209496, 40.638628769486], [-73.9614549613132, 40.6385894652871], [-73.9612552851507, 40.6383481302903]]]}}, {"type": "Feature", "properties": {"zone_id": "0205VIGOA4IQGQNFAR6S26", "tract_id": "36047051800", "city": "BROOKLYN, NY", "zone_code": "R1-2", "zone_category": "Residential", "ev_permitted": false}, "geometry": {"type": "Polygon", "coordinates": [[[-73.9606133818001, 40.6386599378098], [-73.9604198861764, 40.6387507302201], [-73.9606040281731, 40.6389810041945], [-73.9607975242139, 40.6388902114767], [-73.9606133818001, 40.6386599378098]]]}}, {"type": "Feature", "properties": {"zone_id": "0204R2PQRKF0YYJ88WE0EQ", "tract_id": "36047051800", "city": "BROOKLYN, NY", "zone_code": "R1-2", "zone_category": "Residential", "ev_permitted": false}, "geometry": {"type": "Polygon", "coordinates": [[[-73.9604198861764, 40.6387507302201], [-73.9602228485252, 40.6388437169081], [-73.9602772687867, 40.6391316402014], [-73.9606443175519, 40.6390881365126], [-73.9606224353003, 40.6389723677154], [-73.9606040281731, 40.6389810041945], [-73.9604198861764, 40.6387507302201]]]}}, {"type": "Feature", "properties": {"zone_id": "02043DIZTMDU0D1O0GL7Q5", "tract_id": "36047051800", "city": "BROOKLYN, NY", "zone_code": "R1-2", "zone_category": "Residential", "ev_permitted": false}, "geometry": {"type": "Polygon", "coordinates": [[[-73.961143414461, 40.6378164277772], [-73.9609983622027, 40.6378854303059], [-73.9610616152981, 40.6382110022552], [-73.9613480034453, 40.6380747656244], [-73.961143414461, 40.6378164277772]]]}}, {"type": "Feature", "properties": {"zone_id": "0204CTUB7T18V4ZAQ31NGV", "tract_id": "36047051800", "city": "BROOKLYN, NY", "zone_code": "R1-2", "zone_category": "Residential", "ev_permitted": false}, "geometry": {"type": "Polygon", "coordinates": [[[-73.9607972262324, 40.6380408730123], [-73.9604490309615, 40.6380791453077], [-73.9604629934691, 40.6381535124882], [-73.9604791113352, 40.6381458667052], [-73.9606767200828, 40.6383897783207], [-73.9608475240408, 40.6383087553403], [-73.9607972262324, 40.6380408730123]]]}}, {"type": "Feature", "properties": {"zone_id": "0202BRAKAUXKSA4B3GMOCS", "tract_id": "36047051800", "city": "BROOKLYN, NY", "zone_code": "R1-2", "zone_category": "Residential", "ev_permitted": false}, "geometry": {"type": "Polygon", "coordinates": [[[-73.9602649142009, 40.6382236144885], [-73.9601193260451, 40.6382926754472], [-73.960181587215, 40.6386246481023], [-73.9604764837875, 40.6384847613276], [-73.9602649142009, 40.6382236144885]]]}}, {"type": "Feature", "properties": {"zone_id": "0200UOC30MVA4BB5MGQJEC", "tract_id": "36047051800", "city": "BROOKLYN, NY", "zone_code": "R1-2", "zone_category": "Residential", "ev_permitted": false}, "geometry": {"type": "Polygon", "coordinates": [[[-73.9604588805727, 40.6381316047769], [-73.9602649142009, 40.6382236144885], [-73.9604764837875, 40.6384847613276], [-73.9606767200828, 40.6383897783207], [-73.9604791113352, 40.6381458667052], [-73.9604629934691, 40.6381535124882], [-73.9604588805727, 40.6381316047769]]]}}, {"type": "Feature", "properties": {"zone_id": "0206SCHQOC03Q6T6E9040O", "tract_id": "36047051800", "city": "BROOKLYN, NY", "zone_code": "R1-2", "zone_category": "Residential", "ev_permitted": false}, "geometry": {"type": "Polygon", "coordinates": [[[-73.9607717170275, 40.6379050165995], [-73.9604235233733, 40.6379432888185], [-73.9604490309615, 40.6380791453077], [-73.9607972262324, 40.6380408730123], [-73.9607717170275, 40.6379050165995]]]}}, {"type": "Feature", "properties": {"zone_id": "020679QYP0AGXMPIG70T42", "tract_id": "36047051800", "city": "BROOKLYN, NY", "zone_code": "R1-2", "zone_category": "Residential", "ev_permitted": false}, "geometry": {"type": "Polygon", "coordinates": [[[-73.9604400162632, 40.6380311332941], [-73.9600777423203, 40.6380709525115], [-73.9601193260451, 40.6382926754472], [-73.9604588805727, 40.6381316047769], [-73.9604400162632, 40.6380311332941]]]}}, {"type": "Feature", "properties": {"zone_id": "0201OLDIM0EG3FL77IDGHK", "tract_id": "36047051800", "city": "BROOKLYN, NY", "zone_code": "R1-2", "zone_category": "Residential", "ev_permitted": false}, "geometry": {"type": "Polygon", "coordinates": [[[-73.9604149289141, 40.6378975205576], [-73.9600526833555, 40.6379373361929], [-73.9600777423203, 40.6380709525115], [-73.9604400162632, 40.6380311332941], [-73.9604149289141, 40.6378975205576]]]}}, {"type": "Feature", "properties": {"zone_id": "0206EH116HG9QMJDXMCN39", "tract_id": "36047051800", "city": "BROOKLYN, NY", "zone_code": "R1-2", "zone_category": "Residential", "ev_permitted": false}, "geometry": {"type": "Polygon", "coordinates": [[[-73.9620730852412, 40.6373883188246], [-73.9619080167881, 40.6374661989964], [-73.9619681314725, 40.6377866786098], [-73.9622802771341, 40.6376394071861], [-73.9620730852412, 40.6373883188246]]]}}, {"type": "Feature", "properties": {"zone_id": "020088ODGMZ76JW8581U6A", "tract_id": "36047051800", "city": "BROOKLYN, NY", "zone_code": "R1-2", "zone_category": "Residential", "ev_permitted": false}, "geometry": {"type": "Polygon", "coordinates": [[[-73.9626992946463, 40.6376688084833], [-73.9624830233959, 40.6377696865559], [-73.9626738925403, 40.6380010197558], [-73.9627543796994, 40.6379613923362], [-73.9626992946463, 40.6376688084833]]]}}, {"type": "Feature", "properties": {"zone_id": "0206NAEKBYXF9MUNJTC99Y", "tract_id": "36047051800", "city": "BROOKLYN, NY", "zone_code": "R1-2", "zone_category": "Residential", "ev_permitted": false}, "geometry": {"type": "Polygon", "coordinates": [[[-73.9624830233959, 40.6377696865559], [-73.9623296539887, 40.6378412225641], [-73.9625228539561, 40.6380753814915], [-73.9626738925403, 40.6380010197558], [-73.9624830233959, 40.6377696865559]]]}}, {"type": "Feature", "properties": {"zone_id": "02067AL9WHSVGZD6J3ZV7B", "tract_id": "36047051800", "city": "BROOKLYN, NY", "zone_code": "R1-2", "zone_category": "Residential", "ev_permitted": false}, "geometry": {"type": "Polygon", "coordinates": [[[-73.96228305589, 40.637289253032], [-73.9620730852412, 40.6373883188246], [-73.9622802771341, 40.6376394071861], [-73.962490188295, 40.6375403684023], [-73.96228305589, 40.637289253032]]]}}, {"type": "Feature", "properties": {"zone_id": "0204PAX36CK03DGH8EQF42", "tract_id": "36047051800", "city": "BROOKLYN, NY", "zone_code": "R1-2", "zone_category": "Residential", "ev_permitted": false}, "geometry": {"type": "Polygon", "coordinates": [[[-73.9616972004034, 40.6376290461697], [-73.9613119117748, 40.6376694096867], [-73.9613233728434, 40.6377308201787], [-73.9613417094812, 40.6377220971319], [-73.9615462989439, 40.6379804346289], [-73.961745129938, 40.6378858484012], [-73.9616972004034, 40.6376290461697]]]}}, {"type": "Feature", "properties": {"zone_id": "0200QZK9MIXBUD8G4EYUH4", "tract_id": "36047051800", "city": "BROOKLYN, NY", "zone_code": "R1-2", "zone_category": "Residential", "ev_permitted": false}, "geometry": {"type": "Polygon", "coordinates": [[[-73.9613417094812, 40.6377220971319], [-73.961143414461, 40.6378164277772], [-73.9613480034453, 40.6380747656244], [-73.9615462989439, 40.6379804346289], [-73.9613417094812, 40.6377220971319]]]}}, {"type": "Feature", "properties": {"zone_id": "020402JBHBIY1K3WXPIOVF", "tract_id": "36047051800", "city": "BROOKLYN, NY", "zone_code": "R1-2", "zone_category": "Residential", "ev_permitted": false}, "geometry": {"type": "Polygon", "coordinates": [[[-73.9616740017651, 40.6375047502707], [-73.9612887129177, 40.6375451137102], [-73.9613119117748, 40.6376694096867], [-73.9616972004034, 40.6376290461697], [-73.9616740017651, 40.6375047502707]]]}}, {"type": "Feature", "properties": {"zone_id": "0200TSKJHDEZ7VS26TDBI9", "tract_id": "36047051800", "city": "BROOKLYN, NY", "zone_code": "R1-2", "zone_category": "Residential", "ev_permitted": false}, "geometry": {"type": "Polygon", "coordinates": [[[-73.9616481355893, 40.6373661584492], [-73.9612628484488, 40.637406521803], [-73.9612887129177, 40.6375451137102], [-73.9616740017651, 40.6375047502707], [-73.9616481355893, 40.6373661584492]]]}}, {"type": "Feature", "properties": {"zone_id": "02002WXBDUN2IPVJEJ039F", "tract_id": "36047051800", "city": "BROOKLYN, NY", "zone_code": "R1-2", "zone_category": "Residential", "ev_permitted": false}, "geometry": {"type": "Polygon", "coordinates": [[[-73.9626132742036, 40.6371984008252], [-73.9622531384806, 40.6372352279142], [-73.9622649834074, 40.6372977795696], [-73.96228305589, 40.637289253032], [-73.962490188295, 40.6375403684023], [-73.9626626243759, 40.6374590115941], [-73.9626132742036, 40.6371984008252]]]}}, {"type": "Feature", "properties": {"zone_id": "0200CKMCJGNC7S1FLGRB5D", "tract_id": "36047051800", "city": "BROOKLYN, NY", "zone_code": "R1-2", "zone_category": "Residential", "ev_permitted": false}, "geometry": {"type": "Polygon", "coordinates": [[[-73.9625875503893, 40.6370625608954], [-73.9622274163076, 40.6370993879046], [-73.9622531384806, 40.6372352279142], [-73.9626132742036, 40.6371984008252], [-73.9625875503893, 40.6370625608954]]]}}, {"type": "Feature", "properties": {"zone_id": "02072PHZUF2U9OF74ODY3F", "tract_id": "36047051800", "city": "BROOKLYN, NY", "zone_code": "R1-2", "zone_category": "Residential", "ev_permitted": false}, "geometry": {"type": "Polygon", "coordinates": [[[-73.9622499353884, 40.6372183122991], [-73.9618688295838, 40.6372572821572], [-73.9619080167881, 40.6374661989964], [-73.9622649834074, 40.6372977795696], [-73.9622499353884, 40.6372183122991]]]}}, {"type": "Feature", "properties": {"zone_id": "020725WJYB71F0SMH4QFUG", "tract_id": "36047051800", "city": "BROOKLYN, NY", "zone_code": "R1-2", "zone_category": "Residential", "ev_permitted": false}, "geometry": {"type": "Polygon", "coordinates": [[[-73.9622242123068, 40.6370824708829], [-73.9618433452503, 40.6371214182501], [-73.9618688295838, 40.6372572821572], [-73.9622499353884, 40.6372183122991], [-73.9622242123068, 40.6370824708829]]]}}, {"type": "Feature", "properties": {"zone_id": "020650Q52L8V1L9D4D8RWR", "tract_id": "36047051800", "city": "BROOKLYN, NY", "zone_code": "R1-2", "zone_category": "Residential", "ev_permitted": false}, "geometry": {"type": "Polygon", "coordinates": [[[-73.9625615323928, 40.6369251623498], [-73.9622013981162, 40.6369619885752], [-73.9622274163076, 40.6370993879046], [-73.9625875503893, 40.6370625608954], [-73.9625615323928, 40.6369251623498]]]}}, {"type": "Feature", "properties": {"zone_id": "020552G25LL3YI08V6R2UL", "tract_id": "36047051800", "city": "BROOKLYN, NY", "zone_code": "R1-2", "zone_category": "Residential", "ev_permitted": false}, "geometry": {"type": "Polygon", "coordinates": [[[-73.9616215780213, 40.6372238584232], [-73.961236290764, 40.6372642216883], [-73.9612628484488, 40.637406521803], [-73.9616481355893, 40.6373661584492], [-73.9616215780213, 40.6372238584232]]]}}, {"type": "Feature", "properties": {"zone_id": "0206AY1L6E2HOJNLL2ACKB", "tract_id": "36047051800", "city": "BROOKLYN, NY", "zone_code": "R1-2", "zone_category": "Residential", "ev_permitted": false}, "geometry": {"type": "Polygon", "coordinates": [[[-73.9615961635557, 40.6370876937431], [-73.9612108789135, 40.6371280576269], [-73.961236290764, 40.6372642216883], [-73.9616215780213, 40.6372238584232], [-73.9615961635557, 40.6370876937431]]]}}, {"type": "Feature", "properties": {"zone_id": "0204RSQN1ZRR4X7QTE9F5O", "tract_id": "36047051800", "city": "BROOKLYN, NY", "zone_code": "R1-2", "zone_category": "Residential", "ev_permitted": false}, "geometry": {"type": "Polygon", "coordinates": [[[-73.9621966712261, 40.6369370262345], [-73.9618160586532, 40.636975946894], [-73.9618433452503, 40.6371214182501], [-73.9622242123068, 40.6370824708829], [-73.9621966712261, 40.6369370262345]]]}}, {"type": "Feature", "properties": {"zone_id": "02009PU7ILEDHXZBALS8XR", "tract_id": "36047051800", "city": "BROOKLYN, NY", "zone_code": "R1-2", "zone_category": "Residential", "ev_permitted": false}, "geometry": {"type": "Polygon", "coordinates": [[[-73.9621709492829, 40.6368011862079], [-73.9617905736127, 40.636840082268], [-73.9618160586532, 40.636975946894], [-73.9621966712261, 40.6369370262345], [-73.9621709492829, 40.6368011862079]]]}}, {"type": "Feature", "properties": {"zone_id": "0202EZIOOAHRFIZ20EQJ2H", "tract_id": "36047051800", "city": "BROOKLYN, NY", "zone_code": "R1-2", "zone_category": "Residential", "ev_permitted": false}, "geometry": {"type": "Polygon", "coordinates": [[[-73.9615558967698, 40.6368719430056], [-73.9611955450479, 40.6370458989113], [-73.9612108789135, 40.6371280576269], [-73.9615961635557, 40.6370876937431], [-73.9615558967698, 40.6368719430056]]]}}, {"type": "Feature", "properties": {"zone_id": "02066Y3VDYPQVD69284CIF", "tract_id": "36047051800", "city": "BROOKLYN, NY", "zone_code": "R1-2", "zone_category": "Residential", "ev_permitted": false}, "geometry": {"type": "Polygon", "coordinates": [[[-73.9613119117748, 40.6376694096867], [-73.960963484565, 40.6377059106377], [-73.9609983622027, 40.6378854303059], [-73.9613233728434, 40.6377308201787], [-73.9613119117748, 40.6376694096867]]]}}, {"type": "Feature", "properties": {"zone_id": "0201OLDG4Q63BYNMHGRJAC", "tract_id": "36047051800", "city": "BROOKLYN, NY", "zone_code": "R1-2", "zone_category": "Residential", "ev_permitted": false}, "geometry": {"type": "Polygon", "coordinates": [[[-73.9612887129177, 40.6375451137102], [-73.9609393555976, 40.6375817119458], [-73.960963484565, 40.6377059106377], [-73.9613119117748, 40.6376694096867], [-73.9612887129177, 40.6375451137102]]]}}, {"type": "Feature", "properties": {"zone_id": "0203PTSXP5JZ0G1DGJ3BE7", "tract_id": "36047051800", "city": "BROOKLYN, NY", "zone_code": "R1-2", "zone_category": "Residential", "ev_permitted": false}, "geometry": {"type": "Polygon", "coordinates": [[[-73.9612628484488, 40.637406521803], [-73.9609124513243, 40.6374432292226], [-73.9609393555976, 40.6375817119458], [-73.9612887129177, 40.6375451137102], [-73.9612628484488, 40.637406521803]]]}}, {"type": "Feature", "properties": {"zone_id": "0206COYMBPD1WSAL8ZKIEK", "tract_id": "36047051800", "city": "BROOKLYN, NY", "zone_code": "R1-2", "zone_category": "Residential", "ev_permitted": false}, "geometry": {"type": "Polygon", "coordinates": [[[-73.9607457656467, 40.6377667969641], [-73.9603975717765, 40.6378050691048], [-73.9604235233733, 40.6379432888185], [-73.9607717170275, 40.6379050165995], [-73.9607457656467, 40.6377667969641]]]}}, {"type": "Feature", "properties": {"zone_id": "0207B077T2UC4OXX74RZ6R", "tract_id": "36047051800", "city": "BROOKLYN, NY", "zone_code": "R1-2", "zone_category": "Residential", "ev_permitted": false}, "geometry": {"type": "Polygon", "coordinates": [[[-73.9607210474277, 40.6376351504747], [-73.9603728551522, 40.6376734232441], [-73.9603975717765, 40.6378050691048], [-73.9607457656467, 40.6377667969641], [-73.9607210474277, 40.6376351504747]]]}}, {"type": "Feature", "properties": {"zone_id": "0205GKXJ6NK7YJYWHETUGK", "tract_id": "36047051800", "city": "BROOKLYN, NY", "zone_code": "R1-2", "zone_category": "Residential", "ev_permitted": false}, "geometry": {"type": "Polygon", "coordinates": [[[-73.9603884091157, 40.6377562679414], [-73.9600261919815, 40.6377960806928], [-73.9600526833555, 40.6379373361929], [-73.9604149289141, 40.6378975205576], [-73.9603884091157, 40.6377562679414]]]}}, {"type": "Feature", "properties": {"zone_id": "0207IIMIXBXAZM7G7PZH0K", "tract_id": "36047051800", "city": "BROOKLYN, NY", "zone_code": "R1-2", "zone_category": "Residential", "ev_permitted": false}, "geometry": {"type": "Polygon", "coordinates": [[[-73.9603639325107, 40.6376259024172], [-73.960001741898, 40.6376657122903], [-73.9600261919815, 40.6377960806928], [-73.9603884091157, 40.6377562679414], [-73.9603639325107, 40.6376259024172]]]}}, {"type": "Feature", "properties": {"zone_id": "0201DE8RFSZ1UK0CXZO98N", "tract_id": "36047051800", "city": "BROOKLYN, NY", "zone_code": "R1-2", "zone_category": "Residential", "ev_permitted": false}, "geometry": {"type": "Polygon", "coordinates": [[[-73.9606960488598, 40.6375020072047], [-73.9603478572648, 40.637540279899], [-73.9603728551522, 40.6376734232441], [-73.9607210474277, 40.6376351504747], [-73.9606960488598, 40.6375020072047]]]}}, {"type": "Feature", "properties": {"zone_id": "0201KG3Z436XMB2O13N3MH", "tract_id": "36047051800", "city": "BROOKLYN, NY", "zone_code": "R1-2", "zone_category": "Residential", "ev_permitted": false}, "geometry": {"type": "Polygon", "coordinates": [[[-73.9606600283688, 40.6373101573748], [-73.9603341644188, 40.6374673497433], [-73.9603478572648, 40.637540279899], [-73.9606960488598, 40.6375020072047], [-73.9606600283688, 40.6373101573748]]]}}, {"type": "Feature", "properties": {"zone_id": "0205D90IBIVTX1V92JWE3F", "tract_id": "36047051800", "city": "BROOKLYN, NY", "zone_code": "R1-2", "zone_category": "Residential", "ev_permitted": false}, "geometry": {"type": "Polygon", "coordinates": [[[-73.9603341644188, 40.6374673497433], [-73.9602788754465, 40.6374940200004], [-73.9599757895337, 40.6375273329716], [-73.960001741898, 40.6376657122903], [-73.9603639325107, 40.6376259024172], [-73.9603341644188, 40.6374673497433]]]}}, {"type": "Feature", "properties": {"zone_id": "0200VN3MBYHJK0UP5LK0M6", "tract_id": "36047051800", "city": "BROOKLYN, NY", "zone_code": "R1-2", "zone_category": "Residential", "ev_permitted": false}, "geometry": {"type": "Polygon", "coordinates": [[[-73.9609253125747, 40.6367809193652], [-73.9607959161719, 40.6368433837433], [-73.9608661517023, 40.6372049093955], [-73.9611518580389, 40.6370669887184], [-73.9609253125747, 40.6367809193652]]]}}, {"type": "Feature", "properties": {"zone_id": "02048SGT4AWS2KLKCWBPUH", "tract_id": "36047051800", "city": "BROOKLYN, NY", "zone_code": "R1-2", "zone_category": "Residential", "ev_permitted": false}, "geometry": {"type": "Polygon", "coordinates": [[[-73.961236290764, 40.6372642216883], [-73.9608848280302, 40.6373010410914], [-73.9609124513243, 40.6374432292226], [-73.9612628484488, 40.637406521803], [-73.961236290764, 40.6372642216883]]]}}, {"type": "Feature", "properties": {"zone_id": "020725RH1W68V06L9AXZ5O", "tract_id": "36047051800", "city": "BROOKLYN, NY", "zone_code": "R1-2", "zone_category": "Residential", "ev_permitted": false}, "geometry": {"type": "Polygon", "coordinates": [[[-73.9611955450479, 40.6370458989113], [-73.9608661517023, 40.6372049093955], [-73.9608848280302, 40.6373010410914], [-73.961236290764, 40.6372642216883], [-73.9611955450479, 40.6370458989113]]]}}, {"type": "Feature", "properties": {"zone_id": "0200FFK9RT7FKC3PZ3VHCP", "tract_id": "36047051800", "city": "BROOKLYN, NY", "zone_code": "R1-2", "zone_category": "Residential", "ev_permitted": false}, "geometry": {"type": "Polygon", "coordinates": [[[-73.961052494408, 40.6367195242506], [-73.9609253125747, 40.6367809193652], [-73.9611518580389, 40.6370669887184], [-73.961279040209, 40.6370055933551], [-73.961052494408, 40.6367195242506]]]}}, {"type": "Feature", "properties": {"zone_id": "02009VFEJWB3NSP2QD8KQX", "tract_id": "36047051800", "city": "BROOKLYN, NY", "zone_code": "R1-2", "zone_category": "Residential", "ev_permitted": false}, "geometry": {"type": "Polygon", "coordinates": [[[-73.9605908126676, 40.6369415097324], [-73.9602951199683, 40.6370841481847], [-73.960529308562, 40.637373215452], [-73.9606600283688, 40.6373101573748], [-73.9605908126676, 40.6369415097324]]]}}, {"type": "Feature", "properties": {"zone_id": "0201QCC652MXZ5S6N3G94R", "tract_id": "36047051800", "city": "BROOKLYN, NY", "zone_code": "R1-2", "zone_category": "Residential", "ev_permitted": false}, "geometry": {"type": "Polygon", "coordinates": [[[-73.9602951199683, 40.6370841481847], [-73.9601733490209, 40.637142888961], [-73.9604075363709, 40.6374319564741], [-73.960529308562, 40.637373215452], [-73.9602951199683, 40.6370841481847]]]}}, {"type": "Feature", "properties": {"zone_id": "0205LA4N4LB9W0DSUFLO7R", "tract_id": "36047051800", "city": "BROOKLYN, NY", "zone_code": "R1-2", "zone_category": "Residential", "ev_permitted": false}, "geometry": {"type": "Polygon", "coordinates": [[[-73.9600528649554, 40.637201008196], [-73.9599260614427, 40.637262176076], [-73.9599757895337, 40.6375273329716], [-73.9602788754465, 40.6374940200004], [-73.9602870519874, 40.6374900759527], [-73.9600528649554, 40.637201008196]]]}}, {"type": "Feature", "properties": {"zone_id": "020709ZF8MLHA18OYTPFYP", "tract_id": "36047051800", "city": "BROOKLYN, NY", "zone_code": "R1-2", "zone_category": "Residential", "ev_permitted": false}, "geometry": {"type": "Polygon", "coordinates": [[[-73.9601733490209, 40.637142888961], [-73.9600528649554, 40.637201008196], [-73.9602870519874, 40.6374900759527], [-73.9604075363709, 40.6374319564741], [-73.9601733490209, 40.637142888961]]]}}, {"type": "Feature", "properties": {"zone_id": "02077B64ZG1FQS81IV0LHA", "tract_id": "36047051800", "city": "BROOKLYN, NY", "zone_code": "R6A", "zone_category": "Residential", "ev_permitted": false}, "geometry": {"type": "Polygon", "coordinates": [[[-73.9623990885583, 40.6360673114162], [-73.9617085594649, 40.6364028368172], [-73.9617575969686, 40.636664274229], [-73.9621376644872, 40.6366254097961], [-73.9621309770191, 40.6365900909216], [-73.9624671508002, 40.6364267456804], [-73.9623990885583, 40.6360673114162]]]}}, {"type": "Feature", "properties": {"zone_id": "0206FYW1EGJHG961STGWM0", "tract_id": "36047051800", "city": "BROOKLYN, NY", "zone_code": "R1-2", "zone_category": "Residential", "ev_permitted": false}, "geometry": {"type": "Polygon", "coordinates": [[[-73.9625344881714, 40.6367823473161], [-73.9621743555727, 40.6368191741603], [-73.9622013981162, 40.6369619885752], [-73.9625615323928, 40.6369251623498], [-73.9625344881714, 40.6367823473161]]]}}, {"type": "Feature", "properties": {"zone_id": "0203IVW0EAG3J9XMDKGIZE", "tract_id": "36047051800", "city": "BROOKLYN, NY", "zone_code": "R1-2", "zone_category": "Residential", "ev_permitted": false}, "geometry": {"type": "Polygon", "coordinates": [[[-73.9625087656002, 40.6366465073628], [-73.962148632798, 40.6366833341267], [-73.9621743555727, 40.6368191741603], [-73.9625344881714, 40.6367823473161], [-73.9625087656002, 40.6366465073628]]]}}, {"type": "Feature", "properties": {"zone_id": "02003ILYWK7MEI3E85T0XA", "tract_id": "36047051800", "city": "BROOKLYN, NY", "zone_code": "R1-2", "zone_category": "Residential", "ev_permitted": false}, "geometry": {"type": "Polygon", "coordinates": [[[-73.9624671508002, 40.6364267456804], [-73.9621309770191, 40.6365900909216], [-73.962148632798, 40.6366833341267], [-73.9625087656002, 40.6366465073628], [-73.9624671508002, 40.6364267456804]]]}}, {"type": "Feature", "properties": {"zone_id": "0200BFF4X90WHPERSRRGPA", "tract_id": "36047051800", "city": "BROOKLYN, NY", "zone_code": "R1-2", "zone_category": "Residential", "ev_permitted": false}, "geometry": {"type": "Polygon", "coordinates": [[[-73.9614881960094, 40.6365091924603], [-73.9611802222074, 40.6366578642744], [-73.9614067692695, 40.6369439324269], [-73.9615558967698, 40.6368719430056], [-73.9614881960094, 40.6365091924603]]]}}, {"type": "Feature", "properties": {"zone_id": "0200DBW3P39BGSYZD9WR0K", "tract_id": "36047051800", "city": "BROOKLYN, NY", "zone_code": "R1-2", "zone_category": "Residential", "ev_permitted": false}, "geometry": {"type": "Polygon", "coordinates": [[[-73.9621376644872, 40.6366254097961], [-73.9617575969686, 40.636664274229], [-73.9617905736127, 40.636840082268], [-73.9621709492829, 40.6368011862079], [-73.9621376644872, 40.6366254097961]]]}}, {"type": "Feature", "properties": {"zone_id": "0206OHLNHLE3OQO2SU9W0J", "tract_id": "36047051800", "city": "BROOKLYN, NY", "zone_code": "C2-4", "zone_category": "Commercial", "ev_permitted": true}, "geometry": {"type": "Polygon", "coordinates": [[[-73.9621868803883, 40.6357223145339], [-73.9621193650418, 40.6357292641597], [-73.9621645551385, 40.6359686483953], [-73.9622276768314, 40.6359384264211], [-73.9621868803883, 40.6357223145339]]]}}, {"type": "Feature", "properties": {"zone_id": "0201F8FQJOX4RK6LWQFVDA", "tract_id": "36047051800", "city": "BROOKLYN, NY", "zone_code": "C2-4", "zone_category": "Commercial", "ev_permitted": true}, "geometry": {"type": "Polygon", "coordinates": [[[-73.9621193650418, 40.6357292641597], [-73.9620457967838, 40.6357368350124], [-73.9620957731318, 40.6360015800554], [-73.9621645551385, 40.6359686483953], [-73.9621193650418, 40.6357292641597]]]}}, {"type": "Feature", "properties": {"zone_id": "0206U95RQJ3L52VL7U6YPC", "tract_id": "36047051800", "city": "BROOKLYN, NY", "zone_code": "C2-4", "zone_category": "Commercial", "ev_permitted": true}, "geometry": {"type": "Polygon", "coordinates": [[[-73.9620457967838, 40.6357368350124], [-73.9619755713984, 40.6357439733789], [-73.9620305477498, 40.6360328095874], [-73.9620957731318, 40.6360015800554], [-73.9620457967838, 40.6357368350124]]]}}, {"type": "Feature", "properties": {"zone_id": "0204W5OMRXFWZR3YOXRX70", "tract_id": "36047051800", "city": "BROOKLYN, NY", "zone_code": "C2-4", "zone_category": "Commercial", "ev_permitted": true}, "geometry": {"type": "Polygon", "coordinates": [[[-73.9617076094118, 40.6358643719296], [-73.961629665619, 40.6358729233853], [-73.9616910345183, 40.6361953619476], [-73.9617639613411, 40.6361604461756], [-73.9617076094118, 40.6358643719296]]]}}, {"type": "Feature", "properties": {"zone_id": "0204ST2AI7SJBP1GP4FYD3", "tract_id": "36047051800", "city": "BROOKLYN, NY", "zone_code": "C2-4", "zone_category": "Commercial", "ev_permitted": true}, "geometry": {"type": "Polygon", "coordinates": [[[-73.9619884008879, 40.6358113773047], [-73.9619132484403, 40.6358196235132], [-73.961960234063, 40.6360664749461], [-73.9620305477498, 40.6360328095874], [-73.9619884008879, 40.6358113773047]]]}}, {"type": "Feature", "properties": {"zone_id": "0201Z84A1RHBIDBD01ZES4", "tract_id": "36047051800", "city": "BROOKLYN, NY", "zone_code": "C2-4", "zone_category": "Commercial", "ev_permitted": true}, "geometry": {"type": "Polygon", "coordinates": [[[-73.9619173848318, 40.635841354114], [-73.9618502251295, 40.6358487231908], [-73.9618973962953, 40.6360965598474], [-73.961960234063, 40.6360664749461], [-73.9619173848318, 40.635841354114]]]}}, {"type": "Feature", "properties": {"zone_id": "0204RHTVEY4KWQ2K6ITUAS", "tract_id": "36047051800", "city": "BROOKLYN, NY", "zone_code": "C2-4", "zone_category": "Commercial", "ev_permitted": true}, "geometry": {"type": "Polygon", "coordinates": [[[-73.9618502251295, 40.6358487231908], [-73.9617742203043, 40.6358570631828], [-73.9618262844071, 40.6361306071095], [-73.9618973962953, 40.6360965598474], [-73.9618502251295, 40.6358487231908]]]}}, {"type": "Feature", "properties": {"zone_id": "0201326OROI0CNYOA6RRIV", "tract_id": "36047051800", "city": "BROOKLYN, NY", "zone_code": "C2-4", "zone_category": "Commercial", "ev_permitted": true}, "geometry": {"type": "Polygon", "coordinates": [[[-73.9617742203043, 40.6358570631828], [-73.9617076094118, 40.6358643719296], [-73.9617639613411, 40.6361604461756], [-73.9618262844071, 40.6361306071095], [-73.9617742203043, 40.6358570631828]]]}}, {"type": "Feature", "properties": {"zone_id": "0207H5SBMHA7I620C8GHJK", "tract_id": "36047051800", "city": "BROOKLYN, NY", "zone_code": "R7A", "zone_category": "Residential", "ev_permitted": false}, "geometry": {"type": "Polygon", "coordinates": [[[-73.9610228001081, 40.6361056381599], [-73.9606681873746, 40.6361418452192], [-73.9607673040646, 40.6366597246203], [-73.9611537995073, 40.6364746353119], [-73.9609319147698, 40.6361951437741], [-73.9610307446046, 40.6361480403959], [-73.9610228001081, 40.6361056381599]]]}}, {"type": "Feature", "properties": {"zone_id": "0201X94T5NI1KRQEOQI5UK", "tract_id": "36047051800", "city": "BROOKLYN, NY", "zone_code": "R1-2", "zone_category": "Residential", "ev_permitted": false}, "geometry": {"type": "Polygon", "coordinates": [[[-73.9611802222074, 40.6366578642744], [-73.961052494408, 40.6367195242506], [-73.961279040209, 40.6370055933551], [-73.9614067692695, 40.6369439324269], [-73.9611802222074, 40.6366578642744]]]}}, {"type": "Feature", "properties": {"zone_id": "020597PNEENAMTZ97DOB7H", "tract_id": "36047051800", "city": "BROOKLYN, NY", "zone_code": "R7A", "zone_category": "Residential", "ev_permitted": false}, "geometry": {"type": "Polygon", "coordinates": [[[-73.9601177098825, 40.6363174154536], [-73.959758048008, 40.6363541323057], [-73.9598934700554, 40.6370716699888], [-73.9605650283896, 40.6367559142811], [-73.96049391508, 40.636388055703], [-73.9601383818217, 40.6364243521582], [-73.9601177098825, 40.6363174154536]]]}}, {"type": "Feature", "properties": {"zone_id": "02060IQXROHXBJ4DBR3UKX", "tract_id": "36047051800", "city": "", "zone_code": "R6A", "zone_category": "Residential", "ev_permitted": false}, "geometry": {"type": "Polygon", "coordinates": [[[-73.9614056970327, 40.6362078653239], [-73.9611262421978, 40.6362363984852], [-73.9612708673319, 40.6364185718762], [-73.9614308204958, 40.636341970449], [-73.9614056970327, 40.6362078653239]]]}}, {"type": "Feature", "properties": {"zone_id": "0201XWX547HSQACS0A2V68", "tract_id": "36047051800", "city": "BROOKLYN, NY", "zone_code": "R6A", "zone_category": "Residential", "ev_permitted": false}, "geometry": {"type": "Polygon", "coordinates": [[[-73.9613856467019, 40.6361008398156], [-73.9610461434829, 40.6361355058438], [-73.9611262421978, 40.6362363984852], [-73.9614056970327, 40.6362078653239], [-73.9613856467019, 40.6361008398156]]]}}, {"type": "Feature", "properties": {"zone_id": "0203QEI3K0FVVR7EPQ0SJ4", "tract_id": "36047051800", "city": "BROOKLYN, NY", "zone_code": "R7A", "zone_category": "Residential", "ev_permitted": false}, "geometry": {"type": "Polygon", "coordinates": [[[-73.9610461434829, 40.6361355058438], [-73.9610287290547, 40.6361372840109], [-73.9610307446046, 40.6361480403959], [-73.9609319147698, 40.6361951437741], [-73.9611537995073, 40.6364746353119], [-73.9612708673319, 40.6364185718762], [-73.9610461434829, 40.6361355058438]]]}}, {"type": "Feature", "properties": {"zone_id": "020405Y8YCEBXZNO3J4NIJ", "tract_id": "36047051800", "city": "BROOKLYN, NY", "zone_code": "R7A", "zone_category": "Residential", "ev_permitted": false}, "geometry": {"type": "Polygon", "coordinates": [[[-73.9613642134664, 40.6359864393625], [-73.9610072973417, 40.6360228834921], [-73.9610287290547, 40.6361372840109], [-73.9613856467019, 40.6361008398156], [-73.9613642134664, 40.6359864393625]]]}}, {"type": "Feature", "properties": {"zone_id": "020404CE7MADSGRUJF82JX", "tract_id": "36047051800", "city": "BROOKLYN, NY", "zone_code": "R7A", "zone_category": "Residential", "ev_permitted": false}, "geometry": {"type": "Polygon", "coordinates": [[[-73.9613438497086, 40.6358777456108], [-73.9609869341546, 40.635914188975], [-73.9610072973417, 40.6360228834921], [-73.9613642134664, 40.6359864393625], [-73.9613438497086, 40.6358777456108]]]}}, {"type": "Feature", "properties": {"zone_id": "0204Q6SOQWFXCQGU1CL65Q", "tract_id": "36047051800", "city": "BROOKLYN, NY", "zone_code": "R7A", "zone_category": "Residential", "ev_permitted": false}, "geometry": {"type": "Polygon", "coordinates": [[[-73.9613234860172, 40.6357690518542], [-73.9609665710333, 40.6358054951557], [-73.9609869341546, 40.635914188975], [-73.9613438497086, 40.6358777456108], [-73.9613234860172, 40.6357690518542]]]}}, {"type": "Feature", "properties": {"zone_id": "0204BNQABPHH9F2R6QG0FC", "tract_id": "36047051800", "city": "BROOKLYN, NY", "zone_code": "R7A", "zone_category": "Residential", "ev_permitted": false}, "geometry": {"type": "Polygon", "coordinates": [[[-73.9603889247491, 40.6358449455214], [-73.9600333924825, 40.6358812416534], [-73.9601383818217, 40.6364243521582], [-73.96049391508, 40.636388055703], [-73.9603889247491, 40.6358449455214]]]}}, {"type": "Feature", "properties": {"zone_id": "0200QMYLA3OQED9NIN65CA", "tract_id": "36047051800", "city": "BROOKLYN, NY", "zone_code": "C2-4", "zone_category": "Commercial", "ev_permitted": true}, "geometry": {"type": "Polygon", "coordinates": [[[-73.9623403243045, 40.6357065211878], [-73.962264991514, 40.6357142749985], [-73.962300705503, 40.6359034611548], [-73.9623711360183, 40.6358697394124], [-73.9623403243045, 40.6357065211878]]]}}, {"type": "Feature", "properties": {"zone_id": "0204L25KT2ZSQ8SPLE56I7", "tract_id": "36047051800", "city": "BROOKLYN, NY", "zone_code": "C2-4", "zone_category": "Commercial", "ev_permitted": true}, "geometry": {"type": "Polygon", "coordinates": [[[-73.962264991514, 40.6357142749985], [-73.9621868803883, 40.6357223145339], [-73.9622276768314, 40.6359384264211], [-73.962300705503, 40.6359034611548], [-73.962264991514, 40.6357142749985]]]}}, {"type": "Feature", "properties": {"zone_id": "0204GN28H26OFO2F4XB0U2", "tract_id": "36047051800", "city": "BROOKLYN, NY", "zone_code": "C2-4", "zone_category": "Commercial", "ev_permitted": true}, "geometry": {"type": "Polygon", "coordinates": [[[-73.9623042176357, 40.6355152557235], [-73.9619391899017, 40.6355528257574], [-73.9619755713984, 40.6357439733789], [-73.9623403243045, 40.6357065211878], [-73.9623042176357, 40.6355152557235]]]}}, {"type": "Feature", "properties": {"zone_id": "0201QTQOTSVV4O78TJE7OL", "tract_id": "36047051800", "city": "BROOKLYN, NY", "zone_code": "R6A", "zone_category": "Residential", "ev_permitted": false}, "geometry": {"type": "Polygon", "coordinates": [[[-73.9622692413695, 40.6353299702993], [-73.961903929604, 40.6353675696404], [-73.9619391899017, 40.6355528257574], [-73.9623042176357, 40.6355152557235], [-73.9622692413695, 40.6353299702993]]]}}, {"type": "Feature", "properties": {"zone_id": "0205FOP5BOIITNF0Y0U1FB", "tract_id": "36047051800", "city": "BROOKLYN, NY", "zone_code": "C2-4", "zone_category": "Commercial", "ev_permitted": true}, "geometry": {"type": "Polygon", "coordinates": [[[-73.9619734020391, 40.6357325761281], [-73.9616105308896, 40.6357723922533], [-73.961629665619, 40.6358729233853], [-73.9619173848318, 40.635841354114], [-73.9619132484403, 40.6358196235132], [-73.9619884008879, 40.6358113773047], [-73.9619734020391, 40.6357325761281]]]}}, {"type": "Feature", "properties": {"zone_id": "0200IJ9FSGYON5TOEX0BI9", "tract_id": "36047051800", "city": "BROOKLYN, NY", "zone_code": "R6A", "zone_category": "Residential", "ev_permitted": false}, "geometry": {"type": "Polygon", "coordinates": [[[-73.9619563405481, 40.6356429356495], [-73.9615934698759, 40.6356827517213], [-73.9616105308896, 40.6357723922533], [-73.9619734020391, 40.6357325761281], [-73.9619563405481, 40.6356429356495]]]}}, {"type": "Feature", "properties": {"zone_id": "0202137OL74XNVWY92JHHE", "tract_id": "36047051800", "city": "BROOKLYN, NY", "zone_code": "R6A", "zone_category": "Residential", "ev_permitted": false}, "geometry": {"type": "Polygon", "coordinates": [[[-73.9619377286518, 40.6355451458412], [-73.9615748585002, 40.6355849618546], [-73.9615934698759, 40.6356827517213], [-73.9619563405481, 40.6356429356495], [-73.9619377286518, 40.6355451458412]]]}}, {"type": "Feature", "properties": {"zone_id": "0205JRR4ILZWXE5CG0008A", "tract_id": "36047051800", "city": "BROOKLYN, NY", "zone_code": "R6A", "zone_category": "Residential", "ev_permitted": false}, "geometry": {"type": "Polygon", "coordinates": [[[-73.9619170477036, 40.6354364907277], [-73.9615541781309, 40.6354763059736], [-73.9615748585002, 40.6355849618546], [-73.9619377286518, 40.6355451458412], [-73.9619170477036, 40.6354364907277]]]}}, {"type": "Feature", "properties": {"zone_id": "02029CUX7932W1VBGSBUYS", "tract_id": "36047051800", "city": "BROOKLYN, NY", "zone_code": "R6A", "zone_category": "Residential", "ev_permitted": false}, "geometry": {"type": "Polygon", "coordinates": [[[-73.9618963677451, 40.6353278356095], [-73.9615334987509, 40.6353676507907], [-73.9615541781309, 40.6354763059736], [-73.9619170477036, 40.6354364907277], [-73.9618963677451, 40.6353278356095]]]}}, {"type": "Feature", "properties": {"zone_id": "02054MACKODHZFPLZKC4F6", "tract_id": "36047051800", "city": "BROOKLYN, NY", "zone_code": "R6A", "zone_category": "Residential", "ev_permitted": false}, "geometry": {"type": "Polygon", "coordinates": [[[-73.9621419475573, 40.6346556526043], [-73.9619361373772, 40.6347547602968], [-73.9619967257213, 40.6348225187138], [-73.9619887415697, 40.6348262654987], [-73.962004971849, 40.6349661392739], [-73.9620317120716, 40.6350774454275], [-73.9622179516499, 40.6350582762202], [-73.9621419475573, 40.6346556526043]]]}}, {"type": "Feature", "properties": {"zone_id": "0201EHJK14DLB3JQE9CEC7", "tract_id": "36047051800", "city": "BROOKLYN, NY", "zone_code": "R6A", "zone_category": "Residential", "ev_permitted": false}, "geometry": {"type": "Polygon", "coordinates": [[[-73.9622179516499, 40.6350582762202], [-73.9618522262588, 40.6350959188271], [-73.961903929604, 40.6353675696404], [-73.9622692413695, 40.6353299702993], [-73.9622179516499, 40.6350582762202]]]}}, {"type": "Feature", "properties": {"zone_id": "0201ODBYGMN1HW0G1VBG5I", "tract_id": "36047051800", "city": "BROOKLYN, NY", "zone_code": "R6A", "zone_category": "Residential", "ev_permitted": false}, "geometry": {"type": "Polygon", "coordinates": [[[-73.9617855620197, 40.6348272690148], [-73.9614604474067, 40.634983825436], [-73.961513956024, 40.6352649714517], [-73.9618768244715, 40.6352251563317], [-73.9618055608206, 40.6348507341529], [-73.9617855620197, 40.6348272690148]]]}}, {"type": "Feature", "properties": {"zone_id": "0202EV46AWVPB7LDUKNQVS", "tract_id": "36047051800", "city": "BROOKLYN, NY", "zone_code": "R6A", "zone_category": "Residential", "ev_permitted": false}, "geometry": {"type": "Polygon", "coordinates": [[[-73.9618768244715, 40.6352251563317], [-73.961513956024, 40.6352649714517], [-73.9615334987509, 40.6353676507907], [-73.9618963677451, 40.6353278356095], [-73.9618768244715, 40.6352251563317]]]}}, {"type": "Feature", "properties": {"zone_id": "0202UQV1UL25ZCAQ4HLSDX", "tract_id": "36047051800", "city": "BROOKLYN, NY", "zone_code": "R6A", "zone_category": "Residential", "ev_permitted": false}, "geometry": {"type": "Polygon", "coordinates": [[[-73.9619361373772, 40.6347547602968], [-73.9617855620197, 40.6348272690148], [-73.9618055608206, 40.6348507341529], [-73.9618522262588, 40.6350959188271], [-73.9620317120716, 40.6350774454275], [-73.962004971849, 40.6349661392739], [-73.9619887415697, 40.6348262654987], [-73.9619967257213, 40.6348225187138], [-73.9619361373772, 40.6347547602968]]]}}, {"type": "Feature", "properties": {"zone_id": "0204MFSTBYHO57HW7BUF4D", "tract_id": "36047051800", "city": "BROOKLYN, NY", "zone_code": "R7A", "zone_category": "Residential", "ev_permitted": false}, "geometry": {"type": "Polygon", "coordinates": [[[-73.9608999955137, 40.6354501211862], [-73.9605427812966, 40.6354865946912], [-73.9606681873746, 40.6361418452192], [-73.9610228001081, 40.6361056381599], [-73.9608999955137, 40.6354501211862]]]}}, {"type": "Feature", "properties": {"zone_id": "0201O6PW3B09YB7A5P5R9D", "tract_id": "36047051800", "city": "BROOKLYN, NY", "zone_code": "R7A", "zone_category": "Residential", "ev_permitted": false}, "geometry": {"type": "Polygon", "coordinates": [[[-73.9613093576306, 40.6356936391368], [-73.9609524430424, 40.6357300823946], [-73.9609665710333, 40.6358054951557], [-73.9613234860172, 40.6357690518542], [-73.9613093576306, 40.6356936391368]]]}}, {"type": "Feature", "properties": {"zone_id": "0201FZO2B58YI9VRHLE68I", "tract_id": "36047051800", "city": "BROOKLYN, NY", "zone_code": "R7A", "zone_category": "Residential", "ev_permitted": false}, "geometry": {"type": "Polygon", "coordinates": [[[-73.9612904082651, 40.6355924910714], [-73.9609334942071, 40.6356289349735], [-73.9609524430424, 40.6357300823946], [-73.9613093576306, 40.6356936391368], [-73.9612904082651, 40.6355924910714]]]}}, {"type": "Feature", "properties": {"zone_id": "0204A8EKH5FS9GAEU8DEE3", "tract_id": "36047051800", "city": "BROOKLYN, NY", "zone_code": "R7A", "zone_category": "Residential", "ev_permitted": false}, "geometry": {"type": "Polygon", "coordinates": [[[-73.9612700447477, 40.635483797302], [-73.9609131312604, 40.6355202404386], [-73.9609334942071, 40.6356289349735], [-73.9612904082651, 40.6355924910714], [-73.9612700447477, 40.635483797302]]]}}, {"type": "Feature", "properties": {"zone_id": "0202D0EVO2J9KZPQOLKEGQ", "tract_id": "36047051800", "city": "BROOKLYN, NY", "zone_code": "R7A", "zone_category": "Residential", "ev_permitted": false}, "geometry": {"type": "Polygon", "coordinates": [[[-73.9612575366579, 40.6354170300167], [-73.9609006235204, 40.6354534738175], [-73.9609131312604, 40.6355202404386], [-73.9612700447477, 40.635483797302], [-73.9612575366579, 40.6354170300167]]]}}, {"type": "Feature", "properties": {"zone_id": "0202NAALOBBTOH0T9WNNGG", "tract_id": "36047051800", "city": "BROOKLYN, NY", "zone_code": "C2-4", "zone_category": "Commercial", "ev_permitted": true}, "geometry": {"type": "Polygon", "coordinates": [[[-73.9609998996358, 40.6352122240992], [-73.9609327452271, 40.6352445450018], [-73.9609705480274, 40.6354463338972], [-73.9610423837602, 40.6354389992409], [-73.9609998996358, 40.6352122240992]]]}}, {"type": "Feature", "properties": {"zone_id": "0200M9XW9TTBZKWS9VKU59", "tract_id": "36047051800", "city": "BROOKLYN, NY", "zone_code": "R7A", "zone_category": "Residential", "ev_permitted": false}, "geometry": {"type": "Polygon", "coordinates": [[[-73.9609327452271, 40.6352445450018], [-73.9608673769387, 40.635276007113], [-73.9609006235204, 40.6354534738175], [-73.9609705480274, 40.6354463338972], [-73.9609327452271, 40.6352445450018]]]}}, {"type": "Feature", "properties": {"zone_id": "02068JHI39P89WL9ZKBH7T", "tract_id": "36047051800", "city": "BROOKLYN, NY", "zone_code": "R7A", "zone_category": "Residential", "ev_permitted": false}, "geometry": {"type": "Polygon", "coordinates": [[[-73.9608019965948, 40.6353074748041], [-73.9605332560144, 40.6354368202106], [-73.9605427812966, 40.6354865946912], [-73.9608300571589, 40.6354572624642], [-73.9608019965948, 40.6353074748041]]]}}, {"type": "Feature", "properties": {"zone_id": "02017URG3VQU20N2U9BAM0", "tract_id": "36047051800", "city": "BROOKLYN, NY", "zone_code": "R7A", "zone_category": "Residential", "ev_permitted": false}, "geometry": {"type": "Polygon", "coordinates": [[[-73.9608673769387, 40.635276007113], [-73.9608019965948, 40.6353074748041], [-73.9608300571589, 40.6354572624642], [-73.9608999955137, 40.6354501211862], [-73.9608673769387, 40.635276007113]]]}}, {"type": "Feature", "properties": {"zone_id": "0206AKBIA1PIPICAVXPHW5", "tract_id": "36047051800", "city": "BROOKLYN, NY", "zone_code": "R7A", "zone_category": "Residential", "ev_permitted": false}, "geometry": {"type": "Polygon", "coordinates": [[[-73.9603675344232, 40.6357343034518], [-73.9600120036568, 40.6357705995185], [-73.9600333924825, 40.6358812416534], [-73.9603889247491, 40.6358449455214], [-73.9603675344232, 40.6357343034518]]]}}, {"type": "Feature", "properties": {"zone_id": "0203KL3RJ88QAZ700QPYI1", "tract_id": "36047051800", "city": "BROOKLYN, NY", "zone_code": "R7A", "zone_category": "Residential", "ev_permitted": false}, "geometry": {"type": "Polygon", "coordinates": [[[-73.9603264312209, 40.6355216774188], [-73.9599952740666, 40.6356840484845], [-73.9600120036568, 40.6357705995185], [-73.9603675344232, 40.6357343034518], [-73.9603264312209, 40.6355216774188]]]}}, {"type": "Feature", "properties": {"zone_id": "02018MQTZ0YTP1D5JRUM4Y", "tract_id": "36047051800", "city": "BROOKLYN, NY", "zone_code": "C2-4", "zone_category": "Commercial", "ev_permitted": true}, "geometry": {"type": "Polygon", "coordinates": [[[-73.9612010312556, 40.6351154177378], [-73.9611315096157, 40.6351488790871], [-73.9611831680255, 40.6354246239386], [-73.9612575366579, 40.6354170300167], [-73.9612010312556, 40.6351154177378]]]}}, {"type": "Feature", "properties": {"zone_id": "02028Y1NURTXBT42PVU390", "tract_id": "36047051800", "city": "BROOKLYN, NY", "zone_code": "R6A", "zone_category": "Residential", "ev_permitted": false}, "geometry": {"type": "Polygon", "coordinates": [[[-73.9611315096157, 40.6351488790871], [-73.9610660363368, 40.6351803918679], [-73.9611131310297, 40.6354317751928], [-73.9611831680255, 40.6354246239386], [-73.9611315096157, 40.6351488790871]]]}}, {"type": "Feature", "properties": {"zone_id": "02002DX54II9C9AC3B5WZF", "tract_id": "36047051800", "city": "BROOKLYN, NY", "zone_code": "R6A", "zone_category": "Residential", "ev_permitted": false}, "geometry": {"type": "Polygon", "coordinates": [[[-73.9610660363368, 40.6351803918679], [-73.9609998996358, 40.6352122240992], [-73.9610423837602, 40.6354389992409], [-73.9611131310297, 40.6354317751928], [-73.9610660363368, 40.6351803918679]]]}}, {"type": "Feature", "properties": {"zone_id": "0202MYKBGT6BHX7RQZIR7L", "tract_id": "36047051800", "city": "BROOKLYN, NY", "zone_code": "R1-2", "zone_category": "Residential", "ev_permitted": false}, "geometry": {"type": "Polygon", "coordinates": [[[-73.9599360504385, 40.6409301018092], [-73.9594424175941, 40.6409867793026], [-73.9594986314278, 40.6412820955673], [-73.9599613643469, 40.6410630794751], [-73.9599360504385, 40.6409301018092]]]}}, {"type": "Feature", "properties": {"zone_id": "0204O7BTJ4SQS130T6638E", "tract_id": "36047051800", "city": "BROOKLYN, NY", "zone_code": "R1-2", "zone_category": "Residential", "ev_permitted": false}, "geometry": {"type": "Polygon", "coordinates": [[[-73.9599044829104, 40.6407642660325], [-73.9594108521885, 40.6408209433917], [-73.9594424175941, 40.6409867793026], [-73.9599360504385, 40.6409301018092], [-73.9599044829104, 40.6407642660325]]]}}, {"type": "Feature", "properties": {"zone_id": "02033SGFPPTB4MJPG3W48I", "tract_id": "36047051800", "city": "BROOKLYN, NY", "zone_code": "R1-2", "zone_category": "Residential", "ev_permitted": false}, "geometry": {"type": "Polygon", "coordinates": [[[-73.9598734580584, 40.6406012811463], [-73.9593798266715, 40.64065795767], [-73.9594108521885, 40.6408209433917], [-73.9599044829104, 40.6407642660325], [-73.9598734580584, 40.6406012811463]]]}}, {"type": "Feature", "properties": {"zone_id": "0207NLSJLZ7IVQXRR47GJ8", "tract_id": "36047051800", "city": "BROOKLYN, NY", "zone_code": "R1-2", "zone_category": "Residential", "ev_permitted": false}, "geometry": {"type": "Polygon", "coordinates": [[[-73.9598088222075, 40.6402617286191], [-73.9593151941999, 40.6403184048678], [-73.9593798266715, 40.64065795767], [-73.9598734580584, 40.6406012811463], [-73.9598088222075, 40.6402617286191]]]}}, {"type": "Feature", "properties": {"zone_id": "0201EO5VYF29MRLZ273G59", "tract_id": "36047051800", "city": "BROOKLYN, NY", "zone_code": "R1-2", "zone_category": "Residential", "ev_permitted": false}, "geometry": {"type": "Polygon", "coordinates": [[[-73.959772627415, 40.6400715782553], [-73.9592789998601, 40.6401282557549], [-73.9593151941999, 40.6403184048678], [-73.9598088222075, 40.6402617286191], [-73.959772627415, 40.6400715782553]]]}}, {"type": "Feature", "properties": {"zone_id": "0205XJ3T8F0SF45E7XOVXO", "tract_id": "36047051800", "city": "BROOKLYN, NY", "zone_code": "R1-2", "zone_category": "Residential", "ev_permitted": false}, "geometry": {"type": "Polygon", "coordinates": [[[-73.9597363114536, 40.6398807912189], [-73.9592426843576, 40.6399374671581], [-73.9592789998601, 40.6401282557549], [-73.959772627415, 40.6400715782553], [-73.9597363114536, 40.6398807912189]]]}}, {"type": "Feature", "properties": {"zone_id": "02066PMQ1KX277N73V629G", "tract_id": "36047051800", "city": "BROOKLYN, NY", "zone_code": "R1-2", "zone_category": "Residential", "ev_permitted": false}, "geometry": {"type": "Polygon", "coordinates": [[[-73.9596999506389, 40.6396897764876], [-73.9592063267699, 40.6397464522726], [-73.9592426843576, 40.6399374671581], [-73.9597363114536, 40.6398807912189], [-73.9596999506389, 40.6396897764876]]]}}, {"type": "Feature", "properties": {"zone_id": "02071936KMEFYEVKTMW5K8", "tract_id": "36047051800", "city": "BROOKLYN, NY", "zone_code": "R1-2", "zone_category": "Residential", "ev_permitted": false}, "geometry": {"type": "Polygon", "coordinates": [[[-73.9596657296987, 40.6395099995151], [-73.9591721071301, 40.639566675857], [-73.9592063267699, 40.6397464522726], [-73.9596999506389, 40.6396897764876], [-73.9596657296987, 40.6395099995151]]]}}, {"type": "Feature", "properties": {"zone_id": "0200BSRHFXKZ3S8MYMQMHM", "tract_id": "36047051800", "city": "BROOKLYN, NY", "zone_code": "R1-2", "zone_category": "Residential", "ev_permitted": false}, "geometry": {"type": "Polygon", "coordinates": [[[-73.9601530841336, 40.6398031162119], [-73.9597307548809, 40.6398516082863], [-73.9597643646963, 40.6400281752437], [-73.9601868823062, 40.6399796620317], [-73.9601530841336, 40.6398031162119]]]}}, {"type": "Feature", "properties": {"zone_id": "0201MJP4JY4BG3PIDV6Q0V", "tract_id": "36047051800", "city": "BROOKLYN, NY", "zone_code": "R1-2", "zone_category": "Residential", "ev_permitted": false}, "geometry": {"type": "Polygon", "coordinates": [[[-73.9601222498363, 40.6396420518259], [-73.959700093162, 40.6396905241734], [-73.9597307548809, 40.6398516082863], [-73.9601530841336, 40.6398031162119], [-73.9601222498363, 40.6396420518259]]]}}, {"type": "Feature", "properties": {"zone_id": "02073FMKPP24XUJW8UDA0A", "tract_id": "36047051800", "city": "BROOKLYN, NY", "zone_code": "R1-2", "zone_category": "Residential", "ev_permitted": false}, "geometry": {"type": "Polygon", "coordinates": [[[-73.9600926635077, 40.6394875029747], [-73.9596706710686, 40.6395359562997], [-73.959700093162, 40.6396905241734], [-73.9601222498363, 40.6396420518259], [-73.9600926635077, 40.6394875029747]]]}}, {"type": "Feature", "properties": {"zone_id": "0203USWRVX9S6KZNLIFMUI", "tract_id": "36047051800", "city": "BROOKLYN, NY", "zone_code": "R1-2", "zone_category": "Residential", "ev_permitted": false}, "geometry": {"type": "Polygon", "coordinates": [[[-73.9597034173621, 40.6390890220362], [-73.9594840365034, 40.6391933525876], [-73.9596794767898, 40.6394300522654], [-73.9598993521746, 40.6393263194844], [-73.9597034173621, 40.6390890220362]]]}}, {"type": "Feature", "properties": {"zone_id": "02068S5PU5R569MCUWGNS7", "tract_id": "36047051800", "city": "BROOKLYN, NY", "zone_code": "R1-2", "zone_category": "Residential", "ev_permitted": false}, "geometry": {"type": "Polygon", "coordinates": [[[-73.9600482507067, 40.6392555075139], [-73.9596794767898, 40.6394300522654], [-73.9596634226929, 40.6394337784906], [-73.9596523363498, 40.63943963483], [-73.9596706710686, 40.6395359562997], [-73.9600926635077, 40.6394875029747], [-73.9600482507067, 40.6392555075139]]]}}, {"type": "Feature", "properties": {"zone_id": "0206DTEUA7QZ7GHLBA9LB3", "tract_id": "36047051800", "city": "BROOKLYN, NY", "zone_code": "R1-2", "zone_category": "Residential", "ev_permitted": false}, "geometry": {"type": "Polygon", "coordinates": [[[-73.9599902641398, 40.6389526055629], [-73.9597034173621, 40.6390890220362], [-73.9598993521746, 40.6393263194844], [-73.9600482507067, 40.6392555075139], [-73.9599902641398, 40.6389526055629]]]}}, {"type": "Feature", "properties": {"zone_id": "0207M1VY32MBAV2JP2RS1U", "tract_id": "36047051800", "city": "BROOKLYN, NY", "zone_code": "R1-2", "zone_category": "Residential", "ev_permitted": false}, "geometry": {"type": "Polygon", "coordinates": [[[-73.9595527215886, 40.6385380759643], [-73.9594796616263, 40.6385460557095], [-73.9594924711317, 40.6386112050335], [-73.9594573621671, 40.6386271811086], [-73.9595143533209, 40.6389304153504], [-73.9597710401541, 40.6388104543568], [-73.9595527215886, 40.6385380759643]]]}}, {"type": "Feature", "properties": {"zone_id": "0205MYI0MG83QP1YQ9ZQZU", "tract_id": "36047051800", "city": "BROOKLYN, NY", "zone_code": "R1-2", "zone_category": "Residential", "ev_permitted": false}, "geometry": {"type": "Polygon", "coordinates": [[[-73.9594894439328, 40.6387978831867], [-73.9590486846528, 40.6388460212563], [-73.9591019294674, 40.6391231566679], [-73.9595143533209, 40.6389304153504], [-73.9594894439328, 40.6387978831867]]]}}, {"type": "Feature", "properties": {"zone_id": "0200WFYK4AWL03C9OI0EBL", "tract_id": "36047051800", "city": "BROOKLYN, NY", "zone_code": "R1-2", "zone_category": "Residential", "ev_permitted": false}, "geometry": {"type": "Polygon", "coordinates": [[[-73.9599086978195, 40.6384991956701], [-73.9595527215886, 40.6385380759643], [-73.9597710401541, 40.6388104543568], [-73.9599513600701, 40.6387261826986], [-73.9599086978195, 40.6384991956701]]]}}, {"type": "Feature", "properties": {"zone_id": "0200MUS3GX8T8T0Z67PWG8", "tract_id": "36047051800", "city": "BROOKLYN, NY", "zone_code": "R1-2", "zone_category": "Residential", "ev_permitted": false}, "geometry": {"type": "Polygon", "coordinates": [[[-73.9594592764228, 40.6386373641076], [-73.959017859541, 40.6386855742023], [-73.9590486846528, 40.6388460212563], [-73.9594894439328, 40.6387978831867], [-73.9594592764228, 40.6386373641076]]]}}, {"type": "Feature", "properties": {"zone_id": "0202YI3KCRQS99R1FVDZQU", "tract_id": "36047051800", "city": "BROOKLYN, NY", "zone_code": "R1-2", "zone_category": "Residential", "ev_permitted": false}, "geometry": {"type": "Polygon", "coordinates": [[[-73.9594487872099, 40.6383817827355], [-73.9589695501512, 40.6384341229199], [-73.9589939388032, 40.6385610667184], [-73.9594726574083, 40.638508783166], [-73.9594487872099, 40.6383817827355]]]}}, {"type": "Feature", "properties": {"zone_id": "0202ASBQ3F8AWE84376U0N", "tract_id": "36047051800", "city": "BROOKLYN, NY", "zone_code": "R1-2", "zone_category": "Residential", "ev_permitted": false}, "geometry": {"type": "Polygon", "coordinates": [[[-73.9594726574083, 40.638508783166], [-73.9589939388032, 40.6385610667184], [-73.959017859541, 40.6386855742023], [-73.9594592764228, 40.6386373641076], [-73.9594573621671, 40.6386271811086], [-73.9594924711317, 40.6386112050335], [-73.9594726574083, 40.638508783166]]]}}, {"type": "Feature", "properties": {"zone_id": "0204SPFHQFABHP7F84R95D", "tract_id": "36047051800", "city": "BROOKLYN, NY", "zone_code": "R1-2", "zone_category": "Residential", "ev_permitted": false}, "geometry": {"type": "Polygon", "coordinates": [[[-73.959837122731, 40.6381183689039], [-73.959408088936, 40.6381652286782], [-73.9594487872099, 40.6383817827355], [-73.9598778232914, 40.6383349221082], [-73.959837122731, 40.6381183689039]]]}}, {"type": "Feature", "properties": {"zone_id": "0202Q7B4I7G7BXG7B1TVXK", "tract_id": "36047051800", "city": "BROOKLYN, NY", "zone_code": "R1-2", "zone_category": "Residential", "ev_permitted": false}, "geometry": {"type": "Polygon", "coordinates": [[[-73.9598778232914, 40.6383349221082], [-73.9594487872099, 40.6383817827355], [-73.9594796616263, 40.6385460557095], [-73.9599086978195, 40.6384991956701], [-73.9598778232914, 40.6383349221082]]]}}, {"type": "Feature", "properties": {"zone_id": "0206AQSOIVC7SUUARAL7V8", "tract_id": "36047051800", "city": "BROOKLYN, NY", "zone_code": "R1-2", "zone_category": "Residential", "ev_permitted": false}, "geometry": {"type": "Polygon", "coordinates": [[[-73.9598105681161, 40.6379770803094], [-73.9593814383531, 40.6380239504911], [-73.959408088936, 40.6381652286782], [-73.959837122731, 40.6381183689039], [-73.9598105681161, 40.6379770803094]]]}}, {"type": "Feature", "properties": {"zone_id": "020116ERXGV67RYMWCDDWX", "tract_id": "36047051800", "city": "BROOKLYN, NY", "zone_code": "R1-2", "zone_category": "Residential", "ev_permitted": false}, "geometry": {"type": "Polygon", "coordinates": [[[-73.9594258080291, 40.6382595129563], [-73.9589460700113, 40.6383119090797], [-73.9589695501512, 40.6384341229199], [-73.9594487872099, 40.6383817827355], [-73.9594258080291, 40.6382595129563]]]}}, {"type": "Feature", "properties": {"zone_id": "0205U31N0B9PSBI8ORIA00", "tract_id": "36047051800", "city": "BROOKLYN, NY", "zone_code": "R1-2", "zone_category": "Residential", "ev_permitted": false}, "geometry": {"type": "Polygon", "coordinates": [[[-73.9594028289317, 40.6381372445761], [-73.9589225908803, 40.6381896945307], [-73.9589460700113, 40.6383119090797], [-73.9594258080291, 40.6382595129563], [-73.9594028289317, 40.6381372445761]]]}}, {"type": "Feature", "properties": {"zone_id": "02055OJ134L8J1GKGGXX8G", "tract_id": "36047051800", "city": "BROOKLYN, NY", "zone_code": "R1-2", "zone_category": "Residential", "ev_permitted": false}, "geometry": {"type": "Polygon", "coordinates": [[[-73.9593642805446, 40.6379321299471], [-73.9592214514784, 40.6380018723319], [-73.9588933901154, 40.6380377017796], [-73.9589225908803, 40.6381896945307], [-73.9594028289317, 40.6381372445761], [-73.9593642805446, 40.6379321299471]]]}}, {"type": "Feature", "properties": {"zone_id": "02000XQSQ65DQ70FR393ID", "tract_id": "36047051800", "city": "BROOKLYN, NY", "zone_code": "R1-2", "zone_category": "Residential", "ev_permitted": false}, "geometry": {"type": "Polygon", "coordinates": [[[-73.9597653158398, 40.6377363060074], [-73.9593642805446, 40.6379321299471], [-73.9593814383531, 40.6380239504911], [-73.9598105681161, 40.6379770803094], [-73.9597653158398, 40.6377363060074]]]}}, {"type": "Feature", "properties": {"zone_id": "0202H8W24LOTALXISL5CY6", "tract_id": "36047051800", "city": "BROOKLYN, NY", "zone_code": "R1-2", "zone_category": "Residential", "ev_permitted": false}, "geometry": {"type": "Polygon", "coordinates": [[[-73.9590457116695, 40.6376948884183], [-73.958846241998, 40.6377922874413], [-73.9588933901154, 40.6380377017796], [-73.9592214514784, 40.6380018723319], [-73.9592719851374, 40.6379771971727], [-73.9590457116695, 40.6376948884183]]]}}, {"type": "Feature", "properties": {"zone_id": "02040KA1RYQGOE1BE1CQAJ", "tract_id": "36047051800", "city": "BROOKLYN, NY", "zone_code": "R7A", "zone_category": "Residential", "ev_permitted": false}, "geometry": {"type": "Polygon", "coordinates": [[[-73.9592149505223, 40.6372471616443], [-73.9587465974212, 40.6372977516127], [-73.9588073211849, 40.6376153142359], [-73.9592451947571, 40.6374039061205], [-73.9592149505223, 40.6372471616443]]]}}, {"type": "Feature", "properties": {"zone_id": "02028VUMYJXWSTCV8K8ZM1", "tract_id": "36047051800", "city": "BROOKLYN, NY", "zone_code": "R7A", "zone_category": "Residential", "ev_permitted": false}, "geometry": {"type": "Polygon", "coordinates": [[[-73.9592419784089, 40.6369115725606], [-73.958684272634, 40.6369718154087], [-73.9587465974212, 40.6372977516127], [-73.9592149505223, 40.6372471616443], [-73.9591757499165, 40.6370439874625], [-73.9592591376786, 40.6370018051096], [-73.9592419784089, 40.6369115725606]]]}}, {"type": "Feature", "properties": {"zone_id": "0204C9S6T0A0OVNHXZN368", "tract_id": "36047051800", "city": "BROOKLYN, NY", "zone_code": "R7A", "zone_category": "Residential", "ev_permitted": false}, "geometry": {"type": "Polygon", "coordinates": [[[-73.9591696972266, 40.6365314828595], [-73.9586116025269, 40.6365917687836], [-73.958684272634, 40.6369718154087], [-73.9592419784089, 40.6369115725606], [-73.9591696972266, 40.6365314828595]]]}}, {"type": "Feature", "properties": {"zone_id": "0201QB9QIQS4HN33VRZ19Q", "tract_id": "36047051800", "city": "BROOKLYN, NY", "zone_code": "R7A", "zone_category": "Residential", "ev_permitted": false}, "geometry": {"type": "Polygon", "coordinates": [[[-73.9600976844334, 40.6362138264672], [-73.9597384889317, 40.6362504956389], [-73.959758048008, 40.6363541323057], [-73.9601177098825, 40.6363174154536], [-73.9600976844334, 40.6362138264672]]]}}, {"type": "Feature", "properties": {"zone_id": "0203OHJU4A4VGBL4GLT0TG", "tract_id": "36047051800", "city": "BROOKLYN, NY", "zone_code": "R7A", "zone_category": "Residential", "ev_permitted": false}, "geometry": {"type": "Polygon", "coordinates": [[[-73.9590904863909, 40.6361149574214], [-73.9585688021985, 40.636367929095], [-73.9586116025269, 40.6365917687836], [-73.9591696972266, 40.6365314828595], [-73.9590904863909, 40.6361149574214]]]}}, {"type": "Feature", "properties": {"zone_id": "0203UMFCWXJJTEKYM93OSD", "tract_id": "36047051800", "city": "BROOKLYN, NY", "zone_code": "R1-2", "zone_category": "Residential", "ev_permitted": false}, "geometry": {"type": "Polygon", "coordinates": [[[-73.9594840365034, 40.6391933525876], [-73.959132838952, 40.6393603692066], [-73.9591721071301, 40.639566675857], [-73.9596657296987, 40.6395099995151], [-73.9596523363498, 40.63943963483], [-73.9596634226929, 40.6394337784906], [-73.9596794767898, 40.6394300522654], [-73.9594840365034, 40.6391933525876]]]}}, {"type": "Feature", "properties": {"zone_id": "0207L2J10T0FDJ6A5G8YSG", "tract_id": "36047051800", "city": "BROOKLYN, NY", "zone_code": "R1-2", "zone_category": "Residential", "ev_permitted": false}, "geometry": {"type": "Polygon", "coordinates": [[[-73.9596976977766, 40.6373765267431], [-73.9594510497638, 40.637496964727], [-73.9596773233529, 40.6377792726895], [-73.9597653158398, 40.6377363060074], [-73.9596976977766, 40.6373765267431]]]}}, {"type": "Feature", "properties": {"zone_id": "0202KCYQNX91OGZJYKEYWG", "tract_id": "36047051800", "city": "BROOKLYN, NY", "zone_code": "R1-2", "zone_category": "Residential", "ev_permitted": false}, "geometry": {"type": "Polygon", "coordinates": [[[-73.9593187843622, 40.6375615491796], [-73.9591974190607, 40.6376208111439], [-73.9594236919968, 40.6379031196016], [-73.9595450585331, 40.6378438574008], [-73.9593187843622, 40.6375615491796]]]}}, {"type": "Feature", "properties": {"zone_id": "020442NRP2KRO1MUBF05SX", "tract_id": "36047051800", "city": "BROOKLYN, NY", "zone_code": "R1-2", "zone_category": "Residential", "ev_permitted": false}, "geometry": {"type": "Polygon", "coordinates": [[[-73.9594510497638, 40.637496964727], [-73.9593187843622, 40.6375615491796], [-73.9595450585331, 40.6378438574008], [-73.9596773233529, 40.6377792726895], [-73.9594510497638, 40.637496964727]]]}}, {"type": "Feature", "properties": {"zone_id": "0205JVNPQG1BQTLVYXNYOX", "tract_id": "36047051800", "city": "BROOKLYN, NY", "zone_code": "R1-2", "zone_category": "Residential", "ev_permitted": false}, "geometry": {"type": "Polygon", "coordinates": [[[-73.9591974190607, 40.6376208111439], [-73.9590457116695, 40.6376948884183], [-73.9592719851374, 40.6379771971727], [-73.9594236919968, 40.6379031196016], [-73.9591974190607, 40.6376208111439]]]}}, {"type": "Feature", "properties": {"zone_id": "02066P88FART53WNG742O3", "tract_id": "36047051800", "city": "BROOKLYN, NY", "zone_code": "R7A", "zone_category": "Residential", "ev_permitted": false}, "geometry": {"type": "Polygon", "coordinates": [[[-73.9592763832109, 40.6369930813022], [-73.9591757499165, 40.6370439874625], [-73.9592451947571, 40.6374039061205], [-73.9595155615743, 40.6372733704924], [-73.9592763832109, 40.6369930813022]]]}}, {"type": "Feature", "properties": {"zone_id": "0205I1DUZGH8OF5AFM95BH", "tract_id": "36047051800", "city": "BROOKLYN, NY", "zone_code": "R7A", "zone_category": "Residential", "ev_permitted": false}, "geometry": {"type": "Polygon", "coordinates": [[[-73.9595942961811, 40.6368210846696], [-73.9592322085957, 40.6368601986263], [-73.9592591376786, 40.6370018051096], [-73.9593436620566, 40.6369590490203], [-73.9596149599394, 40.6369297422876], [-73.9595942961811, 40.6368210846696]]]}}, {"type": "Feature", "properties": {"zone_id": "02054ZWHC5C0DXAZUJ0VGY", "tract_id": "36047051800", "city": "BROOKLYN, NY", "zone_code": "R7A", "zone_category": "Residential", "ev_permitted": false}, "geometry": {"type": "Polygon", "coordinates": [[[-73.9596149599394, 40.6369297422876], [-73.9593436620566, 40.6369590490203], [-73.9592763832109, 40.6369930813022], [-73.9595155615743, 40.6372733704924], [-73.9596664559714, 40.6372005163533], [-73.9596149599394, 40.6369297422876]]]}}, {"type": "Feature", "properties": {"zone_id": "0204J4MP033RH55MPZ8P9K", "tract_id": "36047051800", "city": "BROOKLYN, NY", "zone_code": "R7A", "zone_category": "Residential", "ev_permitted": false}, "geometry": {"type": "Polygon", "coordinates": [[[-73.959457590106, 40.6361022384998], [-73.9590955054185, 40.6361413520288], [-73.9592322085957, 40.6368601986263], [-73.9595942961811, 40.6368210846696], [-73.959457590106, 40.6361022384998]]]}}, {"type": "Feature", "properties": {"zone_id": "0205C4MK269D1CAB61ZC0R", "tract_id": "36047051800", "city": "BROOKLYN, NY", "zone_code": "R7A", "zone_category": "Residential", "ev_permitted": false}, "geometry": {"type": "Polygon", "coordinates": [[[-73.9599952740666, 40.6356840484845], [-73.9596623881225, 40.6358472661052], [-73.959717525029, 40.6361394179497], [-73.9600762218355, 40.6361027992621], [-73.9599952740666, 40.6356840484845]]]}}, {"type": "Feature", "properties": {"zone_id": "0201N7YOU6SYW76ESZGVJS", "tract_id": "36047051800", "city": "BROOKLYN, NY", "zone_code": "R7A", "zone_category": "Residential", "ev_permitted": false}, "geometry": {"type": "Polygon", "coordinates": [[[-73.9600762218355, 40.6361027992621], [-73.959717525029, 40.6361394179497], [-73.9597384889317, 40.6362504956389], [-73.9600976844334, 40.6362138264672], [-73.9600762218355, 40.6361027992621]]]}}, {"type": "Feature", "properties": {"zone_id": "02044G4IXQFXQ2E5I74DXN", "tract_id": "36047051800", "city": "BROOKLYN, NY", "zone_code": "R7A", "zone_category": "Residential", "ev_permitted": false}, "geometry": {"type": "Polygon", "coordinates": [[[-73.9594288092381, 40.6359508980719], [-73.9590904863909, 40.6361149574214], [-73.9590955054185, 40.6361413520288], [-73.959457590106, 40.6361022384998], [-73.9594288092381, 40.6359508980719]]]}}]}