{"type": "FeatureCollection", "features": [{"type": "Feature", "properties": {"zone_id": "0201HXX57CDTHUGW101TP5", "tract_id": "06037190702", "city": "LOS ANGELES, CA", "zone_code": "CPIO", "zone_category": "Other", "ev_permitted": false}, "geometry": {"type": "Polygon", "coordinates": [[[-118.338497984721, 34.0974013366011], [-118.338109874744, 34.0974020660414], [-118.338113709014, 34.0977677914733], [-118.338114772543, 34.0977772876286], [-118.338117807153, 34.0977864875124], [-118.338122721027, 34.0977951127684], [-118.338129365489, 34.0978029024265], [-118.3381375395, 34.0978096207992], [-118.338146995744, 34.0978150646121], [-118.338157448106, 34.0978190691546], [-118.338168580336, 34.0978215132635], [-118.33818005561, 34.0978223229886], [-118.338436837223, 34.0978218788107], [-118.338448294892, 34.0978209855732], [-118.338459392762, 34.0978184631133], [-118.338469795624, 34.0978143876213], [-118.338479189261, 34.0978088821964], [-118.33848728994, 34.0978021131287], [-118.338493852983, 34.0977942848762], [-118.338498680153, 34.0977856338896], [-118.338501625646, 34.0977764214701], [-118.338502600495, 34.0977669258767], [-118.338497984721, 34.0974013366011]]]}}, {"type": "Feature", "properties": {"zone_id": "0201UJWYXHO143T5GBEZEG", "tract_id": "06037190702", "city": "LOS ANGELES, CA", "zone_code": "C2-1", "zone_category": "Commercial", "ev_permitted": true}, "geometry": {"type": "Polygon", "coordinates": [[[-118.33849627261, 34.0972639747995], [-118.338108427292, 34.0972646485379], [-118.338109874744, 34.0974020660414], [-118.338497984721, 34.0974013366011], [-118.33849627261, 34.0972639747995]]]}}, {"type": "Feature", "properties": {"zone_id": "0205RMHG9QPFYZSUW62NPR", "tract_id": "06037190702", "city": "LOS ANGELES, CA", "zone_code": "SN", "zone_category": "Other", "ev_permitted": false}, "geometry": {"type": "Polygon", "coordinates": [[[-118.338492749091, 34.0969891965189], [-118.338105532735, 34.0969898959684], [-118.338106979956, 34.0971272585136], [-118.338494494332, 34.0971265857051], [-118.338492749091, 34.0969891965189]]]}}, {"type": "Feature", "properties": {"zone_id": "0200AL5LRR6G82SEW0Z21W", "tract_id": "06037190702", "city": "LOS ANGELES, CA", "zone_code": "C2-1", "zone_category": "Commercial", "ev_permitted": true}, "geometry": {"type": "Polygon", "coordinates": [[[-118.338494494332, 34.0971265857051], [-118.338106979956, 34.0971272585136], [-118.338108427292, 34.0972646485379], [-118.33849627261, 34.0972639747995], [-118.338494494332, 34.0971265857051]]]}}, {"type": "Feature", "properties": {"zone_id": "0200UQZVNMVDMB9IRGGWC4", "tract_id": "06037190702", "city": "LOS ANGELES, CA", "zone_code": "C2-2D", "zone_category": "Commercial", "ev_permitted": true}, "geometry": {"type": "Polygon", "coordinates": [[[-118.337929928164, 34.0975669477202], [-118.3377152284, 34.0975673006899], [-118.337718100719, 34.0978368598369], [-118.337866675474, 34.0978366093481], [-118.33787811419, 34.0978356765247], [-118.337889185812, 34.0978331198583], [-118.337899556785, 34.0978290163732], [-118.337908914665, 34.0978234896946], [-118.337916977529, 34.0978167063238], [-118.337923502465, 34.0978088706226], [-118.337928292899, 34.097800218656], [-118.33793120451, 34.0977910110808], [-118.33793214958, 34.0977815252925], [-118.337929928164, 34.0975669477202]]]}}, {"type": "Feature", "properties": {"zone_id": "02020V9M44EFP449TPRA9J", "tract_id": "06037190702", "city": "LOS ANGELES, CA", "zone_code": "C2-2D", "zone_category": "Commercial", "ev_permitted": true}, "geometry": {"type": "Polygon", "coordinates": [[[-118.337002501688, 34.097554671938], [-118.336672161242, 34.097555180661], [-118.336675174588, 34.0978441944308], [-118.337005515954, 34.0978436307424], [-118.337002501688, 34.097554671938]]]}}, {"type": "Feature", "properties": {"zone_id": "0207C528OH3R5PCQG6W3ZQ", "tract_id": "06037190702", "city": "LOS ANGELES, CA", "zone_code": "C2-2D", "zone_category": "Commercial", "ev_permitted": true}, "geometry": {"type": "Polygon", "coordinates": [[[-118.337926758098, 34.0972647445796], [-118.337448375504, 34.0972654770259], [-118.337454404901, 34.0978428450395], [-118.337718122914, 34.0978423555379], [-118.337713781704, 34.0974299106594], [-118.337928481115, 34.0974295576923], [-118.337926758098, 34.0972647445796]]]}}, {"type": "Feature", "properties": {"zone_id": "0207BFYG6MBEO4O3KZP0I5", "tract_id": "06037190702", "city": "LOS ANGELES, CA", "zone_code": "C2-2D", "zone_category": "Commercial", "ev_permitted": true}, "geometry": {"type": "Polygon", "coordinates": [[[-118.337448529928, 34.097279188523], [-118.337141080797, 34.0972796620766], [-118.337146953919, 34.097843373565], [-118.337454404901, 34.0978428450395], [-118.337448529928, 34.097279188523]]]}}, {"type": "Feature", "properties": {"zone_id": "020732O23XUPZDWGJ4CFRL", "tract_id": "06037190702", "city": "LOS ANGELES, CA", "zone_code": "SN", "zone_category": "Other", "ev_permitted": false}, "geometry": {"type": "Polygon", "coordinates": [[[-118.337928481115, 34.0974295576923], [-118.337713781704, 34.0974299106594], [-118.3377152284, 34.0975673006899], [-118.337929928164, 34.0975669477202], [-118.337928481115, 34.0974295576923]]]}}, {"type": "Feature", "properties": {"zone_id": "02042JX49OXDGFTMK0YXF4", "tract_id": "06037190702", "city": "LOS ANGELES, CA", "zone_code": "C2-2D", "zone_category": "Commercial", "ev_permitted": true}, "geometry": {"type": "Polygon", "coordinates": [[[-118.337925310838, 34.0971272995961], [-118.337470050536, 34.0971280224181], [-118.337471496826, 34.0972654124501], [-118.337926758098, 34.0972647445796], [-118.337925310838, 34.0971272995961]]]}}, {"type": "Feature", "properties": {"zone_id": "0207BG4ZG47IQYZF4UCTPI", "tract_id": "06037190702", "city": "LOS ANGELES, CA", "zone_code": "RD1.5-1XL", "zone_category": "Residential", "ev_permitted": false}, "geometry": {"type": "Polygon", "coordinates": [[[-118.337940379092, 34.0969898908587], [-118.337468604251, 34.0969906323868], [-118.337470050536, 34.0971280224181], [-118.337941826152, 34.0971272808843], [-118.337940379092, 34.0969898908587]]]}}, {"type": "Feature", "properties": {"zone_id": "0203XRGYBOKILEGMMFP4TF", "tract_id": "06037190702", "city": "LOS ANGELES, CA", "zone_code": "C2-2D", "zone_category": "Commercial", "ev_permitted": true}, "geometry": {"type": "Polygon", "coordinates": [[[-118.337141080797, 34.0972796620766], [-118.336999610644, 34.0972798918607], [-118.337005515954, 34.0978436307424], [-118.337146953919, 34.097843373565], [-118.337141080797, 34.0972796620766]]]}}, {"type": "Feature", "properties": {"zone_id": "02017CXWFPRQ8K2CZ3KF99", "tract_id": "06037190702", "city": "LOS ANGELES, CA", "zone_code": "C2-2D", "zone_category": "Commercial", "ev_permitted": true}, "geometry": {"type": "Polygon", "coordinates": [[[-118.336999571886, 34.0972702743839], [-118.336669199643, 34.0972708106695], [-118.336672161242, 34.097555180661], [-118.337002501688, 34.097554671938], [-118.336999571886, 34.0972702743839]]]}}, {"type": "Feature", "properties": {"zone_id": "0204B9B20L7BWUNIF6ZYZ7", "tract_id": "06037190702", "city": "LOS ANGELES, CA", "zone_code": "RD1.5-1XL", "zone_category": "Residential", "ev_permitted": false}, "geometry": {"type": "Polygon", "coordinates": [[[-118.33699663122, 34.0969913726256], [-118.336666293111, 34.0969919088111], [-118.336667738077, 34.0971292988521], [-118.3369980437, 34.0971287627547], [-118.33699663122, 34.0969913726256]]]}}, {"type": "Feature", "properties": {"zone_id": "02051ANPI4FZVQHF3K0LOJ", "tract_id": "06037190702", "city": "LOS ANGELES, CA", "zone_code": "RD1.5-1XL", "zone_category": "Residential", "ev_permitted": false}, "geometry": {"type": "Polygon", "coordinates": [[[-118.3369980437, 34.0971287627547], [-118.336667738077, 34.0971292988521], [-118.336669199643, 34.0972708106695], [-118.336999571886, 34.0972702743839], [-118.3369980437, 34.0971287627547]]]}}, {"type": "Feature", "properties": {"zone_id": "0203ZNIUICJ6JXIQ32TRZ7", "tract_id": "06037190702", "city": "LOS ANGELES, CA", "zone_code": "C2-1", "zone_category": "Commercial", "ev_permitted": true}, "geometry": {"type": "Polygon", "coordinates": [[[-118.338453687449, 34.0962336110608], [-118.33809755576, 34.0962341959384], [-118.338102638087, 34.0967151159228], [-118.338489258737, 34.0967144456266], [-118.338483559085, 34.0962610886325], [-118.338453687449, 34.0962336110608]]]}}, {"type": "Feature", "properties": {"zone_id": "020484T90AOJ0KYLSYR5Z4", "tract_id": "06037190702", "city": "LOS ANGELES, CA", "zone_code": "C2-1", "zone_category": "Commercial", "ev_permitted": true}, "geometry": {"type": "Polygon", "coordinates": [[[-118.338489258737, 34.0967144456266], [-118.338102638087, 34.0967151159228], [-118.338104085409, 34.0968525059453], [-118.338491003856, 34.0968518073332], [-118.338489258737, 34.0967144456266]]]}}, {"type": "Feature", "properties": {"zone_id": "0200C37HA8H4ZFCQ1KNV9M", "tract_id": "06037190702", "city": "LOS ANGELES, CA", "zone_code": "C2-1", "zone_category": "Commercial", "ev_permitted": true}, "geometry": {"type": "Polygon", "coordinates": [[[-118.338491003856, 34.0968518073332], [-118.338104085409, 34.0968525059453], [-118.338105532735, 34.0969898959684], [-118.338492749091, 34.0969891965189], [-118.338491003856, 34.0968518073332]]]}}, {"type": "Feature", "properties": {"zone_id": "02046E9W1GG8PHU32NRL13", "tract_id": "06037190702", "city": "LOS ANGELES, CA", "zone_code": "RD1.5-1XL", "zone_category": "Residential", "ev_permitted": false}, "geometry": {"type": "Polygon", "coordinates": [[[-118.337933898221, 34.0963751804316], [-118.33779246263, 34.0963754110516], [-118.337794602008, 34.0965779514079], [-118.337936071082, 34.0965777481714], [-118.337933898221, 34.0963751804316]]]}}, {"type": "Feature", "properties": {"zone_id": "0205XDY37YIGI6X8TNXMA5", "tract_id": "06037190702", "city": "LOS ANGELES, CA", "zone_code": "RD1.5-1XL", "zone_category": "Residential", "ev_permitted": false}, "geometry": {"type": "Polygon", "coordinates": [[[-118.337932404831, 34.0962344930813], [-118.337790969479, 34.0962347236996], [-118.33779246263, 34.0963754110516], [-118.337933898221, 34.0963751804316], [-118.337932404831, 34.0962344930813]]]}}, {"type": "Feature", "properties": {"zone_id": "0204LGJ1VODCB3YXM5G2FG", "tract_id": "06037190702", "city": "LOS ANGELES, CA", "zone_code": "C2-1", "zone_category": "Commercial", "ev_permitted": true}, "geometry": {"type": "Polygon", "coordinates": [[[-118.338480227222, 34.0958785928733], [-118.338073957306, 34.0958792356959], [-118.338074731966, 34.0959891487829], [-118.338481035224, 34.0959884509083], [-118.338480227222, 34.0958785928733]]]}}, {"type": "Feature", "properties": {"zone_id": "0200RTPL7XC4YMA7K4CAO8", "tract_id": "06037190702", "city": "LOS ANGELES, CA", "zone_code": "C2-1", "zone_category": "Commercial", "ev_permitted": true}, "geometry": {"type": "Polygon", "coordinates": [[[-118.338481035224, 34.0959884509083], [-118.338074731966, 34.0959891487829], [-118.338075530771, 34.0960968634977], [-118.338448771414, 34.0960962307603], [-118.338481624239, 34.0960686873954], [-118.338481035224, 34.0959884509083]]]}}, {"type": "Feature", "properties": {"zone_id": "0200365B9SCW8FBFE6TAWB", "tract_id": "06037190702", "city": "LOS ANGELES, CA", "zone_code": "RD1.5-1XL", "zone_category": "Residential", "ev_permitted": false}, "geometry": {"type": "Polygon", "coordinates": [[[-118.338028489806, 34.0959892232039], [-118.337912884405, 34.0959894091787], [-118.337913683002, 34.0960971238947], [-118.338029288551, 34.096096937919], [-118.338028489806, 34.0959892232039]]]}}, {"type": "Feature", "properties": {"zone_id": "0206EZN36G6OKWQDL7CMLB", "tract_id": "06037190702", "city": "LOS ANGELES, CA", "zone_code": "RD1.5-1XL", "zone_category": "Residential", "ev_permitted": false}, "geometry": {"type": "Polygon", "coordinates": [[[-118.337465711807, 34.0967158798044], [-118.337135176496, 34.0967163903469], [-118.337138067966, 34.0969911704156], [-118.33699663122, 34.0969913726256], [-118.336999610644, 34.0972798918607], [-118.337448529928, 34.097279188523], [-118.337448375504, 34.0972654770259], [-118.337471496826, 34.0972654124501], [-118.337465711807, 34.0967158798044]]]}}, {"type": "Feature", "properties": {"zone_id": "02074MXP3X40YUPA5BAIHF", "tract_id": "06037190702", "city": "LOS ANGELES, CA", "zone_code": "RD1.5-1XL", "zone_category": "Residential", "ev_permitted": false}, "geometry": {"type": "Polygon", "coordinates": [[[-118.337937484986, 34.0967151108092], [-118.337465711807, 34.0967158798044], [-118.337468604251, 34.0969906323868], [-118.337940379092, 34.0969898908587], [-118.337937484986, 34.0967151108092]]]}}, {"type": "Feature", "properties": {"zone_id": "02052N43FG3Z6V7WNVCIJP", "tract_id": "06037190702", "city": "LOS ANGELES, CA", "zone_code": "RD1.5-1XL", "zone_category": "Residential", "ev_permitted": false}, "geometry": {"type": "Polygon", "coordinates": [[[-118.337627634858, 34.0964067304543], [-118.337462483475, 34.0964069994765], [-118.337464298566, 34.0965784896828], [-118.337629450287, 34.0965782206582], [-118.337627634858, 34.0964067304543]]]}}, {"type": "Feature", "properties": {"zone_id": "0202NCW3XFTSRBPB4DVNEH", "tract_id": "06037190702", "city": "LOS ANGELES, CA", "zone_code": "RD1.5-1XL", "zone_category": "Residential", "ev_permitted": false}, "geometry": {"type": "Polygon", "coordinates": [[[-118.337462483475, 34.0964069994765], [-118.337297332091, 34.0964072682728], [-118.337299146733, 34.0965787310031], [-118.337464298566, 34.0965784896828], [-118.337462483475, 34.0964069994765]]]}}, {"type": "Feature", "properties": {"zone_id": "02022CIRWHXD1Z4M2X2CZS", "tract_id": "06037190702", "city": "LOS ANGELES, CA", "zone_code": "RD1.5-1XL", "zone_category": "Residential", "ev_permitted": false}, "geometry": {"type": "Polygon", "coordinates": [[[-118.337136622228, 34.0968537803809], [-118.336664881179, 34.0968545186787], [-118.336666293111, 34.0969919088111], [-118.337138067966, 34.0969911704156], [-118.337136622228, 34.0968537803809]]]}}, {"type": "Feature", "properties": {"zone_id": "02043JLKVMTNIOXFP0HBZI", "tract_id": "06037190702", "city": "LOS ANGELES, CA", "zone_code": "RD1.5-1XL", "zone_category": "Residential", "ev_permitted": false}, "geometry": {"type": "Polygon", "coordinates": [[[-118.337135176496, 34.0967163903469], [-118.336968967533, 34.0967166616437], [-118.336969877952, 34.0968032448456], [-118.336974832383, 34.0968032035496], [-118.336975367537, 34.096854037862], [-118.337136622228, 34.0968537803809], [-118.337135176496, 34.0967163903469]]]}}, {"type": "Feature", "properties": {"zone_id": "0200P3M800952NMX2GUM4X", "tract_id": "06037190702", "city": "LOS ANGELES, CA", "zone_code": "RD1.5-1XL", "zone_category": "Residential", "ev_permitted": false}, "geometry": {"type": "Polygon", "coordinates": [[[-118.336968967533, 34.0967166616437], [-118.336663436222, 34.0967171286391], [-118.336664881179, 34.0968545186787], [-118.336975367537, 34.096854037862], [-118.336974832383, 34.0968032035496], [-118.336969877952, 34.0968032448456], [-118.336968967533, 34.0967166616437]]]}}, {"type": "Feature", "properties": {"zone_id": "0203ZUC9I04U0OZO3DZ9OA", "tract_id": "06037190702", "city": "LOS ANGELES, CA", "zone_code": "RD1.5-1XL", "zone_category": "Residential", "ev_permitted": false}, "geometry": {"type": "Polygon", "coordinates": [[[-118.337790969479, 34.0962347236996], [-118.337625818437, 34.0962349929449], [-118.337629450287, 34.0965782206582], [-118.337794602008, 34.0965779514079], [-118.337790969479, 34.0962347236996]]]}}, {"type": "Feature", "properties": {"zone_id": "0203CYUT9YO7YTY91HS66U", "tract_id": "06037190702", "city": "LOS ANGELES, CA", "zone_code": "RD1.5-1XL", "zone_category": "Residential", "ev_permitted": false}, "geometry": {"type": "Polygon", "coordinates": [[[-118.337625818437, 34.0962349929449], [-118.337460667393, 34.0962352619646], [-118.337462483475, 34.0964069994765], [-118.337627634858, 34.0964067304543], [-118.337625818437, 34.0962349929449]]]}}, {"type": "Feature", "properties": {"zone_id": "02073RQ3TEB8KIK0G7PX0O", "tract_id": "06037190702", "city": "LOS ANGELES, CA", "zone_code": "RD1.5-1XL", "zone_category": "Residential", "ev_permitted": false}, "geometry": {"type": "Polygon", "coordinates": [[[-118.337295516349, 34.0962355307584], [-118.337130365303, 34.0962357993266], [-118.33713399501, 34.0965789995762], [-118.337299146733, 34.0965787310031], [-118.337295516349, 34.0962355307584]]]}}, {"type": "Feature", "properties": {"zone_id": "0205O7XFOE1NOQKZ84W2YG", "tract_id": "06037190702", "city": "LOS ANGELES, CA", "zone_code": "RD1.5-1XL", "zone_category": "Residential", "ev_permitted": false}, "geometry": {"type": "Polygon", "coordinates": [[[-118.337460667393, 34.0962352619646], [-118.337295516349, 34.0962355307584], [-118.337297332091, 34.0964072682728], [-118.337462483475, 34.0964069994765], [-118.337460667393, 34.0962352619646]]]}}, {"type": "Feature", "properties": {"zone_id": "0205NIPKI0Q5GB3Z6YPTLU", "tract_id": "06037190702", "city": "LOS ANGELES, CA", "zone_code": "RD1.5-1XL", "zone_category": "Residential", "ev_permitted": false}, "geometry": {"type": "Polygon", "coordinates": [[[-118.337912884405, 34.0959894091787], [-118.337572641272, 34.0959899755542], [-118.337573439431, 34.0960976902724], [-118.337913683002, 34.0960971238947], [-118.337912884405, 34.0959894091787]]]}}, {"type": "Feature", "properties": {"zone_id": "0207E2NS8ATCTJOYCJVDPX", "tract_id": "06037190702", "city": "LOS ANGELES, CA", "zone_code": "RD1.5-1XL", "zone_category": "Residential", "ev_permitted": false}, "geometry": {"type": "Polygon", "coordinates": [[[-118.338027715206, 34.0958793101165], [-118.337571768182, 34.0958800627408], [-118.337572641272, 34.0959899755542], [-118.338028489806, 34.0959892232039], [-118.338027715206, 34.0958793101165]]]}}, {"type": "Feature", "properties": {"zone_id": "0205YACXKDO26PPMC8UHUS", "tract_id": "06037190702", "city": "LOS ANGELES, CA", "zone_code": "RD1.5-1XL", "zone_category": "Residential", "ev_permitted": false}, "geometry": {"type": "Polygon", "coordinates": [[[-118.337407273946, 34.0959605679884], [-118.337091008742, 34.0959611003953], [-118.337092024971, 34.0960984847546], [-118.337408288658, 34.0960979592204], [-118.337407273946, 34.0959605679884]]]}}, {"type": "Feature", "properties": {"zone_id": "0200JVXDUPNRJSCQ3FGIOJ", "tract_id": "06037190702", "city": "LOS ANGELES, CA", "zone_code": "RD1.5-1XL", "zone_category": "Residential", "ev_permitted": false}, "geometry": {"type": "Polygon", "coordinates": [[[-118.337130365303, 34.0962357993266], [-118.336965214368, 34.0962360951475], [-118.336968876316, 34.0965792678315], [-118.33713399501, 34.0965789995762], [-118.337130365303, 34.0962357993266]]]}}, {"type": "Feature", "properties": {"zone_id": "0205OGKHN5ZO0HGTL083XG", "tract_id": "06037190702", "city": "LOS ANGELES, CA", "zone_code": "RD1.5-1XL", "zone_category": "Residential", "ev_permitted": false}, "geometry": {"type": "Polygon", "coordinates": [[[-118.336965214368, 34.0962360951475], [-118.336658429781, 34.0962365931091], [-118.336661991269, 34.0965797386], [-118.336968876316, 34.0965792678315], [-118.336965214368, 34.0962360951475]]]}}, {"type": "Feature", "properties": {"zone_id": "0206J3DKZ340RR8ULMOTFY", "tract_id": "06037190702", "city": "LOS ANGELES, CA", "zone_code": "CPIO", "zone_category": "Other", "ev_permitted": false}, "geometry": {"type": "Polygon", "coordinates": [[[-118.337406259245, 34.0958231784743], [-118.336910806589, 34.0958240097226], [-118.336911820483, 34.0959614009581], [-118.337407273946, 34.0959605679884], [-118.337406259245, 34.0958231784743]]]}}, {"type": "Feature", "properties": {"zone_id": "0201R8UXN1CRYTI532BLGE", "tract_id": "06037190702", "city": "LOS ANGELES, CA", "zone_code": "RD1.5-1XL", "zone_category": "Residential", "ev_permitted": false}, "geometry": {"type": "Polygon", "coordinates": [[[-118.336910806589, 34.0958240097226], [-118.336811716471, 34.0958241760707], [-118.336812222304, 34.0958928716917], [-118.336777542801, 34.0958929305757], [-118.336778048607, 34.095961626197], [-118.336779700111, 34.0959616233111], [-118.33678071567, 34.0960989681727], [-118.336912836446, 34.0960987921886], [-118.336910806589, 34.0958240097226]]]}}, {"type": "Feature", "properties": {"zone_id": "0205E7C24N8UKPHLHXD2SL", "tract_id": "06037190702", "city": "LOS ANGELES, CA", "zone_code": "RD1.5-1XL", "zone_category": "Residential", "ev_permitted": false}, "geometry": {"type": "Polygon", "coordinates": [[[-118.337091008742, 34.0959611003953], [-118.336911820483, 34.0959614009581], [-118.336912836446, 34.0960987921886], [-118.337092024971, 34.0960984847546], [-118.337091008742, 34.0959611003953]]]}}, {"type": "Feature", "properties": {"zone_id": "0200MVUVHVR8DB10RG7KSS", "tract_id": "06037190702", "city": "LOS ANGELES, CA", "zone_code": "RD1.5-1XL", "zone_category": "Residential", "ev_permitted": false}, "geometry": {"type": "Polygon", "coordinates": [[[-118.336779700111, 34.0959616233111], [-118.336416371139, 34.0959622318847], [-118.336417384223, 34.096099623125], [-118.33678071567, 34.0960989681727], [-118.336779700111, 34.0959616233111]]]}}, {"type": "Feature", "properties": {"zone_id": "0200OZ3HAXDG7AS65URGV5", "tract_id": "06037190702", "city": "LOS ANGELES, CA", "zone_code": "RD1.5-1XL", "zone_category": "Residential", "ev_permitted": false}, "geometry": {"type": "Polygon", "coordinates": [[[-118.336811716471, 34.0958241760707], [-118.336415358059, 34.0958248406449], [-118.336416371139, 34.0959622318847], [-118.336778048607, 34.095961626197], [-118.336777542801, 34.0958929305757], [-118.336812222304, 34.0958928716917], [-118.336811716471, 34.0958241760707]]]}}, {"type": "Feature", "properties": {"zone_id": "0206QBCWGOZMSNSCAUMLC3", "tract_id": "06037190702", "city": "LOS ANGELES, CA", "zone_code": "C2-2D", "zone_category": "Commercial", "ev_permitted": true}, "geometry": {"type": "Polygon", "coordinates": [[[-118.336487483694, 34.0972674973045], [-118.336031925673, 34.0972682979712], [-118.336037877793, 34.0978453090187], [-118.336427014018, 34.0978446383398], [-118.336437371681, 34.0978439301281], [-118.336447467592, 34.0978418873975], [-118.336457052587, 34.0978385605618], [-118.336465890115, 34.0978340317254], [-118.336473762068, 34.0978284126578], [-118.336480474171, 34.0978218420348], [-118.336485860772, 34.0978144820161], [-118.336489788932, 34.0978065142434], [-118.336492161706, 34.0977981353575], [-118.336492920535, 34.0977895521453], [-118.336487483694, 34.0972674973045]]]}}, {"type": "Feature", "properties": {"zone_id": "0205F2KCY5KUZGZ6K0DIR6", "tract_id": "06037190702", "city": "LOS ANGELES, CA", "zone_code": "C2-2D", "zone_category": "Commercial", "ev_permitted": true}, "geometry": {"type": "Polygon", "coordinates": [[[-118.33603219948, 34.0972953363618], [-118.335388069441, 34.0972964390588], [-118.335393347095, 34.0978052221056], [-118.335443289887, 34.097846356642], [-118.336037877793, 34.0978453090187], [-118.33603219948, 34.0972953363618]]]}}, {"type": "Feature", "properties": {"zone_id": "0200V3OQUX9T2T88V99OSO", "tract_id": "06037190702", "city": "LOS ANGELES, CA", "zone_code": "RD1.5-1XL", "zone_category": "Residential", "ev_permitted": false}, "geometry": {"type": "Polygon", "coordinates": [[[-118.335138578842, 34.0970964810408], [-118.335045796129, 34.0970966559203], [-118.335049419188, 34.097448567021], [-118.335191451261, 34.097448365441], [-118.335188255851, 34.0971373691079], [-118.335187447696, 34.0971302592307], [-118.335185168272, 34.0971233719001], [-118.335181486138, 34.0971169142677], [-118.335176512041, 34.0971110805608], [-118.335170395588, 34.0971060462409], [-118.335163320746, 34.0971019627264], [-118.335155500304, 34.097098952838], [-118.335138578842, 34.0970964810408]]]}}, {"type": "Feature", "properties": {"zone_id": "0206IURFAIZBCSV0FQZ9GJ", "tract_id": "06037190702", "city": "LOS ANGELES, CA", "zone_code": "C2-2D", "zone_category": "Commercial", "ev_permitted": true}, "geometry": {"type": "Polygon", "coordinates": [[[-118.335207966528, 34.0974483196244], [-118.335009782545, 34.097448676925], [-118.335013889121, 34.0978471083198], [-118.335212074049, 34.0978467510126], [-118.335207966528, 34.0974483196244]]]}}, {"type": "Feature", "properties": {"zone_id": "0203NDEU1YQSTPB27I584G", "tract_id": "06037190702", "city": "LOS ANGELES, CA", "zone_code": "C2-2D", "zone_category": "Commercial", "ev_permitted": true}, "geometry": {"type": "Polygon", "coordinates": [[[-118.335009782545, 34.097448676925], [-118.334828113829, 34.0974489881358], [-118.334832219539, 34.0978474195368], [-118.335013889121, 34.0978471083198], [-118.335009782545, 34.097448676925]]]}}, {"type": "Feature", "properties": {"zone_id": "0205QJUQP5TGBCGXXCNAR6", "tract_id": "06037190702", "city": "LOS ANGELES, CA", "zone_code": "C2-2D", "zone_category": "Commercial", "ev_permitted": true}, "geometry": {"type": "Polygon", "coordinates": [[[-118.334828113829, 34.0974489881358], [-118.334662960489, 34.0974492808098], [-118.334667065412, 34.0978477122164], [-118.334832219539, 34.0978474195368], [-118.334828113829, 34.0974489881358]]]}}, {"type": "Feature", "properties": {"zone_id": "020541IB64XDKVXZDCIIXV", "tract_id": "06037190702", "city": "LOS ANGELES, CA", "zone_code": "C2-2D", "zone_category": "Commercial", "ev_permitted": true}, "geometry": {"type": "Polygon", "coordinates": [[[-118.334662960489, 34.0974492808098], [-118.334504974774, 34.0974495534151], [-118.334509078945, 34.0978479848271], [-118.334667065412, 34.0978477122164], [-118.334662960489, 34.0974492808098]]]}}, {"type": "Feature", "properties": {"zone_id": "0201PR25EGQRUNDDAOKM51", "tract_id": "06037190702", "city": "LOS ANGELES, CA", "zone_code": "C2-2D", "zone_category": "Commercial", "ev_permitted": true}, "geometry": {"type": "Polygon", "coordinates": [[[-118.334504974774, 34.0974495534151], [-118.334190588807, 34.0974500936209], [-118.334192742669, 34.0978485304337], [-118.334509078945, 34.0978479848271], [-118.334504974774, 34.0974495534151]]]}}, {"type": "Feature", "properties": {"zone_id": "0201HS6PL3H4IJQRRGEJ8A", "tract_id": "06037190702", "city": "LOS ANGELES, CA", "zone_code": "C2-2D", "zone_category": "Commercial", "ev_permitted": true}, "geometry": {"type": "Polygon", "coordinates": [[[-118.334190588807, 34.0974500936209], [-118.333699488802, 34.0974509563102], [-118.333701607183, 34.0978493657445], [-118.334192742669, 34.0978485304337], [-118.334190588807, 34.0974500936209]]]}}, {"type": "Feature", "properties": {"zone_id": "0200MTY4L01HDN76IR0JX4", "tract_id": "06037190702", "city": "LOS ANGELES, CA", "zone_code": "RD1.5-1XL", "zone_category": "Residential", "ev_permitted": false}, "geometry": {"type": "Polygon", "coordinates": [[[-118.335045796129, 34.0970966559203], [-118.334887249675, 34.0970969580609], [-118.334890872067, 34.0974488691664], [-118.335049419188, 34.097448567021], [-118.335045796129, 34.0970966559203]]]}}, {"type": "Feature", "properties": {"zone_id": "0207L0CVLGGJTITBY1062M", "tract_id": "06037190702", "city": "LOS ANGELES, CA", "zone_code": "RD1.5-1XL", "zone_category": "Residential", "ev_permitted": false}, "geometry": {"type": "Polygon", "coordinates": [[[-118.334887249675, 34.0970969580609], [-118.33472870322, 34.0970972599936], [-118.334732324834, 34.0974491436254], [-118.334890872067, 34.0974488691664], [-118.334887249675, 34.0970969580609]]]}}, {"type": "Feature", "properties": {"zone_id": "0200Z5GDARDEZ61H9CSLII", "tract_id": "06037190702", "city": "LOS ANGELES, CA", "zone_code": "RD1.5-1XL", "zone_category": "Residential", "ev_permitted": false}, "geometry": {"type": "Polygon", "coordinates": [[[-118.334728549132, 34.0970835210147], [-118.333793290275, 34.0970852839861], [-118.33379524466, 34.0974507742521], [-118.334732324834, 34.0974491436254], [-118.334728549132, 34.0970835210147]]]}}, {"type": "Feature", "properties": {"zone_id": "0201YEQC8HPEMCSI5VRKWP", "tract_id": "06037190702", "city": "LOS ANGELES, CA", "zone_code": "RD1.5-1XL", "zone_category": "Residential", "ev_permitted": false}, "geometry": {"type": "Polygon", "coordinates": [[[-118.336026522897, 34.0967457758927], [-118.335382364061, 34.096746878651], [-118.335388069441, 34.0972964390588], [-118.33603219948, 34.0972953363618], [-118.336031925673, 34.0972682979712], [-118.336487483694, 34.0972674973045], [-118.336484627383, 34.0969927171256], [-118.336029070859, 34.0969935177815], [-118.336026522897, 34.0967457758927]]]}}, {"type": "Feature", "properties": {"zone_id": "0203XCW9UBRI9VJ8NLTGFQ", "tract_id": "06037190702", "city": "LOS ANGELES, CA", "zone_code": "RD1.5-1XL", "zone_category": "Residential", "ev_permitted": false}, "geometry": {"type": "Polygon", "coordinates": [[[-118.336498286324, 34.0967179184348], [-118.336026249094, 34.0967187375025], [-118.336027659974, 34.0968561276418], [-118.33649973101, 34.0968553084765], [-118.336498286324, 34.0967179184348]]]}}, {"type": "Feature", "properties": {"zone_id": "0201TEOE0J0LLXG0B0KEWM", "tract_id": "06037190702", "city": "LOS ANGELES, CA", "zone_code": "RD1.5-1XL", "zone_category": "Residential", "ev_permitted": false}, "geometry": {"type": "Polygon", "coordinates": [[[-118.336483182761, 34.0968553373876], [-118.336348847965, 34.0968555705846], [-118.336349202372, 34.096992955076], [-118.336484627383, 34.0969927171256], [-118.336483182761, 34.0968553373876]]]}}, {"type": "Feature", "properties": {"zone_id": "0200Q8IM9G8L0OL5MVM7I3", "tract_id": "06037190702", "city": "LOS ANGELES, CA", "zone_code": "RD1.5-1XL", "zone_category": "Residential", "ev_permitted": false}, "geometry": {"type": "Polygon", "coordinates": [[[-118.336348847965, 34.0968555705846], [-118.336248105123, 34.0968557445027], [-118.336248459378, 34.0969931324292], [-118.336349202372, 34.096992955076], [-118.336348847965, 34.0968555705846]]]}}, {"type": "Feature", "properties": {"zone_id": "0201PQ8PUMJQEOC8AGTULK", "tract_id": "06037190702", "city": "LOS ANGELES, CA", "zone_code": "CPIO", "zone_category": "Other", "ev_permitted": false}, "geometry": {"type": "Polygon", "coordinates": [[[-118.336248105123, 34.0968557445027], [-118.336147362286, 34.0968559200542], [-118.336147716383, 34.0969933096984], [-118.336248459378, 34.0969931324292], [-118.336248105123, 34.0968557445027]]]}}, {"type": "Feature", "properties": {"zone_id": "0203O1MO1H6TBUA9AHQP5L", "tract_id": "06037190702", "city": "LOS ANGELES, CA", "zone_code": "RD1.5-1XL", "zone_category": "Residential", "ev_permitted": false}, "geometry": {"type": "Polygon", "coordinates": [[[-118.336147362286, 34.0968559200542], [-118.336027659974, 34.0968561276418], [-118.336029070859, 34.0969935177815], [-118.336147716383, 34.0969933096984], [-118.336147362286, 34.0968559200542]]]}}, {"type": "Feature", "properties": {"zone_id": "0200RQWUECDV1PLIILHNTW", "tract_id": "06037190702", "city": "LOS ANGELES, CA", "zone_code": "RD1.5-1XL", "zone_category": "Residential", "ev_permitted": false}, "geometry": {"type": "Polygon", "coordinates": [[[-118.336496841643, 34.0965805283938], [-118.336024838329, 34.0965813748425], [-118.336026249094, 34.0967187375025], [-118.336498286324, 34.0967179184348], [-118.336496841643, 34.0965805283938]]]}}, {"type": "Feature", "properties": {"zone_id": "0203LODG2XX9K0NJT31GPB", "tract_id": "06037190702", "city": "LOS ANGELES, CA", "zone_code": "RD1.5-1XL", "zone_category": "Residential", "ev_permitted": false}, "geometry": {"type": "Polygon", "coordinates": [[[-118.336495429996, 34.0964431382614], [-118.336023394539, 34.0964440122749], [-118.336024838329, 34.0965813748425], [-118.336496841643, 34.0965805283938], [-118.336495429996, 34.0964431382614]]]}}, {"type": "Feature", "properties": {"zone_id": "0202URTJWM237YDJF6VASY", "tract_id": "06037190702", "city": "LOS ANGELES, CA", "zone_code": "RD1.5-1XL", "zone_category": "Residential", "ev_permitted": false}, "geometry": {"type": "Polygon", "coordinates": [[[-118.336025112021, 34.0966083857539], [-118.335364472171, 34.0966095342534], [-118.335365914992, 34.0967469243081], [-118.336026522897, 34.0967457758927], [-118.336025112021, 34.0966083857539]]]}}, {"type": "Feature", "properties": {"zone_id": "02041VYN9WWYKH0KCJIZIR", "tract_id": "06037190702", "city": "LOS ANGELES, CA", "zone_code": "RD1.5-1XL", "zone_category": "Residential", "ev_permitted": false}, "geometry": {"type": "Polygon", "coordinates": [[[-118.335199008113, 34.096579794186], [-118.335040462612, 34.0965800896581], [-118.335044232808, 34.0969455491163], [-118.335202778995, 34.0969452519217], [-118.335199008113, 34.096579794186]]]}}, {"type": "Feature", "properties": {"zone_id": "0206FU1NFHGVYS4NRZEATM", "tract_id": "06037190702", "city": "LOS ANGELES, CA", "zone_code": "RD1.5-1XL", "zone_category": "Residential", "ev_permitted": false}, "geometry": {"type": "Polygon", "coordinates": [[[-118.335544563731, 34.0964553452643], [-118.335362897174, 34.0964556572791], [-118.335364472171, 34.0966095342534], [-118.335546139062, 34.0966092222361], [-118.335544563731, 34.0964553452643]]]}}, {"type": "Feature", "properties": {"zone_id": "0201P22NG19ZIS2QM8KLQT", "tract_id": "06037190702", "city": "LOS ANGELES, CA", "zone_code": "RD1.5-1XL", "zone_category": "Residential", "ev_permitted": false}, "geometry": {"type": "Polygon", "coordinates": [[[-118.336493245701, 34.0962368608984], [-118.336021277137, 34.0962376522842], [-118.336023394539, 34.0964440122749], [-118.336495429996, 34.0964431382614], [-118.336493245701, 34.0962368608984]]]}}, {"type": "Feature", "properties": {"zone_id": "0204ZI81APIZZR9R8JJ5RY", "tract_id": "06037190702", "city": "LOS ANGELES, CA", "zone_code": "RD1.5-1XL", "zone_category": "Residential", "ev_permitted": false}, "geometry": {"type": "Polygon", "coordinates": [[[-118.336021277137, 34.0962376522842], [-118.335856126083, 34.0962379191106], [-118.335859927315, 34.096608680156], [-118.336025112021, 34.0966083857539], [-118.336021277137, 34.0962376522842]]]}}, {"type": "Feature", "properties": {"zone_id": "02010S8ECBRCHRDFBSRB90", "tract_id": "06037190702", "city": "LOS ANGELES, CA", "zone_code": "RD1.5-1XL", "zone_category": "Residential", "ev_permitted": false}, "geometry": {"type": "Polygon", "coordinates": [[[-118.336250554117, 34.0959569229072], [-118.335744965048, 34.0959578909311], [-118.335745482662, 34.0961006951593], [-118.336251605542, 34.0960998098038], [-118.336250554117, 34.0959569229072]]]}}, {"type": "Feature", "properties": {"zone_id": "0200TT42XEA3TZYYUAJAPE", "tract_id": "06037190702", "city": "LOS ANGELES, CA", "zone_code": "CPIO", "zone_category": "Other", "ev_permitted": false}, "geometry": {"type": "Polygon", "coordinates": [[[-118.336249541316, 34.0958195333834], [-118.335744469383, 34.0958205532087], [-118.335744965048, 34.0959578909311], [-118.336250554117, 34.0959569229072], [-118.336249541316, 34.0958195333834]]]}}, {"type": "Feature", "properties": {"zone_id": "0202P4XF8VBA0P0W6TOV86", "tract_id": "06037190702", "city": "LOS ANGELES, CA", "zone_code": "RD1.5-1XL", "zone_category": "Residential", "ev_permitted": false}, "geometry": {"type": "Polygon", "coordinates": [[[-118.335856126083, 34.0962379191106], [-118.335690975028, 34.0962381857113], [-118.335694775638, 34.0966089742403], [-118.335859927315, 34.096608680156], [-118.335856126083, 34.0962379191106]]]}}, {"type": "Feature", "properties": {"zone_id": "020626DAHV9N96EJ8M28FA", "tract_id": "06037190702", "city": "LOS ANGELES, CA", "zone_code": "RD1.5-1XL", "zone_category": "Residential", "ev_permitted": false}, "geometry": {"type": "Polygon", "coordinates": [[[-118.335690975028, 34.0962381857113], [-118.335542339111, 34.0962384337025], [-118.335546139062, 34.0966092222361], [-118.335694775638, 34.0966089742403], [-118.335690975028, 34.0962381857113]]]}}, {"type": "Feature", "properties": {"zone_id": "0204M4A3TVSRSZWLZVZCVG", "tract_id": "06037190702", "city": "LOS ANGELES, CA", "zone_code": "RD1.5-1XL", "zone_category": "Residential", "ev_permitted": false}, "geometry": {"type": "Polygon", "coordinates": [[[-118.335542339111, 34.0962384337025], [-118.335360672916, 34.0962387182355], [-118.335362897174, 34.0964556572791], [-118.335544563731, 34.0964553452643], [-118.335542339111, 34.0962384337025]]]}}, {"type": "Feature", "properties": {"zone_id": "020413LOOHYKS0OI84NCFR", "tract_id": "06037190702", "city": "LOS ANGELES, CA", "zone_code": "RD1.5-1XL", "zone_category": "Residential", "ev_permitted": false}, "geometry": {"type": "Polygon", "coordinates": [[[-118.335195491663, 34.0962391765944], [-118.335036946725, 34.096239451453], [-118.335040462612, 34.0965800896581], [-118.335199008113, 34.096579794186], [-118.335195491663, 34.0962391765944]]]}}, {"type": "Feature", "properties": {"zone_id": "0203YFTK0G9LLBYNENA79I", "tract_id": "06037190702", "city": "LOS ANGELES, CA", "zone_code": "RD1.5-1XL", "zone_category": "Residential", "ev_permitted": false}, "geometry": {"type": "Polygon", "coordinates": [[[-118.335040462612, 34.0965800896581], [-118.33488191711, 34.0965803849222], [-118.334885686613, 34.0969458443853], [-118.335044232808, 34.0969455491163], [-118.335040462612, 34.0965800896581]]]}}, {"type": "Feature", "properties": {"zone_id": "0205Y7MK259YSSQ4MVMJZK", "tract_id": "06037190702", "city": "LOS ANGELES, CA", "zone_code": "RD1.5-1XL", "zone_category": "Residential", "ev_permitted": false}, "geometry": {"type": "Polygon", "coordinates": [[[-118.33488191711, 34.0965803849222], [-118.334723371607, 34.0965806799783], [-118.334727140424, 34.0969461411637], [-118.334885686613, 34.0969458443853], [-118.33488191711, 34.0965803849222]]]}}, {"type": "Feature", "properties": {"zone_id": "0207K7ZMPXQPXIE9KP2ZBO", "tract_id": "06037190702", "city": "LOS ANGELES, CA", "zone_code": "RD1.5-1XL", "zone_category": "Residential", "ev_permitted": false}, "geometry": {"type": "Polygon", "coordinates": [[[-118.334723371607, 34.0965806799783], [-118.334564826103, 34.0965809748262], [-118.334568594227, 34.0969464360166], [-118.334727140424, 34.0969461411637], [-118.334723371607, 34.0965806799783]]]}}, {"type": "Feature", "properties": {"zone_id": "0202L50EQAKDTA2W0IORRS", "tract_id": "06037190702", "city": "LOS ANGELES, CA", "zone_code": "RD1.5-1XL", "zone_category": "Residential", "ev_permitted": false}, "geometry": {"type": "Polygon", "coordinates": [[[-118.334564826103, 34.0965809748262], [-118.334406280597, 34.0965812694663], [-118.334410048035, 34.096946732379], [-118.334568594227, 34.0969464360166], [-118.334564826103, 34.0965809748262]]]}}, {"type": "Feature", "properties": {"zone_id": "0200Q938ZE2QKCQO8GR2XT", "tract_id": "06037190702", "city": "LOS ANGELES, CA", "zone_code": "RD1.5-1XL", "zone_category": "Residential", "ev_permitted": false}, "geometry": {"type": "Polygon", "coordinates": [[[-118.334406280597, 34.0965812694663], [-118.334251038124, 34.0965815581956], [-118.334254804884, 34.0969470211132], [-118.334410048035, 34.096946732379], [-118.334406280597, 34.0965812694663]]]}}, {"type": "Feature", "properties": {"zone_id": "0202JNN1JL11WH3U4DAZSH", "tract_id": "06037190702", "city": "LOS ANGELES, CA", "zone_code": "RD1.5-1XL", "zone_category": "Residential", "ev_permitted": false}, "geometry": {"type": "Polygon", "coordinates": [[[-118.334251038124, 34.0965815581956], [-118.334104858343, 34.0965818302532], [-118.334106828439, 34.0969472981416], [-118.334254804884, 34.0969470211132], [-118.334251038124, 34.0965815581956]]]}}, {"type": "Feature", "properties": {"zone_id": "0206HP2F0ZTIJVAIIK11NU", "tract_id": "06037190702", "city": "LOS ANGELES, CA", "zone_code": "RD1.5-1XL", "zone_category": "Residential", "ev_permitted": false}, "geometry": {"type": "Polygon", "coordinates": [[[-118.334104858343, 34.0965818302532], [-118.333949615868, 34.0965821185953], [-118.333951585285, 34.0969475864863], [-118.334106828439, 34.0969472981416], [-118.334104858343, 34.0965818302532]]]}}, {"type": "Feature", "properties": {"zone_id": "02036WA1XKQNS087XE7EUH", "tract_id": "06037190702", "city": "LOS ANGELES, CA", "zone_code": "RD1.5-1XL", "zone_category": "Residential", "ev_permitted": false}, "geometry": {"type": "Polygon", "coordinates": [[[-118.333949615868, 34.0965821185953], [-118.333791070358, 34.096582412428], [-118.333793039083, 34.0969478803216], [-118.333951585285, 34.0969475864863], [-118.333949615868, 34.0965821185953]]]}}, {"type": "Feature", "properties": {"zone_id": "02038ZVVN2Z8GZ95WLKB0T", "tract_id": "06037190702", "city": "LOS ANGELES, CA", "zone_code": "RD1.5-1XL", "zone_category": "Residential", "ev_permitted": false}, "geometry": {"type": "Polygon", "coordinates": [[[-118.335036946725, 34.096239451453], [-118.334878401786, 34.0962397261036], [-118.33488191711, 34.0965803849222], [-118.335040462612, 34.0965800896581], [-118.335036946725, 34.096239451453]]]}}, {"type": "Feature", "properties": {"zone_id": "0200ZXEVXJMZNZKRGSO65D", "tract_id": "06037190702", "city": "LOS ANGELES, CA", "zone_code": "RD1.5-1XL", "zone_category": "Residential", "ev_permitted": false}, "geometry": {"type": "Polygon", "coordinates": [[[-118.334878401786, 34.0962397261036], [-118.334561311899, 34.0962402730633], [-118.334564826103, 34.0965809748262], [-118.33488191711, 34.0965803849222], [-118.334878401786, 34.0962397261036]]]}}, {"type": "Feature", "properties": {"zone_id": "0205RR1EXEVJ94BSQ2IQ6O", "tract_id": "06037190702", "city": "LOS ANGELES, CA", "zone_code": "CPIO", "zone_category": "Other", "ev_permitted": false}, "geometry": {"type": "Polygon", "coordinates": [[[-118.334561311899, 34.0962402730633], [-118.334402766957, 34.0962405470897], [-118.334406280597, 34.0965812694663], [-118.334564826103, 34.0965809748262], [-118.334561311899, 34.0962402730633]]]}}, {"type": "Feature", "properties": {"zone_id": "0205EO4523CVIDUGLFMYXR", "tract_id": "06037190702", "city": "LOS ANGELES, CA", "zone_code": "RD1.5-1XL", "zone_category": "Residential", "ev_permitted": false}, "geometry": {"type": "Polygon", "coordinates": [[[-118.334402766957, 34.0962405470897], [-118.334247527098, 34.0962408152], [-118.334251038124, 34.0965815581956], [-118.334406280597, 34.0965812694663], [-118.334402766957, 34.0962405470897]]]}}, {"type": "Feature", "properties": {"zone_id": "02078HONWJ4FPC6NRG14QR", "tract_id": "06037190702", "city": "LOS ANGELES, CA", "zone_code": "CPIO", "zone_category": "Other", "ev_permitted": false}, "geometry": {"type": "Polygon", "coordinates": [[[-118.334247527098, 34.0962408152], [-118.334103019991, 34.0962410654555], [-118.334104858343, 34.0965818302532], [-118.334251038124, 34.0965815581956], [-118.334247527098, 34.0962408152]]]}}, {"type": "Feature", "properties": {"zone_id": "02077Z3XCYKRIE36LO1IY7", "tract_id": "06037190702", "city": "LOS ANGELES, CA", "zone_code": "RD1.5-1XL", "zone_category": "Residential", "ev_permitted": false}, "geometry": {"type": "Polygon", "coordinates": [[[-118.333947778066, 34.0962413331864], [-118.333789233113, 34.0962416046904], [-118.333791070358, 34.096582412428], [-118.333949615868, 34.0965821185953], [-118.333947778066, 34.0962413331864]]]}}, {"type": "Feature", "properties": {"zone_id": "0201OO1H6XZPZDFHD133TA", "tract_id": "06037190702", "city": "LOS ANGELES, CA", "zone_code": "CPIO", "zone_category": "Other", "ev_permitted": false}, "geometry": {"type": "Polygon", "coordinates": [[[-118.334103019991, 34.0962410654555], [-118.333947778066, 34.0962413331864], [-118.333949615868, 34.0965821185953], [-118.334104858343, 34.0965818302532], [-118.334103019991, 34.0962410654555]]]}}, {"type": "Feature", "properties": {"zone_id": "0205WCQRLMN3U3A10J4VZY", "tract_id": "06037190702", "city": "LOS ANGELES, CA", "zone_code": "C2-1", "zone_category": "Commercial", "ev_permitted": true}, "geometry": {"type": "Polygon", "coordinates": [[[-118.338479418889, 34.0957686524032], [-118.338073149617, 34.0957693227016], [-118.338073957306, 34.0958792356959], [-118.338480227222, 34.0958785928733], [-118.338479418889, 34.0957686524032]]]}}, {"type": "Feature", "properties": {"zone_id": "0206XEAVUZB0G8N5LUN3C4", "tract_id": "06037190702", "city": "LOS ANGELES, CA", "zone_code": "C2-1", "zone_category": "Commercial", "ev_permitted": true}, "geometry": {"type": "Polygon", "coordinates": [[[-118.338478610669, 34.0956587394122], [-118.338072341931, 34.0956594097078], [-118.338073149617, 34.0957693227016], [-118.338479418889, 34.0957686524032], [-118.338478610669, 34.0956587394122]]]}}, {"type": "Feature", "properties": {"zone_id": "0205K2ROPNMCDY932HXOM1", "tract_id": "06037190702", "city": "LOS ANGELES, CA", "zone_code": "C2-1", "zone_category": "Commercial", "ev_permitted": true}, "geometry": {"type": "Polygon", "coordinates": [[[-118.338476219051, 34.0953290003488], [-118.338069951915, 34.0953296706364], [-118.338072341931, 34.0956594097078], [-118.338478610669, 34.0956587394122], [-118.338476219051, 34.0953290003488]]]}}, {"type": "Feature", "properties": {"zone_id": "02045WC1HM5CXOMGGSQ17U", "tract_id": "06037190702", "city": "LOS ANGELES, CA", "zone_code": "C2-1", "zone_category": "Commercial", "ev_permitted": true}, "geometry": {"type": "Polygon", "coordinates": [[[-118.33847541084, 34.0952190873594], [-118.338069144238, 34.0952197576443], [-118.338069951915, 34.0953296706364], [-118.338476219051, 34.0953290003488], [-118.33847541084, 34.0952190873594]]]}}, {"type": "Feature", "properties": {"zone_id": "0205V44YTS156H90221MNG", "tract_id": "06037190702", "city": "LOS ANGELES, CA", "zone_code": "SN", "zone_category": "Other", "ev_permitted": false}, "geometry": {"type": "Polygon", "coordinates": [[[-118.338473794423, 34.0949992613818], [-118.338067528889, 34.0949999316612], [-118.338068336562, 34.0951098446526], [-118.338474602519, 34.0951091468919], [-118.338473794423, 34.0949992613818]]]}}, {"type": "Feature", "properties": {"zone_id": "02023FPG7QQT0WUEC3C6UR", "tract_id": "06037190702", "city": "LOS ANGELES, CA", "zone_code": "C2-1", "zone_category": "Commercial", "ev_permitted": true}, "geometry": {"type": "Polygon", "coordinates": [[[-118.338474602519, 34.0951091468919], [-118.338068336562, 34.0951098446526], [-118.338069144238, 34.0952197576443], [-118.33847541084, 34.0952190873594], [-118.338474602519, 34.0951091468919]]]}}, {"type": "Feature", "properties": {"zone_id": "02039SFHOTZJTQWIZB7WAM", "tract_id": "06037190702", "city": "LOS ANGELES, CA", "zone_code": "RD1.5-1XL", "zone_category": "Residential", "ev_permitted": false}, "geometry": {"type": "Polygon", "coordinates": [[[-118.338026907579, 34.0957693971219], [-118.337570928124, 34.0957701498355], [-118.337571768182, 34.0958800627408], [-118.338027715206, 34.0958793101165], [-118.338026907579, 34.0957693971219]]]}}, {"type": "Feature", "properties": {"zone_id": "02064MMUHQTYOZJYC91TRF", "tract_id": "06037190702", "city": "LOS ANGELES, CA", "zone_code": "CPIO", "zone_category": "Other", "ev_permitted": false}, "geometry": {"type": "Polygon", "coordinates": [[[-118.337402198386, 34.0952736152785], [-118.336906751057, 34.0952744482216], [-118.336907764932, 34.0954118377372], [-118.337403215146, 34.0954110065015], [-118.337402198386, 34.0952736152785]]]}}, {"type": "Feature", "properties": {"zone_id": "0206RECBW6DG259L72WAIN", "tract_id": "06037190702", "city": "LOS ANGELES, CA", "zone_code": "RD1.5-1XL", "zone_category": "Residential", "ev_permitted": false}, "geometry": {"type": "Polygon", "coordinates": [[[-118.336906751057, 34.0952744482216], [-118.336411303712, 34.0952752774157], [-118.336412318844, 34.0954126686471], [-118.336907764932, 34.0954118377372], [-118.336906751057, 34.0952744482216]]]}}, {"type": "Feature", "properties": {"zone_id": "0204U87GSW6SHJMLTQZ122", "tract_id": "06037190702", "city": "LOS ANGELES, CA", "zone_code": "R3-1XL", "zone_category": "Residential", "ev_permitted": false}, "geometry": {"type": "Polygon", "coordinates": [[[-118.338017293048, 34.0944531064498], [-118.337560825885, 34.0944539979037], [-118.337561590984, 34.0945617127084], [-118.338018091764, 34.0945608211592], [-118.338017293048, 34.0944531064498]]]}}, {"type": "Feature", "properties": {"zone_id": "02053KJI1W8KJWJ7FOVVXX", "tract_id": "06037190702", "city": "LOS ANGELES, CA", "zone_code": "C2-1", "zone_category": "Commercial", "ev_permitted": true}, "geometry": {"type": "Polygon", "coordinates": [[[-118.338472954411, 34.0948896507497], [-118.338066689965, 34.0948904584188], [-118.338067528889, 34.0949999316612], [-118.338473794423, 34.0949992613818], [-118.338472954411, 34.0948896507497]]]}}, {"type": "Feature", "properties": {"zone_id": "0205LSBWFB5F9QF6FRGO88", "tract_id": "06037190702", "city": "LOS ANGELES, CA", "zone_code": "CPIO", "zone_category": "Other", "ev_permitted": false}, "geometry": {"type": "Polygon", "coordinates": [[[-118.338026099954, 34.0956594841278], [-118.337570088068, 34.0956602369306], [-118.337570928124, 34.0957701498355], [-118.338026907579, 34.0957693971219], [-118.338026099954, 34.0956594841278]]]}}, {"type": "Feature", "properties": {"zone_id": "0200NINNH6E50R27VFAHLG", "tract_id": "06037190702", "city": "LOS ANGELES, CA", "zone_code": "RD1.5-1XL", "zone_category": "Residential", "ev_permitted": false}, "geometry": {"type": "Polygon", "coordinates": [[[-118.33802529233, 34.0955495711341], [-118.337569281045, 34.0955503239338], [-118.337570088068, 34.0956602369306], [-118.338026099954, 34.0956594841278], [-118.33802529233, 34.0955495711341]]]}}, {"type": "Feature", "properties": {"zone_id": "0206RV59BKY9CZS7ND6VCK", "tract_id": "06037190702", "city": "LOS ANGELES, CA", "zone_code": "RD1.5-1XL", "zone_category": "Residential", "ev_permitted": false}, "geometry": {"type": "Polygon", "coordinates": [[[-118.338024484709, 34.0954396581408], [-118.337568407963, 34.095440411122], [-118.337569281045, 34.0955503239338], [-118.33802529233, 34.0955495711341], [-118.338024484709, 34.0954396581408]]]}}, {"type": "Feature", "properties": {"zone_id": "020598OVGZZYBZ4N3RH1GE", "tract_id": "06037190702", "city": "LOS ANGELES, CA", "zone_code": "CPIO", "zone_category": "Other", "ev_permitted": false}, "geometry": {"type": "Polygon", "coordinates": [[[-118.33802371012, 34.0953297450555], [-118.337567567914, 34.0953304982184], [-118.337568407963, 34.095440411122], [-118.338024484709, 34.0954396581408], [-118.33802371012, 34.0953297450555]]]}}, {"type": "Feature", "properties": {"zone_id": "0201XFXACJFOF0QW8GFJMY", "tract_id": "06037190702", "city": "LOS ANGELES, CA", "zone_code": "RD1.5-1XL", "zone_category": "Residential", "ev_permitted": false}, "geometry": {"type": "Polygon", "coordinates": [[[-118.337405244539, 34.0956857872436], [-118.336909792704, 34.0956866202051], [-118.336910806589, 34.0958240097226], [-118.337406259245, 34.0958231784743], [-118.337405244539, 34.0956857872436]]]}}, {"type": "Feature", "properties": {"zone_id": "0201CDXPX4FMDC9HGILEQD", "tract_id": "06037190702", "city": "LOS ANGELES, CA", "zone_code": "RD1.5-1XL", "zone_category": "Residential", "ev_permitted": false}, "geometry": {"type": "Polygon", "coordinates": [[[-118.337404189084, 34.0955429003648], [-118.336908738096, 34.0955437333219], [-118.336909792704, 34.0956866202051], [-118.337405244539, 34.0956857872436], [-118.337404189084, 34.0955429003648]]]}}, {"type": "Feature", "properties": {"zone_id": "0207FNE294BTCS5KHGDT65", "tract_id": "06037190702", "city": "LOS ANGELES, CA", "zone_code": "RD1.5-1XL", "zone_category": "Residential", "ev_permitted": false}, "geometry": {"type": "Polygon", "coordinates": [[[-118.336909792704, 34.0956866202051], [-118.336414344988, 34.0956874511233], [-118.336415358059, 34.0958248406449], [-118.336910806589, 34.0958240097226], [-118.336909792704, 34.0956866202051]]]}}, {"type": "Feature", "properties": {"zone_id": "0202NI9I7F8KH4WIOYRT7T", "tract_id": "06037190702", "city": "LOS ANGELES, CA", "zone_code": "RD1.5-1XL", "zone_category": "Residential", "ev_permitted": false}, "geometry": {"type": "Polygon", "coordinates": [[[-118.336908778816, 34.0955492289708], [-118.336413331914, 34.0955500598848], [-118.336414344988, 34.0956874511233], [-118.336909792704, 34.0956866202051], [-118.336908778816, 34.0955492289708]]]}}, {"type": "Feature", "properties": {"zone_id": "0206LP82TJ1GDEN3EAVCBV", "tract_id": "06037190702", "city": "LOS ANGELES, CA", "zone_code": "RD1.5-1XL", "zone_category": "Residential", "ev_permitted": false}, "geometry": {"type": "Polygon", "coordinates": [[[-118.337403215146, 34.0954110065015], [-118.336907764932, 34.0954118377372], [-118.336908738096, 34.0955437333219], [-118.337404189084, 34.0955429003648], [-118.337403215146, 34.0954110065015]]]}}, {"type": "Feature", "properties": {"zone_id": "0205VUGZZKQ1UOMCRL9OEJ", "tract_id": "06037190702", "city": "LOS ANGELES, CA", "zone_code": "CPIO", "zone_category": "Other", "ev_permitted": false}, "geometry": {"type": "Polygon", "coordinates": [[[-118.336907764932, 34.0954118377372], [-118.336412318844, 34.0954126686471], [-118.336413331914, 34.0955500598848], [-118.336908778816, 34.0955492289708], [-118.336907764932, 34.0954118377372]]]}}, {"type": "Feature", "properties": {"zone_id": "0204WKZ07AMB97R3LOX792", "tract_id": "06037190702", "city": "LOS ANGELES, CA", "zone_code": "RD1.5-1XL", "zone_category": "Residential", "ev_permitted": false}, "geometry": {"type": "Polygon", "coordinates": [[[-118.338022869474, 34.0952198321555], [-118.337566727867, 34.0952205853151], [-118.337567567914, 34.0953304982184], [-118.33802371012, 34.0953297450555], [-118.338022869474, 34.0952198321555]]]}}, {"type": "Feature", "properties": {"zone_id": "0200TRYY70RAZ2MG7RXGC1", "tract_id": "06037190702", "city": "LOS ANGELES, CA", "zone_code": "CPIO", "zone_category": "Other", "ev_permitted": false}, "geometry": {"type": "Polygon", "coordinates": [[[-118.338022094888, 34.095109919071], [-118.337565887822, 34.0951106724123], [-118.337566727867, 34.0952205853151], [-118.338022869474, 34.0952198321555], [-118.338022094888, 34.095109919071]]]}}, {"type": "Feature", "properties": {"zone_id": "0201OHCD6V4L5DCWLM47ON", "tract_id": "06037190702", "city": "LOS ANGELES, CA", "zone_code": "RD1.5-1XL", "zone_category": "Residential", "ev_permitted": false}, "geometry": {"type": "Polygon", "coordinates": [[[-118.338021287387, 34.0950000335579], [-118.33756504778, 34.09500075951], [-118.337565887822, 34.0951106724123], [-118.338022094888, 34.095109919071], [-118.338021287387, 34.0950000335579]]]}}, {"type": "Feature", "properties": {"zone_id": "0203KTK1G09W83ZJEV7RHN", "tract_id": "06037190702", "city": "LOS ANGELES, CA", "zone_code": "RD1.5-1XL", "zone_category": "Residential", "ev_permitted": false}, "geometry": {"type": "Polygon", "coordinates": [[[-118.338020448413, 34.0948905328366], [-118.337563879885, 34.0948914520578], [-118.33756504778, 34.09500075951], [-118.338021287387, 34.0950000335579], [-118.338020448413, 34.0948905328366]]]}}, {"type": "Feature", "properties": {"zone_id": "020529DPSDHA3RIZM4SHEH", "tract_id": "06037190702", "city": "LOS ANGELES, CA", "zone_code": "CPIO", "zone_category": "Other", "ev_permitted": false}, "geometry": {"type": "Polygon", "coordinates": [[[-118.338019706975, 34.0947806471395], [-118.337563105906, 34.0947815389717], [-118.337563879885, 34.0948914520578], [-118.338020448413, 34.0948905328366], [-118.338019706975, 34.0947806471395]]]}}, {"type": "Feature", "properties": {"zone_id": "0200T6P2M0MBE6619LR81J", "tract_id": "06037190702", "city": "LOS ANGELES, CA", "zone_code": "RD1.5-1XL", "zone_category": "Residential", "ev_permitted": false}, "geometry": {"type": "Polygon", "coordinates": [[[-118.337401183694, 34.0951362240503], [-118.336905737179, 34.0951370569893], [-118.336906751057, 34.0952744482216], [-118.337402198386, 34.0952736152785], [-118.337401183694, 34.0951362240503]]]}}, {"type": "Feature", "properties": {"zone_id": "02014DXEM4KW5IRMTV5MO5", "tract_id": "06037190702", "city": "LOS ANGELES, CA", "zone_code": "RD1.5-1XL", "zone_category": "Residential", "ev_permitted": false}, "geometry": {"type": "Polygon", "coordinates": [[[-118.337400169012, 34.0949988345403], [-118.336904723305, 34.0949996657577], [-118.336905737179, 34.0951370569893], [-118.337401183694, 34.0951362240503], [-118.337400169012, 34.0949988345403]]]}}, {"type": "Feature", "properties": {"zone_id": "0200EVAODW2XVOY31A8UR5", "tract_id": "06037190702", "city": "LOS ANGELES, CA", "zone_code": "RD1.5-1XL", "zone_category": "Residential", "ev_permitted": false}, "geometry": {"type": "Polygon", "coordinates": [[[-118.33690370944, 34.0948622762441], [-118.336408264537, 34.0948631054257], [-118.336411303712, 34.0952752774157], [-118.336906751057, 34.0952744482216], [-118.33690370944, 34.0948622762441]]]}}, {"type": "Feature", "properties": {"zone_id": "020255I9QA0RYSOHQ2QZ68", "tract_id": "06037190702", "city": "LOS ANGELES, CA", "zone_code": "RD1.5-1XL", "zone_category": "Residential", "ev_permitted": false}, "geometry": {"type": "Polygon", "coordinates": [[[-118.337399154327, 34.0948614433134], [-118.33690370944, 34.0948622762441], [-118.336904723305, 34.0949996657577], [-118.337400169012, 34.0949988345403], [-118.337399154327, 34.0948614433134]]]}}, {"type": "Feature", "properties": {"zone_id": "0205GW673AW2NB790JXDTN", "tract_id": "06037190702", "city": "LOS ANGELES, CA", "zone_code": "R3-1XL", "zone_category": "Residential", "ev_permitted": false}, "geometry": {"type": "Polygon", "coordinates": [[[-118.337398139645, 34.0947240520872], [-118.336902695572, 34.0947248850137], [-118.33690370944, 34.0948622762441], [-118.337399154327, 34.0948614433134], [-118.337398139645, 34.0947240520872]]]}}, {"type": "Feature", "properties": {"zone_id": "0206IM1C1U34IAGTMET6WE", "tract_id": "06037190702", "city": "LOS ANGELES, CA", "zone_code": "SN", "zone_category": "Other", "ev_permitted": false}, "geometry": {"type": "Polygon", "coordinates": [[[-118.338420673015, 34.0945072646453], [-118.338063954593, 34.094507961003], [-118.338066689965, 34.0948904584188], [-118.338472954411, 34.0948896507497], [-118.338470516015, 34.0945483432462], [-118.338420673015, 34.0945072646453]]]}}, {"type": "Feature", "properties": {"zone_id": "0201V01ASGVHCJLJXHG6EB", "tract_id": "06037190702", "city": "LOS ANGELES, CA", "zone_code": "RD1.5-1XL", "zone_category": "Residential", "ev_permitted": false}, "geometry": {"type": "Polygon", "coordinates": [[[-118.338018866228, 34.0946707067631], [-118.337562331929, 34.094671625886], [-118.337563105906, 34.0947815389717], [-118.338019706975, 34.0947806471395], [-118.338018866228, 34.0946707067631]]]}}, {"type": "Feature", "properties": {"zone_id": "0203VRFNNWXQY0ZZOP10OD", "tract_id": "06037190702", "city": "LOS ANGELES, CA", "zone_code": "R3-1XL", "zone_category": "Residential", "ev_permitted": false}, "geometry": {"type": "Polygon", "coordinates": [[[-118.338018091764, 34.0945608211592], [-118.337561590984, 34.0945617127084], [-118.337562331929, 34.094671625886], [-118.338018866228, 34.0946707067631], [-118.338018091764, 34.0945608211592]]]}}, {"type": "Feature", "properties": {"zone_id": "0204BRBQ5X9C6TOFJVYZUA", "tract_id": "06037190702", "city": "LOS ANGELES, CA", "zone_code": "R3-1XL", "zone_category": "Residential", "ev_permitted": false}, "geometry": {"type": "Polygon", "coordinates": [[[-118.337396142487, 34.0944536678743], [-118.337148421253, 34.0944540845873], [-118.337149403345, 34.0945870792942], [-118.337397124973, 34.0945866625792], [-118.337396142487, 34.0944536678743]]]}}, {"type": "Feature", "properties": {"zone_id": "0205CDBO30LZYY8752Q3IJ", "tract_id": "06037190702", "city": "LOS ANGELES, CA", "zone_code": "R3-1XL", "zone_category": "Residential", "ev_permitted": false}, "geometry": {"type": "Polygon", "coordinates": [[[-118.337397124973, 34.0945866625792], [-118.336901681708, 34.0945874937841], [-118.336902695572, 34.0947248850137], [-118.337398139645, 34.0947240520872], [-118.337397124973, 34.0945866625792]]]}}, {"type": "Feature", "properties": {"zone_id": "0207LF7EZROLF74ZO5XWXS", "tract_id": "06037190702", "city": "LOS ANGELES, CA", "zone_code": "R3-1XL", "zone_category": "Residential", "ev_permitted": false}, "geometry": {"type": "Polygon", "coordinates": [[[-118.337148421253, 34.0944540845873], [-118.336900700009, 34.0944544990751], [-118.336901681708, 34.0945874937841], [-118.337149403345, 34.0945870792942], [-118.337148421253, 34.0944540845873]]]}}, {"type": "Feature", "properties": {"zone_id": "0200QR06GQ3I60JS2ZBU30", "tract_id": "06037190702", "city": "LOS ANGELES, CA", "zone_code": "R3-1XL", "zone_category": "Residential", "ev_permitted": false}, "geometry": {"type": "Polygon", "coordinates": [[[-118.336900700009, 34.0944544990751], [-118.336405257521, 34.0944553282444], [-118.336408264537, 34.0948631054257], [-118.33690370944, 34.0948622762441], [-118.336900700009, 34.0944544990751]]]}}, {"type": "Feature", "properties": {"zone_id": "02032PL45R9IOJDYABCM28", "tract_id": "06037190702", "city": "LOS ANGELES, CA", "zone_code": "RD1.5-1XL", "zone_category": "Residential", "ev_permitted": false}, "geometry": {"type": "Polygon", "coordinates": [[[-118.336248528511, 34.095682142143], [-118.335743971662, 34.0956832172101], [-118.335744469383, 34.0958205532087], [-118.336249541316, 34.0958195333834], [-118.336248528511, 34.095682142143]]]}}, {"type": "Feature", "properties": {"zone_id": "0201IVIQJR2QFNVQUHCJSG", "tract_id": "06037190702", "city": "LOS ANGELES, CA", "zone_code": "RD1.5-1XL", "zone_category": "Residential", "ev_permitted": false}, "geometry": {"type": "Polygon", "coordinates": [[[-118.336245492188, 34.0952699701373], [-118.335742478496, 34.0952712057834], [-118.335743971662, 34.0956832172101], [-118.336248528511, 34.095682142143], [-118.336245492188, 34.0952699701373]]]}}, {"type": "Feature", "properties": {"zone_id": "0200FPHJQMJJENTJN0NI3Q", "tract_id": "06037190702", "city": "LOS ANGELES, CA", "zone_code": "RD1.5-1XL", "zone_category": "Residential", "ev_permitted": false}, "geometry": {"type": "Polygon", "coordinates": [[[-118.335743681254, 34.0956031722399], [-118.335339038341, 34.0956040589628], [-118.335345124346, 34.0961013948125], [-118.335745482662, 34.0961006951593], [-118.335743681254, 34.0956031722399]]]}}, {"type": "Feature", "properties": {"zone_id": "0202T99E5OEK26A4YG0CQT", "tract_id": "06037190702", "city": "LOS ANGELES, CA", "zone_code": "RD1.5-1XL", "zone_category": "Residential", "ev_permitted": false}, "geometry": {"type": "Polygon", "coordinates": [[[-118.335743183088, 34.095465724611], [-118.335337356138, 34.0954666747301], [-118.335339038341, 34.0956040589628], [-118.335743681254, 34.0956031722399], [-118.335743183088, 34.095465724611]]]}}, {"type": "Feature", "properties": {"zone_id": "0206U7XIINPYI4TDPQJDP4", "tract_id": "06037190702", "city": "LOS ANGELES, CA", "zone_code": "RD1.5-1XL", "zone_category": "Residential", "ev_permitted": false}, "geometry": {"type": "Polygon", "coordinates": [[[-118.335742785042, 34.0953557847116], [-118.335336011203, 34.0953567666551], [-118.335337356138, 34.0954666747301], [-118.335743183088, 34.095465724611], [-118.335742785042, 34.0953557847116]]]}}, {"type": "Feature", "properties": {"zone_id": "0200889WC5SHJ82HMJHNNB", "tract_id": "06037190702", "city": "LOS ANGELES, CA", "zone_code": "CPIO", "zone_category": "Other", "ev_permitted": false}, "geometry": {"type": "Polygon", "coordinates": [[[-118.336244481468, 34.0951325806111], [-118.335741982847, 34.0951338697817], [-118.335742478496, 34.0952712057834], [-118.336245492188, 34.0952699701373], [-118.336244481468, 34.0951325806111]]]}}, {"type": "Feature", "properties": {"zone_id": "0205RMUSXP6IYMW72BBD3O", "tract_id": "06037190702", "city": "LOS ANGELES, CA", "zone_code": "RD1.5-1XL", "zone_category": "Residential", "ev_permitted": false}, "geometry": {"type": "Polygon", "coordinates": [[[-118.336243468679, 34.0949951893739], [-118.335741485127, 34.0949965320689], [-118.335741982847, 34.0951338697817], [-118.336244481468, 34.0951325806111], [-118.336243468679, 34.0949951893739]]]}}, {"type": "Feature", "properties": {"zone_id": "0203NE9LRB20RFYD2JTMFJ", "tract_id": "06037190702", "city": "LOS ANGELES, CA", "zone_code": "RD1.5-1XL", "zone_category": "Residential", "ev_permitted": false}, "geometry": {"type": "Polygon", "coordinates": [[[-118.336242457959, 34.0948577981317], [-118.335740987417, 34.0948591960743], [-118.335741485127, 34.0949965320689], [-118.336243468679, 34.0949951893739], [-118.336242457959, 34.0948577981317]]]}}, {"type": "Feature", "properties": {"zone_id": "0202OAYF6ZI3THIIZCNEZV", "tract_id": "06037190702", "city": "LOS ANGELES, CA", "zone_code": "R3-1XL", "zone_category": "Residential", "ev_permitted": false}, "geometry": {"type": "Polygon", "coordinates": [[[-118.336241445184, 34.0947204086133], [-118.335740489701, 34.0947218583629], [-118.335740987417, 34.0948591960743], [-118.336242457959, 34.0948577981317], [-118.336241445184, 34.0947204086133]]]}}, {"type": "Feature", "properties": {"zone_id": "0201GPQCDH3MJ51P5EK7H4", "tract_id": "06037190702", "city": "LOS ANGELES, CA", "zone_code": "RD1.5-1XL", "zone_category": "Residential", "ev_permitted": false}, "geometry": {"type": "Polygon", "coordinates": [[[-118.33574238699, 34.0952458430953], [-118.335334666265, 34.0952468568631], [-118.335336011203, 34.0953567666551], [-118.335742785042, 34.0953557847116], [-118.33574238699, 34.0952458430953]]]}}, {"type": "Feature", "properties": {"zone_id": "0202HM3Q3KX88VK9LJH2YI", "tract_id": "06037190702", "city": "LOS ANGELES, CA", "zone_code": "RD1.5-1XL", "zone_category": "Residential", "ev_permitted": false}, "geometry": {"type": "Polygon", "coordinates": [[[-118.335742063849, 34.0951334779835], [-118.33533328761, 34.0951342010015], [-118.335334666265, 34.0952468568631], [-118.33574238699, 34.0952458430953], [-118.335742063849, 34.0951334779835]]]}}, {"type": "Feature", "properties": {"zone_id": "0201MVA2PZRMR36MK4AE4L", "tract_id": "06037190702", "city": "LOS ANGELES, CA", "zone_code": "RD1.5-1XL", "zone_category": "Residential", "ev_permitted": false}, "geometry": {"type": "Polygon", "coordinates": [[[-118.335741570897, 34.0950204658747], [-118.335331908959, 34.0950215451403], [-118.33533328761, 34.0951342010015], [-118.335742063849, 34.0951334779835], [-118.335741570897, 34.0950204658747]]]}}, {"type": "Feature", "properties": {"zone_id": "02012GQ3MZ6NZ4G38Z51NS", "tract_id": "06037190702", "city": "LOS ANGELES, CA", "zone_code": "RD1.5-1XL", "zone_category": "Residential", "ev_permitted": false}, "geometry": {"type": "Polygon", "coordinates": [[[-118.33574116388, 34.0949077764035], [-118.335330530312, 34.0949088892796], [-118.335331908959, 34.0950215451403], [-118.335741570897, 34.0950204658747], [-118.33574116388, 34.0949077764035]]]}}, {"type": "Feature", "properties": {"zone_id": "0205PWMYBSDB1S0Y480GZN", "tract_id": "06037190702", "city": "LOS ANGELES, CA", "zone_code": "RD1.5-1XL", "zone_category": "Residential", "ev_permitted": false}, "geometry": {"type": "Polygon", "coordinates": [[[-118.335740754807, 34.0947950886559], [-118.335329151669, 34.0947962334192], [-118.335330530312, 34.0949088892796], [-118.33574116388, 34.0949077764035], [-118.335740754807, 34.0947950886559]]]}}, {"type": "Feature", "properties": {"zone_id": "02026QFQBT63NBF6WTT1M3", "tract_id": "06037190702", "city": "LOS ANGELES, CA", "zone_code": "OS-1XL", "zone_category": "Other", "ev_permitted": false}, "geometry": {"type": "Polygon", "coordinates": [[[-118.335172185079, 34.0954656903955], [-118.334319578322, 34.095467164638], [-118.334323108282, 34.0961032910414], [-118.335179028668, 34.0961018110345], [-118.335172185079, 34.0954656903955]]]}}, {"type": "Feature", "properties": {"zone_id": "0202IH7ZB0LXMRWMV4845A", "tract_id": "06037190702", "city": "LOS ANGELES, CA", "zone_code": "RD1.5-1XL", "zone_category": "Residential", "ev_permitted": false}, "geometry": {"type": "Polygon", "coordinates": [[[-118.334868750429, 34.0953447095996], [-118.334318905562, 34.0953458750334], [-118.334319578322, 34.095467164638], [-118.334870252661, 34.0954662133], [-118.334868750429, 34.0953447095996]]]}}, {"type": "Feature", "properties": {"zone_id": "0203LXXJIKQ0ZJ8WM5DF5B", "tract_id": "06037190702", "city": "LOS ANGELES, CA", "zone_code": "RD1.5-1XL", "zone_category": "Residential", "ev_permitted": false}, "geometry": {"type": "Polygon", "coordinates": [[[-118.335171252773, 34.0953572117902], [-118.334868912437, 34.0953578440219], [-118.334870252661, 34.0954662133], [-118.335172185079, 34.0954656903955], [-118.335172597271, 34.09546706491], [-118.335171252773, 34.0953572117902]]]}}, {"type": "Feature", "properties": {"zone_id": "0202S22BMKCIE2W7RPQ2PQ", "tract_id": "06037190702", "city": "LOS ANGELES, CA", "zone_code": "RD1.5-1XL", "zone_category": "Residential", "ev_permitted": false}, "geometry": {"type": "Polygon", "coordinates": [[[-118.3341545558, 34.0954671849127], [-118.33380443887, 34.0954677679893], [-118.333807836804, 34.0961038655654], [-118.334157956506, 34.0961033099575], [-118.3341545558, 34.0954671849127]]]}}, {"type": "Feature", "properties": {"zone_id": "0207NQ5TH98COA9K3UJFD0", "tract_id": "06037190702", "city": "LOS ANGELES, CA", "zone_code": "RD1.5-1XL", "zone_category": "Residential", "ev_permitted": false}, "geometry": {"type": "Polygon", "coordinates": [[[-118.334153866985, 34.0953459503099], [-118.333731085427, 34.0953467890731], [-118.333731773081, 34.0954678862858], [-118.3341545558, 34.0954671849127], [-118.334153866985, 34.0953459503099]]]}}, {"type": "Feature", "properties": {"zone_id": "02033XWL6WM0Q9442RIQYO", "tract_id": "06037190702", "city": "LOS ANGELES, CA", "zone_code": "RD1.5-1XL", "zone_category": "Residential", "ev_permitted": false}, "geometry": {"type": "Polygon", "coordinates": [[[-118.33380443887, 34.0954677679893], [-118.33370686853, 34.0954679258761], [-118.333707435909, 34.0955723420669], [-118.333687882181, 34.0955723737443], [-118.333688061239, 34.095605347821], [-118.333805185483, 34.0956051599735], [-118.33380443887, 34.0954677679893]]]}}, {"type": "Feature", "properties": {"zone_id": "0203C02LHOT1LCCR6UVS46", "tract_id": "06037190702", "city": "LOS ANGELES, CA", "zone_code": "RD1.5-1XL", "zone_category": "Residential", "ev_permitted": false}, "geometry": {"type": "Polygon", "coordinates": [[[-118.33486603289, 34.0951248918032], [-118.334317686096, 34.0951260462139], [-118.3343182948, 34.095235961485], [-118.334867391655, 34.0952347998425], [-118.33486603289, 34.0951248918032]]]}}, {"type": "Feature", "properties": {"zone_id": "0204ILD60ZIJORBH04ZA1M", "tract_id": "06037190702", "city": "LOS ANGELES, CA", "zone_code": "CPIO", "zone_category": "Other", "ev_permitted": false}, "geometry": {"type": "Polygon", "coordinates": [[[-118.334867391655, 34.0952347998425], [-118.3343182948, 34.095235961485], [-118.334318905562, 34.0953458750334], [-118.334868750429, 34.0953447095996], [-118.334867391655, 34.0952347998425]]]}}, {"type": "Feature", "properties": {"zone_id": "0201X9LSCT8THCRVE4LO16", "tract_id": "06037190702", "city": "LOS ANGELES, CA", "zone_code": "CPIO", "zone_category": "Other", "ev_permitted": false}, "geometry": {"type": "Polygon", "coordinates": [[[-118.334864674123, 34.0950149820469], [-118.334317075337, 34.0950161326663], [-118.334317686096, 34.0951260462139], [-118.33486603289, 34.0951248918032], [-118.334864674123, 34.0950149820469]]]}}, {"type": "Feature", "properties": {"zone_id": "02046E1SONDIWNA2QJ9LOV", "tract_id": "06037190702", "city": "LOS ANGELES, CA", "zone_code": "RD1.5-1XL", "zone_category": "Residential", "ev_permitted": false}, "geometry": {"type": "Polygon", "coordinates": [[[-118.334860595792, 34.0946852562211], [-118.33431524719, 34.0946863902972], [-118.334317075337, 34.0950161326663], [-118.334864674123, 34.0950149820469], [-118.334860595792, 34.0946852562211]]]}}, {"type": "Feature", "properties": {"zone_id": "0203A0EMA1KUT6JGTL40VP", "tract_id": "06037190702", "city": "LOS ANGELES, CA", "zone_code": "RD1.5-1XL", "zone_category": "Residential", "ev_permitted": false}, "geometry": {"type": "Polygon", "coordinates": [[[-118.335169905994, 34.0952473037195], [-118.334867553662, 34.0952479342647], [-118.334868912437, 34.0953578440219], [-118.335171252773, 34.0953572117902], [-118.335169905994, 34.0952473037195]]]}}, {"type": "Feature", "properties": {"zone_id": "0205SRKGP2S000HQOXLESF", "tract_id": "06037190702", "city": "LOS ANGELES, CA", "zone_code": "CPIO", "zone_category": "Other", "ev_permitted": false}, "geometry": {"type": "Polygon", "coordinates": [[[-118.335168527561, 34.095134647856], [-118.334866161186, 34.0951352784378], [-118.334867553662, 34.0952479342647], [-118.335169905994, 34.0952473037195], [-118.335168527561, 34.095134647856]]]}}, {"type": "Feature", "properties": {"zone_id": "02021Y4WH5MK96WAIXI31O", "tract_id": "06037190702", "city": "LOS ANGELES, CA", "zone_code": "RD1.5-1XL", "zone_category": "Residential", "ev_permitted": false}, "geometry": {"type": "Polygon", "coordinates": [[[-118.33514995989, 34.0949670717501], [-118.334864088296, 34.0949676668775], [-118.334866161186, 34.0951352784378], [-118.335152012702, 34.0951346816454], [-118.33514995989, 34.0949670717501]]]}}, {"type": "Feature", "properties": {"zone_id": "0202EX0KP2OMXK629KIQ4F", "tract_id": "06037190702", "city": "LOS ANGELES, CA", "zone_code": "RD1.5-1XL", "zone_category": "Residential", "ev_permitted": false}, "geometry": {"type": "Polygon", "coordinates": [[[-118.335147909143, 34.0947994601327], [-118.334862015414, 34.0948000553182], [-118.334864088296, 34.0949676668775], [-118.33514995989, 34.0949670717501], [-118.335147909143, 34.0947994601327]]]}}, {"type": "Feature", "properties": {"zone_id": "0206KAZPY45E1DH94AUQVG", "tract_id": "06037190702", "city": "LOS ANGELES, CA", "zone_code": "RD1.5-1XL", "zone_category": "Residential", "ev_permitted": false}, "geometry": {"type": "Polygon", "coordinates": [[[-118.334153244046, 34.0952360350775], [-118.333730463051, 34.0952368755559], [-118.333731085427, 34.0953467890731], [-118.334153866985, 34.0953459503099], [-118.334153244046, 34.0952360350775]]]}}, {"type": "Feature", "properties": {"zone_id": "02026U9NK4O3AH6AMDS5N3", "tract_id": "06037190702", "city": "LOS ANGELES, CA", "zone_code": "CPIO", "zone_category": "Other", "ev_permitted": false}, "geometry": {"type": "Polygon", "coordinates": [[[-118.334152619052, 34.0951261215686], [-118.333729838612, 34.0951269620448], [-118.333730463051, 34.0952368755559], [-118.334153244046, 34.0952360350775], [-118.334152619052, 34.0951261215686]]]}}, {"type": "Feature", "properties": {"zone_id": "0200WVUJNGLKNHZAGT513E", "tract_id": "06037190702", "city": "LOS ANGELES, CA", "zone_code": "RD1.5-1XL", "zone_category": "Residential", "ev_permitted": false}, "geometry": {"type": "Polygon", "coordinates": [[[-118.334151996116, 34.095016206337], [-118.33372921624, 34.0950170485285], [-118.333729838612, 34.0951269620448], [-118.334152619052, 34.0951261215686], [-118.334151996116, 34.095016206337]]]}}, {"type": "Feature", "properties": {"zone_id": "0205K4RA166LVLOIWZXMV1", "tract_id": "06037190702", "city": "LOS ANGELES, CA", "zone_code": "CPIO", "zone_category": "Other", "ev_permitted": false}, "geometry": {"type": "Polygon", "coordinates": [[[-118.334151373189, 34.0949062928233], [-118.333728591797, 34.0949071333008], [-118.33372921624, 34.0950170485285], [-118.334151996116, 34.095016206337], [-118.334151373189, 34.0949062928233]]]}}, {"type": "Feature", "properties": {"zone_id": "0205YO1OXYVJHLNSO87YBA", "tract_id": "06037190702", "city": "LOS ANGELES, CA", "zone_code": "CPIO", "zone_category": "Other", "ev_permitted": false}, "geometry": {"type": "Polygon", "coordinates": [[[-118.334150750257, 34.0947963775925], [-118.333727969428, 34.0947972197853], [-118.333728591797, 34.0949071333008], [-118.334151373189, 34.0949062928233], [-118.334150750257, 34.0947963775925]]]}}, {"type": "Feature", "properties": {"zone_id": "0201M3KH07HP1TG7I20R83", "tract_id": "06037190702", "city": "LOS ANGELES, CA", "zone_code": "R3-1XL", "zone_category": "Residential", "ev_permitted": false}, "geometry": {"type": "Polygon", "coordinates": [[[-118.3362394945, 34.0944555183069], [-118.335739531711, 34.0944570219695], [-118.335739994057, 34.0945845223638], [-118.33624043447, 34.0945830173723], [-118.3362394945, 34.0944555183069]]]}}, {"type": "Feature", "properties": {"zone_id": "0205JD6Z2L863AEPC2EYNE", "tract_id": "06037190702", "city": "LOS ANGELES, CA", "zone_code": "R3-1XL", "zone_category": "Residential", "ev_permitted": false}, "geometry": {"type": "Polygon", "coordinates": [[[-118.33624043447, 34.0945830173723], [-118.335739994057, 34.0945845223638], [-118.335740489701, 34.0947218583629], [-118.336241445184, 34.0947204086133], [-118.33624043447, 34.0945830173723]]]}}, {"type": "Feature", "properties": {"zone_id": "0202IITXZZIVMQ3WX7Y6UV", "tract_id": "06037190702", "city": "LOS ANGELES, CA", "zone_code": "RD1.5-1XL", "zone_category": "Residential", "ev_permitted": false}, "geometry": {"type": "Polygon", "coordinates": [[[-118.335740347793, 34.0946823991856], [-118.335327773029, 34.0946835775594], [-118.335329151669, 34.0947962334192], [-118.335740754807, 34.0947950886559], [-118.335740347793, 34.0946823991856]]]}}, {"type": "Feature", "properties": {"zone_id": "0205QWKFHY3UAA5PW05HK0", "tract_id": "06037190702", "city": "LOS ANGELES, CA", "zone_code": "R3-1XL", "zone_category": "Residential", "ev_permitted": false}, "geometry": {"type": "Polygon", "coordinates": [[[-118.335739938723, 34.0945697114389], [-118.335326394393, 34.0945709216999], [-118.335327773029, 34.0946835775594], [-118.335740347793, 34.0946823991856], [-118.335739938723, 34.0945697114389]]]}}, {"type": "Feature", "properties": {"zone_id": "02020LCP6KEADIYVNYABBB", "tract_id": "06037190702", "city": "LOS ANGELES, CA", "zone_code": "R3-1XL", "zone_category": "Residential", "ev_permitted": false}, "geometry": {"type": "Polygon", "coordinates": [[[-118.335739531711, 34.0944570219695], [-118.335325015761, 34.0944582658409], [-118.335326394393, 34.0945709216999], [-118.335739938723, 34.0945697114389], [-118.335739531711, 34.0944570219695]]]}}, {"type": "Feature", "properties": {"zone_id": "02045TZO53HSYMVVP0Z7P5", "tract_id": "06037190702", "city": "LOS ANGELES, CA", "zone_code": "R3-1XL", "zone_category": "Residential", "ev_permitted": false}, "geometry": {"type": "Polygon", "coordinates": [[[-118.334856739101, 34.0945753310629], [-118.334314636437, 34.0945764767513], [-118.33431524719, 34.0946863902972], [-118.334860595792, 34.0946852562211], [-118.334859237039, 34.0945753464665], [-118.334856739101, 34.0945753310629]]]}}, {"type": "Feature", "properties": {"zone_id": "0204TRUOAO8CFZSE1AMNEW", "tract_id": "06037190702", "city": "LOS ANGELES, CA", "zone_code": "R3-1XL", "zone_category": "Residential", "ev_permitted": false}, "geometry": {"type": "Polygon", "coordinates": [[[-118.334856175476, 34.0944593205268], [-118.334313993041, 34.0944604630006], [-118.334314636437, 34.0945764767513], [-118.334859237039, 34.0945753464665], [-118.334857802261, 34.0944593383447], [-118.334856175476, 34.0944593205268]]]}}, {"type": "Feature", "properties": {"zone_id": "02016OEYGOC6WNSUMKN1KM", "tract_id": "06037190702", "city": "LOS ANGELES, CA", "zone_code": "R3-1XL", "zone_category": "Residential", "ev_permitted": false}, "geometry": {"type": "Polygon", "coordinates": [[[-118.33514582469, 34.0946291024462], [-118.334859908837, 34.0946296976897], [-118.334862015414, 34.0948000553182], [-118.335147909143, 34.0947994601327], [-118.33514582469, 34.0946291024462]]]}}, {"type": "Feature", "properties": {"zone_id": "02013MEI1PM8RDIUDWS8RS", "tract_id": "06037190702", "city": "LOS ANGELES, CA", "zone_code": "R3-1XL", "zone_category": "Residential", "ev_permitted": false}, "geometry": {"type": "Polygon", "coordinates": [[[-118.335094800948, 34.0945083080088], [-118.334858413185, 34.0945087985084], [-118.334859908837, 34.0946296976897], [-118.33514582469, 34.0946291024462], [-118.335144848879, 34.0945494200397], [-118.335094800948, 34.0945083080088]]]}}, {"type": "Feature", "properties": {"zone_id": "0202E5N4BXMKYXH4PL53K5", "tract_id": "06037190702", "city": "LOS ANGELES, CA", "zone_code": "R3-1XL", "zone_category": "Residential", "ev_permitted": false}, "geometry": {"type": "Polygon", "coordinates": [[[-118.334148844723, 34.0944605351438], [-118.333726065599, 34.0944613790474], [-118.333726722629, 34.0945773927613], [-118.334149502341, 34.0945765488554], [-118.334148844723, 34.0944605351438]]]}}, {"type": "Feature", "properties": {"zone_id": "0200VMZEP1OQBOCK6KZNMK", "tract_id": "06037190702", "city": "LOS ANGELES, CA", "zone_code": "R3-1XL", "zone_category": "Residential", "ev_permitted": false}, "geometry": {"type": "Polygon", "coordinates": [[[-118.334149502341, 34.0945765488554], [-118.333726722629, 34.0945773927613], [-118.333727345003, 34.0946873079934], [-118.334150125269, 34.0946864640853], [-118.334149502341, 34.0945765488554]]]}}, {"type": "Feature", "properties": {"zone_id": "0202GI4IY7XL0BXANSNKQH", "tract_id": "06037190702", "city": "LOS ANGELES, CA", "zone_code": "RD1.5-1XL", "zone_category": "Residential", "ev_permitted": false}, "geometry": {"type": "Polygon", "coordinates": [[[-118.334150125269, 34.0946864640853], [-118.333727345003, 34.0946873079934], [-118.333727969428, 34.0947972197853], [-118.334150750257, 34.0947963775925], [-118.334150125269, 34.0946864640853]]]}}, {"type": "Feature", "properties": {"zone_id": "0202M4165GCW175ENO8UPU", "tract_id": "06037190702", "city": "LOS ANGELES, CA", "zone_code": "CPIO", "zone_category": "Other", "ev_permitted": false}, "geometry": {"type": "Polygon", "coordinates": [[[-118.333699488802, 34.0974509563102], [-118.333319602938, 34.0974515926918], [-118.333321689456, 34.0978445339323], [-118.333701576995, 34.0978438700656], [-118.333699488802, 34.0974509563102]]]}}, {"type": "Feature", "properties": {"zone_id": "020185X72LD6AOG2VPRBKY", "tract_id": "06037190702", "city": "LOS ANGELES, CA", "zone_code": "RD1.5-1XL", "zone_category": "Residential", "ev_permitted": false}, "geometry": {"type": "Polygon", "coordinates": [[[-118.333793290275, 34.0970852839861], [-118.333634743728, 34.0970855570047], [-118.33363669742, 34.0974510472734], [-118.33379524466, 34.0974507742521], [-118.333793290275, 34.0970852839861]]]}}, {"type": "Feature", "properties": {"zone_id": "0200D87BW1LNMV2YBJOKBM", "tract_id": "06037190702", "city": "LOS ANGELES, CA", "zone_code": "C2-2D", "zone_category": "Commercial", "ev_permitted": true}, "geometry": {"type": "Polygon", "coordinates": [[[-118.333634743728, 34.0970855570047], [-118.33347619729, 34.0970858572939], [-118.333478150289, 34.0974513475651], [-118.33363669742, 34.0974510472734], [-118.333634743728, 34.0970855570047]]]}}, {"type": "Feature", "properties": {"zone_id": "0201FCJZFWDTTWGQ47GJPH", "tract_id": "06037190702", "city": "LOS ANGELES, CA", "zone_code": "RD1.5-1XL", "zone_category": "Residential", "ev_permitted": false}, "geometry": {"type": "Polygon", "coordinates": [[[-118.33347619729, 34.0970858572939], [-118.333317650851, 34.097086157375], [-118.333319602938, 34.0974515926918], [-118.333478150289, 34.0974513475651], [-118.33347619729, 34.0970858572939]]]}}, {"type": "Feature", "properties": {"zone_id": "02062F8R3NFQ4DCYFZD7XS", "tract_id": "06037190702", "city": "LOS ANGELES, CA", "zone_code": "RD1.5-1XL", "zone_category": "Residential", "ev_permitted": false}, "geometry": {"type": "Polygon", "coordinates": [[[-118.333791070358, 34.096582412428], [-118.333632524854, 34.09658270777], [-118.333634492886, 34.0969481756662], [-118.333793039083, 34.0969478803216], [-118.333791070358, 34.096582412428]]]}}, {"type": "Feature", "properties": {"zone_id": "0201JWMQ610QPY1YLJZXIF", "tract_id": "06037190702", "city": "LOS ANGELES, CA", "zone_code": "CPIO", "zone_category": "Other", "ev_permitted": false}, "geometry": {"type": "Polygon", "coordinates": [[[-118.333632524854, 34.09658270777], [-118.333473979342, 34.0965830011867], [-118.333475946688, 34.0969484708028], [-118.333634492886, 34.0969481756662], [-118.333632524854, 34.09658270777]]]}}, {"type": "Feature", "properties": {"zone_id": "0201WQBCTHQ514ER08USGX", "tract_id": "06037190702", "city": "LOS ANGELES, CA", "zone_code": "RD1.5-1XL", "zone_category": "Residential", "ev_permitted": false}, "geometry": {"type": "Polygon", "coordinates": [[[-118.333473979342, 34.0965830011867], [-118.333315433836, 34.0965832961126], [-118.333317400482, 34.096948764014], [-118.333475946688, 34.0969484708028], [-118.333473979342, 34.0965830011867]]]}}, {"type": "Feature", "properties": {"zone_id": "0202H1TMBP6OYQ33OVIDUV", "tract_id": "06037190702", "city": "LOS ANGELES, CA", "zone_code": "RD1.5-1XL", "zone_category": "Residential", "ev_permitted": false}, "geometry": {"type": "Polygon", "coordinates": [[[-118.333473269179, 34.0964509915085], [-118.333314721756, 34.0964512606782], [-118.333315433836, 34.0965832961126], [-118.333473979342, 34.0965830011867], [-118.333473269179, 34.0964509915085]]]}}, {"type": "Feature", "properties": {"zone_id": "0200MFVL96MD73SBSLN69P", "tract_id": "06037190702", "city": "LOS ANGELES, CA", "zone_code": "RD1.5-1XL", "zone_category": "Residential", "ev_permitted": false}, "geometry": {"type": "Polygon", "coordinates": [[[-118.333630688166, 34.0962418777037], [-118.333472143218, 34.096242150509], [-118.333473979342, 34.0965830011867], [-118.333632524854, 34.09658270777], [-118.333630688166, 34.0962418777037]]]}}, {"type": "Feature", "properties": {"zone_id": "0207BHJHDRW5P0MY65XDWY", "tract_id": "06037190702", "city": "LOS ANGELES, CA", "zone_code": "RD1.5-1XL", "zone_category": "Residential", "ev_permitted": false}, "geometry": {"type": "Polygon", "coordinates": [[[-118.333789233113, 34.0962416046904], [-118.333630688166, 34.0962418777037], [-118.333632524854, 34.09658270777], [-118.333791070358, 34.096582412428], [-118.333789233113, 34.0962416046904]]]}}, {"type": "Feature", "properties": {"zone_id": "0203KRUDEEBIOEWQG0DDOH", "tract_id": "06037190702", "city": "LOS ANGELES, CA", "zone_code": "RD1.5-1XL", "zone_category": "Residential", "ev_permitted": false}, "geometry": {"type": "Polygon", "coordinates": [[[-118.333472143218, 34.096242150509], [-118.333313598269, 34.0962424231063], [-118.333314721756, 34.0964512606782], [-118.333473269179, 34.0964509915085], [-118.333472143218, 34.096242150509]]]}}, {"type": "Feature", "properties": {"zone_id": "0206TFN58NAW5CVBSTSABW", "tract_id": "06037190702", "city": "LOS ANGELES, CA", "zone_code": "CPIO", "zone_category": "Other", "ev_permitted": false}, "geometry": {"type": "Polygon", "coordinates": [[[-118.333806645576, 34.0958799165565], [-118.333641495331, 34.0958802078343], [-118.333642686007, 34.0961041293664], [-118.333807836804, 34.0961038655654], [-118.333806645576, 34.0958799165565]]]}}, {"type": "Feature", "properties": {"zone_id": "02071H53PNJE1QXG2RMOS0", "tract_id": "06037190702", "city": "LOS ANGELES, CA", "zone_code": "RD1.5-1XL", "zone_category": "Residential", "ev_permitted": false}, "geometry": {"type": "Polygon", "coordinates": [[[-118.333642099016, 34.0959901214057], [-118.33331173181, 34.0959906485111], [-118.33331238452, 34.0961046837695], [-118.333642686007, 34.0961041293664], [-118.333642099016, 34.0959901214057]]]}}, {"type": "Feature", "properties": {"zone_id": "02054EK1Z2GM5E75HEGCMD", "tract_id": "06037190702", "city": "LOS ANGELES, CA", "zone_code": "CPIO", "zone_category": "Other", "ev_permitted": false}, "geometry": {"type": "Polygon", "coordinates": [[[-118.333641495331, 34.0958802078343], [-118.333311194619, 34.0958807347557], [-118.33331173181, 34.0959906485111], [-118.333642099016, 34.0959901214057], [-118.333641495331, 34.0958802078343]]]}}, {"type": "Feature", "properties": {"zone_id": "02062BKHQYVN66GRDC3KVE", "tract_id": "06037190702", "city": "LOS ANGELES, CA", "zone_code": "CPIO", "zone_category": "Other", "ev_permitted": false}, "geometry": {"type": "Polygon", "coordinates": [[[-118.333805898958, 34.0957425245711], [-118.333310448816, 34.0957433427672], [-118.333311194619, 34.0958807347557], [-118.333806645576, 34.0958799165565], [-118.333805898958, 34.0957425245711]]]}}, {"type": "Feature", "properties": {"zone_id": "0203AB8X9MQK7B00E2W3NN", "tract_id": "06037190702", "city": "LOS ANGELES, CA", "zone_code": "RD1.5-1XL", "zone_category": "Residential", "ev_permitted": false}, "geometry": {"type": "Polygon", "coordinates": [[[-118.333805185483, 34.0956051599735], [-118.333309769075, 34.0956059505971], [-118.333310448816, 34.0957433427672], [-118.333805898958, 34.0957425245711], [-118.333805185483, 34.0956051599735]]]}}, {"type": "Feature", "properties": {"zone_id": "02016X76H95O97EHR11KLE", "tract_id": "06037190702", "city": "LOS ANGELES, CA", "zone_code": "RD1.5-1XL", "zone_category": "Residential", "ev_permitted": false}, "geometry": {"type": "Polygon", "coordinates": [[[-118.333731085427, 34.0953467890731], [-118.333308303862, 34.095347626357], [-118.333308990246, 34.095468558701], [-118.333731773081, 34.0954678862858], [-118.333731085427, 34.0953467890731]]]}}, {"type": "Feature", "properties": {"zone_id": "0201O2PJD7QO7HFFHLX1RG", "tract_id": "06037190702", "city": "LOS ANGELES, CA", "zone_code": "RD1.5-1XL", "zone_category": "Residential", "ev_permitted": false}, "geometry": {"type": "Polygon", "coordinates": [[[-118.33370686853, 34.0954679258761], [-118.333577622497, 34.0954681316389], [-118.333577972372, 34.0956055230013], [-118.333688061239, 34.095605347821], [-118.333687882181, 34.0955723737443], [-118.333707435909, 34.0955723420669], [-118.33370686853, 34.0954679258761]]]}}, {"type": "Feature", "properties": {"zone_id": "0201N7HT5JW6WTCPGG64W6", "tract_id": "06037190702", "city": "LOS ANGELES, CA", "zone_code": "RD1.5-1XL", "zone_category": "Residential", "ev_permitted": false}, "geometry": {"type": "Polygon", "coordinates": [[[-118.333577622497, 34.0954681316389], [-118.333448409493, 34.0954683371723], [-118.333448759156, 34.0956057285351], [-118.333577972372, 34.0956055230013], [-118.333577622497, 34.0954681316389]]]}}, {"type": "Feature", "properties": {"zone_id": "0201LGI9F41MLFLAD89KVN", "tract_id": "06037190702", "city": "LOS ANGELES, CA", "zone_code": "CPIO", "zone_category": "Other", "ev_permitted": false}, "geometry": {"type": "Polygon", "coordinates": [[[-118.333448409493, 34.0954683371723], [-118.333308990246, 34.095468558701], [-118.333309769075, 34.0956059505971], [-118.333448759156, 34.0956057285351], [-118.333448409493, 34.0954683371723]]]}}, {"type": "Feature", "properties": {"zone_id": "0200CMPQ9PAN0SEBCT7HHF", "tract_id": "06037190702", "city": "LOS ANGELES, CA", "zone_code": "CPIO", "zone_category": "Other", "ev_permitted": false}, "geometry": {"type": "Polygon", "coordinates": [[[-118.333730463051, 34.0952368755559], [-118.333307679977, 34.0952377128433], [-118.333308303862, 34.095347626357], [-118.333731085427, 34.0953467890731], [-118.333730463051, 34.0952368755559]]]}}, {"type": "Feature", "properties": {"zone_id": "0204STXY8IKANI2OFNQSSY", "tract_id": "06037190702", "city": "LOS ANGELES, CA", "zone_code": "RD1.5-1XL", "zone_category": "Residential", "ev_permitted": false}, "geometry": {"type": "Polygon", "coordinates": [[[-118.33372921624, 34.0950170485285], [-118.333306434284, 34.0950178875289], [-118.333307058165, 34.0951278010417], [-118.333729838612, 34.0951269620448], [-118.33372921624, 34.0950170485285]]]}}, {"type": "Feature", "properties": {"zone_id": "0204CCX261LTCTOFLWL8JO", "tract_id": "06037190702", "city": "LOS ANGELES, CA", "zone_code": "RD1.5-1XL", "zone_category": "Residential", "ev_permitted": false}, "geometry": {"type": "Polygon", "coordinates": [[[-118.333729838612, 34.0951269620448], [-118.333307058165, 34.0951278010417], [-118.333307679977, 34.0952377128433], [-118.333730463051, 34.0952368755559], [-118.333729838612, 34.0951269620448]]]}}, {"type": "Feature", "properties": {"zone_id": "0206L39I5BIR8RWJURQX3O", "tract_id": "06037190702", "city": "LOS ANGELES, CA", "zone_code": "RD1.5-1XL", "zone_category": "Residential", "ev_permitted": false}, "geometry": {"type": "Polygon", "coordinates": [[[-118.333727969428, 34.0947972197853], [-118.33330518859, 34.0947980604988], [-118.333305812468, 34.0949079740108], [-118.333728591797, 34.0949071333008], [-118.333727969428, 34.0947972197853]]]}}, {"type": "Feature", "properties": {"zone_id": "0203CYT2S7IE3UIDB8JCL2", "tract_id": "06037190702", "city": "LOS ANGELES, CA", "zone_code": "RD1.5-1XL", "zone_category": "Residential", "ev_permitted": false}, "geometry": {"type": "Polygon", "coordinates": [[[-118.333728591797, 34.0949071333008], [-118.333305812468, 34.0949079740108], [-118.333306434284, 34.0950178875289], [-118.33372921624, 34.0950170485285], [-118.333728591797, 34.0949071333008]]]}}, {"type": "Feature", "properties": {"zone_id": "0202NPSZEAC3HU2UCOYYH8", "tract_id": "06037190702", "city": "LOS ANGELES, CA", "zone_code": "R3-1XL", "zone_category": "Residential", "ev_permitted": false}, "geometry": {"type": "Polygon", "coordinates": [[[-118.333623343983, 34.0944615837292], [-118.333303286465, 34.0944622214715], [-118.33330394291, 34.0945782351877], [-118.333624000871, 34.0945775974437], [-118.333623343983, 34.0944615837292]]]}}, {"type": "Feature", "properties": {"zone_id": "0204W1XGYBGQYCMYO3OV8I", "tract_id": "06037190702", "city": "LOS ANGELES, CA", "zone_code": "R3-1XL", "zone_category": "Residential", "ev_permitted": false}, "geometry": {"type": "Polygon", "coordinates": [[[-118.333727345003, 34.0946873079934], [-118.333304566784, 34.0946881486989], [-118.33330518859, 34.0947980604988], [-118.333727969428, 34.0947972197853], [-118.333727345003, 34.0946873079934]]]}}, {"type": "Feature", "properties": {"zone_id": "0205VM2M7N8Y397ZQSRNVD", "tract_id": "06037190702", "city": "LOS ANGELES, CA", "zone_code": "R3-1XL", "zone_category": "Residential", "ev_permitted": false}, "geometry": {"type": "Polygon", "coordinates": [[[-118.333726722629, 34.0945773927613], [-118.33330394291, 34.0945782351877], [-118.333304566784, 34.0946881486989], [-118.333727345003, 34.0946873079934], [-118.333726722629, 34.0945773927613]]]}}, {"type": "Feature", "properties": {"zone_id": "0204325NZPB56S90I61DK5", "tract_id": "06037190702", "city": "LOS ANGELES, CA", "zone_code": "R3-1XL", "zone_category": "Residential", "ev_permitted": false}, "geometry": {"type": "Polygon", "coordinates": [[[-118.333726065599, 34.0944613790474], [-118.333623343983, 34.0944615837292], [-118.333624000871, 34.0945775974437], [-118.333726722629, 34.0945773927613], [-118.333726065599, 34.0944613790474]]]}}]}