{"type": "FeatureCollection", "features": [{"type": "Feature", "properties": {"zone_id": "02002U64OX0VCFNHJ0DRWL", "tract_id": "36061002601", "city": "NEW YORK, NY", "zone_code": "R7A", "zone_category": "Residential", "ev_permitted": false}, "geometry": {"type": "Polygon", "coordinates": [[[-73.9822440378772, 40.7229918121848], [-73.9821979875098, 40.7230549129025], [-73.9824815035033, 40.7231744581472], [-73.9825275527614, 40.7231113566143], [-73.9822440378772, 40.7229918121848]]]}}, {"type": "Feature", "properties": {"zone_id": "020700869IY4W12W14CX3S", "tract_id": "36061002601", "city": "NEW YORK, NY", "zone_code": "R7A", "zone_category": "Residential", "ev_permitted": false}, "geometry": {"type": "Polygon", "coordinates": [[[-73.9824268476845, 40.7226899881579], [-73.9823426146623, 40.7228054086442], [-73.9826547749071, 40.7229370316293], [-73.9827390066316, 40.7228216102139], [-73.9824268476845, 40.7226899881579]]]}}, {"type": "Feature", "properties": {"zone_id": "0201KSAE5KB8481HDE425K", "tract_id": "36061002601", "city": "NEW YORK, NY", "zone_code": "R7A", "zone_category": "Residential", "ev_permitted": false}, "geometry": {"type": "Polygon", "coordinates": [[[-73.9823712596128, 40.7228174868075], [-73.9823045417352, 40.722908906442], [-73.9825880572987, 40.7230284514266], [-73.9826547749071, 40.7229370316293], [-73.9823712596128, 40.7228174868075]]]}}, {"type": "Feature", "properties": {"zone_id": "02036R9B8MFPSC0P4F9C84", "tract_id": "36061002601", "city": "NEW YORK, NY", "zone_code": "R7A", "zone_category": "Residential", "ev_permitted": false}, "geometry": {"type": "Polygon", "coordinates": [[[-73.9823045417352, 40.722908906442], [-73.9822736915956, 40.7229511792274], [-73.9825572072837, 40.7230707235846], [-73.9825880572987, 40.7230284514266], [-73.9823045417352, 40.722908906442]]]}}, {"type": "Feature", "properties": {"zone_id": "0204IQJAIZ322PA7CUGNYC", "tract_id": "36061002601", "city": "NEW YORK, NY", "zone_code": "R7A", "zone_category": "Residential", "ev_permitted": false}, "geometry": {"type": "Polygon", "coordinates": [[[-73.9822736915956, 40.7229511792274], [-73.9822440378772, 40.7229918121848], [-73.9825275527614, 40.7231113566143], [-73.9825572072837, 40.7230707235846], [-73.9822736915956, 40.7229511792274]]]}}, {"type": "Feature", "properties": {"zone_id": "02024WKP6HT9AYJER9DZI5", "tract_id": "36061002601", "city": "NEW YORK, NY", "zone_code": "R7A", "zone_category": "Residential", "ev_permitted": false}, "geometry": {"type": "Polygon", "coordinates": [[[-73.9821250642716, 40.7227136767894], [-73.9819517915615, 40.7229511025172], [-73.9821979875098, 40.7230549129025], [-73.9823712596128, 40.7228174868075], [-73.9821250642716, 40.7227136767894]]]}}, {"type": "Feature", "properties": {"zone_id": "0206I01ANH1HNOW6DFFSPX", "tract_id": "36061002601", "city": "NEW YORK, NY", "zone_code": "R8B", "zone_category": "Residential", "ev_permitted": false}, "geometry": {"type": "Polygon", "coordinates": [[[-73.9820470530145, 40.7226807823609], [-73.9818737801119, 40.7229182079725], [-73.9819517915615, 40.7229511025172], [-73.9821250642716, 40.7227136767894], [-73.9820470530145, 40.7226807823609]]]}}, {"type": "Feature", "properties": {"zone_id": "0203MDO6DIF8QJV5FRYB3L", "tract_id": "36061002601", "city": "NEW YORK, NY", "zone_code": "R7A", "zone_category": "Residential", "ev_permitted": false}, "geometry": {"type": "Polygon", "coordinates": [[[-73.9825167623789, 40.722566781614], [-73.9824268476845, 40.7226899881579], [-73.9827390066316, 40.7228216102139], [-73.9828289200029, 40.7226984034282], [-73.9825167623789, 40.722566781614]]]}}, {"type": "Feature", "properties": {"zone_id": "02041WIAI6YZ08MF6J9P6G", "tract_id": "36061002601", "city": "NEW YORK, NY", "zone_code": "R7A", "zone_category": "Residential", "ev_permitted": false}, "geometry": {"type": "Polygon", "coordinates": [[[-73.9823705886043, 40.7225051467487], [-73.9821964414489, 40.72274377356], [-73.9823426146623, 40.7228054086442], [-73.9825167623789, 40.722566781614], [-73.9823705886043, 40.7225051467487]]]}}, {"type": "Feature", "properties": {"zone_id": "0204G9ZXSSALJP3BIF608W", "tract_id": "36061002601", "city": "NEW YORK, NY", "zone_code": "R8B", "zone_category": "Residential", "ev_permitted": false}, "geometry": {"type": "Polygon", "coordinates": [[[-73.9822947642223, 40.7224731747095], [-73.9821171862179, 40.7227103555066], [-73.9821964414489, 40.72274377356], [-73.9823705886043, 40.7225051467487], [-73.9822947642223, 40.7224731747095]]]}}, {"type": "Feature", "properties": {"zone_id": "02059NMO4AWSYMJHRNBPK3", "tract_id": "36061002601", "city": "NEW YORK, NY", "zone_code": "R8B", "zone_category": "Residential", "ev_permitted": false}, "geometry": {"type": "Polygon", "coordinates": [[[-73.9822210888014, 40.7224421093809], [-73.9820508493628, 40.722682383608], [-73.9821171862179, 40.7227103555066], [-73.9822947642223, 40.7224731747095], [-73.9822210888014, 40.7224421093809]]]}}, {"type": "Feature", "properties": {"zone_id": "0204PJJDQ2NQT3YODXFZBF", "tract_id": "36061002601", "city": "NEW YORK, NY", "zone_code": "R8B", "zone_category": "Residential", "ev_permitted": false}, "geometry": {"type": "Polygon", "coordinates": [[[-73.9821502383078, 40.7224122319353], [-73.9819760887587, 40.7226508598213], [-73.9820508493628, 40.722682383608], [-73.9822210888014, 40.7224421093809], [-73.9821502383078, 40.7224122319353]]]}}, {"type": "Feature", "properties": {"zone_id": "0206BV0ZDHGF3VCS27KLT7", "tract_id": "36061002601", "city": "NEW YORK, NY", "zone_code": "R8B", "zone_category": "Residential", "ev_permitted": false}, "geometry": {"type": "Polygon", "coordinates": [[[-73.9820739801119, 40.7223800790998], [-73.9818998322212, 40.7226187054665], [-73.9819760887587, 40.7226508598213], [-73.9821502383078, 40.7224122319353], [-73.9820739801119, 40.7223800790998]]]}}, {"type": "Feature", "properties": {"zone_id": "0200FD8B8SIVDP88EHM44Z", "tract_id": "36061002601", "city": "NEW YORK, NY", "zone_code": "R7A", "zone_category": "Residential", "ev_permitted": false}, "geometry": {"type": "Polygon", "coordinates": [[[-73.9815408506658, 40.7229559208409], [-73.9812027137748, 40.7234225118833], [-73.9812812610823, 40.7234556760857], [-73.9814519777551, 40.7232201059881], [-73.9817236163539, 40.723334767709], [-73.9815528864884, 40.723570357878], [-73.9816607922252, 40.7236159157867], [-73.9815787930738, 40.7237299630621], [-73.981569629384, 40.7237397081648], [-73.9815572734899, 40.723750560847], [-73.9815419556658, 40.7237614207823], [-73.9815156380582, 40.723775350971], [-73.9815003345021, 40.7237813464017], [-73.9814843782773, 40.7237862406604], [-73.9814643048598, 40.7237906487175], [-73.9814445468852, 40.7237932453696], [-73.9814260408198, 40.7237941987033], [-73.9814038094907, 40.7237934889435], [-73.9813864467139, 40.723791509561], [-73.9813655481452, 40.7237873850915], [-73.9813467077004, 40.7237818942818], [-73.9813259987062, 40.7237736353962], [-73.9813086148418, 40.7237645450997], [-73.981290219664, 40.7237521549542], [-73.981278848457, 40.7237425772826], [-73.9812670152771, 40.7237303758099], [-73.9812580837826, 40.7237189147071], [-73.9812519428447, 40.7237092514572], [-73.9812445215435, 40.7236940306762], [-73.9812409639949, 40.7236838977683], [-73.9812377713587, 40.7236701385017], [-73.9812374837013, 40.7236585228154], [-73.9812347875619, 40.7236428713717], [-73.9812334985962, 40.7236383453414], [-73.9812260266267, 40.7236259899902], [-73.9812151848026, 40.7236126342064], [-73.9812013236562, 40.7235998028142], [-73.9811867284949, 40.7235894474672], [-73.9811724392853, 40.7235815022853], [-73.9808212192434, 40.7240621769156], [-73.9815855077287, 40.7243842841523], [-73.9823718404375, 40.7233066900848], [-73.9815408506658, 40.7229559208409]]]}}, {"type": "Feature", "properties": {"zone_id": "0207MW79F1YTXSPN64LG8D", "tract_id": "36061002601", "city": "NEW YORK, NY", "zone_code": "R8B", "zone_category": "Residential", "ev_permitted": false}, "geometry": {"type": "Polygon", "coordinates": [[[-73.9808848074845, 40.7237712210364], [-73.9807072922988, 40.7240141607218], [-73.9808212192434, 40.7240621769156], [-73.9809989023001, 40.7238190038013], [-73.9808848074845, 40.7237712210364]]]}}, {"type": "Feature", "properties": {"zone_id": "0203O030XIAZTTHXL6SQYA", "tract_id": "36061002601", "city": "NEW YORK, NY", "zone_code": "R8B", "zone_category": "Residential", "ev_permitted": false}, "geometry": {"type": "Polygon", "coordinates": [[[-73.980775452998, 40.7237254232558], [-73.9805980992273, 40.7239681414641], [-73.9807072922988, 40.7240141607218], [-73.9808848074845, 40.7237712210364], [-73.980775452998, 40.7237254232558]]]}}, {"type": "Feature", "properties": {"zone_id": "020490SJK2U1M8YR9DW6LK", "tract_id": "36061002601", "city": "NEW YORK, NY", "zone_code": "R8B", "zone_category": "Residential", "ev_permitted": false}, "geometry": {"type": "Polygon", "coordinates": [[[-73.9816084507307, 40.7232861549462], [-73.9814377270501, 40.7235217365151], [-73.9815528864884, 40.723570357878], [-73.9817236163539, 40.723334767709], [-73.9816084507307, 40.7232861549462]]]}}, {"type": "Feature", "properties": {"zone_id": "0203L7G0U9MZ4E4FFKU0UP", "tract_id": "36061002601", "city": "NEW YORK, NY", "zone_code": "R8B", "zone_category": "Residential", "ev_permitted": false}, "geometry": {"type": "Polygon", "coordinates": [[[-73.9814519777551, 40.7232201059881], [-73.9812812610823, 40.7234556760857], [-73.9814377270501, 40.7235217365151], [-73.9816084507307, 40.7232861549462], [-73.9814519777551, 40.7232201059881]]]}}, {"type": "Feature", "properties": {"zone_id": "020399I9B8PP47Z3JSG38V", "tract_id": "36061002601", "city": "NEW YORK, NY", "zone_code": "R8B", "zone_category": "Residential", "ev_permitted": false}, "geometry": {"type": "Polygon", "coordinates": [[[-73.9810145586107, 40.7235151208506], [-73.980840876176, 40.7237528223642], [-73.9809989023001, 40.7238190038013], [-73.9811724392853, 40.7235815022853], [-73.9810145586107, 40.7235151208506]]]}}, {"type": "Feature", "properties": {"zone_id": "020007UU7LXOYKFSQWS9MS", "tract_id": "36061002601", "city": "NEW YORK, NY", "zone_code": "R8B", "zone_category": "Residential", "ev_permitted": false}, "geometry": {"type": "Polygon", "coordinates": [[[-73.9808816228929, 40.7234592262986], [-73.9807078172445, 40.7236970969334], [-73.980840876176, 40.7237528223642], [-73.9810145586107, 40.7235151208506], [-73.9808816228929, 40.7234592262986]]]}}, {"type": "Feature", "properties": {"zone_id": "0200C70OS03R07YKJQBIUA", "tract_id": "36061002601", "city": "NEW YORK, NY", "zone_code": "R8B", "zone_category": "Residential", "ev_permitted": false}, "geometry": {"type": "Polygon", "coordinates": [[[-73.9806427109253, 40.7236698306048], [-73.9804655536212, 40.7239122788232], [-73.9805980992273, 40.7239681414641], [-73.980775452998, 40.7237254232558], [-73.9806427109253, 40.7236698306048]]]}}, {"type": "Feature", "properties": {"zone_id": "020213KOGVUS256JN86EPX", "tract_id": "36061002601", "city": "NEW YORK, NY", "zone_code": "R8B", "zone_category": "Residential", "ev_permitted": false}, "geometry": {"type": "Polygon", "coordinates": [[[-73.9807306900143, 40.7233957644684], [-73.9805567453996, 40.7236338273823], [-73.9807078172445, 40.7236970969334], [-73.9808816228929, 40.7234592262986], [-73.9807306900143, 40.7233957644684]]]}}, {"type": "Feature", "properties": {"zone_id": "0206Z6YREXEPGZQUCD6YDZ", "tract_id": "36061002601", "city": "NEW YORK, NY", "zone_code": "R8B", "zone_category": "Residential", "ev_permitted": false}, "geometry": {"type": "Polygon", "coordinates": [[[-73.9800940706067, 40.7231281605715], [-73.9799165484754, 40.7233657476144], [-73.9805567453996, 40.7236338273823], [-73.9807306900143, 40.7233957644684], [-73.9800940706067, 40.7231281605715]]]}}, {"type": "Feature", "properties": {"zone_id": "0201OGKT9EQVAYNLVASWI2", "tract_id": "36061002601", "city": "NEW YORK, NY", "zone_code": "R8B", "zone_category": "Residential", "ev_permitted": false}, "geometry": {"type": "Polygon", "coordinates": [[[-73.9804464429655, 40.7235876321264], [-73.980269574365, 40.723829681688], [-73.9804655536212, 40.7239122788232], [-73.9806427109253, 40.7236698306048], [-73.9804464429655, 40.7235876321264]]]}}, {"type": "Feature", "properties": {"zone_id": "02057VOGO25B2F9J03JR6H", "tract_id": "36061002601", "city": "NEW YORK, NY", "zone_code": "R8B", "zone_category": "Residential", "ev_permitted": false}, "geometry": {"type": "Polygon", "coordinates": [[[-73.9803769116195, 40.7235585119863], [-73.9802001454032, 40.7238004202255], [-73.980269574365, 40.723829681688], [-73.9804464429655, 40.7235876321264], [-73.9803769116195, 40.7235585119863]]]}}, {"type": "Feature", "properties": {"zone_id": "0201OEN3TZG7OWDGKUWTXP", "tract_id": "36061002601", "city": "NEW YORK, NY", "zone_code": "R8B", "zone_category": "Residential", "ev_permitted": false}, "geometry": {"type": "Polygon", "coordinates": [[[-73.9803089613036, 40.7235300539783], [-73.9801322947042, 40.7237718237077], [-73.9802001454032, 40.7238004202255], [-73.9803769116195, 40.7235585119863], [-73.9803089613036, 40.7235300539783]]]}}, {"type": "Feature", "properties": {"zone_id": "0205JKEJ89IUJFWBTT6HAJ", "tract_id": "36061002601", "city": "NEW YORK, NY", "zone_code": "R8B", "zone_category": "Residential", "ev_permitted": false}, "geometry": {"type": "Polygon", "coordinates": [[[-73.9801790328743, 40.7234756382245], [-73.9800025581315, 40.7237171442929], [-73.9801322947042, 40.7237718237077], [-73.9803089613036, 40.7235300539783], [-73.9801790328743, 40.7234756382245]]]}}, {"type": "Feature", "properties": {"zone_id": "0206XUDU6MZ2EEDY9SNF9Q", "tract_id": "36061002601", "city": "NEW YORK, NY", "zone_code": "R8B", "zone_category": "Residential", "ev_permitted": false}, "geometry": {"type": "Polygon", "coordinates": [[[-73.9799767608002, 40.7233909245016], [-73.9798005839894, 40.7236320192602], [-73.9800025581315, 40.7237171442929], [-73.9801790328743, 40.7234756382245], [-73.9799767608002, 40.7233909245016]]]}}, {"type": "Feature", "properties": {"zone_id": "0204OK31TFAM9WR8C7BT8C", "tract_id": "36061002601", "city": "NEW YORK, NY", "zone_code": "R7A", "zone_category": "Residential", "ev_permitted": false}, "geometry": {"type": "Polygon", "coordinates": [[[-73.9799165484754, 40.7233657476144], [-73.9797374672913, 40.7236054174828], [-73.9798005839894, 40.7236320192602], [-73.9799767608002, 40.7233909245016], [-73.9799165484754, 40.7233657476144]]]}}, {"type": "Feature", "properties": {"zone_id": "0203PHR8HK0V3VB2Q1S0JV", "tract_id": "36061002601", "city": "NEW YORK, NY", "zone_code": "R7A", "zone_category": "Residential", "ev_permitted": false}, "geometry": {"type": "Polygon", "coordinates": [[[-73.9796227866006, 40.7232426746292], [-73.9794471318676, 40.7234830494225], [-73.9797374672913, 40.7236054174828], [-73.9799165484754, 40.7233657476144], [-73.9796227866006, 40.7232426746292]]]}}, {"type": "Feature", "properties": {"zone_id": "0200V7EUIBB63TOCFW1UH3", "tract_id": "36061002601", "city": "NEW YORK, NY", "zone_code": "R8B", "zone_category": "Residential", "ev_permitted": false}, "geometry": {"type": "Polygon", "coordinates": [[[-73.9803554141748, 40.722757223075], [-73.9801847530202, 40.7229927121711], [-73.9812027137748, 40.7234225118833], [-73.9813734250971, 40.7231869482241], [-73.9803554141748, 40.722757223075]]]}}, {"type": "Feature", "properties": {"zone_id": "0201CO5JZCGGC6TI9JJ0Q3", "tract_id": "36061002601", "city": "NEW YORK, NY", "zone_code": "R8B", "zone_category": "Residential", "ev_permitted": false}, "geometry": {"type": "Polygon", "coordinates": [[[-73.9811506160722, 40.7227911981272], [-73.9809831923358, 40.7230222228406], [-73.9813734250971, 40.7231869482241], [-73.9815408506658, 40.7229559208409], [-73.9811506160722, 40.7227911981272]]]}}, {"type": "Feature", "properties": {"zone_id": "0206DKDW3ZNGHDD2DZE479", "tract_id": "36061002601", "city": "NEW YORK, NY", "zone_code": "R8B", "zone_category": "Residential", "ev_permitted": false}, "geometry": {"type": "Polygon", "coordinates": [[[-73.9810720649934, 40.7227580394533], [-73.9809046410676, 40.7229890654588], [-73.9809831923358, 40.7230222228406], [-73.9811506160722, 40.7227911981272], [-73.9810720649934, 40.7227580394533]]]}}, {"type": "Feature", "properties": {"zone_id": "0200TKA49JQIMIL0V4JNHZ", "tract_id": "36061002601", "city": "NEW YORK, NY", "zone_code": "R8B", "zone_category": "Residential", "ev_permitted": false}, "geometry": {"type": "Polygon", "coordinates": [[[-73.9809935139926, 40.7227248814282], [-73.9808260898778, 40.7229559073205], [-73.9809046410676, 40.7229890654588], [-73.9810720649934, 40.7227580394533], [-73.9809935139926, 40.7227248814282]]]}}, {"type": "Feature", "properties": {"zone_id": "0201RWGACCZ1IQ0U7HYR3Z", "tract_id": "36061002601", "city": "NEW YORK, NY", "zone_code": "R8B", "zone_category": "Residential", "ev_permitted": false}, "geometry": {"type": "Polygon", "coordinates": [[[-73.9809159096108, 40.7226921226162], [-73.9807484843858, 40.7229231483965], [-73.9808260898778, 40.7229559073205], [-73.9809935139926, 40.7227248814282], [-73.9809159096108, 40.7226921226162]]]}}, {"type": "Feature", "properties": {"zone_id": "0200L26IA7V9AN9C8CBOQC", "tract_id": "36061002601", "city": "NEW YORK, NY", "zone_code": "R8B", "zone_category": "Residential", "ev_permitted": false}, "geometry": {"type": "Polygon", "coordinates": [[[-73.9816596149589, 40.7225174151217], [-73.9814866744696, 40.722754980038], [-73.9818737801119, 40.7229182079725], [-73.9820470530145, 40.7226807823609], [-73.9816596149589, 40.7225174151217]]]}}, {"type": "Feature", "properties": {"zone_id": "0202QH3E62Z9DPQBMEZNZK", "tract_id": "36061002601", "city": "NEW YORK, NY", "zone_code": "R8B", "zone_category": "Residential", "ev_permitted": false}, "geometry": {"type": "Polygon", "coordinates": [[[-73.9815748556133, 40.7224814381415], [-73.9814014494263, 40.7227190443132], [-73.9814866744696, 40.722754980038], [-73.9816596149589, 40.7225174151217], [-73.9815748556133, 40.7224814381415]]]}}, {"type": "Feature", "properties": {"zone_id": "02062VVDEV15ZWNUS02JS5", "tract_id": "36061002601", "city": "NEW YORK, NY", "zone_code": "R8B", "zone_category": "Residential", "ev_permitted": false}, "geometry": {"type": "Polygon", "coordinates": [[[-73.9815013669912, 40.7224506871731], [-73.9813280899726, 40.722688110565], [-73.9814014494263, 40.7227190443132], [-73.9815748556133, 40.7224814381415], [-73.9815013669912, 40.7224506871731]]]}}, {"type": "Feature", "properties": {"zone_id": "0204SVNWXACLKLZ57G2DTQ", "tract_id": "36061002601", "city": "NEW YORK, NY", "zone_code": "R8B", "zone_category": "Residential", "ev_permitted": false}, "geometry": {"type": "Polygon", "coordinates": [[[-73.9814236066055, 40.7224178984626], [-73.9812503321654, 40.7226553231443], [-73.9813280899726, 40.722688110565], [-73.9815013669912, 40.7224506871731], [-73.9814236066055, 40.7224178984626]]]}}, {"type": "Feature", "properties": {"zone_id": "0201QXE06V4KCWXSGK9YAF", "tract_id": "36061002601", "city": "NEW YORK, NY", "zone_code": "R8B", "zone_category": "Residential", "ev_permitted": false}, "geometry": {"type": "Polygon", "coordinates": [[[-73.9819344698866, 40.722321253241], [-73.9817603216502, 40.7225598793986], [-73.9818998322212, 40.7226187054665], [-73.9820739801119, 40.7223800790998], [-73.9819344698866, 40.722321253241]]]}}, {"type": "Feature", "properties": {"zone_id": "0206DHKBOU6SYL4MCZ88OD", "tract_id": "36061002601", "city": "NEW YORK, NY", "zone_code": "R8B", "zone_category": "Residential", "ev_permitted": false}, "geometry": {"type": "Polygon", "coordinates": [[[-73.9817951427517, 40.7222625038314], [-73.9816209941699, 40.7225011297801], [-73.9817603216502, 40.7225598793986], [-73.9819344698866, 40.722321253241], [-73.9817951427517, 40.7222625038314]]]}}, {"type": "Feature", "properties": {"zone_id": "02068UBW2RFCN6C6TBAWJ8", "tract_id": "36061002601", "city": "NEW YORK, NY", "zone_code": "R8B", "zone_category": "Residential", "ev_permitted": false}, "geometry": {"type": "Polygon", "coordinates": [[[-73.9817300762251, 40.7222350680752], [-73.9815606601909, 40.7224756888281], [-73.9816209941699, 40.7225011297801], [-73.9817951427517, 40.7222625038314], [-73.9817300762251, 40.7222350680752]]]}}, {"type": "Feature", "properties": {"zone_id": "0204EU8PMZAXGFAG4IJY18", "tract_id": "36061002601", "city": "NEW YORK, NY", "zone_code": "R8B", "zone_category": "Residential", "ev_permitted": false}, "geometry": {"type": "Polygon", "coordinates": [[[-73.9815977556767, 40.7221792721071], [-73.9814236066055, 40.7224178984626], [-73.9815606601909, 40.7224756888281], [-73.9817300762251, 40.7222350680752], [-73.9815977556767, 40.7221792721071]]]}}, {"type": "Feature", "properties": {"zone_id": "020341S774Q9N8ILMTRNMK", "tract_id": "36061002601", "city": "NEW YORK, NY", "zone_code": "R8B", "zone_category": "Residential", "ev_permitted": false}, "geometry": {"type": "Polygon", "coordinates": [[[-73.9807594387162, 40.7226260727116], [-73.9805920131147, 40.7228570982664], [-73.9807484843858, 40.7229231483965], [-73.9809159096108, 40.7226921226162], [-73.9807594387162, 40.7226260727116]]]}}, {"type": "Feature", "properties": {"zone_id": "0204H5SS6GKD88WGV7T4YG", "tract_id": "36061002601", "city": "NEW YORK, NY", "zone_code": "R8B", "zone_category": "Residential", "ev_permitted": false}, "geometry": {"type": "Polygon", "coordinates": [[[-73.9806900348164, 40.722596775708], [-73.9805226108948, 40.7228278018659], [-73.9805920131147, 40.7228570982664], [-73.9807594387162, 40.7226260727116], [-73.9806900348164, 40.722596775708]]]}}, {"type": "Feature", "properties": {"zone_id": "0206GSS8ZUNZS90EGOFG27", "tract_id": "36061002601", "city": "NEW YORK, NY", "zone_code": "R8B", "zone_category": "Residential", "ev_permitted": false}, "geometry": {"type": "Polygon", "coordinates": [[[-73.9806045453857, 40.7225606889793], [-73.9804371194116, 40.7227917136083], [-73.9805226108948, 40.7228278018659], [-73.9806900348164, 40.722596775708], [-73.9806045453857, 40.7225606889793]]]}}, {"type": "Feature", "properties": {"zone_id": "020738SSXE8N4WD0U7GNHG", "tract_id": "36061002601", "city": "NEW YORK, NY", "zone_code": "R7A", "zone_category": "Residential", "ev_permitted": false}, "geometry": {"type": "Polygon", "coordinates": [[[-73.9797975918868, 40.7230034278801], [-73.9797514893241, 40.7230665212865], [-73.9800471823797, 40.7231909138729], [-73.9800940706067, 40.7231281605715], [-73.9797975918868, 40.7230034278801]]]}}, {"type": "Feature", "properties": {"zone_id": "0206JXTJJPT2DIBF0ITYT7", "tract_id": "36061002601", "city": "", "zone_code": "R7A", "zone_category": "Residential", "ev_permitted": false}, "geometry": {"type": "Polygon", "coordinates": [[[-73.9799814002418, 40.7227503231956], [-73.9799387220362, 40.7228092118657], [-73.9802289500962, 40.7229317262377], [-73.9802716272002, 40.7228728374608], [-73.9799814002418, 40.7227503231956]]]}}, {"type": "Feature", "properties": {"zone_id": "0203ASDVK3NQY9TSHVZIFN", "tract_id": "36061002601", "city": "NEW YORK, NY", "zone_code": "R7A", "zone_category": "Residential", "ev_permitted": false}, "geometry": {"type": "Polygon", "coordinates": [[[-73.9799387220362, 40.7228092118657], [-73.979894539559, 40.7228701773142], [-73.9801847530202, 40.7229927121711], [-73.9802289500962, 40.7229317262377], [-73.9799387220362, 40.7228092118657]]]}}, {"type": "Feature", "properties": {"zone_id": "0202IGYTJLGV8M3SAT88TC", "tract_id": "36061002601", "city": "NEW YORK, NY", "zone_code": "R7A", "zone_category": "Residential", "ev_permitted": false}, "geometry": {"type": "Polygon", "coordinates": [[[-73.9797514893241, 40.7230665212865], [-73.9796843093525, 40.7231584613939], [-73.9799806824009, 40.7232799136456], [-73.9800471823797, 40.7231909138729], [-73.9797514893241, 40.7230665212865]]]}}, {"type": "Feature", "properties": {"zone_id": "0202770KCAP9BBN2W1TCIA", "tract_id": "36061002601", "city": "NEW YORK, NY", "zone_code": "R7A", "zone_category": "Residential", "ev_permitted": false}, "geometry": {"type": "Polygon", "coordinates": [[[-73.9796843093525, 40.7231584613939], [-73.9796227866006, 40.7232426746292], [-73.9799165484754, 40.7233657476144], [-73.9799806824009, 40.7232799136456], [-73.9796843093525, 40.7231584613939]]]}}, {"type": "Feature", "properties": {"zone_id": "02037AU1THMM11Y5SU1KSM", "tract_id": "36061002601", "city": "NEW YORK, NY", "zone_code": "R7A", "zone_category": "Residential", "ev_permitted": false}, "geometry": {"type": "Polygon", "coordinates": [[[-73.9805228403456, 40.722526197861], [-73.9803554141748, 40.722757223075], [-73.9804371194116, 40.7227917136083], [-73.9806045453857, 40.7225606889793], [-73.9805228403456, 40.722526197861]]]}}, {"type": "Feature", "properties": {"zone_id": "02051XZB3OPQC6XRYZNFCY", "tract_id": "36061002601", "city": "NEW YORK, NY", "zone_code": "R7A", "zone_category": "Residential", "ev_permitted": false}, "geometry": {"type": "Polygon", "coordinates": [[[-73.9801907802322, 40.72246140883], [-73.9800651875655, 40.7226347097217], [-73.9803554141748, 40.722757223075], [-73.9804810072412, 40.7225839218697], [-73.9801907802322, 40.72246140883]]]}}, {"type": "Feature", "properties": {"zone_id": "0207C7XCQ9YKXFM5K9OQRB", "tract_id": "36061002601", "city": "NEW YORK, NY", "zone_code": "R7A", "zone_category": "Residential", "ev_permitted": false}, "geometry": {"type": "Polygon", "coordinates": [[[-73.9800651875655, 40.7226347097217], [-73.9799814002418, 40.7227503231956], [-73.9802716272002, 40.7228728374608], [-73.9803554141748, 40.722757223075], [-73.9800651875655, 40.7226347097217]]]}}, {"type": "Feature", "properties": {"zone_id": "0205UO8WO0OC46DD0JQ1OD", "tract_id": "36061002601", "city": "NEW YORK, NY", "zone_code": "R7A", "zone_category": "Residential", "ev_permitted": false}, "geometry": {"type": "Polygon", "coordinates": [[[-73.9802326135113, 40.7224036842232], [-73.9801907802322, 40.72246140883], [-73.9804810072412, 40.7225839218697], [-73.9805228403456, 40.722526197861], [-73.9802326135113, 40.7224036842232]]]}}, {"type": "Feature", "properties": {"zone_id": "0200LVLZPA79DF8SAB6VYI", "tract_id": "36061002601", "city": "NEW YORK, NY", "zone_code": "R7A", "zone_category": "Residential", "ev_permitted": false}, "geometry": {"type": "Polygon", "coordinates": [[[-73.9797978315019, 40.7222129663614], [-73.9797529350071, 40.7222751563683], [-73.9799569271563, 40.7223616766287], [-73.9800020599207, 40.7222995863615], [-73.9797978315019, 40.7222129663614]]]}}, {"type": "Feature", "properties": {"zone_id": "02010NBWQGFUXO7TEFD3W9", "tract_id": "36061002601", "city": "NEW YORK, NY", "zone_code": "R7A", "zone_category": "Residential", "ev_permitted": false}, "geometry": {"type": "Polygon", "coordinates": [[[-73.9794361376617, 40.7225939018346], [-73.9793900737445, 40.7226572712513], [-73.9796591114485, 40.7227713787739], [-73.9797051751885, 40.7227080099532], [-73.9794361376617, 40.7225939018346]]]}}, {"type": "Feature", "properties": {"zone_id": "0205T4P385N7SXHHTSNLES", "tract_id": "36061002601", "city": "NEW YORK, NY", "zone_code": "R7A", "zone_category": "Residential", "ev_permitted": false}, "geometry": {"type": "Polygon", "coordinates": [[[-73.9795199450309, 40.7224786098732], [-73.9794361376617, 40.7225939018346], [-73.9797051751885, 40.7227080099532], [-73.9797889822358, 40.7225927177978], [-73.9795199450309, 40.7224786098732]]]}}, {"type": "Feature", "properties": {"zone_id": "02068U4V1MG7G5J98TZB0Z", "tract_id": "36061002601", "city": "", "zone_code": "R7A", "zone_category": "Residential", "ev_permitted": false}, "geometry": {"type": "Polygon", "coordinates": [[[-73.9795637653487, 40.7224183162422], [-73.9795199450309, 40.7224786098732], [-73.9797889822358, 40.7225927177978], [-73.9798328023852, 40.7225324240653], [-73.9795637653487, 40.7224183162422]]]}}, {"type": "Feature", "properties": {"zone_id": "02035M2OUVWFA17FV4HBDE", "tract_id": "36061002601", "city": "NEW YORK, NY", "zone_code": "R7A", "zone_category": "Residential", "ev_permitted": false}, "geometry": {"type": "Polygon", "coordinates": [[[-73.9796047438679, 40.7223668172623], [-73.9795664636469, 40.7224194606485], [-73.9798328023852, 40.7225324240653], [-73.9798710750732, 40.7224797770768], [-73.9796047438679, 40.7223668172623]]]}}, {"type": "Feature", "properties": {"zone_id": "02002TAFQ68MTG22DG2GW3", "tract_id": "36061002601", "city": "NEW YORK, NY", "zone_code": "R7A", "zone_category": "Residential", "ev_permitted": false}, "geometry": {"type": "Polygon", "coordinates": [[[-73.979735730137, 40.7221866268475], [-73.9796047438679, 40.7223668172623], [-73.9796663771637, 40.7223929579114], [-73.9797978315019, 40.7222129663614], [-73.979735730137, 40.7221866268475]]]}}, {"type": "Feature", "properties": {"zone_id": "020385UMG5EN5BGZ254YQG", "tract_id": "36061002601", "city": "NEW YORK, NY", "zone_code": "R7A", "zone_category": "Residential", "ev_permitted": false}, "geometry": {"type": "Polygon", "coordinates": [[[-73.9797113899044, 40.7223316975764], [-73.9796663771637, 40.7223929579114], [-73.9798710750732, 40.7224797770768], [-73.9799157220004, 40.7224183620139], [-73.9797113899044, 40.7223316975764]]]}}, {"type": "Feature", "properties": {"zone_id": "0201SFBSO18NDQ82NLSJ21", "tract_id": "36061002601", "city": "NEW YORK, NY", "zone_code": "R7A", "zone_category": "Residential", "ev_permitted": false}, "geometry": {"type": "Polygon", "coordinates": [[[-73.9797529350071, 40.7222751563683], [-73.9797113899044, 40.7223316975764], [-73.9799157220004, 40.7224183620139], [-73.9799569271563, 40.7223616766287], [-73.9797529350071, 40.7222751563683]]]}}, {"type": "Feature", "properties": {"zone_id": "0202Q38DGNCS9MS6XVMNZ4", "tract_id": "36061002601", "city": "NEW YORK, NY", "zone_code": "R8B", "zone_category": "Residential", "ev_permitted": false}, "geometry": {"type": "Polygon", "coordinates": [[[-73.9793226355663, 40.7223160441613], [-73.9791489433641, 40.7225549988101], [-73.9792292966815, 40.7225890796044], [-73.9794029886844, 40.7223501248356], [-73.9793226355663, 40.7223160441613]]]}}, {"type": "Feature", "properties": {"zone_id": "0205JUBHP0LFI4FZEZ71UR", "tract_id": "36061002601", "city": "NEW YORK, NY", "zone_code": "R7A", "zone_category": "Residential", "ev_permitted": false}, "geometry": {"type": "Polygon", "coordinates": [[[-73.9794817664938, 40.7223835376477], [-73.9793080746865, 40.7226224918316], [-73.9793900737445, 40.7226572712513], [-73.9795637653487, 40.7224183162422], [-73.9794817664938, 40.7223835376477]]]}}, {"type": "Feature", "properties": {"zone_id": "02023OYII8O3CA1CJBXJ8F", "tract_id": "36061002601", "city": "NEW YORK, NY", "zone_code": "R8B", "zone_category": "Residential", "ev_permitted": false}, "geometry": {"type": "Polygon", "coordinates": [[[-73.9792438579162, 40.7222826319428], [-73.9790701608993, 40.7225215913915], [-73.9791489433641, 40.7225549988101], [-73.9793226355663, 40.7223160441613], [-73.9792438579162, 40.7222826319428]]]}}, {"type": "Feature", "properties": {"zone_id": "0207EHFYWH1IGYL6I9HTQV", "tract_id": "36061002601", "city": "NEW YORK, NY", "zone_code": "R8B", "zone_category": "Residential", "ev_permitted": false}, "geometry": {"type": "Polygon", "coordinates": [[[-73.9794029886844, 40.7223501248356], [-73.9792292966815, 40.7225890796044], [-73.9793080746865, 40.7226224918316], [-73.9794817664938, 40.7223835376477], [-73.9794029886844, 40.7223501248356]]]}}, {"type": "Feature", "properties": {"zone_id": "0206RK4ICITJSWE9AATJB8", "tract_id": "36061002601", "city": "NEW YORK, NY", "zone_code": "R7A", "zone_category": "Residential", "ev_permitted": false}, "geometry": {"type": "Polygon", "coordinates": [[[-73.9780503308728, 40.7225145927302], [-73.977965740148, 40.7226309585387], [-73.9780442082175, 40.7226642408768], [-73.9779199763399, 40.7228351372963], [-73.9792138579907, 40.7233838983331], [-73.9795572193084, 40.7229115494477], [-73.97931232193, 40.7228077062426], [-73.9791838566613, 40.7229843882451], [-73.9791287129944, 40.7229609994229], [-73.9790844078929, 40.7230215548875], [-73.9786060708031, 40.7228186728521], [-73.9785938872316, 40.7228355027621], [-73.978456419116, 40.7227771958495], [-73.9784686442661, 40.7227603842308], [-73.9783597937915, 40.7227142153478], [-73.9783844353654, 40.7226803581801], [-73.9782741242013, 40.7226335698995], [-73.9782874951043, 40.7226151852644], [-73.9780503308728, 40.7225145927302]]]}}, {"type": "Feature", "properties": {"zone_id": "0205XM8OD2ZDUOQTZU7RYQ", "tract_id": "36061002601", "city": "NEW YORK, NY", "zone_code": "R8A", "zone_category": "Residential", "ev_permitted": false}, "geometry": {"type": "Polygon", "coordinates": [[[-73.9776802540552, 40.7221154644606], [-73.977507062838, 40.7223537077549], [-73.978011688055, 40.7225677519832], [-73.9780503308728, 40.7225145927302], [-73.9782874951043, 40.7226151852644], [-73.9782741242013, 40.7226335698995], [-73.9783844353654, 40.7226803581801], [-73.9783597937915, 40.7227142153478], [-73.9784844000098, 40.722767066644], [-73.9786569180148, 40.722529712739], [-73.9776802540552, 40.7221154644606]]]}}, {"type": "Feature", "properties": {"zone_id": "0200DX4FC9GJ1HDGQUZSLA", "tract_id": "36061002601", "city": "NEW YORK, NY", "zone_code": "R7A", "zone_category": "Residential", "ev_permitted": false}, "geometry": {"type": "Polygon", "coordinates": [[[-73.9789759417016, 40.7226650317158], [-73.9788033820065, 40.7229023607909], [-73.9790844078929, 40.7230215548875], [-73.9791287129944, 40.7229609994229], [-73.9791838566613, 40.7229843882451], [-73.97931232193, 40.7228077062426], [-73.9789759417016, 40.7226650317158]]]}}, {"type": "Feature", "properties": {"zone_id": "0202XPN74QI78TRL2Z7PTR", "tract_id": "36061002601", "city": "NEW YORK, NY", "zone_code": "R8B", "zone_category": "Residential", "ev_permitted": false}, "geometry": {"type": "Polygon", "coordinates": [[[-73.9788948007268, 40.722630616838], [-73.9787222417554, 40.7228679457928], [-73.9788033820065, 40.7229023607909], [-73.9789759417016, 40.7226650317158], [-73.9788948007268, 40.722630616838]]]}}, {"type": "Feature", "properties": {"zone_id": "0205XSKDS8G51DMEU5KWP1", "tract_id": "36061002601", "city": "NEW YORK, NY", "zone_code": "R8B", "zone_category": "Residential", "ev_permitted": false}, "geometry": {"type": "Polygon", "coordinates": [[[-73.978813659836, 40.7225962012001], [-73.9786411006645, 40.7228335307371], [-73.9787222417554, 40.7228679457928], [-73.9788948007268, 40.722630616838], [-73.978813659836, 40.7225962012001]]]}}, {"type": "Feature", "properties": {"zone_id": "02068A0ZS881D5UQE0E2K2", "tract_id": "36061002601", "city": "", "zone_code": "R8B", "zone_category": "Residential", "ev_permitted": false}, "geometry": {"type": "Polygon", "coordinates": [[[-73.9787356891946, 40.7225631351941], [-73.9785509388662, 40.7228172860875], [-73.9785938872316, 40.7228355027621], [-73.9786060708031, 40.7228186728521], [-73.9786411006645, 40.7228335307371], [-73.978813659836, 40.7225962012001], [-73.9787356891946, 40.7225631351941]]]}}, {"type": "Feature", "properties": {"zone_id": "0205K24ACLAL8U7BOVHX6I", "tract_id": "36061002601", "city": "", "zone_code": "R8B", "zone_category": "Residential", "ev_permitted": false}, "geometry": {"type": "Polygon", "coordinates": [[[-73.9786569180148, 40.722529712739], [-73.9784844000098, 40.722767066644], [-73.9784686442661, 40.7227603842308], [-73.978456419116, 40.7227771958495], [-73.9785509388662, 40.7228172860875], [-73.9787356891946, 40.7225631351941], [-73.9786569180148, 40.722529712739]]]}}, {"type": "Feature", "properties": {"zone_id": "0203TMY6PDJNBLT21IVS1O", "tract_id": "36061002601", "city": "NEW YORK, NY", "zone_code": "R8B", "zone_category": "Residential", "ev_permitted": false}, "geometry": {"type": "Polygon", "coordinates": [[[-73.9791650803453, 40.7222492189675], [-73.9789913831328, 40.7224881790011], [-73.9790701608993, 40.7225215913915], [-73.9792438579162, 40.7222826319428], [-73.9791650803453, 40.7222492189675]]]}}, {"type": "Feature", "properties": {"zone_id": "0200M8AWMLZWS8G1TN07SC", "tract_id": "36061002601", "city": "NEW YORK, NY", "zone_code": "R8B", "zone_category": "Residential", "ev_permitted": false}, "geometry": {"type": "Polygon", "coordinates": [[[-73.9790863028535, 40.7222158059382], [-73.9789126100652, 40.7224547602336], [-73.9789913831328, 40.7224881790011], [-73.9791650803453, 40.7222492189675], [-73.9790863028535, 40.7222158059382]]]}}, {"type": "Feature", "properties": {"zone_id": "0205FC9OCKWOXODIVN8S4H", "tract_id": "36061002601", "city": "NEW YORK, NY", "zone_code": "R8B", "zone_category": "Residential", "ev_permitted": false}, "geometry": {"type": "Polygon", "coordinates": [[[-73.9790075300577, 40.7221823949637], [-73.9788338324569, 40.7224213470325], [-73.9789126100652, 40.7224547602336], [-73.9790863028535, 40.7222158059382], [-73.9790075300577, 40.7221823949637]]]}}, {"type": "Feature", "properties": {"zone_id": "0203RPOGBMF61CK2J3T3DM", "tract_id": "36061002601", "city": "NEW YORK, NY", "zone_code": "R8B", "zone_category": "Residential", "ev_permitted": false}, "geometry": {"type": "Polygon", "coordinates": [[[-73.9789287527236, 40.7221489825289], [-73.9787550512314, 40.7223879401005], [-73.9788338324569, 40.7224213470325], [-73.9790075300577, 40.7221823949637], [-73.9789287527236, 40.7221489825289]]]}}, {"type": "Feature", "properties": {"zone_id": "020210ZUCTV3EB33JCTL4J", "tract_id": "36061002601", "city": "NEW YORK, NY", "zone_code": "R8B", "zone_category": "Residential", "ev_permitted": false}, "geometry": {"type": "Polygon", "coordinates": [[[-73.977965740148, 40.7226309585387], [-73.9778415081311, 40.7228018548743], [-73.9779199763399, 40.7228351372963], [-73.9780442082175, 40.7226642408768], [-73.977965740148, 40.7226309585387]]]}}, {"type": "Feature", "properties": {"zone_id": "02068366SWKUWJ9IM5FALG", "tract_id": "36061002601", "city": "NEW YORK, NY", "zone_code": "R8B", "zone_category": "Residential", "ev_permitted": false}, "geometry": {"type": "Polygon", "coordinates": [[[-73.9779425468015, 40.7225384259695], [-73.9777723667096, 40.7227725287594], [-73.9778415081311, 40.7228018548743], [-73.978011688055, 40.7225677519832], [-73.9779425468015, 40.7225384259695]]]}}, {"type": "Feature", "properties": {"zone_id": "0201LTOZ98415NSOVMJWXK", "tract_id": "36061002601", "city": "NEW YORK, NY", "zone_code": "R8B", "zone_category": "Residential", "ev_permitted": false}, "geometry": {"type": "Polygon", "coordinates": [[[-73.9778023243451, 40.722478949928], [-73.977632142989, 40.7227130525122], [-73.9777723667096, 40.7227725287594], [-73.9779425468015, 40.7225384259695], [-73.9778023243451, 40.722478949928]]]}}, {"type": "Feature", "properties": {"zone_id": "020373N2D6SUJRQ5BFAEMF", "tract_id": "36061002601", "city": "NEW YORK, NY", "zone_code": "R8B", "zone_category": "Residential", "ev_permitted": false}, "geometry": {"type": "Polygon", "coordinates": [[[-73.977732255227, 40.7224492294175], [-73.9775620764723, 40.722683329089], [-73.977632142989, 40.7227130525122], [-73.9778023243451, 40.722478949928], [-73.977732255227, 40.7224492294175]]]}}, {"type": "Feature", "properties": {"zone_id": "0205H68A6FEOC90I3VPDDT", "tract_id": "36061002601", "city": "NEW YORK, NY", "zone_code": "R8B", "zone_category": "Residential", "ev_permitted": false}, "geometry": {"type": "Polygon", "coordinates": [[[-73.9776668273358, 40.7224214779101], [-73.9774966465741, 40.7226555802961], [-73.9775620764723, 40.722683329089], [-73.977732255227, 40.7224492294175], [-73.9776668273358, 40.7224214779101]]]}}, {"type": "Feature", "properties": {"zone_id": "0204DFBNFW0A68VFWFESRQ", "tract_id": "36061002601", "city": "NEW YORK, NY", "zone_code": "R8B", "zone_category": "Residential", "ev_permitted": false}, "geometry": {"type": "Polygon", "coordinates": [[[-73.977597480461, 40.7223920638164], [-73.9774273170723, 40.7226261843734], [-73.9774966465741, 40.7226555802961], [-73.9776668273358, 40.7224214779101], [-73.977597480461, 40.7223920638164]]]}}, {"type": "Feature", "properties": {"zone_id": "02073ACIFZ2WD0AU8KJRVD", "tract_id": "36061002601", "city": "NEW YORK, NY", "zone_code": "R8A", "zone_category": "Residential", "ev_permitted": false}, "geometry": {"type": "Polygon", "coordinates": [[[-73.9775407846322, 40.7223680155389], [-73.9775047212816, 40.7224176119466], [-73.9774921173853, 40.7224122657683], [-73.9773579996435, 40.7225967722501], [-73.9774273170723, 40.7226261843734], [-73.977597480461, 40.7223920638164], [-73.9775407846322, 40.7223680155389]]]}}, {"type": "Feature", "properties": {"zone_id": "020083EEHBJIGWPOSV91ZB", "tract_id": "36061002601", "city": "NEW YORK, NY", "zone_code": "R8A", "zone_category": "Residential", "ev_permitted": false}, "geometry": {"type": "Polygon", "coordinates": [[[-73.9772730220055, 40.7221918269768], [-73.9772015547673, 40.7222901365046], [-73.9774915075502, 40.7224131067309], [-73.9774921173853, 40.7224122657683], [-73.9775047212816, 40.7224176119466], [-73.9775407846322, 40.7223680155389], [-73.977507062838, 40.7223537077549], [-73.9775418621392, 40.7223058382332], [-73.9772730220055, 40.7221918269768]]]}}, {"type": "Feature", "properties": {"zone_id": "0203RE3P7QV0NPQLB42K1N", "tract_id": "36061002601", "city": "NEW YORK, NY", "zone_code": "R8A", "zone_category": "Residential", "ev_permitted": false}, "geometry": {"type": "Polygon", "coordinates": [[[-73.9772015547673, 40.7222901365046], [-73.977068037997, 40.7224737981757], [-73.9773579996435, 40.7225967722501], [-73.9774915075502, 40.7224131067309], [-73.9772015547673, 40.7222901365046]]]}}, {"type": "Feature", "properties": {"zone_id": "0204NHFDONFFQEQPH4Z8MR", "tract_id": "36061002601", "city": "NEW YORK, NY", "zone_code": "R7A", "zone_category": "Residential", "ev_permitted": false}, "geometry": {"type": "Polygon", "coordinates": [[[-73.9806883246611, 40.7217957894046], [-73.9805179004577, 40.7220293067028], [-73.9808070328127, 40.7221514027692], [-73.9806300787296, 40.7223937789499], [-73.9812503321654, 40.7226553231443], [-73.9814236066055, 40.7224178984626], [-73.9813430944069, 40.722383949165], [-73.9815172455248, 40.7221453229305], [-73.9806883246611, 40.7217957894046]]]}}, {"type": "Feature", "properties": {"zone_id": "02007UF59Y78T7LRWM9X7N", "tract_id": "36061002601", "city": "NEW YORK, NY", "zone_code": "R8B", "zone_category": "Residential", "ev_permitted": false}, "geometry": {"type": "Polygon", "coordinates": [[[-73.9815172455248, 40.7221453229305], [-73.9813430944069, 40.722383949165], [-73.9814236066055, 40.7224178984626], [-73.9815977556767, 40.7221792721071], [-73.9815172455248, 40.7221453229305]]]}}, {"type": "Feature", "properties": {"zone_id": "0201453I7HHXW19C3LBFTE", "tract_id": "36061002601", "city": "NEW YORK, NY", "zone_code": "R7A", "zone_category": "Residential", "ev_permitted": false}, "geometry": {"type": "Polygon", "coordinates": [[[-73.9805179004577, 40.7220293067028], [-73.9804187111494, 40.7221652169882], [-73.980707816209, 40.7222873013515], [-73.9808070328127, 40.7221514027692], [-73.9805179004577, 40.7220293067028]]]}}, {"type": "Feature", "properties": {"zone_id": "02025H6I5131F79ZLZGBKW", "tract_id": "36061002601", "city": "NEW YORK, NY", "zone_code": "R8B", "zone_category": "Residential", "ev_permitted": false}, "geometry": {"type": "Polygon", "coordinates": [[[-73.9791160781664, 40.721131987776], [-73.9789426644882, 40.721367898989], [-73.9793127397865, 40.7215240489537], [-73.9794861544098, 40.7212881315674], [-73.9791160781664, 40.721131987776]]]}}, {"type": "Feature", "properties": {"zone_id": "0202MCUXDAWD3HCG8IUP65", "tract_id": "36061002601", "city": "NEW YORK, NY", "zone_code": "R8B", "zone_category": "Residential", "ev_permitted": false}, "geometry": {"type": "Polygon", "coordinates": [[[-73.9797098040611, 40.7213824946336], [-73.9795363872127, 40.7216184144613], [-73.9795997697357, 40.7216451569351], [-73.9797731855058, 40.7214092370126], [-73.9797098040611, 40.7213824946336]]]}}, {"type": "Feature", "properties": {"zone_id": "0202BK0WYJPLU8QVNLI8XC", "tract_id": "36061002601", "city": "NEW YORK, NY", "zone_code": "R8B", "zone_category": "Residential", "ev_permitted": false}, "geometry": {"type": "Polygon", "coordinates": [[[-73.9797731855058, 40.7214092370126], [-73.9795997697357, 40.7216451569351], [-73.9796676346537, 40.7216737910188], [-73.9798410511817, 40.7214378709951], [-73.9797731855058, 40.7214092370126]]]}}, {"type": "Feature", "properties": {"zone_id": "02015K22ATAW08U0TDJPDP", "tract_id": "36061002601", "city": "NEW YORK, NY", "zone_code": "R8B", "zone_category": "Residential", "ev_permitted": false}, "geometry": {"type": "Polygon", "coordinates": [[[-73.9798410511817, 40.7214378709951], [-73.9796676346537, 40.7216737910188], [-73.9797351505717, 40.7217022788479], [-73.9799085678587, 40.7214663573184], [-73.9798410511817, 40.7214378709951]]]}}, {"type": "Feature", "properties": {"zone_id": "0204FA0XUDA6OMQ9BIR20C", "tract_id": "36061002601", "city": "NEW YORK, NY", "zone_code": "R8B", "zone_category": "Residential", "ev_permitted": false}, "geometry": {"type": "Polygon", "coordinates": [[[-73.9799085678587, 40.7214663573184], [-73.9797351505717, 40.7217022788479], [-73.97980338498, 40.7217310682038], [-73.979977346002, 40.7214953764362], [-73.9799085678587, 40.7214663573184]]]}}, {"type": "Feature", "properties": {"zone_id": "02018YI3V16DK0JFQQHNXM", "tract_id": "36061002601", "city": "NEW YORK, NY", "zone_code": "R8B", "zone_category": "Residential", "ev_permitted": false}, "geometry": {"type": "Polygon", "coordinates": [[[-73.9796480045004, 40.7213564200246], [-73.9794745884248, 40.7215923390575], [-73.9795363872127, 40.7216184144613], [-73.9797098040611, 40.7213824946336], [-73.9796480045004, 40.7213564200246]]]}}, {"type": "Feature", "properties": {"zone_id": "0205V226ZN1TRJSB0BM9SH", "tract_id": "36061002601", "city": "NEW YORK, NY", "zone_code": "R8B", "zone_category": "Residential", "ev_permitted": false}, "geometry": {"type": "Polygon", "coordinates": [[[-73.9794861544098, 40.7212881315674], [-73.9793127397865, 40.7215240489537], [-73.9793957145404, 40.721559059022], [-73.9795691289611, 40.7213231415118], [-73.9794861544098, 40.7212881315674]]]}}, {"type": "Feature", "properties": {"zone_id": "0202VWL4H1TWGITI568N4S", "tract_id": "36061002601", "city": "NEW YORK, NY", "zone_code": "R8B", "zone_category": "Residential", "ev_permitted": false}, "geometry": {"type": "Polygon", "coordinates": [[[-73.9795691289611, 40.7213231415118], [-73.9793957145404, 40.721559059022], [-73.9794745884248, 40.7215923390575], [-73.9796480045004, 40.7213564200246], [-73.9795691289611, 40.7213231415118]]]}}, {"type": "Feature", "properties": {"zone_id": "0200MXYUOPLYNLFV2Q0Q1L", "tract_id": "36061002601", "city": "NEW YORK, NY", "zone_code": "R8B", "zone_category": "Residential", "ev_permitted": false}, "geometry": {"type": "Polygon", "coordinates": [[[-73.9792059425274, 40.7214789879183], [-73.9790315220844, 40.7217162699585], [-73.9791045331, 40.7217471095496], [-73.9792789718431, 40.7215098007021], [-73.9792059425274, 40.7214789879183]]]}}, {"type": "Feature", "properties": {"zone_id": "0205PY4I81BPO626KPW4I7", "tract_id": "36061002601", "city": "NEW YORK, NY", "zone_code": "R8B", "zone_category": "Residential", "ev_permitted": false}, "geometry": {"type": "Polygon", "coordinates": [[[-73.9790633395598, 40.7214188173422], [-73.9788889548007, 40.7216560499888], [-73.9790315220844, 40.7217162699585], [-73.9792059425274, 40.7214789879183], [-73.9790633395598, 40.7214188173422]]]}}, {"type": "Feature", "properties": {"zone_id": "0206GE7C6VS6KHL5QJVND3", "tract_id": "36061002601", "city": "NEW YORK, NY", "zone_code": "R8B", "zone_category": "Residential", "ev_permitted": false}, "geometry": {"type": "Polygon", "coordinates": [[[-73.9800552835099, 40.7217604860383], [-73.9800121572217, 40.7218191561391], [-73.9799427480222, 40.721789870626], [-73.9797681409055, 40.7220274102096], [-73.9800987159529, 40.7221670389214], [-73.9803163496231, 40.7218706368007], [-73.9800552835099, 40.7217604860383]]]}}, {"type": "Feature", "properties": {"zone_id": "0202HBJ4T7GEWIYI2RJ3B6", "tract_id": "36061002601", "city": "NEW YORK, NY", "zone_code": "R7A", "zone_category": "Residential", "ev_permitted": false}, "geometry": {"type": "Polygon", "coordinates": [[[-73.9804187111494, 40.7221652169882], [-73.9803408975766, 40.7222718370197], [-73.9806300787296, 40.7223937789499], [-73.980707816209, 40.7222873013515], [-73.9804187111494, 40.7221652169882]]]}}, {"type": "Feature", "properties": {"zone_id": "0207I5LC5OTJ2HUYVOQHBL", "tract_id": "36061002601", "city": "NEW YORK, NY", "zone_code": "R7A", "zone_category": "Residential", "ev_permitted": false}, "geometry": {"type": "Polygon", "coordinates": [[[-73.9801012304732, 40.7216979784894], [-73.9800552835099, 40.7217604860383], [-73.9803163496231, 40.7218706368007], [-73.9803622576332, 40.7218081122781], [-73.9801012304732, 40.7216979784894]]]}}, {"type": "Feature", "properties": {"zone_id": "02042MNCBE2ZUTQZU5FZJ9", "tract_id": "36061002601", "city": "NEW YORK, NY", "zone_code": "R7A", "zone_category": "Residential", "ev_permitted": false}, "geometry": {"type": "Polygon", "coordinates": [[[-73.9795898461437, 40.7221247517034], [-73.9794191747478, 40.722356990592], [-73.9795664636469, 40.7224194606485], [-73.979735730137, 40.7221866268475], [-73.9795898461437, 40.7221247517034]]]}}, {"type": "Feature", "properties": {"zone_id": "02003HUM6EBFQ03HJLHK3N", "tract_id": "36061002601", "city": "NEW YORK, NY", "zone_code": "R8B", "zone_category": "Residential", "ev_permitted": false}, "geometry": {"type": "Polygon", "coordinates": [[[-73.9792555732743, 40.7219829735398], [-73.9790863028535, 40.7222158059382], [-73.9792219317969, 40.7222733318208], [-73.9793925879672, 40.7220410875978], [-73.9792555732743, 40.7219829735398]]]}}, {"type": "Feature", "properties": {"zone_id": "0204S3H0CCBAJJXLCQEYP4", "tract_id": "36061002601", "city": "NEW YORK, NY", "zone_code": "R8B", "zone_category": "Residential", "ev_permitted": false}, "geometry": {"type": "Polygon", "coordinates": [[[-73.9793925879672, 40.7220410875978], [-73.9792219317969, 40.7222733318208], [-73.979354588422, 40.7223295964416], [-73.9795252488913, 40.7220973541325], [-73.9793925879672, 40.7220410875978]]]}}, {"type": "Feature", "properties": {"zone_id": "0206WQZ22LHMI8IJSMNVLY", "tract_id": "36061002601", "city": "NEW YORK, NY", "zone_code": "R8B", "zone_category": "Residential", "ev_permitted": false}, "geometry": {"type": "Polygon", "coordinates": [[[-73.9795252488913, 40.7220973541325], [-73.979354588422, 40.7223295964416], [-73.9794191747478, 40.722356990592], [-73.9795898461437, 40.7221247517034], [-73.9795252488913, 40.7220973541325]]]}}, {"type": "Feature", "properties": {"zone_id": "0202MAYHNRK4RME2C0S6RL", "tract_id": "36061002601", "city": "NEW YORK, NY", "zone_code": "R8B", "zone_category": "Residential", "ev_permitted": false}, "geometry": {"type": "Polygon", "coordinates": [[[-73.9796885605743, 40.7216826208019], [-73.9795140175083, 40.7219200728852], [-73.979573632681, 40.7219452512875], [-73.9797481894596, 40.7217077801452], [-73.9796885605743, 40.7216826208019]]]}}, {"type": "Feature", "properties": {"zone_id": "0204EMR2ALTGKWS9TY7NEU", "tract_id": "36061002601", "city": "NEW YORK, NY", "zone_code": "R8B", "zone_category": "Residential", "ev_permitted": false}, "geometry": {"type": "Polygon", "coordinates": [[[-73.979628931734, 40.7216574614276], [-73.9794544042285, 40.7218948916418], [-73.9795140175083, 40.7219200728852], [-73.9796885605743, 40.7216826208019], [-73.979628931734, 40.7216574614276]]]}}, {"type": "Feature", "properties": {"zone_id": "0205N39FOFF9MPUDSZ31I3", "tract_id": "36061002601", "city": "NEW YORK, NY", "zone_code": "R8B", "zone_category": "Residential", "ev_permitted": false}, "geometry": {"type": "Polygon", "coordinates": [[[-73.97980338498, 40.7217310682038], [-73.979629357458, 40.7219687903716], [-73.9797681409055, 40.7220274102096], [-73.9799427480222, 40.721789870626], [-73.97980338498, 40.7217310682038]]]}}, {"type": "Feature", "properties": {"zone_id": "0207ERX3W7Z0AQYAIEH6RA", "tract_id": "36061002601", "city": "NEW YORK, NY", "zone_code": "R8B", "zone_category": "Residential", "ev_permitted": false}, "geometry": {"type": "Polygon", "coordinates": [[[-73.9797481894596, 40.7217077801452], [-73.979573632681, 40.7219452512875], [-73.979629357458, 40.7219687903716], [-73.97980338498, 40.7217310682038], [-73.9797481894596, 40.7217077801452]]]}}, {"type": "Feature", "properties": {"zone_id": "02064V7XZIEB9K74IPSJYP", "tract_id": "36061002601", "city": "NEW YORK, NY", "zone_code": "R8B", "zone_category": "Residential", "ev_permitted": false}, "geometry": {"type": "Polygon", "coordinates": [[[-73.9795693029387, 40.7216323020223], [-73.9793947900699, 40.7218697117725], [-73.9794544042285, 40.7218948916418], [-73.979628931734, 40.7216574614276], [-73.9795693029387, 40.7216323020223]]]}}, {"type": "Feature", "properties": {"zone_id": "0203GUX46IETLEOZDM6AC3", "tract_id": "36061002601", "city": "NEW YORK, NY", "zone_code": "R7A", "zone_category": "Residential", "ev_permitted": false}, "geometry": {"type": "Polygon", "coordinates": [[[-73.9801855756803, 40.7215832313857], [-73.9801012304732, 40.7216979784894], [-73.9803622576332, 40.7218081122781], [-73.9804465341968, 40.7216933326511], [-73.9801855756803, 40.7215832313857]]]}}, {"type": "Feature", "properties": {"zone_id": "0204RVH5GMT9DZW6PC54T3", "tract_id": "36061002601", "city": "NEW YORK, NY", "zone_code": "R7A", "zone_category": "Residential", "ev_permitted": false}, "geometry": {"type": "Polygon", "coordinates": [[[-73.979977346002, 40.7214953764362], [-73.97980338498, 40.7217310682038], [-73.9800121572217, 40.7218191561391], [-73.9801855756803, 40.7215832313857], [-73.979977346002, 40.7214953764362]]]}}, {"type": "Feature", "properties": {"zone_id": "02015YDPLVS3XYV716C809", "tract_id": "36061002601", "city": "NEW YORK, NY", "zone_code": "R8B", "zone_category": "Residential", "ev_permitted": false}, "geometry": {"type": "Polygon", "coordinates": [[[-73.9794928686644, 40.7216000518807], [-73.9793183750107, 40.7218374348186], [-73.9793947900699, 40.7218697117725], [-73.9795693029387, 40.7216323020223], [-73.9794928686644, 40.7216000518807]]]}}, {"type": "Feature", "properties": {"zone_id": "0200S4KR9BBAKK49NQ4XDM", "tract_id": "36061002601", "city": "NEW YORK, NY", "zone_code": "R8B", "zone_category": "Residential", "ev_permitted": false}, "geometry": {"type": "Polygon", "coordinates": [[[-73.9793487276686, 40.7215392335343], [-73.9791742706184, 40.7217765663736], [-73.9792486364414, 40.721807978082], [-73.9794231117881, 40.7215706191359], [-73.9793487276686, 40.7215392335343]]]}}, {"type": "Feature", "properties": {"zone_id": "0205ES1G00DXJ14U6BHR8K", "tract_id": "36061002601", "city": "NEW YORK, NY", "zone_code": "R8B", "zone_category": "Residential", "ev_permitted": false}, "geometry": {"type": "Polygon", "coordinates": [[[-73.9792789718431, 40.7215098007021], [-73.9791045331, 40.7217471095496], [-73.9791742706184, 40.7217765663736], [-73.9793487276686, 40.7215392335343], [-73.9792789718431, 40.7215098007021]]]}}, {"type": "Feature", "properties": {"zone_id": "02060RB48XRQ37CMK0N9A7", "tract_id": "36061002601", "city": "NEW YORK, NY", "zone_code": "R8B", "zone_category": "Residential", "ev_permitted": false}, "geometry": {"type": "Polygon", "coordinates": [[[-73.9794231117881, 40.7215706191359], [-73.9792486364414, 40.721807978082], [-73.9793183750107, 40.7218374348186], [-73.9794928686644, 40.7216000518807], [-73.9794231117881, 40.7215706191359]]]}}, {"type": "Feature", "properties": {"zone_id": "0201EJBKJOL79J9UOXOIE9", "tract_id": "36061002601", "city": "NEW YORK, NY", "zone_code": "R8B", "zone_category": "Residential", "ev_permitted": false}, "geometry": {"type": "Polygon", "coordinates": [[[-73.9784716081909, 40.7216504568413], [-73.9783040927859, 40.72188233984], [-73.978502409223, 40.721966456414], [-73.9783277679228, 40.722206701144], [-73.9787550512314, 40.7223879401005], [-73.9789287527236, 40.7221489825289], [-73.9790185475694, 40.7221870682433], [-73.9791878246179, 40.7219542387554], [-73.9784716081909, 40.7216504568413]]]}}, {"type": "Feature", "properties": {"zone_id": "0205THMWQWIZUY9B02PRTZ", "tract_id": "36061002601", "city": "NEW YORK, NY", "zone_code": "R8B", "zone_category": "Residential", "ev_permitted": false}, "geometry": {"type": "Polygon", "coordinates": [[[-73.9791878246179, 40.7219542387554], [-73.9790185475694, 40.7221870682433], [-73.9790863028535, 40.7222158059382], [-73.9792555732743, 40.7219829735398], [-73.9791878246179, 40.7219542387554]]]}}, {"type": "Feature", "properties": {"zone_id": "0201WKBL43NYERRUQMLKA9", "tract_id": "36061002601", "city": "NEW YORK, NY", "zone_code": "R8B", "zone_category": "Residential", "ev_permitted": false}, "geometry": {"type": "Polygon", "coordinates": [[[-73.9780848935946, 40.7217893654572], [-73.977910252177, 40.7220296095599], [-73.9783277679228, 40.722206701144], [-73.978502409223, 40.721966456414], [-73.9780848935946, 40.7217893654572]]]}}, {"type": "Feature", "properties": {"zone_id": "02029DP2BDJ632UN74IAOR", "tract_id": "36061002601", "city": "NEW YORK, NY", "zone_code": "R8B", "zone_category": "Residential", "ev_permitted": false}, "geometry": {"type": "Polygon", "coordinates": [[[-73.9780155721257, 40.7217599614548], [-73.9778409286878, 40.7220002061555], [-73.977910252177, 40.7220296095599], [-73.9780848935946, 40.7217893654572], [-73.9780155721257, 40.7217599614548]]]}}, {"type": "Feature", "properties": {"zone_id": "0206M1I8301GH79ZBMWBRD", "tract_id": "36061002601", "city": "NEW YORK, NY", "zone_code": "R8A", "zone_category": "Residential", "ev_permitted": false}, "geometry": {"type": "Polygon", "coordinates": [[[-73.9779478233071, 40.7217312259397], [-73.9777731806241, 40.7219714698361], [-73.9778409286878, 40.7220002061555], [-73.9780155721257, 40.7217599614548], [-73.9779478233071, 40.7217312259397]]]}}, {"type": "Feature", "properties": {"zone_id": "0203NF3QWCHUHADHQ53S0Z", "tract_id": "36061002601", "city": "NEW YORK, NY", "zone_code": "R8B", "zone_category": "Residential", "ev_permitted": false}, "geometry": {"type": "Polygon", "coordinates": [[[-73.9789225144416, 40.7213593966507], [-73.9787481653705, 40.7215965813118], [-73.9788889548007, 40.7216560499888], [-73.9790633395598, 40.7214188173422], [-73.9789225144416, 40.7213593966507]]]}}, {"type": "Feature", "properties": {"zone_id": "0204BFDBQPL5YCKA6KSYAZ", "tract_id": "36061002601", "city": "NEW YORK, NY", "zone_code": "R8B", "zone_category": "Residential", "ev_permitted": false}, "geometry": {"type": "Polygon", "coordinates": [[[-73.9787037028667, 40.7212670706585], [-73.978529410543, 40.7215041784122], [-73.9787481653705, 40.7215965813118], [-73.9789225144416, 40.7213593966507], [-73.9787037028667, 40.7212670706585]]]}}, {"type": "Feature", "properties": {"zone_id": "0202FHHSMRG0UC7NLNUOM1", "tract_id": "36061002601", "city": "NEW YORK, NY", "zone_code": "R8B", "zone_category": "Residential", "ev_permitted": false}, "geometry": {"type": "Polygon", "coordinates": [[[-73.9786150498016, 40.7212296636735], [-73.9784407785118, 40.7214667410838], [-73.978529410543, 40.7215041784122], [-73.9787037028667, 40.7212670706585], [-73.9786150498016, 40.7212296636735]]]}}, {"type": "Feature", "properties": {"zone_id": "0201EDPQ72C3SI1XVP12YC", "tract_id": "36061002601", "city": "NEW YORK, NY", "zone_code": "R8B", "zone_category": "Residential", "ev_permitted": false}, "geometry": {"type": "Polygon", "coordinates": [[[-73.9783241077833, 40.7215878946945], [-73.9781557923358, 40.721819437945], [-73.9782251157756, 40.7218488418631], [-73.9783934301334, 40.7216172971067], [-73.9783241077833, 40.7215878946945]]]}}, {"type": "Feature", "properties": {"zone_id": "0202YEYKE4UP5DD632A8I9", "tract_id": "36061002601", "city": "NEW YORK, NY", "zone_code": "R8B", "zone_category": "Residential", "ev_permitted": false}, "geometry": {"type": "Polygon", "coordinates": [[[-73.9783934301334, 40.7216172971067], [-73.9782251157756, 40.7218488418631], [-73.9783040927859, 40.72188233984], [-73.9784716081909, 40.7216504568413], [-73.9783934301334, 40.7216172971067]]]}}, {"type": "Feature", "properties": {"zone_id": "02011KC3A01HVZBKTYY57E", "tract_id": "36061002601", "city": "NEW YORK, NY", "zone_code": "R8A", "zone_category": "Residential", "ev_permitted": false}, "geometry": {"type": "Polygon", "coordinates": [[[-73.9777786014637, 40.721496352384], [-73.9776234325817, 40.7217098046501], [-73.9778835183713, 40.7218196867032], [-73.9780386857529, 40.7216062333869], [-73.9777786014637, 40.721496352384]]]}}, {"type": "Feature", "properties": {"zone_id": "0203HQFW43WITDJIZN7HCC", "tract_id": "36061002601", "city": "NEW YORK, NY", "zone_code": "R8A", "zone_category": "Residential", "ev_permitted": false}, "geometry": {"type": "Polygon", "coordinates": [[[-73.9781161392543, 40.7214996829905], [-73.9779478233071, 40.7217312259397], [-73.9781557923358, 40.721819437945], [-73.9783241077833, 40.7215878946945], [-73.9781161392543, 40.7214996829905]]]}}, {"type": "Feature", "properties": {"zone_id": "0204WI30N803TD3E1AKDTE", "tract_id": "36061002601", "city": "NEW YORK, NY", "zone_code": "R8A", "zone_category": "Residential", "ev_permitted": false}, "geometry": {"type": "Polygon", "coordinates": [[[-73.9784374281607, 40.7211547166366], [-73.9782632017092, 40.7213917312524], [-73.9784407785118, 40.7214667410838], [-73.9786150498016, 40.7212296636735], [-73.9784374281607, 40.7211547166366]]]}}, {"type": "Feature", "properties": {"zone_id": "02024YRWVDDAUBANBFN8AZ", "tract_id": "36061002601", "city": "NEW YORK, NY", "zone_code": "R8A", "zone_category": "Residential", "ev_permitted": false}, "geometry": {"type": "Polygon", "coordinates": [[[-73.9783633359713, 40.7211486704156], [-73.9782032726411, 40.7213664171998], [-73.9782632017092, 40.7213917312524], [-73.9784232806116, 40.7211739633088], [-73.9783633359713, 40.7211486704156]]]}}, {"type": "Feature", "properties": {"zone_id": "0201CYH1U1410PRIJARAFD", "tract_id": "36061002601", "city": "NEW YORK, NY", "zone_code": "R8A", "zone_category": "Residential", "ev_permitted": false}, "geometry": {"type": "Polygon", "coordinates": [[[-73.9782722236309, 40.7211657791466], [-73.9782081158717, 40.7212529901061], [-73.978012246068, 40.7211703420396], [-73.9779477903978, 40.7212584992684], [-73.9782032726411, 40.7213664171998], [-73.9783321664048, 40.7211910720869], [-73.9782722236309, 40.7211657791466]]]}}, {"type": "Feature", "properties": {"zone_id": "0203WNVH2LPTKHV2U0X1Q5", "tract_id": "36061002601", "city": "NEW YORK, NY", "zone_code": "R8A", "zone_category": "Residential", "ev_permitted": false}, "geometry": {"type": "Polygon", "coordinates": [[[-73.9778563001039, 40.7213894698508], [-73.9777786014637, 40.721496352384], [-73.9780386857529, 40.7216062333869], [-73.9781161392543, 40.7214996829905], [-73.9778563001039, 40.7213894698508]]]}}, {"type": "Feature", "properties": {"zone_id": "0203L1GM3VP3M6XMCTV3RU", "tract_id": "36061002601", "city": "NEW YORK, NY", "zone_code": "R8A", "zone_category": "Residential", "ev_permitted": false}, "geometry": {"type": "Polygon", "coordinates": [[[-73.9774114172236, 40.7220014528223], [-73.9773621473969, 40.722069227876], [-73.9776309853412, 40.7221832396285], [-73.9776802540552, 40.7221154644606], [-73.9774114172236, 40.7220014528223]]]}}, {"type": "Feature", "properties": {"zone_id": "0203BSGCZG0WG8KEDBT0R6", "tract_id": "36061002601", "city": "NEW YORK, NY", "zone_code": "R8A", "zone_category": "Residential", "ev_permitted": false}, "geometry": {"type": "Polygon", "coordinates": [[[-73.977309864335, 40.7221411472948], [-73.9772730220055, 40.7221918269768], [-73.9775418621392, 40.7223058382332], [-73.9775787015556, 40.722255161276], [-73.977309864335, 40.7221411472948]]]}}, {"type": "Feature", "properties": {"zone_id": "0205J2U78VLI4Q0YHOU5A5", "tract_id": "36061002601", "city": "NEW YORK, NY", "zone_code": "R8A", "zone_category": "Residential", "ev_permitted": false}, "geometry": {"type": "Polygon", "coordinates": [[[-73.9773621473969, 40.722069227876], [-73.977309864335, 40.7221411472948], [-73.9775787015556, 40.722255161276], [-73.9776309853412, 40.7221832396285], [-73.9773621473969, 40.722069227876]]]}}, {"type": "Feature", "properties": {"zone_id": "0206UP4WUJAT74108PVNLW", "tract_id": "36061002601", "city": "NEW YORK, NY", "zone_code": "R8A", "zone_category": "Residential", "ev_permitted": false}, "geometry": {"type": "Polygon", "coordinates": [[[-73.9776234325817, 40.7217098046501], [-73.9775850190381, 40.7217626462087], [-73.9778451058941, 40.721872528348], [-73.9778835183713, 40.7218196867032], [-73.9776234325817, 40.7217098046501]]]}}, {"type": "Feature", "properties": {"zone_id": "0207HI3IIWPUVTUDR8P4U8", "tract_id": "36061002601", "city": "NEW YORK, NY", "zone_code": "R8A", "zone_category": "Residential", "ev_permitted": false}, "geometry": {"type": "Polygon", "coordinates": [[[-73.9775850190381, 40.7217626462087], [-73.9775133355844, 40.7218612538205], [-73.9777731806241, 40.7219714698361], [-73.9778451058941, 40.721872528348], [-73.9775850190381, 40.7217626462087]]]}}, {"type": "Feature", "properties": {"zone_id": "0202RO4SLX2JMSGDNVCHJN", "tract_id": "36061002601", "city": "NEW YORK, NY", "zone_code": "R8B", "zone_category": "Residential", "ev_permitted": false}, "geometry": {"type": "Polygon", "coordinates": [[[-73.9789627477205, 40.7210672921148], [-73.9787893364386, 40.7213032030995], [-73.9789426644882, 40.721367898989], [-73.9791160781664, 40.721131987776], [-73.9789627477205, 40.7210672921148]]]}}, {"type": "Feature", "properties": {"zone_id": "0201UF1BJSP3LUBUVPURI6", "tract_id": "36061002601", "city": "NEW YORK, NY", "zone_code": "R8B", "zone_category": "Residential", "ev_permitted": false}, "geometry": {"type": "Polygon", "coordinates": [[[-73.9786108384537, 40.7209188096903], [-73.9784374281607, 40.7211547166366], [-73.9786298780943, 40.7212359207877], [-73.9788032897652, 40.7210000114465], [-73.9786108384537, 40.7209188096903]]]}}, {"type": "Feature", "properties": {"zone_id": "02072PUD1K0DWM2P94JPCA", "tract_id": "36061002601", "city": "NEW YORK, NY", "zone_code": "R8B", "zone_category": "Residential", "ev_permitted": false}, "geometry": {"type": "Polygon", "coordinates": [[[-73.9788032897652, 40.7210000114465], [-73.9786298780943, 40.7212359207877], [-73.9787893364386, 40.7213032030995], [-73.9789627477205, 40.7210672921148], [-73.9788032897652, 40.7210000114465]]]}}, {"type": "Feature", "properties": {"zone_id": "0203UA6S0C4V3HK07QCGG0", "tract_id": "36061002601", "city": "NEW YORK, NY", "zone_code": "R8A", "zone_category": "Residential", "ev_permitted": false}, "geometry": {"type": "Polygon", "coordinates": [[[-73.9782316777256, 40.7208702179651], [-73.9780760908308, 40.7210830194154], [-73.9783321664048, 40.7211910720869], [-73.9783633359713, 40.7211486704156], [-73.9784232806116, 40.7211739633088], [-73.9785483381198, 40.7210038344681], [-73.9782316777256, 40.7208702179651]]]}}, {"type": "Feature", "properties": {"zone_id": "020079FVL60MCZ04GAEB66", "tract_id": "36061002601", "city": "NEW YORK, NY", "zone_code": "R8A", "zone_category": "Residential", "ev_permitted": false}, "geometry": {"type": "Polygon", "coordinates": [[[-73.9780760908308, 40.7210830194154], [-73.978012246068, 40.7211703420396], [-73.9782081158717, 40.7212529901061], [-73.9782722236309, 40.7211657791466], [-73.9780760908308, 40.7210830194154]]]}}, {"type": "Feature", "properties": {"zone_id": "0206WVC8YUUF22GASS25OQ", "tract_id": "36061002601", "city": "NEW YORK, NY", "zone_code": "R8A", "zone_category": "Residential", "ev_permitted": false}, "geometry": {"type": "Polygon", "coordinates": [[[-73.9782939207051, 40.7207850872076], [-73.9782316777256, 40.7208702179651], [-73.9785483381198, 40.7210038344681], [-73.9786108384537, 40.7209188096903], [-73.9782939207051, 40.7207850872076]]]}}]}