{"type": "FeatureCollection", "features": [{"type": "Feature", "properties": {"zone_id": "0203EBRVHCAZ0IAEFB2SQY", "tract_id": "42101000404", "city": "PHILADELPHIA, PA", "zone_code": "CMX-4", "zone_category": "Commercial", "ev_permitted": true}, "geometry": {"type": "Polygon", "coordinates": [[[-75.1726029701671, 39.95508201334], [-75.1725171823005, 39.9554801090188], [-75.1726579421614, 39.9554980751174], [-75.1727467382417, 39.955100362288], [-75.1726029701671, 39.95508201334]]]}}, {"type": "Feature", "properties": {"zone_id": "0201EE46IBUJK3FEIC9J6P", "tract_id": "42101000404", "city": "PHILADELPHIA, PA", "zone_code": "/VDO", "zone_category": "Other", "ev_permitted": false}, "geometry": {"type": "Polygon", "coordinates": [[[-75.1722792290952, 39.9550406923518], [-75.1721934364598, 39.9554387877232], [-75.1725171823005, 39.9554801090188], [-75.1726029701671, 39.95508201334], [-75.1722792290952, 39.9550406923518]]]}}, {"type": "Feature", "properties": {"zone_id": "0206SGIRNKG5P0A53K07NI", "tract_id": "42101000404", "city": "PHILADELPHIA, PA", "zone_code": "CMX-4", "zone_category": "Commercial", "ev_permitted": true}, "geometry": {"type": "Polygon", "coordinates": [[[-75.1713401105754, 39.9549208220582], [-75.1712543110856, 39.955318917821], [-75.1721934364598, 39.9554387877232], [-75.1722792290952, 39.9550406923518], [-75.1713401105754, 39.9549208220582]]]}}, {"type": "Feature", "properties": {"zone_id": "0200GY2Q0HKZTADQAU77M7", "tract_id": "42101000404", "city": "PHILADELPHIA, PA", "zone_code": "CMX-5", "zone_category": "Commercial", "ev_permitted": true}, "geometry": {"type": "Polygon", "coordinates": [[[-75.17152411178, 39.9540759762069], [-75.1714802911756, 39.9542736186983], [-75.1728804672229, 39.954449629265], [-75.1729224707711, 39.9542544908733], [-75.17152411178, 39.9540759762069]]]}}, {"type": "Feature", "properties": {"zone_id": "0200GG5S088G7T0P63MT32", "tract_id": "42101000404", "city": "PHILADELPHIA, PA", "zone_code": "CMX-5", "zone_category": "Commercial", "ev_permitted": true}, "geometry": {"type": "Polygon", "coordinates": [[[-75.1714208773407, 39.9545553965274], [-75.1714061769868, 39.9546198670385], [-75.171357718098, 39.954848662547], [-75.1727577512463, 39.9550265080793], [-75.1728190558192, 39.9547317479986], [-75.1727236293288, 39.954720625585], [-75.1714208773407, 39.9545553965274]]]}}, {"type": "Feature", "properties": {"zone_id": "02074HX1ZX4V8L888CHQ6Y", "tract_id": "42101000404", "city": "PHILADELPHIA, PA", "zone_code": "/NIS", "zone_category": "Other", "ev_permitted": false}, "geometry": {"type": "Polygon", "coordinates": [[[-75.1698431577282, 39.9543542260128], [-75.1697862851443, 39.9546240509061], [-75.1711675527013, 39.9547983178926], [-75.1711847172706, 39.9547997185103], [-75.1712421360947, 39.9545330183296], [-75.1705724873032, 39.954448196677], [-75.1698431577282, 39.9543542260128]]]}}, {"type": "Feature", "properties": {"zone_id": "02026FDSC6C6FSAJ75EWEC", "tract_id": "42101000404", "city": "PHILADELPHIA, PA", "zone_code": "/NIS", "zone_category": "Other", "ev_permitted": false}, "geometry": {"type": "Polygon", "coordinates": [[[-75.1697721245193, 39.9547030160664], [-75.1696807481319, 39.9551282253471], [-75.1710756838328, 39.9552993452512], [-75.1711670516802, 39.9548741359867], [-75.1697721245193, 39.9547030160664]]]}}, {"type": "Feature", "properties": {"zone_id": "0205XJ4639V6XKA2EX5QH5", "tract_id": "42101000404", "city": "PHILADELPHIA, PA", "zone_code": "/NIS", "zone_category": "Other", "ev_permitted": false}, "geometry": {"type": "Polygon", "coordinates": [[[-75.1706472228927, 39.9539643316796], [-75.1706043250078, 39.9541618504771], [-75.1713024803859, 39.9542510362384], [-75.1713458258595, 39.9540548979536], [-75.1713434106786, 39.9540517486809], [-75.1706472228927, 39.9539643316796]]]}}, {"type": "Feature", "properties": {"zone_id": "02073SH86V7WDI4IH0UTLD", "tract_id": "42101000404", "city": "PHILADELPHIA, PA", "zone_code": "/CTR - PARKING GARAGE GROUND FLOOR USE", "zone_category": "Other", "ev_permitted": false}, "geometry": {"type": "Polygon", "coordinates": [[[-75.1699473043794, 39.9538742315864], [-75.1699038075984, 39.9540731715632], [-75.1706043250078, 39.9541618504771], [-75.1706472228927, 39.9539643316796], [-75.1699473043794, 39.9538742315864]]]}}, {"type": "Feature", "properties": {"zone_id": "0206B523IYRQZQXVYMT72T", "tract_id": "42101000404", "city": "PHILADELPHIA, PA", "zone_code": "/NIS", "zone_category": "Other", "ev_permitted": false}, "geometry": {"type": "Polygon", "coordinates": [[[-75.1682776003349, 39.9541644641255], [-75.1681966312066, 39.9545357432396], [-75.1691256017483, 39.9546551296347], [-75.1695909879591, 39.9547138457547], [-75.1696143118098, 39.9546060503975], [-75.1691462243032, 39.9545463061195], [-75.1692044458544, 39.9542817185742], [-75.1688875491054, 39.9542416287091], [-75.1688797986222, 39.9542727172909], [-75.1684310423936, 39.9542166948063], [-75.1684376023435, 39.9541847066007], [-75.1682776003349, 39.9541644641255]]]}}, {"type": "Feature", "properties": {"zone_id": "0207DLUA5XNAQKHGKFUL7W", "tract_id": "42101000404", "city": "PHILADELPHIA, PA", "zone_code": "CMX-5", "zone_category": "Commercial", "ev_permitted": true}, "geometry": {"type": "Polygon", "coordinates": [[[-75.1692037000993, 39.9546649833625], [-75.1691191092851, 39.9550641862143], [-75.1695044707365, 39.9551134278598], [-75.1695909879591, 39.9547138457547], [-75.1692037000993, 39.9546649833625]]]}}, {"type": "Feature", "properties": {"zone_id": "0201YKM6Y90SYG7ZABS5AO", "tract_id": "42101000404", "city": "PHILADELPHIA, PA", "zone_code": "CMX-5", "zone_category": "Commercial", "ev_permitted": true}, "geometry": {"type": "Polygon", "coordinates": [[[-75.1691256017483, 39.9546551296347], [-75.1690398357015, 39.9550540525882], [-75.1691191092851, 39.9550641862143], [-75.1692037000993, 39.9546649833625], [-75.1691256017483, 39.9546551296347]]]}}, {"type": "Feature", "properties": {"zone_id": "0204DB9FY9CNXEMTRX7LDV", "tract_id": "42101000404", "city": "PHILADELPHIA, PA", "zone_code": "/CTR - PARKING GARAGE GROUND FLOOR USE", "zone_category": "Other", "ev_permitted": false}, "geometry": {"type": "Polygon", "coordinates": [[[-75.1681966312066, 39.9545357432396], [-75.168109874904, 39.9549353596393], [-75.1690398357015, 39.9550540525882], [-75.1691256017483, 39.9546551296347], [-75.1681966312066, 39.9545357432396]]]}}, {"type": "Feature", "properties": {"zone_id": "0201QH3MIF7G6W5S590BDL", "tract_id": "42101000404", "city": "PHILADELPHIA, PA", "zone_code": "CMX-5", "zone_category": "Commercial", "ev_permitted": true}, "geometry": {"type": "Polygon", "coordinates": [[[-75.1692044458544, 39.9542817185742], [-75.1691462243032, 39.9545463061195], [-75.1696143118098, 39.9546060503975], [-75.1696716996149, 39.9543408267066], [-75.1692044458544, 39.9542817185742]]]}}, {"type": "Feature", "properties": {"zone_id": "0203OEJK71FTJGDURH1QEW", "tract_id": "42101000404", "city": "PHILADELPHIA, PA", "zone_code": "/VDO", "zone_category": "Other", "ev_permitted": false}, "geometry": {"type": "Polygon", "coordinates": [[[-75.1684376023435, 39.9541847066007], [-75.1684310423936, 39.9542166948063], [-75.1688797986222, 39.9542727172909], [-75.1688875491054, 39.9542416287091], [-75.1684376023435, 39.9541847066007]]]}}, {"type": "Feature", "properties": {"zone_id": "0207E8TLN99N747OQ4R0OM", "tract_id": "42101000404", "city": "PHILADELPHIA, PA", "zone_code": "/CTR - PARKING GARAGE GROUND FLOOR USE", "zone_category": "Other", "ev_permitted": false}, "geometry": {"type": "Polygon", "coordinates": [[[-75.1723202587704, 39.9536187489075], [-75.1722568456228, 39.9539223048264], [-75.1723272802018, 39.9539310190184], [-75.1722944415528, 39.9540882176129], [-75.1729430317241, 39.9541684644558], [-75.1730376198013, 39.9537075054027], [-75.1723202587704, 39.9536187489075]]]}}, {"type": "Feature", "properties": {"zone_id": "02026CNTZTUN0ZUQWXBYB0", "tract_id": "42101000404", "city": "PHILADELPHIA, PA", "zone_code": "/NIS", "zone_category": "Other", "ev_permitted": false}, "geometry": {"type": "Polygon", "coordinates": [[[-75.1718066579427, 39.9527791527554], [-75.171772517838, 39.9529292501354], [-75.1717032909473, 39.9532538793713], [-75.172053002898, 39.9532984595731], [-75.1727743033832, 39.9533874313431], [-75.1730956703054, 39.953426132139], [-75.1731056438714, 39.9533835264916], [-75.1731975077043, 39.952951741793], [-75.1719070869607, 39.952792500174], [-75.1718066579427, 39.9527791527554]]]}}, {"type": "Feature", "properties": {"zone_id": "0200H5GUEZLG034RIONGRC", "tract_id": "42101000404", "city": "PHILADELPHIA, PA", "zone_code": "/CTR - CENTER CITY COMMERCIAL DISTRICT CONTROL", "zone_category": "Other", "ev_permitted": false}, "geometry": {"type": "Polygon", "coordinates": [[[-75.1716520518923, 39.9535343171761], [-75.1715505144082, 39.9539944027904], [-75.1722944415528, 39.9540882176129], [-75.1723272802018, 39.9539310190184], [-75.1722568796378, 39.9539221411557], [-75.1723202549387, 39.9536185798812], [-75.1716520518923, 39.9535343171761]]]}}, {"type": "Feature", "properties": {"zone_id": "0207HT1WNHM75BUTKI24Y6", "tract_id": "42101000404", "city": "PHILADELPHIA, PA", "zone_code": "/CTR - PARKING GARAGE GROUND FLOOR USE", "zone_category": "Other", "ev_permitted": false}, "geometry": {"type": "Polygon", "coordinates": [[[-75.1732884051578, 39.9521184549204], [-75.1731978888687, 39.9525324253554], [-75.1732870974789, 39.9525434246717], [-75.1733775665863, 39.9521306458353], [-75.1732884051578, 39.9521184549204]]]}}, {"type": "Feature", "properties": {"zone_id": "0203Y19F8UED1MRPCESR5H", "tract_id": "42101000404", "city": "PHILADELPHIA, PA", "zone_code": "/NIS", "zone_category": "Other", "ev_permitted": false}, "geometry": {"type": "Polygon", "coordinates": [[[-75.1728554961082, 39.952065239319], [-75.17276509658, 39.9524799216422], [-75.1728375669609, 39.9524882071319], [-75.1729280066355, 39.952074654183], [-75.1728554961082, 39.952065239319]]]}}, {"type": "Feature", "properties": {"zone_id": "0204BKJL7O6ZM26SAG8LRF", "tract_id": "42101000404", "city": "PHILADELPHIA, PA", "zone_code": "/CTR - CHESTNUT AND WALNUT STREET", "zone_category": "Other", "ev_permitted": false}, "geometry": {"type": "Polygon", "coordinates": [[[-75.1729974423392, 39.9520834187725], [-75.1729064447797, 39.9524967981776], [-75.172976835266, 39.9525058274929], [-75.1730680308021, 39.9520921945735], [-75.1729974423392, 39.9520834187725]]]}}, {"type": "Feature", "properties": {"zone_id": "0207FW2FJL4CTF9VZSSX7K", "tract_id": "42101000404", "city": "PHILADELPHIA, PA", "zone_code": "/CTR - PARKING GARAGE GROUND FLOOR USE", "zone_category": "Other", "ev_permitted": false}, "geometry": {"type": "Polygon", "coordinates": [[[-75.1727860693446, 39.952056780062], [-75.1726942492285, 39.9524697049821], [-75.17276509658, 39.9524799216422], [-75.1728554961082, 39.952065239319], [-75.1727860693446, 39.952056780062]]]}}, {"type": "Feature", "properties": {"zone_id": "020002S69H17RHGHBS7XUE", "tract_id": "42101000404", "city": "PHILADELPHIA, PA", "zone_code": "/NIS", "zone_category": "Other", "ev_permitted": false}, "geometry": {"type": "Polygon", "coordinates": [[[-75.1727165980432, 39.9520489166837], [-75.1726268496397, 39.9524619207657], [-75.1726942492285, 39.9524697049821], [-75.1727860693446, 39.952056780062], [-75.1727165980432, 39.9520489166837]]]}}, {"type": "Feature", "properties": {"zone_id": "0202J05EQ7FT6KDBRL1ZMM", "tract_id": "42101000404", "city": "PHILADELPHIA, PA", "zone_code": "/CTR - CENTER CITY COMMERCIAL", "zone_category": "Commercial", "ev_permitted": true}, "geometry": {"type": "Polygon", "coordinates": [[[-75.1730680308021, 39.9520921945735], [-75.172976835266, 39.9525058274929], [-75.1730493057003, 39.9525141128488], [-75.1731394352607, 39.9521004075069], [-75.1730680308021, 39.9520921945735]]]}}, {"type": "Feature", "properties": {"zone_id": "02063TPDR8MJFNSDWVGYTZ", "tract_id": "42101000404", "city": "PHILADELPHIA, PA", "zone_code": "/CTR - CENTER CITY COMMERCIAL", "zone_category": "Commercial", "ev_permitted": true}, "geometry": {"type": "Polygon", "coordinates": [[[-75.1726421530425, 39.9520391518773], [-75.1725513731671, 39.9524527938545], [-75.1726268496397, 39.9524619207657], [-75.1727165980432, 39.9520489166837], [-75.1726421530425, 39.9520391518773]]]}}, {"type": "Feature", "properties": {"zone_id": "0206BK0V17W7BZIC53PDUZ", "tract_id": "42101000404", "city": "PHILADELPHIA, PA", "zone_code": "/CTR - CHESTNUT AND WALNUT STREET WEST", "zone_category": "Other", "ev_permitted": false}, "geometry": {"type": "Polygon", "coordinates": [[[-75.1729280066355, 39.952074654183], [-75.1728375669609, 39.9524882071319], [-75.1729064447797, 39.9524967981776], [-75.1729974423392, 39.9520834187725], [-75.1729280066355, 39.952074654183]]]}}, {"type": "Feature", "properties": {"zone_id": "0202VWZ8ZJKF27D2VPKO6K", "tract_id": "42101000404", "city": "PHILADELPHIA, PA", "zone_code": "/CTR - CHESTNUT AND WALNUT STREET", "zone_category": "Other", "ev_permitted": false}, "geometry": {"type": "Polygon", "coordinates": [[[-75.1731394352607, 39.9521004075069], [-75.1730493057003, 39.9525141128488], [-75.1731194954398, 39.9525234585524], [-75.1731978888687, 39.9525324253554], [-75.1732884051578, 39.9521184549204], [-75.1731394352607, 39.9521004075069]]]}}, {"type": "Feature", "properties": {"zone_id": "02077RZU1EXNT8CCYXJ2OY", "tract_id": "42101000404", "city": "PHILADELPHIA, PA", "zone_code": "/CTR - CHESTNUT AND WALNUT STREET", "zone_category": "Other", "ev_permitted": false}, "geometry": {"type": "Polygon", "coordinates": [[[-75.1724920349222, 39.9520204808959], [-75.1724028054514, 39.9524291445953], [-75.1722464935227, 39.952409157189], [-75.1722430966027, 39.9524169962645], [-75.1722305240572, 39.9524706991241], [-75.1718795483486, 39.9524269446783], [-75.1718187315358, 39.9527109954647], [-75.1732141333935, 39.9528828318008], [-75.1732747844037, 39.9525935868407], [-75.1725484334574, 39.952503246525], [-75.1725594846233, 39.9524537656178], [-75.1725513731671, 39.9524527938545], [-75.1726421530425, 39.9520391518773], [-75.1724920349222, 39.9520204808959]]]}}, {"type": "Feature", "properties": {"zone_id": "02003KJQWZILR4ILH1VHY3", "tract_id": "42101000404", "city": "PHILADELPHIA, PA", "zone_code": "/NIS", "zone_category": "Other", "ev_permitted": false}, "geometry": {"type": "Polygon", "coordinates": [[[-75.1710828439276, 39.9523675280741], [-75.1710287121464, 39.9526155553298], [-75.1714077393024, 39.9526608135215], [-75.1714384657678, 39.9525178926668], [-75.1716689925086, 39.9525465118304], [-75.1716811671786, 39.9524978299909], [-75.1716906197274, 39.952452391438], [-75.1714597711033, 39.9524223133166], [-75.1714613865748, 39.9524122909317], [-75.1710828439276, 39.9523675280741]]]}}, {"type": "Feature", "properties": {"zone_id": "0201VDVTJRP1HVYXOJ62IU", "tract_id": "42101000404", "city": "PHILADELPHIA, PA", "zone_code": "CMX-5", "zone_category": "Commercial", "ev_permitted": true}, "geometry": {"type": "Polygon", "coordinates": [[[-75.1714384657678, 39.9525178926668], [-75.1714281036832, 39.9525651972567], [-75.171659459012, 39.952592964456], [-75.1716689925086, 39.9525465118304], [-75.1714384657678, 39.9525178926668]]]}}, {"type": "Feature", "properties": {"zone_id": "0205361GFS5MWW4GASBN8R", "tract_id": "42101000404", "city": "PHILADELPHIA, PA", "zone_code": "/VDO", "zone_category": "Other", "ev_permitted": false}, "geometry": {"type": "Polygon", "coordinates": [[[-75.1714791304155, 39.9523299631555], [-75.1714597711033, 39.9524223133166], [-75.1716906197274, 39.952452391438], [-75.1717017941567, 39.9524046534534], [-75.1717113798377, 39.9523573640551], [-75.1714791304155, 39.9523299631555]]]}}, {"type": "Feature", "properties": {"zone_id": "0204K6WMP2BMFVZCRVLEW5", "tract_id": "42101000404", "city": "PHILADELPHIA, PA", "zone_code": "CMX-5", "zone_category": "Commercial", "ev_permitted": true}, "geometry": {"type": "Polygon", "coordinates": [[[-75.1714281036832, 39.9525651972567], [-75.1714077393024, 39.9526608135215], [-75.1716377768858, 39.9526885680308], [-75.171659459012, 39.952592964456], [-75.1714281036832, 39.9525651972567]]]}}, {"type": "Feature", "properties": {"zone_id": "02060C2LRJQ1JZVC43ICV8", "tract_id": "42101000404", "city": "PHILADELPHIA, PA", "zone_code": "/NIS", "zone_category": "Other", "ev_permitted": false}, "geometry": {"type": "Polygon", "coordinates": [[[-75.1723349400063, 39.9520007508057], [-75.1722464935227, 39.952409157189], [-75.1724028054514, 39.9524291445953], [-75.1724920349222, 39.9520204808959], [-75.1723349400063, 39.9520007508057]]]}}, {"type": "Feature", "properties": {"zone_id": "0203FSR3PIFGCZA49JT5BL", "tract_id": "42101000404", "city": "PHILADELPHIA, PA", "zone_code": "/CTR - CHESTNUT AND WALNUT STREET", "zone_category": "Other", "ev_permitted": false}, "geometry": {"type": "Polygon", "coordinates": [[[-75.1722685876083, 39.9519929572363], [-75.1722118734341, 39.9522534363724], [-75.1722781671979, 39.9522627434811], [-75.1723349400063, 39.9520007508057], [-75.1722685876083, 39.9519929572363]]]}}, {"type": "Feature", "properties": {"zone_id": "0206TTFSUJ8JGYEEPO7EKZ", "tract_id": "42101000404", "city": "PHILADELPHIA, PA", "zone_code": "/VDO", "zone_category": "Other", "ev_permitted": false}, "geometry": {"type": "Polygon", "coordinates": [[[-75.1719236768028, 39.9522277603797], [-75.1719128755223, 39.9522766994854], [-75.1722518913995, 39.9523182175094], [-75.1722618941723, 39.9522704542776], [-75.1719236768028, 39.9522277603797]]]}}, {"type": "Feature", "properties": {"zone_id": "0202O57UYE413QW6FCPYSB", "tract_id": "42101000404", "city": "PHILADELPHIA, PA", "zone_code": "CMX-4", "zone_category": "Commercial", "ev_permitted": true}, "geometry": {"type": "Polygon", "coordinates": [[[-75.1719128755223, 39.9522766994854], [-75.1718924171699, 39.9523737328047], [-75.1722303038573, 39.9524152097367], [-75.1722403299806, 39.9523662531874], [-75.1722518913995, 39.9523182175094], [-75.1719128755223, 39.9522766994854]]]}}, {"type": "Feature", "properties": {"zone_id": "02074F8XGB4KXRGFDB7CY3", "tract_id": "42101000404", "city": "PHILADELPHIA, PA", "zone_code": "/CTR - PARKING GARAGE GROUND FLOOR USE", "zone_category": "Other", "ev_permitted": false}, "geometry": {"type": "Polygon", "coordinates": [[[-75.1720595138557, 39.9519675604317], [-75.1720008744451, 39.9522372980596], [-75.1720730318886, 39.9522461086057], [-75.1721312726718, 39.9519763788832], [-75.1720595138557, 39.9519675604317]]]}}, {"type": "Feature", "properties": {"zone_id": "020638A7ILMW0I6Y341MQ6", "tract_id": "42101000404", "city": "PHILADELPHIA, PA", "zone_code": "/CTR - CHESTNUT AND WALNUT STREET", "zone_category": "Other", "ev_permitted": false}, "geometry": {"type": "Polygon", "coordinates": [[[-75.1719831009682, 39.9519577509697], [-75.1719236768028, 39.9522277603797], [-75.1720008744451, 39.9522372980596], [-75.1720595138557, 39.9519675604317], [-75.1719831009682, 39.9519577509697]]]}}, {"type": "Feature", "properties": {"zone_id": "02019L1GMCUXB6K23B3V13", "tract_id": "42101000404", "city": "PHILADELPHIA, PA", "zone_code": "CMX-4", "zone_category": "Commercial", "ev_permitted": true}, "geometry": {"type": "Polygon", "coordinates": [[[-75.1721948820205, 39.9519841108923], [-75.1721385754315, 39.9522442928127], [-75.1722118734341, 39.9522534363724], [-75.1722685876083, 39.9519929572363], [-75.1721948820205, 39.9519841108923]]]}}, {"type": "Feature", "properties": {"zone_id": "0204F3OGFPFAC8WUYAW4BI", "tract_id": "42101000404", "city": "PHILADELPHIA, PA", "zone_code": "/NIS", "zone_category": "Other", "ev_permitted": false}, "geometry": {"type": "Polygon", "coordinates": [[[-75.1721312726718, 39.9519763788832], [-75.172074568136, 39.9522365518349], [-75.1721385754315, 39.9522442928127], [-75.1721948820205, 39.9519841108923], [-75.1721312726718, 39.9519763788832]]]}}, {"type": "Feature", "properties": {"zone_id": "0206CQHI5Q68YB7OILWXC2", "tract_id": "42101000404", "city": "PHILADELPHIA, PA", "zone_code": "/CTR - CHESTNUT AND WALNUT STREET", "zone_category": "Other", "ev_permitted": false}, "geometry": {"type": "Polygon", "coordinates": [[[-75.1713203604239, 39.9518781025229], [-75.1712288980487, 39.9523006900024], [-75.1712968811705, 39.9523085534881], [-75.171387034282, 39.9518878703351], [-75.1713203604239, 39.9518781025229]]]}}, {"type": "Feature", "properties": {"zone_id": "0205T2L6M7ZTA4QNKY0RUO", "tract_id": "42101000404", "city": "PHILADELPHIA, PA", "zone_code": "/NIS", "zone_category": "Other", "ev_permitted": false}, "geometry": {"type": "Polygon", "coordinates": [[[-75.171387034282, 39.9518878703351], [-75.1712968811705, 39.9523085534881], [-75.1713607794071, 39.9523158903711], [-75.1714497909817, 39.9518938108493], [-75.171387034282, 39.9518878703351]]]}}, {"type": "Feature", "properties": {"zone_id": "0203PNMRKHVSI5XWORGB07", "tract_id": "42101000404", "city": "PHILADELPHIA, PA", "zone_code": "/CTR - CENTER CITY RESIDENTIAL DISTRICT CONTROL", "zone_category": "Other", "ev_permitted": false}, "geometry": {"type": "Polygon", "coordinates": [[[-75.1711831353835, 39.9518624440801], [-75.1710935707166, 39.952283591963], [-75.1712288980487, 39.9523006900024], [-75.1713203604239, 39.9518781025229], [-75.1711831353835, 39.9518624440801]]]}}, {"type": "Feature", "properties": {"zone_id": "0201VZCB1Q0VSUE16DR8KV", "tract_id": "42101000404", "city": "PHILADELPHIA, PA", "zone_code": "/NIS", "zone_category": "Other", "ev_permitted": false}, "geometry": {"type": "Polygon", "coordinates": [[[-75.1714098575562, 39.9521706418359], [-75.1713900227559, 39.9522677690627], [-75.1717219230363, 39.9523085971147], [-75.1717443531043, 39.9522103996504], [-75.1716004725049, 39.9521923677591], [-75.1714098575562, 39.9521706418359]]]}}, {"type": "Feature", "properties": {"zone_id": "0200Z524KHLQQZ30AXQFS0", "tract_id": "42101000404", "city": "PHILADELPHIA, PA", "zone_code": "/NIS", "zone_category": "Other", "ev_permitted": false}, "geometry": {"type": "Polygon", "coordinates": [[[-75.171371361761, 39.9522649799236], [-75.1713607794071, 39.9523158903711], [-75.1717113798377, 39.9523573640551], [-75.1717219230363, 39.9523085971147], [-75.171371361761, 39.9522649799236]]]}}, {"type": "Feature", "properties": {"zone_id": "0203QXEOOP6V4NQ3KSXE1Q", "tract_id": "42101000404", "city": "PHILADELPHIA, PA", "zone_code": "/CTR - CHESTNUT AND WALNUT STREET WEST", "zone_category": "Other", "ev_permitted": false}, "geometry": {"type": "Polygon", "coordinates": [[[-75.1715933819366, 39.951910626823], [-75.1715370456768, 39.95216987303], [-75.1716085650867, 39.9521778315867], [-75.1716642805073, 39.9519194746633], [-75.1715933819366, 39.951910626823]]]}}, {"type": "Feature", "properties": {"zone_id": "0201REJK3ZQ2J1UWOH3PZO", "tract_id": "42101000404", "city": "PHILADELPHIA, PA", "zone_code": "/NIS", "zone_category": "Other", "ev_permitted": false}, "geometry": {"type": "Polygon", "coordinates": [[[-75.171735196817, 39.9519278554569], [-75.1716794639381, 39.9521866794175], [-75.1717468264661, 39.95219543083], [-75.1718025089749, 39.9519368478577], [-75.171735196817, 39.9519278554569]]]}}, {"type": "Feature", "properties": {"zone_id": "0203SAN7GJHGTDGTDI3G46", "tract_id": "42101000404", "city": "PHILADELPHIA, PA", "zone_code": "/CTR - PARKING GARAGE GROUND FLOOR USE", "zone_category": "Other", "ev_permitted": false}, "geometry": {"type": "Polygon", "coordinates": [[[-75.1716642805073, 39.9519194746633], [-75.1716085650867, 39.9521778315867], [-75.1716794639381, 39.9521866794175], [-75.171735196817, 39.9519278554569], [-75.1716642805073, 39.9519194746633]]]}}, {"type": "Feature", "properties": {"zone_id": "0204441OUOGCV3M9MITT9T", "tract_id": "42101000404", "city": "PHILADELPHIA, PA", "zone_code": "/CTR - CHESTNUT AND WALNUT STREET", "zone_category": "Other", "ev_permitted": false}, "geometry": {"type": "Polygon", "coordinates": [[[-75.1714497909817, 39.9518938108493], [-75.1713955333618, 39.9521534900323], [-75.1715370456768, 39.95216987303], [-75.1715933819366, 39.951910626823], [-75.1714497909817, 39.9518938108493]]]}}, {"type": "Feature", "properties": {"zone_id": "0204ZMFCQTXM5ADRYYU216", "tract_id": "42101000404", "city": "PHILADELPHIA, PA", "zone_code": "/CTR - PARKING GARAGE GROUND FLOOR USE", "zone_category": "Other", "ev_permitted": false}, "geometry": {"type": "Polygon", "coordinates": [[[-75.1707745007125, 39.9534205220518], [-75.170747912242, 39.9535437889473], [-75.1706659230723, 39.9539108962571], [-75.1713560967658, 39.9539995148509], [-75.1714632587993, 39.9535087546351], [-75.1710845102355, 39.9534610049357], [-75.1707745007125, 39.9534205220518]]]}}, {"type": "Feature", "properties": {"zone_id": "02044LX1YP6N9V8EX8X9NQ", "tract_id": "42101000404", "city": "PHILADELPHIA, PA", "zone_code": "/CTR - MARKET STREET WEST", "zone_category": "Other", "ev_permitted": false}, "geometry": {"type": "Polygon", "coordinates": [[[-75.1700643781262, 39.9533301289287], [-75.1699598474934, 39.9538208188476], [-75.1706659230723, 39.9539108962571], [-75.170747912242, 39.9535437889473], [-75.1707745007125, 39.9534205220518], [-75.1700643781262, 39.9533301289287]]]}}, {"type": "Feature", "properties": {"zone_id": "0205DXX2UQX639WZGA3NX4", "tract_id": "42101000404", "city": "PHILADELPHIA, PA", "zone_code": "/CTR - MARKET STREET WEST", "zone_category": "Other", "ev_permitted": false}, "geometry": {"type": "Polygon", "coordinates": [[[-75.17078177359, 39.952655623004], [-75.1706818151772, 39.9531303128676], [-75.1715208428001, 39.9532337878852], [-75.171624656723, 39.9527583461344], [-75.17078177359, 39.952655623004]]]}}, {"type": "Feature", "properties": {"zone_id": "0200KU14WP45VQKW3FIOLP", "tract_id": "42101000404", "city": "PHILADELPHIA, PA", "zone_code": "/CTR - MARKET STREET WEST", "zone_category": "Other", "ev_permitted": false}, "geometry": {"type": "Polygon", "coordinates": [[[-75.168499967305, 39.9531405710378], [-75.1683470058495, 39.9538477233495], [-75.1683486952471, 39.953847939319], [-75.1683411418522, 39.9538806912987], [-75.1689512903054, 39.9539587363303], [-75.1689574815246, 39.9539249287649], [-75.1691106428367, 39.9532181305455], [-75.168499967305, 39.9531405710378]]]}}, {"type": "Feature", "properties": {"zone_id": "0201UAMX99DI3KZ34ZYF16", "tract_id": "42101000404", "city": "PHILADELPHIA, PA", "zone_code": "/NIS", "zone_category": "Other", "ev_permitted": false}, "geometry": {"type": "Polygon", "coordinates": [[[-75.1691106455047, 39.9532181373632], [-75.1689574815246, 39.9539249287649], [-75.1689512903054, 39.9539587363303], [-75.1697327860459, 39.9540586998072], [-75.1698934977926, 39.9533176134959], [-75.1691954482243, 39.9532281307061], [-75.1691106455047, 39.9532181373632]]]}}, {"type": "Feature", "properties": {"zone_id": "0206SB32IG7FC0ASVSA6N1", "tract_id": "42101000404", "city": "PHILADELPHIA, PA", "zone_code": "/CTR - CENTER CITY RESIDENTIAL DISTRICT CONTROL", "zone_category": "Other", "ev_permitted": false}, "geometry": {"type": "Polygon", "coordinates": [[[-75.171000032846, 39.9525004062948], [-75.1709763500508, 39.9526094462133], [-75.1710287121464, 39.9526155553298], [-75.1710525143934, 39.9525066048104], [-75.171000032846, 39.9525004062948]]]}}, {"type": "Feature", "properties": {"zone_id": "0207LI1XOS5O3Q6PP83WT2", "tract_id": "42101000404", "city": "PHILADELPHIA, PA", "zone_code": "/VDO", "zone_category": "Other", "ev_permitted": false}, "geometry": {"type": "Polygon", "coordinates": [[[-75.170944701634, 39.9524938711313], [-75.1709209863705, 39.9526024147524], [-75.1709763500508, 39.9526094462133], [-75.171000032846, 39.9525004062948], [-75.170944701634, 39.9524938711313]]]}}, {"type": "Feature", "properties": {"zone_id": "0200VP6LMKL09TXNDVBYE6", "tract_id": "42101000404", "city": "PHILADELPHIA, PA", "zone_code": "/CTR - CENTER CITY COMMERCIAL DISTRICT CONTROL", "zone_category": "Other", "ev_permitted": false}, "geometry": {"type": "Polygon", "coordinates": [[[-75.1708990601916, 39.9524884807115], [-75.1708757233731, 39.9525968064536], [-75.1709209863705, 39.9526024147524], [-75.170944701634, 39.9524938711313], [-75.1708990601916, 39.9524884807115]]]}}, {"type": "Feature", "properties": {"zone_id": "02010YGTEPQGC7EKHCZ6TA", "tract_id": "42101000404", "city": "PHILADELPHIA, PA", "zone_code": "/VDO", "zone_category": "Other", "ev_permitted": false}, "geometry": {"type": "Polygon", "coordinates": [[[-75.1708525467371, 39.9523353887822], [-75.1708233774924, 39.95247079627], [-75.1710454750285, 39.952496742632], [-75.1710730928024, 39.9523646846536], [-75.1708525467371, 39.9523353887822]]]}}, {"type": "Feature", "properties": {"zone_id": "0204Q7UOSMDD511I871Q0H", "tract_id": "42101000404", "city": "PHILADELPHIA, PA", "zone_code": "/VDO", "zone_category": "Other", "ev_permitted": false}, "geometry": {"type": "Polygon", "coordinates": [[[-75.1706394286224, 39.9523090751703], [-75.1706085061297, 39.9524526075083], [-75.1705662445338, 39.9524473898104], [-75.1705429071562, 39.9525557166101], [-75.1708757233731, 39.9525968064536], [-75.1708990601916, 39.9524884807115], [-75.1706630948498, 39.9524593480154], [-75.170694015768, 39.9523158156299], [-75.1706394286224, 39.9523090751703]]]}}, {"type": "Feature", "properties": {"zone_id": "0206I8FOIH35TPNZZVANEI", "tract_id": "42101000404", "city": "PHILADELPHIA, PA", "zone_code": "/VDO", "zone_category": "Other", "ev_permitted": false}, "geometry": {"type": "Polygon", "coordinates": [[[-75.1707433694268, 39.9523219090474], [-75.1707141984655, 39.9524573175999], [-75.1708233774924, 39.95247079627], [-75.1708525467371, 39.9523353887822], [-75.1707433694268, 39.9523219090474]]]}}, {"type": "Feature", "properties": {"zone_id": "0206IB52GO8W9HAMJITNVQ", "tract_id": "42101000404", "city": "PHILADELPHIA, PA", "zone_code": "CMX-5", "zone_category": "Commercial", "ev_permitted": true}, "geometry": {"type": "Polygon", "coordinates": [[[-75.170694015768, 39.9523158156299], [-75.170664844711, 39.9524512241699], [-75.1707141984655, 39.9524573175999], [-75.1707433694268, 39.9523219090474], [-75.170694015768, 39.9523158156299]]]}}, {"type": "Feature", "properties": {"zone_id": "0200OPKY4UD3SSDECGCB6M", "tract_id": "42101000404", "city": "PHILADELPHIA, PA", "zone_code": "/CTR - MARKET STREET WEST", "zone_category": "Other", "ev_permitted": false}, "geometry": {"type": "Polygon", "coordinates": [[[-75.1698753346716, 39.9525410349288], [-75.1698391254919, 39.9527162979336], [-75.1697751048795, 39.9530144611232], [-75.1699600690172, 39.9530366753198], [-75.1700484333251, 39.9526241891856], [-75.1700603112005, 39.9525640072494], [-75.1698753346716, 39.9525410349288]]]}}, {"type": "Feature", "properties": {"zone_id": "0206Y4TL5OF2LAFROC6M2X", "tract_id": "42101000404", "city": "PHILADELPHIA, PA", "zone_code": "/CTR - PARKING GARAGE GROUND FLOOR USE", "zone_category": "Other", "ev_permitted": false}, "geometry": {"type": "Polygon", "coordinates": [[[-75.1702337140387, 39.9525883948826], [-75.17013021464, 39.953061893093], [-75.1706818151772, 39.9531303128676], [-75.17078177359, 39.952655623004], [-75.1702337140387, 39.9525883948826]]]}}, {"type": "Feature", "properties": {"zone_id": "0203H8308DZ22ZY8P7ZZNY", "tract_id": "42101000404", "city": "PHILADELPHIA, PA", "zone_code": "CMX-5", "zone_category": "Commercial", "ev_permitted": true}, "geometry": {"type": "Polygon", "coordinates": [[[-75.1702711283433, 39.9524133537227], [-75.170258919724, 39.9524701111407], [-75.1705408433089, 39.9525021454393], [-75.1705536811137, 39.9524458853132], [-75.1702711283433, 39.9524133537227]]]}}, {"type": "Feature", "properties": {"zone_id": "020388ASD22ECT4Z2OR0EF", "tract_id": "42101000404", "city": "PHILADELPHIA, PA", "zone_code": "/CTR - CENTER CITY RESIDENTIAL DISTRICT CONTROL", "zone_category": "Other", "ev_permitted": false}, "geometry": {"type": "Polygon", "coordinates": [[[-75.1702816566905, 39.952365005529], [-75.1702711283433, 39.9524133537227], [-75.1705536811137, 39.9524458853132], [-75.1705640282688, 39.9523965610545], [-75.1702816566905, 39.952365005529]]]}}, {"type": "Feature", "properties": {"zone_id": "0202IUFO12BB0DZCZ2WZW5", "tract_id": "42101000404", "city": "PHILADELPHIA, PA", "zone_code": "CMX-5", "zone_category": "Commercial", "ev_permitted": true}, "geometry": {"type": "Polygon", "coordinates": [[[-75.170258919724, 39.9524701111407], [-75.1702487782658, 39.9525198702372], [-75.1705288000822, 39.9525539735459], [-75.1705408433089, 39.9525021454393], [-75.170258919724, 39.9524701111407]]]}}, {"type": "Feature", "properties": {"zone_id": "0204KA7UIBIO4MQB37F4O7", "tract_id": "42101000404", "city": "PHILADELPHIA, PA", "zone_code": "/NIS", "zone_category": "Other", "ev_permitted": false}, "geometry": {"type": "Polygon", "coordinates": [[[-75.1706861370991, 39.9518037001078], [-75.1705979966818, 39.9522242197025], [-75.1706680887449, 39.9522328078715], [-75.1707580967982, 39.9518110733096], [-75.1706861370991, 39.9518037001078]]]}}, {"type": "Feature", "properties": {"zone_id": "02065K4VP4VJM67D849RJW", "tract_id": "42101000404", "city": "PHILADELPHIA, PA", "zone_code": "/CTR - CHESTNUT AND WALNUT STREET", "zone_category": "Other", "ev_permitted": false}, "geometry": {"type": "Polygon", "coordinates": [[[-75.1711086828443, 39.9518539676765], [-75.1710179615978, 39.9522746536439], [-75.1710935707166, 39.952283591963], [-75.1711831353835, 39.9518624440801], [-75.1711086828443, 39.9518539676765]]]}}, {"type": "Feature", "properties": {"zone_id": "0201VCLCNPWEMCRFDHZCXQ", "tract_id": "42101000404", "city": "PHILADELPHIA, PA", "zone_code": "/NIS", "zone_category": "Other", "ev_permitted": false}, "geometry": {"type": "Polygon", "coordinates": [[[-75.1707580967982, 39.9518110733096], [-75.1706680887449, 39.9522328078715], [-75.1710179615978, 39.9522746536439], [-75.1711086828443, 39.9518539676765], [-75.1707580967982, 39.9518110733096]]]}}, {"type": "Feature", "properties": {"zone_id": "0202MU1M90KISVX1NYFBPM", "tract_id": "42101000404", "city": "PHILADELPHIA, PA", "zone_code": "CMX-5", "zone_category": "Commercial", "ev_permitted": true}, "geometry": {"type": "Polygon", "coordinates": [[[-75.1705838029341, 39.9523022065894], [-75.1705536811137, 39.9524458853132], [-75.1706085061297, 39.9524526075083], [-75.1706394286224, 39.9523090751703], [-75.1705838029341, 39.9523022065894]]]}}, {"type": "Feature", "properties": {"zone_id": "0202KPDS55742A86NWEU7X", "tract_id": "42101000404", "city": "PHILADELPHIA, PA", "zone_code": "/CTR - CENTER CITY COMMERCIAL", "zone_category": "Commercial", "ev_permitted": true}, "geometry": {"type": "Polygon", "coordinates": [[[-75.1705419276091, 39.9517861111018], [-75.1704862770136, 39.9520443079758], [-75.1705589502308, 39.952052744771], [-75.1706128777644, 39.9517952513347], [-75.1705419276091, 39.9517861111018]]]}}, {"type": "Feature", "properties": {"zone_id": "0203JZUHHS7YDMI28XEXH5", "tract_id": "42101000404", "city": "PHILADELPHIA, PA", "zone_code": "/CTR - CHESTNUT AND WALNUT STREET", "zone_category": "Other", "ev_permitted": false}, "geometry": {"type": "Polygon", "coordinates": [[[-75.1706128777644, 39.9517952513347], [-75.1705589502308, 39.952052744771], [-75.1706316249281, 39.9520611815529], [-75.1706861370991, 39.9518037001078], [-75.1706128777644, 39.9517952513347]]]}}, {"type": "Feature", "properties": {"zone_id": "0200DKGH00O1SPOQ2DPVSA", "tract_id": "42101000404", "city": "PHILADELPHIA, PA", "zone_code": "CMX-5", "zone_category": "Commercial", "ev_permitted": true}, "geometry": {"type": "Polygon", "coordinates": [[[-75.1703021657567, 39.9522674295982], [-75.1702916841077, 39.9523177092669], [-75.1705737223715, 39.9523511009781], [-75.170583900515, 39.95230221892], [-75.1703021657567, 39.9522674295982]]]}}, {"type": "Feature", "properties": {"zone_id": "0201OK13F8RP9O13L3P7HF", "tract_id": "42101000404", "city": "PHILADELPHIA, PA", "zone_code": "/NIS", "zone_category": "Other", "ev_permitted": false}, "geometry": {"type": "Polygon", "coordinates": [[[-75.1702916841077, 39.9523177092669], [-75.1702816566905, 39.952365005529], [-75.1705640282688, 39.9523965610545], [-75.1705737223715, 39.9523511009781], [-75.1702916841077, 39.9523177092669]]]}}, {"type": "Feature", "properties": {"zone_id": "0202HMV1FOHJAPU3KO357H", "tract_id": "42101000404", "city": "PHILADELPHIA, PA", "zone_code": "/CTR - CENTER CITY COMMERCIAL", "zone_category": "Commercial", "ev_permitted": true}, "geometry": {"type": "Polygon", "coordinates": [[[-75.1703283351233, 39.9521417960915], [-75.1703197333611, 39.9521868504804], [-75.1705979966818, 39.9522242197025], [-75.1706085660416, 39.9521753239142], [-75.1705604146913, 39.9521692112938], [-75.1705570546638, 39.9521804682504], [-75.170458027166, 39.9521682796599], [-75.1704596296861, 39.9521569831854], [-75.1703283351233, 39.9521417960915]]]}}, {"type": "Feature", "properties": {"zone_id": "0201RXZ7TUVKVBIZDTCWTM", "tract_id": "42101000404", "city": "PHILADELPHIA, PA", "zone_code": "/NIS", "zone_category": "Other", "ev_permitted": false}, "geometry": {"type": "Polygon", "coordinates": [[[-75.1704054425176, 39.9517697430425], [-75.1703514279603, 39.9520295083771], [-75.1704206380548, 39.9520364978412], [-75.1704191388756, 39.9520450721965], [-75.1704842100655, 39.9520524190575], [-75.1705419276091, 39.9517861111018], [-75.1704054425176, 39.9517697430425]]]}}, {"type": "Feature", "properties": {"zone_id": "0202CZOK3GBMNZF6H6JEHF", "tract_id": "42101000404", "city": "PHILADELPHIA, PA", "zone_code": "/CTR - CENTER CITY COMMERCIAL", "zone_category": "Commercial", "ev_permitted": true}, "geometry": {"type": "Polygon", "coordinates": [[[-75.1703466906584, 39.952046166348], [-75.1703283351233, 39.9521417960915], [-75.1704596296861, 39.9521569831854], [-75.170458027166, 39.9521682796599], [-75.1705570546638, 39.9521804682504], [-75.1705604146913, 39.9521692112938], [-75.1706085660416, 39.9521753239142], [-75.1706300572972, 39.9520715597789], [-75.1705656634108, 39.9520624070556], [-75.1705635917125, 39.9520700652719], [-75.1703466906584, 39.952046166348]]]}}, {"type": "Feature", "properties": {"zone_id": "0205QV9UB3UBSSSG70MXAP", "tract_id": "42101000404", "city": "PHILADELPHIA, PA", "zone_code": "/CTR - PARKING GARAGE GROUND FLOOR USE", "zone_category": "Other", "ev_permitted": false}, "geometry": {"type": "Polygon", "coordinates": [[[-75.1700812620804, 39.9517237495923], [-75.170011133243, 39.9520520642343], [-75.1701649409873, 39.9520700961351], [-75.1702366111205, 39.9517425244999], [-75.1700812620804, 39.9517237495923]]]}}, {"type": "Feature", "properties": {"zone_id": "0204Z9TA7KNRAM1BQZHDYQ", "tract_id": "42101000404", "city": "PHILADELPHIA, PA", "zone_code": "/CTR - CHESTNUT AND WALNUT STREET", "zone_category": "Other", "ev_permitted": false}, "geometry": {"type": "Polygon", "coordinates": [[[-75.1699357950874, 39.9517061799653], [-75.1698692642252, 39.9520169561172], [-75.1700154407854, 39.9520318499911], [-75.1700812620804, 39.9517237495923], [-75.1699357950874, 39.9517061799653]]]}}, {"type": "Feature", "properties": {"zone_id": "0201M8IZE0AS60K5T8M2ED", "tract_id": "42101000404", "city": "PHILADELPHIA, PA", "zone_code": "/NIS", "zone_category": "Other", "ev_permitted": false}, "geometry": {"type": "Polygon", "coordinates": [[[-75.1687587687224, 39.9519342974794], [-75.1687442688359, 39.9520088478084], [-75.1686766544463, 39.9523264985374], [-75.170075019165, 39.952494926118], [-75.1700980165518, 39.9523934529768], [-75.1701601848447, 39.9521043234599], [-75.1700278234819, 39.952087983506], [-75.1700253101054, 39.9520940527523], [-75.1698630058623, 39.9520730893525], [-75.1695362324989, 39.9520330323206], [-75.1692088771657, 39.9519933959962], [-75.1689938144455, 39.9519685041947], [-75.1689928836033, 39.951963229208], [-75.1689778400655, 39.9519606010314], [-75.1687587687224, 39.9519342974794]]]}}, {"type": "Feature", "properties": {"zone_id": "02006NPFZCDIG9IVBD8RUC", "tract_id": "42101000404", "city": "PHILADELPHIA, PA", "zone_code": "/CTR - MARKET STREET WEST", "zone_category": "Other", "ev_permitted": false}, "geometry": {"type": "Polygon", "coordinates": [[[-75.1686617318737, 39.9523940271986], [-75.1685611131313, 39.9528686522538], [-75.1697751048795, 39.9530144611232], [-75.1698391254919, 39.9527162979336], [-75.1698753346716, 39.9525410349288], [-75.1686617318737, 39.9523940271986]]]}}, {"type": "Feature", "properties": {"zone_id": "0207I2WZA9IO40UXQ0O3ER", "tract_id": "42101000404", "city": "PHILADELPHIA, PA", "zone_code": "/CTR - CENTER CITY COMMERCIAL", "zone_category": "Commercial", "ev_permitted": true}, "geometry": {"type": "Polygon", "coordinates": [[[-75.1698746022293, 39.9516987578328], [-75.1698081485073, 39.9520097305349], [-75.1698692642252, 39.9520169561172], [-75.1699357950874, 39.9517061799653], [-75.1698746022293, 39.9516987578328]]]}}, {"type": "Feature", "properties": {"zone_id": "0205NTB2L590IL7VFEL6YQ", "tract_id": "42101000404", "city": "PHILADELPHIA, PA", "zone_code": "/CTR - CHESTNUT AND WALNUT STREET", "zone_category": "Other", "ev_permitted": false}, "geometry": {"type": "Polygon", "coordinates": [[[-75.1696915481451, 39.9516765548435], [-75.1696260426662, 39.9519878540065], [-75.1696860723343, 39.9519950068283], [-75.1697521962203, 39.9516839479268], [-75.1696915481451, 39.9516765548435]]]}}, {"type": "Feature", "properties": {"zone_id": "0200MQIDQVESM443DXWNJH", "tract_id": "42101000404", "city": "PHILADELPHIA, PA", "zone_code": "/CTR - PARKING GARAGE GROUND FLOOR USE", "zone_category": "Other", "ev_permitted": false}, "geometry": {"type": "Polygon", "coordinates": [[[-75.1698141262083, 39.9516918045506], [-75.1697480196913, 39.9520024133648], [-75.1698081485073, 39.9520097305349], [-75.1698746022293, 39.9516987578328], [-75.1698141262083, 39.9516918045506]]]}}, {"type": "Feature", "properties": {"zone_id": "0201351NW1T0MSXIVTMA5V", "tract_id": "42101000404", "city": "PHILADELPHIA, PA", "zone_code": "/CTR - CHESTNUT AND WALNUT STREET", "zone_category": "Other", "ev_permitted": false}, "geometry": {"type": "Polygon", "coordinates": [[[-75.1697521962203, 39.9516839479268], [-75.1696860723343, 39.9519950068283], [-75.1697480196913, 39.9520024133648], [-75.1698141262083, 39.9516918045506], [-75.1697521962203, 39.9516839479268]]]}}, {"type": "Feature", "properties": {"zone_id": "02042M7H33SUZCM9V44EXI", "tract_id": "42101000404", "city": "PHILADELPHIA, PA", "zone_code": "/CTR - PARKING GARAGE GROUND FLOOR USE", "zone_category": "Other", "ev_permitted": false}, "geometry": {"type": "Polygon", "coordinates": [[[-75.169567238909, 39.9516616523724], [-75.169501189815, 39.9519729550161], [-75.1696260426662, 39.9519878540065], [-75.1696915481451, 39.9516765548435], [-75.169567238909, 39.9516616523724]]]}}, {"type": "Feature", "properties": {"zone_id": "0203L9GTYFBVZ9Y5914570", "tract_id": "42101000404", "city": "PHILADELPHIA, PA", "zone_code": "/CTR - CHESTNUT AND WALNUT STREET", "zone_category": "Other", "ev_permitted": false}, "geometry": {"type": "Polygon", "coordinates": [[[-75.1694632805384, 39.9516491582663], [-75.169396766083, 39.951960564145], [-75.169501189815, 39.9519729550161], [-75.169567238909, 39.9516616523724], [-75.1694632805384, 39.9516491582663]]]}}, {"type": "Feature", "properties": {"zone_id": "0202FBFFJBLLYNFNCF1HK2", "tract_id": "42101000404", "city": "PHILADELPHIA, PA", "zone_code": "/CTR - CENTER CITY COMMERCIAL", "zone_category": "Commercial", "ev_permitted": true}, "geometry": {"type": "Polygon", "coordinates": [[[-75.1691310904862, 39.9516089455162], [-75.1690654728318, 39.9519209356736], [-75.169396766083, 39.951960564145], [-75.1694632805384, 39.9516491582663], [-75.1691310904862, 39.9516089455162]]]}}, {"type": "Feature", "properties": {"zone_id": "0206P676D9T0BOL7T1C0C9", "tract_id": "42101000404", "city": "PHILADELPHIA, PA", "zone_code": "/CTR - CHESTNUT AND WALNUT STREET", "zone_category": "Other", "ev_permitted": false}, "geometry": {"type": "Polygon", "coordinates": [[[-75.169069042777, 39.9516014564141], [-75.1690033077435, 39.9519121374297], [-75.1690654728318, 39.9519209356736], [-75.1691310904862, 39.9516089455162], [-75.169069042777, 39.9516014564141]]]}}, {"type": "Feature", "properties": {"zone_id": "0202860G8WA4I209QYC3H7", "tract_id": "42101000404", "city": "PHILADELPHIA, PA", "zone_code": "/CTR - PARKING GARAGE GROUND FLOOR USE", "zone_category": "Other", "ev_permitted": false}, "geometry": {"type": "Polygon", "coordinates": [[[-75.1688352014461, 39.9515724825389], [-75.1687666019288, 39.9519012184008], [-75.1689996029918, 39.9519296891897], [-75.169069042777, 39.9516014564141], [-75.1688352014461, 39.9515724825389]]]}}]}