{"type": "FeatureCollection", "features": [{"type": "Feature", "properties": {"zone_id": "0203QHIBNMW7IUD9VH7RPT", "tract_id": "36061027100", "city": "NEW YORK, NY", "zone_code": "R7-2", "zone_category": "Residential", "ev_permitted": false}, "geometry": {"type": "Polygon", "coordinates": [[[-73.9356469931089, 40.8544055836094], [-73.9355048168901, 40.8546846020963], [-73.935964733302, 40.8548187028125], [-73.9360762071779, 40.8545307326415], [-73.9356469931089, 40.8544055836094]]]}}, {"type": "Feature", "properties": {"zone_id": "0205S9BBJAB74RNBJQNZ0W", "tract_id": "36061027100", "city": "NEW YORK, NY", "zone_code": "R7-2", "zone_category": "Residential", "ev_permitted": false}, "geometry": {"type": "Polygon", "coordinates": [[[-73.9353060442694, 40.8541238828482], [-73.9350829947238, 40.8545616072995], [-73.9355048168901, 40.8546846020963], [-73.9357278640721, 40.8542468768388], [-73.9353060442694, 40.8541238828482]]]}}, {"type": "Feature", "properties": {"zone_id": "0203LO0SOO3W8YON82BY0B", "tract_id": "36061027100", "city": "NEW YORK, NY", "zone_code": "R7-2", "zone_category": "Residential", "ev_permitted": false}, "geometry": {"type": "Polygon", "coordinates": [[[-73.9359573584221, 40.8537964944582], [-73.9358108077505, 40.8540841007442], [-73.9362013651894, 40.8541979777722], [-73.9362211670048, 40.8541253177723], [-73.9362347405397, 40.8540636514063], [-73.9362447161541, 40.8540019647809], [-73.9362538272536, 40.8538941231024], [-73.9362537292406, 40.8538814895098], [-73.9359573584221, 40.8537964944582]]]}}, {"type": "Feature", "properties": {"zone_id": "0203Y6VI0XAAOLARU7XXZJ", "tract_id": "36061027100", "city": "NEW YORK, NY", "zone_code": "R7-2", "zone_category": "Residential", "ev_permitted": false}, "geometry": {"type": "Polygon", "coordinates": [[[-73.9355346426457, 40.853675263026], [-73.9353060442694, 40.8541238828482], [-73.9357278640721, 40.8542468768388], [-73.9359573584221, 40.8537964944582], [-73.9355346426457, 40.853675263026]]]}}, {"type": "Feature", "properties": {"zone_id": "0201N9VOY24WTNN3LJHBP9", "tract_id": "36061027100", "city": "NEW YORK, NY", "zone_code": "R7-2", "zone_category": "Residential", "ev_permitted": false}, "geometry": {"type": "Polygon", "coordinates": [[[-73.9358108077505, 40.8540841007442], [-73.9356469931089, 40.8544055836094], [-73.9360762071779, 40.8545307326415], [-73.9361766095091, 40.8542689079285], [-73.9362013651894, 40.8541979777722], [-73.9358108077505, 40.8540841007442]]]}}, {"type": "Feature", "properties": {"zone_id": "02038MPWA5PPUZ7OGS86AJ", "tract_id": "36061027100", "city": "NEW YORK, NY", "zone_code": "R7-2", "zone_category": "Residential", "ev_permitted": false}, "geometry": {"type": "Polygon", "coordinates": [[[-73.9358555036165, 40.853221035661], [-73.9358343212656, 40.8532857507483], [-73.9359160879647, 40.8533096045883], [-73.9357774868773, 40.8535822482517], [-73.9362505708855, 40.8537202583751], [-73.9362509785288, 40.8536338347947], [-73.9362527361095, 40.8535427878587], [-73.9362581328068, 40.8534598893867], [-73.9362636368088, 40.8534204740981], [-73.936281614916, 40.8533453432768], [-73.9358555036165, 40.853221035661]]]}}, {"type": "Feature", "properties": {"zone_id": "0205E39KYL4OZ2TIFCNFCA", "tract_id": "36061027100", "city": "NEW YORK, NY", "zone_code": "R7-2", "zone_category": "Residential", "ev_permitted": false}, "geometry": {"type": "Polygon", "coordinates": [[[-73.9354125148231, 40.853162696703], [-73.9352739119777, 40.8534353397684], [-73.9357774868773, 40.8535822482517], [-73.9359160879647, 40.8533096045883], [-73.9354125148231, 40.853162696703]]]}}, {"type": "Feature", "properties": {"zone_id": "0204SFKFBPVEJXZ7P124B5", "tract_id": "36061027100", "city": "NEW YORK, NY", "zone_code": "R7-2", "zone_category": "Residential", "ev_permitted": false}, "geometry": {"type": "Polygon", "coordinates": [[[-73.9351964718739, 40.8535782773258], [-73.9350515353668, 40.8538627104265], [-73.9353889888268, 40.8539611070534], [-73.9355346426457, 40.853675263026], [-73.9351964718739, 40.8535782773258]]]}}, {"type": "Feature", "properties": {"zone_id": "020063FF69OL8F0ZGAU7L6", "tract_id": "36061027100", "city": "NEW YORK, NY", "zone_code": "R7-2", "zone_category": "Residential", "ev_permitted": false}, "geometry": {"type": "Polygon", "coordinates": [[[-73.9349878334881, 40.8539877212827], [-73.9347455377444, 40.8544632097874], [-73.9350829947238, 40.8545616072995], [-73.9353252179492, 40.8540862564757], [-73.9349878334881, 40.8539877212827]]]}}, {"type": "Feature", "properties": {"zone_id": "0206XQ5YCQHYNYL7ME3I7H", "tract_id": "36061027100", "city": "NEW YORK, NY", "zone_code": "R7-2", "zone_category": "Residential", "ev_permitted": false}, "geometry": {"type": "Polygon", "coordinates": [[[-73.9350515353668, 40.8538627104265], [-73.9349878334881, 40.8539877212827], [-73.9353252179492, 40.8540862564757], [-73.9353889888268, 40.8539611070534], [-73.9350515353668, 40.8538627104265]]]}}, {"type": "Feature", "properties": {"zone_id": "02048B24VT2IYM4LAFXLRF", "tract_id": "36061027100", "city": "NEW YORK, NY", "zone_code": "R7-2", "zone_category": "Residential", "ev_permitted": false}, "geometry": {"type": "Polygon", "coordinates": [[[-73.9344553972112, 40.8538267183083], [-73.9342341207505, 40.8542578836728], [-73.9345561394245, 40.8543863787073], [-73.9347935755666, 40.8539237082887], [-73.9344553972112, 40.8538267183083]]]}}, {"type": "Feature", "properties": {"zone_id": "02049M94AI7VEW7VSI4XJT", "tract_id": "36061027100", "city": "NEW YORK, NY", "zone_code": "R7-2", "zone_category": "Residential", "ev_permitted": false}, "geometry": {"type": "Polygon", "coordinates": [[[-73.9341130355109, 40.8537285269373], [-73.9339081192407, 40.8541277967761], [-73.9342341207505, 40.8542578836728], [-73.9344553972112, 40.8538267183083], [-73.9341130355109, 40.8537285269373]]]}}, {"type": "Feature", "properties": {"zone_id": "0206W3I0I06XF6L2Q6JDJM", "tract_id": "36061027100", "city": "NEW YORK, NY", "zone_code": "R7-2", "zone_category": "Residential", "ev_permitted": false}, "geometry": {"type": "Polygon", "coordinates": [[[-73.9346614685584, 40.853424838513], [-73.9344553972112, 40.8538267183083], [-73.9347935755666, 40.8539237082887], [-73.934999645171, 40.8535218278962], [-73.9346614685584, 40.853424838513]]]}}, {"type": "Feature", "properties": {"zone_id": "0204CTL2G1D4LQ8PJNAA1L", "tract_id": "36061027100", "city": "NEW YORK, NY", "zone_code": "R7-2", "zone_category": "Residential", "ev_permitted": false}, "geometry": {"type": "Polygon", "coordinates": [[[-73.9343191086225, 40.8533266477466], [-73.9341130355109, 40.8537285269373], [-73.9344553972112, 40.8538267183083], [-73.9346614685584, 40.853424838513], [-73.9343191086225, 40.8533266477466]]]}}, {"type": "Feature", "properties": {"zone_id": "0203A4Z8Q7ZL6SZG4DWGVV", "tract_id": "36061027100", "city": "NEW YORK, NY", "zone_code": "R7-2", "zone_category": "Residential", "ev_permitted": false}, "geometry": {"type": "Polygon", "coordinates": [[[-73.9326534694315, 40.8532197947483], [-73.9324215151937, 40.8535373835052], [-73.9330542664837, 40.8538029162178], [-73.9333185403302, 40.8534410748026], [-73.9331602500023, 40.8533748341837], [-73.9332011006615, 40.8533189084065], [-73.9330491413702, 40.8532553167541], [-73.9329763811406, 40.853354926999], [-73.9326534694315, 40.8532197947483]]]}}, {"type": "Feature", "properties": {"zone_id": "020708SZKPD4NGKRE292S0", "tract_id": "36061027100", "city": "NEW YORK, NY", "zone_code": "R7-2", "zone_category": "Residential", "ev_permitted": false}, "geometry": {"type": "Polygon", "coordinates": [[[-73.9359883046774, 40.8528153142022], [-73.9358555036165, 40.853221035661], [-73.936281614916, 40.8533453432768], [-73.936374734153, 40.8529293197763], [-73.9359883046774, 40.8528153142022]]]}}, {"type": "Feature", "properties": {"zone_id": "0201SYU6TDY2RWKARHDJHR", "tract_id": "36061027100", "city": "NEW YORK, NY", "zone_code": "R7-2", "zone_category": "Residential", "ev_permitted": false}, "geometry": {"type": "Polygon", "coordinates": [[[-73.9356744370074, 40.8526474676567], [-73.9354792035893, 40.8530315124295], [-73.93587933104, 40.853148243038], [-73.9360109586971, 40.8527461001649], [-73.9356744370074, 40.8526474676567]]]}}, {"type": "Feature", "properties": {"zone_id": "0206BMAO41I7IRXLPVGPTE", "tract_id": "36061027100", "city": "NEW YORK, NY", "zone_code": "R7-2", "zone_category": "Residential", "ev_permitted": false}, "geometry": {"type": "Polygon", "coordinates": [[[-73.9354792035893, 40.8530315124295], [-73.9354125148231, 40.853162696703], [-73.9358343212656, 40.8532857507483], [-73.93587933104, 40.853148243038], [-73.9354792035893, 40.8530315124295]]]}}, {"type": "Feature", "properties": {"zone_id": "02021L9T3CC1QJ7M8T6OHD", "tract_id": "36061027100", "city": "NEW YORK, NY", "zone_code": "R7-2", "zone_category": "Residential", "ev_permitted": false}, "geometry": {"type": "Polygon", "coordinates": [[[-73.935778187686, 40.8524433750177], [-73.9356744370074, 40.8526474676567], [-73.9360109586971, 40.8527461001649], [-73.9359883046774, 40.8528153142022], [-73.936374734153, 40.8529293197763], [-73.9364291722818, 40.8526861056427], [-73.9364290867231, 40.8526749314462], [-73.9364248466447, 40.8526585019929], [-73.9364193728125, 40.8526481286517], [-73.9364074943581, 40.8526340235503], [-73.9363977427617, 40.852627292465], [-73.9363844245865, 40.8526217412596], [-73.935778187686, 40.8524433750177]]]}}, {"type": "Feature", "properties": {"zone_id": "0207K6IZZ6CKB4PLWAKJM6", "tract_id": "36061027100", "city": "NEW YORK, NY", "zone_code": "R7-2", "zone_category": "Residential", "ev_permitted": false}, "geometry": {"type": "Polygon", "coordinates": [[[-73.9353069071767, 40.8523043317479], [-73.935307774722, 40.8523066952267], [-73.9351716589522, 40.8525734591752], [-73.9351021105967, 40.8525529429138], [-73.9349899605585, 40.852772475732], [-73.9353235097843, 40.8528708844251], [-73.935572850771, 40.8523827944836], [-73.9353069071767, 40.8523043317479]]]}}, {"type": "Feature", "properties": {"zone_id": "0207FCS4MY54OSD4S9DVYI", "tract_id": "36061027100", "city": "NEW YORK, NY", "zone_code": "R7-2", "zone_category": "Residential", "ev_permitted": false}, "geometry": {"type": "Polygon", "coordinates": [[[-73.9354461632661, 40.8510776287469], [-73.9351084807146, 40.8517383092592], [-73.9355464426019, 40.851917779649], [-73.9354620190806, 40.8520351815372], [-73.9354981909971, 40.8520500050753], [-73.9357180254306, 40.8517409706496], [-73.9355521136614, 40.8516709179025], [-73.935801514652, 40.8511813715226], [-73.9354461632661, 40.8510776287469]]]}}, {"type": "Feature", "properties": {"zone_id": "020277V7ZNJZR58Q0KBZM0", "tract_id": "36061027100", "city": "NEW YORK, NY", "zone_code": "R7-2", "zone_category": "Residential", "ev_permitted": false}, "geometry": {"type": "Polygon", "coordinates": [[[-73.9357180254306, 40.8517409706496], [-73.9354157952981, 40.8521658334353], [-73.9356575491409, 40.8522388460752], [-73.9358770122333, 40.8518080689049], [-73.9357180254306, 40.8517409706496]]]}}, {"type": "Feature", "properties": {"zone_id": "0206QEKL0MIHG0TXU93Q0G", "tract_id": "36061027100", "city": "NEW YORK, NY", "zone_code": "R7-2", "zone_category": "Residential", "ev_permitted": false}, "geometry": {"type": "Polygon", "coordinates": [[[-73.9350442463974, 40.8518639831884], [-73.9350089792125, 40.8519329833644], [-73.9354127838868, 40.8520984573062], [-73.9353740643697, 40.8521532299239], [-73.9354157952981, 40.8521658334353], [-73.9354981909971, 40.8520500050753], [-73.9350442463974, 40.8518639831884]]]}}, {"type": "Feature", "properties": {"zone_id": "02075KY6TGNT3DMZKE3AC1", "tract_id": "36061027100", "city": "NEW YORK, NY", "zone_code": "R7-2", "zone_category": "Residential", "ev_permitted": false}, "geometry": {"type": "Polygon", "coordinates": [[[-73.9351084807146, 40.8517383092592], [-73.9350442463974, 40.8518639831884], [-73.9354620190806, 40.8520351815372], [-73.9355464426019, 40.851917779649], [-73.9351084807146, 40.8517383092592]]]}}, {"type": "Feature", "properties": {"zone_id": "0203NO3TUEFVSLYDOUGMXN", "tract_id": "36061027100", "city": "NEW YORK, NY", "zone_code": "R7-2", "zone_category": "Residential", "ev_permitted": false}, "geometry": {"type": "Polygon", "coordinates": [[[-73.9356700429547, 40.8514394589287], [-73.9355521136614, 40.8516709179025], [-73.9358770122333, 40.8518080689049], [-73.9360137535076, 40.8515396581424], [-73.9356700429547, 40.8514394589287]]]}}, {"type": "Feature", "properties": {"zone_id": "0200CHA693IBIMMMEJ35ZM", "tract_id": "36061027100", "city": "NEW YORK, NY", "zone_code": "R7-2", "zone_category": "Residential", "ev_permitted": false}, "geometry": {"type": "Polygon", "coordinates": [[[-73.9357921184221, 40.851199814922], [-73.9356700429547, 40.8514394589287], [-73.9360137535076, 40.8515396581424], [-73.936135774265, 40.8512999982882], [-73.9357921184221, 40.851199814922]]]}}, {"type": "Feature", "properties": {"zone_id": "0200KPPXA3OJRHNCN9IBW3", "tract_id": "36061027100", "city": "NEW YORK, NY", "zone_code": "R7-2", "zone_category": "Residential", "ev_permitted": false}, "geometry": {"type": "Polygon", "coordinates": [[[-73.9346361057874, 40.8527081559965], [-73.934504109367, 40.8529670785612], [-73.9348238188239, 40.8530976921496], [-73.9349726590722, 40.8528063418587], [-73.9346361057874, 40.8527081559965]]]}}, {"type": "Feature", "properties": {"zone_id": "02047PBYFTW5W9FLWY6AEB", "tract_id": "36061027100", "city": "NEW YORK, NY", "zone_code": "R7-2", "zone_category": "Residential", "ev_permitted": false}, "geometry": {"type": "Polygon", "coordinates": [[[-73.9349899605585, 40.852772475732], [-73.9347320802523, 40.8532772670231], [-73.9350661211632, 40.8533747197274], [-73.9353235097843, 40.8528708844251], [-73.9349899605585, 40.852772475732]]]}}, {"type": "Feature", "properties": {"zone_id": "0206XOG6KDG0RN88B9H3BT", "tract_id": "36061027100", "city": "NEW YORK, NY", "zone_code": "R7-2", "zone_category": "Residential", "ev_permitted": false}, "geometry": {"type": "Polygon", "coordinates": [[[-73.934504109367, 40.8529670785612], [-73.9343959662188, 40.8531792085992], [-73.9347320802523, 40.8532772670231], [-73.9348238188239, 40.8530976921496], [-73.934504109367, 40.8529670785612]]]}}, {"type": "Feature", "properties": {"zone_id": "02039PB37XYEG59B1OESET", "tract_id": "36061027100", "city": "NEW YORK, NY", "zone_code": "R7-2", "zone_category": "Residential", "ev_permitted": false}, "geometry": {"type": "Polygon", "coordinates": [[[-73.9349027564477, 40.8521850926394], [-73.9347658129689, 40.8524537225739], [-73.9351716589522, 40.8525734591752], [-73.935307774722, 40.8523066952267], [-73.9353069071767, 40.8523043317479], [-73.9349027564477, 40.8521850926394]]]}}, {"type": "Feature", "properties": {"zone_id": "0201DQ4PQRVYVEIU37SFCU", "tract_id": "36061027100", "city": "NEW YORK, NY", "zone_code": "R7-2", "zone_category": "Residential", "ev_permitted": false}, "geometry": {"type": "Polygon", "coordinates": [[[-73.9347658129689, 40.8524537225739], [-73.9346361057874, 40.8527081559965], [-73.9349726590722, 40.8528063418587], [-73.9351021105967, 40.8525529429138], [-73.9347658129689, 40.8524537225739]]]}}, {"type": "Feature", "properties": {"zone_id": "02021LYTZQS1AX2FJIBHFK", "tract_id": "36061027100", "city": "NEW YORK, NY", "zone_code": "R7-2", "zone_category": "Residential", "ev_permitted": false}, "geometry": {"type": "Polygon", "coordinates": [[[-73.9335801260226, 40.8524887754714], [-73.9334710700572, 40.8526380765082], [-73.9335331648175, 40.8526662454691], [-73.933267565526, 40.8530298580217], [-73.9333782966843, 40.8530763253387], [-73.9331602500023, 40.8533748341837], [-73.9333185403302, 40.8534410748026], [-73.9330542664837, 40.8538029162178], [-73.933560370513, 40.8540152976637], [-73.9342076977795, 40.852757539522], [-73.9335801260226, 40.8524887754714]]]}}, {"type": "Feature", "properties": {"zone_id": "0206WKEPKAG3ACPQBQW923", "tract_id": "36061027100", "city": "NEW YORK, NY", "zone_code": "R7-2", "zone_category": "Residential", "ev_permitted": false}, "geometry": {"type": "Polygon", "coordinates": [[[-73.932903733025, 40.8528771767334], [-73.9327262309223, 40.8531201847053], [-73.9332011006615, 40.8533189084065], [-73.9333782966843, 40.8530763253387], [-73.932903733025, 40.8528771767334]]]}}, {"type": "Feature", "properties": {"zone_id": "0200S6IPVA0TCLEGLLIXDW", "tract_id": "36061027100", "city": "NEW YORK, NY", "zone_code": "R7-2", "zone_category": "Residential", "ev_permitted": false}, "geometry": {"type": "Polygon", "coordinates": [[[-73.9327262309223, 40.8531201847053], [-73.9326534694315, 40.8532197947483], [-73.9329763811406, 40.853354926999], [-73.9330491413702, 40.8532553167541], [-73.9327262309223, 40.8531201847053]]]}}, {"type": "Feature", "properties": {"zone_id": "0200FUJ97QVLQ8IATE38HO", "tract_id": "36061027100", "city": "NEW YORK, NY", "zone_code": "R7-2", "zone_category": "Residential", "ev_permitted": false}, "geometry": {"type": "Polygon", "coordinates": [[[-73.9329988649559, 40.8527469470483], [-73.932903733025, 40.8528771767334], [-73.933267565526, 40.8530298580217], [-73.9333629304845, 40.8528993014454], [-73.9329988649559, 40.8527469470483]]]}}, {"type": "Feature", "properties": {"zone_id": "02000SAM9VRKFF03NBFUEY", "tract_id": "36061027100", "city": "NEW YORK, NY", "zone_code": "R7-2", "zone_category": "Residential", "ev_permitted": false}, "geometry": {"type": "Polygon", "coordinates": [[[-73.9331761398491, 40.8525042898327], [-73.933085526972, 40.8526283045925], [-73.9334493548289, 40.8527809839066], [-73.9335331648175, 40.8526662454691], [-73.9331761398491, 40.8525042898327]]]}}, {"type": "Feature", "properties": {"zone_id": "0206LF85H6XKZHBM0F9KXI", "tract_id": "36061027100", "city": "NEW YORK, NY", "zone_code": "R7-2", "zone_category": "Residential", "ev_permitted": false}, "geometry": {"type": "Polygon", "coordinates": [[[-73.933085526972, 40.8526283045925], [-73.9329988649559, 40.8527469470483], [-73.9333629304845, 40.8528993014454], [-73.9334493548289, 40.8527809839066], [-73.933085526972, 40.8526283045925]]]}}, {"type": "Feature", "properties": {"zone_id": "02018KSTHIW2Y2Z2QSJW9F", "tract_id": "36061027100", "city": "NEW YORK, NY", "zone_code": "R7-2", "zone_category": "Residential", "ev_permitted": false}, "geometry": {"type": "Polygon", "coordinates": [[[-73.9332810162234, 40.8523606759638], [-73.9331761398491, 40.8525042898327], [-73.9334710700572, 40.8526380765082], [-73.9335801260226, 40.8524887754714], [-73.9332810162234, 40.8523606759638]]]}}, {"type": "Feature", "properties": {"zone_id": "020099T9LGYTQG3DELK8YI", "tract_id": "36061027100", "city": "NEW YORK, NY", "zone_code": "R7-2", "zone_category": "Residential", "ev_permitted": false}, "geometry": {"type": "Polygon", "coordinates": [[[-73.9329756966881, 40.8522213951084], [-73.9328686410701, 40.8523682452198], [-73.9329349101884, 40.8523958857345], [-73.9330416169893, 40.8522488892099], [-73.9329756966881, 40.8522213951084]]]}}, {"type": "Feature", "properties": {"zone_id": "0207BSPOFLFZR2ZMUWGAQF", "tract_id": "36061027100", "city": "NEW YORK, NY", "zone_code": "R7-2", "zone_category": "Residential", "ev_permitted": false}, "geometry": {"type": "Polygon", "coordinates": [[[-73.932926857965, 40.8522010237689], [-73.9328198022712, 40.8523478745382], [-73.9328686410701, 40.8523682452198], [-73.9329756966881, 40.8522213951084], [-73.932926857965, 40.8522010237689]]]}}, {"type": "Feature", "properties": {"zone_id": "0202C17WN6Q0QU93KZM6Q7", "tract_id": "36061027100", "city": "NEW YORK, NY", "zone_code": "R7-2", "zone_category": "Residential", "ev_permitted": false}, "geometry": {"type": "Polygon", "coordinates": [[[-73.9328751203999, 40.8521794435792], [-73.9327680637012, 40.8523262943005], [-73.9328198022712, 40.8523478745382], [-73.932926857965, 40.8522010237689], [-73.9328751203999, 40.8521794435792]]]}}, {"type": "Feature", "properties": {"zone_id": "0207N0XY0WH9SUYH99W3A5", "tract_id": "36061027100", "city": "NEW YORK, NY", "zone_code": "R7-2", "zone_category": "Residential", "ev_permitted": false}, "geometry": {"type": "Polygon", "coordinates": [[[-73.9350089792125, 40.8519329833644], [-73.9349602823941, 40.8520282604726], [-73.9353740643697, 40.8521532299239], [-73.9354127838868, 40.8520984573062], [-73.9350089792125, 40.8519329833644]]]}}, {"type": "Feature", "properties": {"zone_id": "0202IFLW27RMVMJA0WYXZU", "tract_id": "36061027100", "city": "NEW YORK, NY", "zone_code": "R7-2", "zone_category": "Residential", "ev_permitted": false}, "geometry": {"type": "Polygon", "coordinates": [[[-73.9342073068174, 40.8519328802694], [-73.9340271201659, 40.8521795684953], [-73.9340988374183, 40.8522097894591], [-73.9339601588295, 40.8523996489288], [-73.93431450382, 40.8525490197718], [-73.9345545263915, 40.8520804110179], [-73.9342073068174, 40.8519328802694]]]}}, {"type": "Feature", "properties": {"zone_id": "02006JHH7UA7LYD0OI3VHQ", "tract_id": "36061027100", "city": "NEW YORK, NY", "zone_code": "R7-2", "zone_category": "Residential", "ev_permitted": false}, "geometry": {"type": "Polygon", "coordinates": [[[-73.934040278312, 40.8518619063569], [-73.9338597817407, 40.852109017842], [-73.9340271201659, 40.8521795684953], [-73.9342073068174, 40.8519328802694], [-73.934040278312, 40.8518619063569]]]}}, {"type": "Feature", "properties": {"zone_id": "0206T487F4NYMYDAIQKQOF", "tract_id": "36061027100", "city": "NEW YORK, NY", "zone_code": "R7-2", "zone_category": "Residential", "ev_permitted": false}, "geometry": {"type": "Polygon", "coordinates": [[[-73.9337837700424, 40.8520769919817], [-73.9336450908311, 40.8522668510771], [-73.9339601588295, 40.8523996489288], [-73.9340988374183, 40.8522097894591], [-73.9337837700424, 40.8520769919817]]]}}, {"type": "Feature", "properties": {"zone_id": "0205LLZGAN9GGFO4JZEG5E", "tract_id": "36061027100", "city": "NEW YORK, NY", "zone_code": "R7-2", "zone_category": "Residential", "ev_permitted": false}, "geometry": {"type": "Polygon", "coordinates": [[[-73.934380587055, 40.8517059503961], [-73.9343126263434, 40.8517983761879], [-73.9346611474667, 40.8519449292796], [-73.934711695134, 40.851845181013], [-73.934380587055, 40.8517059503961]]]}}, {"type": "Feature", "properties": {"zone_id": "0206LVRV3VK362R21CQ4F8", "tract_id": "36061027100", "city": "NEW YORK, NY", "zone_code": "R7-2", "zone_category": "Residential", "ev_permitted": false}, "geometry": {"type": "Polygon", "coordinates": [[[-73.9339644159941, 40.8518296769327], [-73.9337837700424, 40.8520769919817], [-73.9338597817407, 40.852109017842], [-73.934040278312, 40.8518619063569], [-73.9339644159941, 40.8518296769327]]]}}, {"type": "Feature", "properties": {"zone_id": "0205PCKXJKOMC8BXPVQ887", "tract_id": "36061027100", "city": "NEW YORK, NY", "zone_code": "R7-2", "zone_category": "Residential", "ev_permitted": false}, "geometry": {"type": "Polygon", "coordinates": [[[-73.9345450402299, 40.8513378160675], [-73.9344113640473, 40.8515196153993], [-73.9344925099951, 40.8515537369422], [-73.9344492277002, 40.8516126002693], [-73.9347627470223, 40.8517444359557], [-73.934894317818, 40.8514848024282], [-73.9345450402299, 40.8513378160675]]]}}, {"type": "Feature", "properties": {"zone_id": "0204KPI866ZBL8RCZTUHB8", "tract_id": "36061027100", "city": "NEW YORK, NY", "zone_code": "R7-2", "zone_category": "Residential", "ev_permitted": false}, "geometry": {"type": "Polygon", "coordinates": [[[-73.9344492277002, 40.8516126002693], [-73.934380587055, 40.8517059503961], [-73.934711695134, 40.851845181013], [-73.9347627470223, 40.8517444359557], [-73.9344492277002, 40.8516126002693]]]}}, {"type": "Feature", "properties": {"zone_id": "020327X20J6IQNIX2VIBPL", "tract_id": "36061027100", "city": "NEW YORK, NY", "zone_code": "R7-2", "zone_category": "Residential", "ev_permitted": false}, "geometry": {"type": "Polygon", "coordinates": [[[-73.934011412903, 40.8513514328479], [-73.9338315280296, 40.8515960706495], [-73.9343126263434, 40.8517983761879], [-73.9344925099951, 40.8515537369422], [-73.934011412903, 40.8513514328479]]]}}, {"type": "Feature", "properties": {"zone_id": "0205SWW98Y9W8QEFDPZLPF", "tract_id": "36061027100", "city": "NEW YORK, NY", "zone_code": "R7-2", "zone_category": "Residential", "ev_permitted": false}, "geometry": {"type": "Polygon", "coordinates": [[[-73.9343089578369, 40.851238464285], [-73.9341752376586, 40.8514203223437], [-73.9342560152262, 40.8514542892617], [-73.9343897204255, 40.8512724521813], [-73.9343089578369, 40.851238464285]]]}}, {"type": "Feature", "properties": {"zone_id": "0201WJNB4U16PMAQ9FQKQS", "tract_id": "36061027100", "city": "NEW YORK, NY", "zone_code": "R7-2", "zone_category": "Residential", "ev_permitted": false}, "geometry": {"type": "Polygon", "coordinates": [[[-73.934496869682, 40.8513175441387], [-73.9343631841431, 40.851499355355], [-73.9344113640473, 40.8515196153993], [-73.9345450402299, 40.8513378160675], [-73.934496869682, 40.8513175441387]]]}}, {"type": "Feature", "properties": {"zone_id": "020596EW5N3I015LO6P4T7", "tract_id": "36061027100", "city": "NEW YORK, NY", "zone_code": "R7-2", "zone_category": "Residential", "ev_permitted": false}, "geometry": {"type": "Polygon", "coordinates": [[[-73.9344415611818, 40.8512942692477], [-73.9343078653471, 40.8514760930425], [-73.9343631841431, 40.851499355355], [-73.934496869682, 40.8513175441387], [-73.9344415611818, 40.8512942692477]]]}}, {"type": "Feature", "properties": {"zone_id": "0204F5LESDMFMLSJU5T68I", "tract_id": "36061027100", "city": "NEW YORK, NY", "zone_code": "R7-2", "zone_category": "Residential", "ev_permitted": false}, "geometry": {"type": "Polygon", "coordinates": [[[-73.9343897204255, 40.8512724521813], [-73.9342560152262, 40.8514542892617], [-73.9343078653471, 40.8514760930425], [-73.9344415611818, 40.8512942692477], [-73.9343897204255, 40.8512724521813]]]}}, {"type": "Feature", "properties": {"zone_id": "0201BR6P7XEUEGSRG76HR3", "tract_id": "36061027100", "city": "NEW YORK, NY", "zone_code": "R7-2", "zone_category": "Residential", "ev_permitted": false}, "geometry": {"type": "Polygon", "coordinates": [[[-73.9341451630422, 40.8511695342405], [-73.934011412903, 40.8513514328479], [-73.9341752376586, 40.8514203223437], [-73.9343089578369, 40.851238464285], [-73.9341451630422, 40.8511695342405]]]}}, {"type": "Feature", "properties": {"zone_id": "02033CQ862R910MLNJGLO3", "tract_id": "36061027100", "city": "NEW YORK, NY", "zone_code": "R7-2", "zone_category": "Residential", "ev_permitted": false}, "geometry": {"type": "Polygon", "coordinates": [[[-73.9337388745949, 40.8517338453552], [-73.9334191230852, 40.8521716004264], [-73.9336450908311, 40.8522668510771], [-73.9339644159941, 40.8518296769327], [-73.9337388745949, 40.8517338453552]]]}}, {"type": "Feature", "properties": {"zone_id": "0203YH9S22T46MELZ1A6ML", "tract_id": "36061027100", "city": "NEW YORK, NY", "zone_code": "R7-2", "zone_category": "Residential", "ev_permitted": false}, "geometry": {"type": "Polygon", "coordinates": [[[-73.9327197164371, 40.8521146226574], [-73.9326126595004, 40.8522614725334], [-73.9327680637012, 40.8523262943005], [-73.9328751203999, 40.8521794435792], [-73.9327197164371, 40.8521146226574]]]}}, {"type": "Feature", "properties": {"zone_id": "02070SP0WKNUCV3S6OTD30", "tract_id": "36061027100", "city": "NEW YORK, NY", "zone_code": "R7-2", "zone_category": "Residential", "ev_permitted": false}, "geometry": {"type": "Polygon", "coordinates": [[[-73.9324837172905, 40.8520161841524], [-73.9323766609165, 40.8521630338125], [-73.9326126595004, 40.8522614725334], [-73.9327197164371, 40.8521146226574], [-73.9324837172905, 40.8520161841524]]]}}, {"type": "Feature", "properties": {"zone_id": "0203U96Y082S6HV91UCCSR", "tract_id": "36061027100", "city": "NEW YORK, NY", "zone_code": "R7-2", "zone_category": "Residential", "ev_permitted": false}, "geometry": {"type": "Polygon", "coordinates": [[[-73.9331465252758, 40.8518156272587], [-73.9330040989285, 40.8520109949626], [-73.9331662944784, 40.8520801076749], [-73.9333101272835, 40.8518845016873], [-73.9331465252758, 40.8518156272587]]]}}, {"type": "Feature", "properties": {"zone_id": "0204UHSAAO5UGHXZZOC6UN", "tract_id": "36061027100", "city": "NEW YORK, NY", "zone_code": "R7-2", "zone_category": "Residential", "ev_permitted": false}, "geometry": {"type": "Polygon", "coordinates": [[[-73.9329884428487, 40.8517491061484], [-73.9328464832074, 40.8519438338224], [-73.9330040989285, 40.8520109949626], [-73.9331465252758, 40.8518156272587], [-73.9329884428487, 40.8517491061484]]]}}, {"type": "Feature", "properties": {"zone_id": "02049DUYM7F6K5H9U0DC0R", "tract_id": "36061027100", "city": "NEW YORK, NY", "zone_code": "R7-2", "zone_category": "Residential", "ev_permitted": false}, "geometry": {"type": "Polygon", "coordinates": [[[-73.9332549441664, 40.8515241235874], [-73.9330668716943, 40.8517821092077], [-73.9333101272835, 40.8518845016873], [-73.9334994227975, 40.851627066551], [-73.9332549441664, 40.8515241235874]]]}}, {"type": "Feature", "properties": {"zone_id": "0200AZV61VMOM700LQU94H", "tract_id": "36061027100", "city": "NEW YORK, NY", "zone_code": "R7-2", "zone_category": "Residential", "ev_permitted": false}, "geometry": {"type": "Polygon", "coordinates": [[[-73.9334553751406, 40.8511181074595], [-73.9333687784355, 40.8512379138397], [-73.9336927004148, 40.8513743488281], [-73.9337804069008, 40.8512547782308], [-73.9334553751406, 40.8511181074595]]]}}, {"type": "Feature", "properties": {"zone_id": "0204CBUCVJ9UOYKISRRN7E", "tract_id": "36061027100", "city": "NEW YORK, NY", "zone_code": "R7-2", "zone_category": "Residential", "ev_permitted": false}, "geometry": {"type": "Polygon", "coordinates": [[[-73.9333687784355, 40.8512379138397], [-73.9332763222761, 40.8513658308998], [-73.9335993255023, 40.851501648694], [-73.9336927004148, 40.8513743488281], [-73.9333687784355, 40.8512379138397]]]}}, {"type": "Feature", "properties": {"zone_id": "0204TADBFI88Q6IULAHNOP", "tract_id": "36061027100", "city": "NEW YORK, NY", "zone_code": "R7-2", "zone_category": "Residential", "ev_permitted": false}, "geometry": {"type": "Polygon", "coordinates": [[[-73.9325274869142, 40.8512179932256], [-73.9323383145636, 40.8514755125818], [-73.9326688945103, 40.8516146342299], [-73.932856967127, 40.8513566492503], [-73.9325274869142, 40.8512179932256]]]}}, {"type": "Feature", "properties": {"zone_id": "0206SFZQD8U0F095DIVVOH", "tract_id": "36061027100", "city": "NEW YORK, NY", "zone_code": "R7-2", "zone_category": "Residential", "ev_permitted": false}, "geometry": {"type": "Polygon", "coordinates": [[[-73.9323383145636, 40.8514755125818], [-73.9321974457689, 40.8516672763534], [-73.9328464832074, 40.8519438338224], [-73.9329884428487, 40.8517491061484], [-73.9323383145636, 40.8514755125818]]]}}, {"type": "Feature", "properties": {"zone_id": "0206F4V2A5QPVMH2H5OA4T", "tract_id": "36061027100", "city": "NEW YORK, NY", "zone_code": "R7-2", "zone_category": "Residential", "ev_permitted": false}, "geometry": {"type": "Polygon", "coordinates": [[[-73.9331259357594, 40.851469835653], [-73.9329378629405, 40.8517278210654], [-73.9330668716943, 40.8517821092077], [-73.9332549441664, 40.8515241235874], [-73.9331259357594, 40.851469835653]]]}}, {"type": "Feature", "properties": {"zone_id": "0203K6FNHX83ST7YX5SUBA", "tract_id": "36061027100", "city": "NEW YORK, NY", "zone_code": "R7-2", "zone_category": "Residential", "ev_permitted": false}, "geometry": {"type": "Polygon", "coordinates": [[[-73.9329925885691, 40.8514137209891], [-73.9328045153916, 40.8516717061865], [-73.9329378629405, 40.8517278210654], [-73.9331259357594, 40.851469835653], [-73.9329925885691, 40.8514137209891]]]}}, {"type": "Feature", "properties": {"zone_id": "0206FBAI5OIU34JPPV9FMQ", "tract_id": "36061027100", "city": "NEW YORK, NY", "zone_code": "R7-2", "zone_category": "Residential", "ev_permitted": false}, "geometry": {"type": "Polygon", "coordinates": [[[-73.932856967127, 40.8513566492503], [-73.9326688945103, 40.8516146342299], [-73.9328045153916, 40.8516717061865], [-73.9329925885691, 40.8514137209891], [-73.932856967127, 40.8513566492503]]]}}, {"type": "Feature", "properties": {"zone_id": "0203ZVB2FGQVNM1WOW8PLK", "tract_id": "36061027100", "city": "NEW YORK, NY", "zone_code": "R7-2", "zone_category": "Residential", "ev_permitted": false}, "geometry": {"type": "Polygon", "coordinates": [[[-73.9319415764756, 40.8531790866571], [-73.931847573073, 40.8533080197505], [-73.9321719883223, 40.8534439849621], [-73.9322660754619, 40.853315086789], [-73.9319415764756, 40.8531790866571]]]}}, {"type": "Feature", "properties": {"zone_id": "0207CVSUV74PH0C3AFBY2U", "tract_id": "36061027100", "city": "NEW YORK, NY", "zone_code": "R7-2", "zone_category": "Residential", "ev_permitted": false}, "geometry": {"type": "Polygon", "coordinates": [[[-73.9317203992849, 40.8529291624746], [-73.9315385970514, 40.853178523598], [-73.931847573073, 40.8533080197505], [-73.9319415764756, 40.8531790866571], [-73.9322660754619, 40.853315086789], [-73.9323539544794, 40.8531946918083], [-73.9317203992849, 40.8529291624746]]]}}, {"type": "Feature", "properties": {"zone_id": "0202C7XK0K9B0SH4R1VYZB", "tract_id": "36061027100", "city": "NEW YORK, NY", "zone_code": "R7-2", "zone_category": "Residential", "ev_permitted": false}, "geometry": {"type": "Polygon", "coordinates": [[[-73.9320786837973, 40.8527155242338], [-73.9318755346912, 40.8529941813146], [-73.9323539544794, 40.8531946918083], [-73.932556322524, 40.8529174436457], [-73.9320786837973, 40.8527155242338]]]}}, {"type": "Feature", "properties": {"zone_id": "02005F8D9KZ2NNALPYY1NM", "tract_id": "36061027100", "city": "NEW YORK, NY", "zone_code": "R7-2", "zone_category": "Residential", "ev_permitted": false}, "geometry": {"type": "Polygon", "coordinates": [[[-73.9319163300246, 40.8526468891102], [-73.9317128514749, 40.8529259989192], [-73.9318755346912, 40.8529941813146], [-73.9320786837973, 40.8527155242338], [-73.9319163300246, 40.8526468891102]]]}}, {"type": "Feature", "properties": {"zone_id": "0201FZP263PD71S59CI5ZM", "tract_id": "36061027100", "city": "NEW YORK, NY", "zone_code": "R7-2", "zone_category": "Residential", "ev_permitted": false}, "geometry": {"type": "Polygon", "coordinates": [[[-73.9312978194167, 40.8528916222696], [-73.9311932984495, 40.8530338032513], [-73.9315385970514, 40.853178523598], [-73.9316424570741, 40.853036065074], [-73.9312978194167, 40.8528916222696]]]}}, {"type": "Feature", "properties": {"zone_id": "0203TTHJ3DAJTW5951XDGV", "tract_id": "36061027100", "city": "NEW YORK, NY", "zone_code": "R7-2", "zone_category": "Residential", "ev_permitted": false}, "geometry": {"type": "Polygon", "coordinates": [[[-73.9313762725978, 40.8527849331052], [-73.9312978194167, 40.8528916222696], [-73.9316424570741, 40.853036065074], [-73.9317203992849, 40.8529291624746], [-73.9313762725978, 40.8527849331052]]]}}, {"type": "Feature", "properties": {"zone_id": "0206TLTGBV1Z0JFK930ONY", "tract_id": "36061027100", "city": "NEW YORK, NY", "zone_code": "R7-2", "zone_category": "Residential", "ev_permitted": false}, "geometry": {"type": "Polygon", "coordinates": [[[-73.9322969071111, 40.8521297674224], [-73.9320191945978, 40.852510733068], [-73.9326580733775, 40.8527772405649], [-73.9329349101884, 40.8523958857345], [-73.9322969071111, 40.8521297674224]]]}}, {"type": "Feature", "properties": {"zone_id": "0201YOCQZWAUW8JUFINU5D", "tract_id": "36061027100", "city": "NEW YORK, NY", "zone_code": "R7-2", "zone_category": "Residential", "ev_permitted": false}, "geometry": {"type": "Polygon", "coordinates": [[[-73.9318602503126, 40.8521269773032], [-73.9316821022111, 40.8523701133091], [-73.9320191945978, 40.852510733068], [-73.9321966397896, 40.852267303835], [-73.9318602503126, 40.8521269773032]]]}}, {"type": "Feature", "properties": {"zone_id": "0204AIYU606J1SH7I3KA4S", "tract_id": "36061027100", "city": "NEW YORK, NY", "zone_code": "R7-2", "zone_category": "Residential", "ev_permitted": false}, "geometry": {"type": "Polygon", "coordinates": [[[-73.9315817226487, 40.8525054252472], [-73.9313762725978, 40.8527849331052], [-73.9317128514749, 40.8529259989192], [-73.9319163300246, 40.8526468891102], [-73.9315817226487, 40.8525054252472]]]}}, {"type": "Feature", "properties": {"zone_id": "0206QNCEXMZY1ST5GHCGJK", "tract_id": "36061027100", "city": "NEW YORK, NY", "zone_code": "R7-2", "zone_category": "Residential", "ev_permitted": false}, "geometry": {"type": "Polygon", "coordinates": [[[-73.9324039645329, 40.851982917836], [-73.9322969071111, 40.8521297674224], [-73.9323766609165, 40.8521630338125], [-73.9324837172905, 40.8520161841524], [-73.9324039645329, 40.851982917836]]]}}, {"type": "Feature", "properties": {"zone_id": "0204PXNCZQLAVQGIL4RZXG", "tract_id": "36061027100", "city": "NEW YORK, NY", "zone_code": "R7-2", "zone_category": "Residential", "ev_permitted": false}, "geometry": {"type": "Polygon", "coordinates": [[[-73.9319609158422, 40.8519896184805], [-73.9318602503126, 40.8521269773032], [-73.9321966397896, 40.852267303835], [-73.9322969071111, 40.8521297674224], [-73.9319609158422, 40.8519896184805]]]}}, {"type": "Feature", "properties": {"zone_id": "0201OJG6MX1KGX893ENITG", "tract_id": "36061027100", "city": "NEW YORK, NY", "zone_code": "R7-2", "zone_category": "Residential", "ev_permitted": false}, "geometry": {"type": "Polygon", "coordinates": [[[-73.9320684048146, 40.8518429486304], [-73.9319609158422, 40.8519896184805], [-73.9322969071111, 40.8521297674224], [-73.9324039645329, 40.851982917836], [-73.9320684048146, 40.8518429486304]]]}}, {"type": "Feature", "properties": {"zone_id": "0206ZQEIWOYKZE7OIZQ3H0", "tract_id": "36061027100", "city": "NEW YORK, NY", "zone_code": "R7-2", "zone_category": "Residential", "ev_permitted": false}, "geometry": {"type": "Polygon", "coordinates": [[[-73.9338911857958, 40.8502255317113], [-73.9335489609384, 40.8506933152295], [-73.9340392130246, 40.8509000538761], [-73.9343804301481, 40.8504336434236], [-73.9338911857958, 40.8502255317113]]]}}, {"type": "Feature", "properties": {"zone_id": "02018362T67O6DNXHD494S", "tract_id": "36061027100", "city": "NEW YORK, NY", "zone_code": "R7-2", "zone_category": "Residential", "ev_permitted": false}, "geometry": {"type": "Polygon", "coordinates": [[[-73.9332749495295, 40.8507925215192], [-73.9331349546987, 40.8509833756318], [-73.9337804069008, 40.8512547782308], [-73.9339191013549, 40.8510656918581], [-73.9332749495295, 40.8507925215192]]]}}, {"type": "Feature", "properties": {"zone_id": "0206F41GBQ3XAELNZK8DOI", "tract_id": "36061027100", "city": "NEW YORK, NY", "zone_code": "R7-2", "zone_category": "Residential", "ev_permitted": false}, "geometry": {"type": "Polygon", "coordinates": [[[-73.9332953848972, 40.8510508345337], [-73.9331143022538, 40.8512977042444], [-73.9332763222761, 40.8513658308998], [-73.9334553751406, 40.8511181074595], [-73.9332953848972, 40.8510508345337]]]}}, {"type": "Feature", "properties": {"zone_id": "02032GSGCSYGDC9GLAZUC2", "tract_id": "36061027100", "city": "NEW YORK, NY", "zone_code": "R7-2", "zone_category": "Residential", "ev_permitted": false}, "geometry": {"type": "Polygon", "coordinates": [[[-73.9331349546987, 40.8509833756318], [-73.9329538725688, 40.8512302450942], [-73.9331143022538, 40.8512977042444], [-73.9332953848972, 40.8510508345337], [-73.9331349546987, 40.8509833756318]]]}}, {"type": "Feature", "properties": {"zone_id": "02058PTOZKBC2TWSMQULLH", "tract_id": "36061027100", "city": "NEW YORK, NY", "zone_code": "R7-2", "zone_category": "Residential", "ev_permitted": false}, "geometry": {"type": "Polygon", "coordinates": [[[-73.9327266972326, 40.8509665425206], [-73.932633472027, 40.8510955196166], [-73.9329538725688, 40.8512302450942], [-73.9330475068636, 40.8511025924646], [-73.9327266972326, 40.8509665425206]]]}}, {"type": "Feature", "properties": {"zone_id": "0205WYBQUELJ0BFPIVSOK7", "tract_id": "36061027100", "city": "NEW YORK, NY", "zone_code": "R7-2", "zone_category": "Residential", "ev_permitted": false}, "geometry": {"type": "Polygon", "coordinates": [[[-73.9328125274834, 40.8508477971629], [-73.9327266972326, 40.8509665425206], [-73.9330475068636, 40.8511025924646], [-73.9331349546987, 40.8509833756318], [-73.9328125274834, 40.8508477971629]]]}}, {"type": "Feature", "properties": {"zone_id": "0204K4ZOLRZQD7B6T01J67", "tract_id": "36061027100", "city": "NEW YORK, NY", "zone_code": "R7-2", "zone_category": "Residential", "ev_permitted": false}, "geometry": {"type": "Polygon", "coordinates": [[[-73.9329515945472, 40.850655392864], [-73.9328125274834, 40.8508477971629], [-73.9331349546987, 40.8509833756318], [-73.9332749495295, 40.8507925215192], [-73.9329515945472, 40.850655392864]]]}}, {"type": "Feature", "properties": {"zone_id": "020061TT4HT1Q94V9852BQ", "tract_id": "36061027100", "city": "NEW YORK, NY", "zone_code": "R7-2", "zone_category": "Residential", "ev_permitted": false}, "geometry": {"type": "Polygon", "coordinates": [[[-73.9332636176354, 40.8502217484878], [-73.9330663898948, 40.8504898125168], [-73.9335489609384, 40.8506933152295], [-73.9337443486246, 40.8504262421656], [-73.9332636176354, 40.8502217484878]]]}}, {"type": "Feature", "properties": {"zone_id": "02060YSTTKMX9VDQBOI9D6", "tract_id": "36061027100", "city": "NEW YORK, NY", "zone_code": "R7-2", "zone_category": "Residential", "ev_permitted": false}, "geometry": {"type": "Polygon", "coordinates": [[[-73.9337263707552, 40.8501554228417], [-73.9335795656143, 40.8503561471602], [-73.9337443486246, 40.8504262421656], [-73.9338911857958, 40.8502255317113], [-73.9337263707552, 40.8501554228417]]]}}, {"type": "Feature", "properties": {"zone_id": "0206VNOQKDOE6PMVKZOVDG", "tract_id": "36061027100", "city": "NEW YORK, NY", "zone_code": "R7-2", "zone_category": "Residential", "ev_permitted": false}, "geometry": {"type": "Polygon", "coordinates": [[[-73.9333337899288, 40.8501263713522], [-73.9332636176354, 40.8502217484878], [-73.9335795656143, 40.8503561471602], [-73.9336494203404, 40.8502606347443], [-73.9333337899288, 40.8501263713522]]]}}, {"type": "Feature", "properties": {"zone_id": "0205K2JD1T46EVLU8HWMY7", "tract_id": "36061027100", "city": "NEW YORK, NY", "zone_code": "R7-2", "zone_category": "Residential", "ev_permitted": false}, "geometry": {"type": "Polygon", "coordinates": [[[-73.9343738492073, 40.8497095189078], [-73.9341934492681, 40.8499549678991], [-73.9346050703082, 40.8501277580991], [-73.9347854691979, 40.8498823077689], [-73.9343738492073, 40.8497095189078]]]}}, {"type": "Feature", "properties": {"zone_id": "020299XK1JFCA2HEFJ1LT9", "tract_id": "36061027100", "city": "NEW YORK, NY", "zone_code": "R7-2", "zone_category": "Residential", "ev_permitted": false}, "geometry": {"type": "Polygon", "coordinates": [[[-73.9342770952437, 40.8499900810561], [-73.9341463146857, 40.8501680186329], [-73.9343040595989, 40.8502344796647], [-73.9344349769978, 40.8500563564909], [-73.9342770952437, 40.8499900810561]]]}}, {"type": "Feature", "properties": {"zone_id": "020544TKC6VQWO36GK1KRN", "tract_id": "36061027100", "city": "NEW YORK, NY", "zone_code": "R7-2", "zone_category": "Residential", "ev_permitted": false}, "geometry": {"type": "Polygon", "coordinates": [[[-73.9341176700654, 40.8499231573873], [-73.9339870272736, 40.8501009072584], [-73.9341463146857, 40.8501680186329], [-73.9342770952437, 40.8499900810561], [-73.9341176700654, 40.8499231573873]]]}}, {"type": "Feature", "properties": {"zone_id": "0205DIXJR3ODYKIZY5QKJF", "tract_id": "36061027100", "city": "NEW YORK, NY", "zone_code": "R7-2", "zone_category": "Residential", "ev_permitted": false}, "geometry": {"type": "Polygon", "coordinates": [[[-73.9339503674399, 40.8498529258555], [-73.9338198679607, 40.8500304795839], [-73.9339870272736, 40.8501009072584], [-73.9341176700654, 40.8499231573873], [-73.9339503674399, 40.8498529258555]]]}}, {"type": "Feature", "properties": {"zone_id": "0204320234YIYG97VCV3Z2", "tract_id": "36061027100", "city": "NEW YORK, NY", "zone_code": "R7-2", "zone_category": "Residential", "ev_permitted": false}, "geometry": {"type": "Polygon", "coordinates": [[[-73.9339778860015, 40.8495432995304], [-73.9337974850519, 40.8497887479096], [-73.9340446352545, 40.8498924986236], [-73.9342250355742, 40.8496470491597], [-73.9339778860015, 40.8495432995304]]]}}, {"type": "Feature", "properties": {"zone_id": "02005NNCR6VWKZ8EUHIO9V", "tract_id": "36061027100", "city": "NEW YORK, NY", "zone_code": "R7-2", "zone_category": "Residential", "ev_permitted": false}, "geometry": {"type": "Polygon", "coordinates": [[[-73.9342250355742, 40.8496470491597], [-73.9340446352545, 40.8498924986236], [-73.9341934492681, 40.8499549678991], [-73.9343738492073, 40.8497095189078], [-73.9342250355742, 40.8496470491597]]]}}, {"type": "Feature", "properties": {"zone_id": "0204MY89MQW8SY7O1RZ9KU", "tract_id": "36061027100", "city": "NEW YORK, NY", "zone_code": "R7-2", "zone_category": "Residential", "ev_permitted": false}, "geometry": {"type": "Polygon", "coordinates": [[[-73.9341588993184, 40.8489994317411], [-73.9339425970104, 40.8492942895112], [-73.9346676453597, 40.8495981471808], [-73.9348471383357, 40.8493510154937], [-73.9347706324505, 40.8493189534501], [-73.9348057959683, 40.8492705372295], [-73.9341588993184, 40.8489994317411]]]}}, {"type": "Feature", "properties": {"zone_id": "0206OKM1C5SNJ0XS6H1TPM", "tract_id": "36061027100", "city": "NEW YORK, NY", "zone_code": "R7-2", "zone_category": "Residential", "ev_permitted": false}, "geometry": {"type": "Polygon", "coordinates": [[[-73.9334110903152, 40.8500213081174], [-73.9333337899288, 40.8501263713522], [-73.9336494203404, 40.8502606347443], [-73.9337263707552, 40.8501554228417], [-73.9334110903152, 40.8500213081174]]]}}, {"type": "Feature", "properties": {"zone_id": "020741B01YTQ00VGBBQPSU", "tract_id": "36061027100", "city": "NEW YORK, NY", "zone_code": "R7-2", "zone_category": "Residential", "ev_permitted": false}, "geometry": {"type": "Polygon", "coordinates": [[[-73.9336298704716, 40.84971838504], [-73.9334990961856, 40.8498953297618], [-73.9338198679607, 40.8500304795839], [-73.9339503674399, 40.8498529258555], [-73.9336298704716, 40.84971838504]]]}}, {"type": "Feature", "properties": {"zone_id": "0201QSNG0U664A176ANQWP", "tract_id": "36061027100", "city": "NEW YORK, NY", "zone_code": "R7-2", "zone_category": "Residential", "ev_permitted": false}, "geometry": {"type": "Polygon", "coordinates": [[[-73.9338110349254, 40.8494732563585], [-73.9336298704716, 40.84971838504], [-73.9337974850519, 40.8497887479096], [-73.9339778860015, 40.8495432995304], [-73.9338110349254, 40.8494732563585]]]}}, {"type": "Feature", "properties": {"zone_id": "0206ZN238RLC00JM8TV9F9", "tract_id": "36061027100", "city": "NEW YORK, NY", "zone_code": "R7-2", "zone_category": "Residential", "ev_permitted": false}, "geometry": {"type": "Polygon", "coordinates": [[[-73.9363199621895, 40.8504568538311], [-73.9360909109932, 40.8509064666327], [-73.9362434921599, 40.8509713074643], [-73.9362466711591, 40.8509669963904], [-73.9362950221647, 40.8509875438285], [-73.9365342738221, 40.8505179080656], [-73.9363199621895, 40.8504568538311]]]}}, {"type": "Feature", "properties": {"zone_id": "02012CCXHZI3AUKKRMERIU", "tract_id": "36061027100", "city": "NEW YORK, NY", "zone_code": "R7-2", "zone_category": "Residential", "ev_permitted": false}, "geometry": {"type": "Polygon", "coordinates": [[[-73.9359968296888, 40.850866486007], [-73.9359433655424, 40.8509389973333], [-73.9362527727326, 40.8510704824068], [-73.9362950221647, 40.8509875438285], [-73.9362466711591, 40.8509669963904], [-73.9362434921599, 40.8509713074643], [-73.9359968296888, 40.850866486007]]]}}, {"type": "Feature", "properties": {"zone_id": "02011AWL93RCAXLSHLRHLJ", "tract_id": "36061027100", "city": "NEW YORK, NY", "zone_code": "R7-2", "zone_category": "Residential", "ev_permitted": false}, "geometry": {"type": "Polygon", "coordinates": [[[-73.9359282617338, 40.8509325787214], [-73.9357921184221, 40.851199814922], [-73.936135774265, 40.8512999982882], [-73.9362527727326, 40.8510704824068], [-73.9359282617338, 40.8509325787214]]]}}, {"type": "Feature", "properties": {"zone_id": "02036DXJY3DPRLC93J4MNY", "tract_id": "36061027100", "city": "NEW YORK, NY", "zone_code": "R7-2", "zone_category": "Residential", "ev_permitted": false}, "geometry": {"type": "Polygon", "coordinates": [[[-73.9355930964906, 40.8507901459523], [-73.9354461632661, 40.8510776287469], [-73.935801514652, 40.8511813715226], [-73.9359282617338, 40.8509325787214], [-73.9355930964906, 40.8507901459523]]]}}, {"type": "Feature", "properties": {"zone_id": "0201SR5C3PHFCRAQC9TWZ4", "tract_id": "36061027100", "city": "NEW YORK, NY", "zone_code": "R7-2", "zone_category": "Residential", "ev_permitted": false}, "geometry": {"type": "Polygon", "coordinates": [[[-73.93563308418, 40.8507119077426], [-73.9355930964906, 40.8507901459523], [-73.9359433655424, 40.8509389973333], [-73.9359968296888, 40.850866486007], [-73.93563308418, 40.8507119077426]]]}}, {"type": "Feature", "properties": {"zone_id": "0205FP0WCNBHCQ1L4VJAM5", "tract_id": "36061027100", "city": "NEW YORK, NY", "zone_code": "R7-2", "zone_category": "Residential", "ev_permitted": false}, "geometry": {"type": "Polygon", "coordinates": [[[-73.9358341976911, 40.8503184145592], [-73.93563308418, 40.8507119077426], [-73.9360909109932, 40.8509064666327], [-73.9363199621895, 40.8504568538311], [-73.9358341976911, 40.8503184145592]]]}}, {"type": "Feature", "properties": {"zone_id": "0200TCQNFLEUWXYFAGOO1S", "tract_id": "36061027100", "city": "NEW YORK, NY", "zone_code": "C4-4", "zone_category": "Commercial", "ev_permitted": true}, "geometry": {"type": "Polygon", "coordinates": [[[-73.9353263078308, 40.8495564200852], [-73.9351461805455, 40.8498014828638], [-73.9356395383868, 40.8500090758225], [-73.9358857407206, 40.8497905900149], [-73.9353263078308, 40.8495564200852]]]}}, {"type": "Feature", "properties": {"zone_id": "0207BP3VE3LFCGJ1MUDOET", "tract_id": "36061027100", "city": "NEW YORK, NY", "zone_code": "R7-2", "zone_category": "Residential", "ev_permitted": false}, "geometry": {"type": "Polygon", "coordinates": [[[-73.9358365461116, 40.84938706063], [-73.9357008407728, 40.8495716913396], [-73.9356718268292, 40.8495595468174], [-73.9355922909838, 40.8496677567671], [-73.9358857407206, 40.8497905900149], [-73.9361789492644, 40.8495303841748], [-73.9358365461116, 40.84938706063]]]}}, {"type": "Feature", "properties": {"zone_id": "0204NTLYLU33ZDQ57DRG4B", "tract_id": "36061027100", "city": "NEW YORK, NY", "zone_code": "R7-2", "zone_category": "Residential", "ev_permitted": false}, "geometry": {"type": "Polygon", "coordinates": [[[-73.9355415508067, 40.8492635799508], [-73.9353263078308, 40.8495564200852], [-73.9355922909838, 40.8496677567671], [-73.9356718268292, 40.8495595468174], [-73.9357008407728, 40.8495716913396], [-73.9358365461116, 40.84938706063], [-73.9355415508067, 40.8492635799508]]]}}, {"type": "Feature", "properties": {"zone_id": "02017368PQEXOFURPQCBTL", "tract_id": "36061027100", "city": "NEW YORK, NY", "zone_code": "R7-2", "zone_category": "Residential", "ev_permitted": false}, "geometry": {"type": "Polygon", "coordinates": [[[-73.9348847110548, 40.8506394821617], [-73.9347362233685, 40.8508420106721], [-73.93479140566, 40.8508653759936], [-73.9345979135635, 40.8511292864709], [-73.9349916178815, 40.8512964404252], [-73.93524647569, 40.8507953735141], [-73.9348847110548, 40.8506394821617]]]}}, {"type": "Feature", "properties": {"zone_id": "0203HY5L7COWOX63IWJ90C", "tract_id": "36061027100", "city": "NEW YORK, NY", "zone_code": "R7-2", "zone_category": "Residential", "ev_permitted": false}, "geometry": {"type": "Polygon", "coordinates": [[[-73.9344677029078, 40.8507283139306], [-73.9343760862261, 40.8508532728208], [-73.9346997893976, 40.8509903351379], [-73.93479140566, 40.8508653759936], [-73.9344677029078, 40.8507283139306]]]}}, {"type": "Feature", "properties": {"zone_id": "0201GCA70VNPLKF8JYOSYZ", "tract_id": "36061027100", "city": "NEW YORK, NY", "zone_code": "R7-2", "zone_category": "Residential", "ev_permitted": false}, "geometry": {"type": "Polygon", "coordinates": [[[-73.9343760862261, 40.8508532728208], [-73.9342739569643, 40.8509925694281], [-73.9345979135635, 40.8511292864709], [-73.9346997893976, 40.8509903351379], [-73.9343760862261, 40.8508532728208]]]}}, {"type": "Feature", "properties": {"zone_id": "0202QRFD5XZM9LYJVVODRM", "tract_id": "36061027100", "city": "NEW YORK, NY", "zone_code": "R7-2", "zone_category": "Residential", "ev_permitted": false}, "geometry": {"type": "Polygon", "coordinates": [[[-73.9350162108402, 40.8499790726726], [-73.934713681121, 40.8503912684132], [-73.9353212881178, 40.8506505899408], [-73.9355447279207, 40.8502046390979], [-73.9350162108402, 40.8499790726726]]]}}, {"type": "Feature", "properties": {"zone_id": "0202S0HB6AW8N9C9HEC1T7", "tract_id": "36061027100", "city": "NEW YORK, NY", "zone_code": "R7-2", "zone_category": "Residential", "ev_permitted": false}, "geometry": {"type": "Polygon", "coordinates": [[[-73.9346173141772, 40.8505242539308], [-73.9344677029078, 40.8507283139306], [-73.9347362233685, 40.8508420106721], [-73.9348847110548, 40.8506394821617], [-73.9346173141772, 40.8505242539308]]]}}, {"type": "Feature", "properties": {"zone_id": "0201DS1LXZKJ02ICWWQ8IO", "tract_id": "36061027100", "city": "NEW YORK, NY", "zone_code": "R7-2", "zone_category": "Residential", "ev_permitted": false}, "geometry": {"type": "Polygon", "coordinates": [[[-73.9344349769978, 40.8500563564909], [-73.9343040595989, 40.8502344796647], [-73.9344740068243, 40.8503060809316], [-73.9346050703082, 40.8501277580991], [-73.9344349769978, 40.8500563564909]]]}}, {"type": "Feature", "properties": {"zone_id": "0204OVD4JWBWOFOG5J3KKH", "tract_id": "36061027100", "city": "NEW YORK, NY", "zone_code": "C4-4", "zone_category": "Commercial", "ev_permitted": true}, "geometry": {"type": "Polygon", "coordinates": [[[-73.9348471383357, 40.8493510154937], [-73.9346676453597, 40.8495981471808], [-73.934913353458, 40.8497011180951], [-73.935092845799, 40.8494539860302], [-73.9348471383357, 40.8493510154937]]]}}, {"type": "Feature", "properties": {"zone_id": "0202PTCDDI7ZD917HUCN9O", "tract_id": "36061027100", "city": "NEW YORK, NY", "zone_code": "R7-2", "zone_category": "Residential", "ev_permitted": false}, "geometry": {"type": "Polygon", "coordinates": [[[-73.9348355695566, 40.8492295456086], [-73.9347706324505, 40.8493189534501], [-73.935092845799, 40.8494539860302], [-73.9351577816778, 40.8493645787115], [-73.9348355695566, 40.8492295456086]]]}}, {"type": "Feature", "properties": {"zone_id": "020198XZIUSZNWMGJN1RWW", "tract_id": "36061027100", "city": "NEW YORK, NY", "zone_code": "R7-2", "zone_category": "Residential", "ev_permitted": false}, "geometry": {"type": "Polygon", "coordinates": [[[-73.9349840607719, 40.8490250944821], [-73.9349004203171, 40.8491402564275], [-73.9352226330627, 40.8492752893519], [-73.9353063722715, 40.8491599909182], [-73.9349840607719, 40.8490250944821]]]}}, {"type": "Feature", "properties": {"zone_id": "020589MK49H7T6L3MI7EXJ", "tract_id": "36061027100", "city": "NEW YORK, NY", "zone_code": "R7-2", "zone_category": "Residential", "ev_permitted": false}, "geometry": {"type": "Polygon", "coordinates": [[[-73.9349004203171, 40.8491402564275], [-73.9348355695566, 40.8492295456086], [-73.9351577816778, 40.8493645787115], [-73.9352226330627, 40.8492752893519], [-73.9349004203171, 40.8491402564275]]]}}, {"type": "Feature", "properties": {"zone_id": "02045K4VF7TIHET54PV438", "tract_id": "36061027100", "city": "NEW YORK, NY", "zone_code": "R7-2", "zone_category": "Residential", "ev_permitted": false}, "geometry": {"type": "Polygon", "coordinates": [[[-73.9346623277419, 40.8488904377738], [-73.9344841594044, 40.8491357444745], [-73.9346484085961, 40.8492045787624], [-73.9348266256223, 40.8489592022769], [-73.9346623277419, 40.8488904377738]]]}}, {"type": "Feature", "properties": {"zone_id": "0201LH1H04UO27HVDND671", "tract_id": "36061027100", "city": "NEW YORK, NY", "zone_code": "R7-2", "zone_category": "Residential", "ev_permitted": false}, "geometry": {"type": "Polygon", "coordinates": [[[-73.9348266256223, 40.8489592022769], [-73.9346484085961, 40.8492045787624], [-73.9348057959683, 40.8492705372295], [-73.9349840607719, 40.8490250944821], [-73.9348266256223, 40.8489592022769]]]}}, {"type": "Feature", "properties": {"zone_id": "0202Y4KZADX1QZW6ZHOUTV", "tract_id": "36061027100", "city": "NEW YORK, NY", "zone_code": "R7-2", "zone_category": "Residential", "ev_permitted": false}, "geometry": {"type": "Polygon", "coordinates": [[[-73.9343383317743, 40.8487548331165], [-73.9341588993184, 40.8489994317411], [-73.9344841594044, 40.8491357444745], [-73.9346623277419, 40.8488904377738], [-73.9343383317743, 40.8487548331165]]]}}]}