{"type": "FeatureCollection", "features": [{"type": "Feature", "properties": {"zone_id": "0204VSNXINGIVNKXK6ZRFQ", "tract_id": "36061030700", "city": "NEW YORK, NY", "zone_code": "R7A", "zone_category": "Residential", "ev_permitted": false}, "geometry": {"type": "Polygon", "coordinates": [[[-73.9189646749343, 40.8719344256654], [-73.9186990408163, 40.872127981063], [-73.9190714063672, 40.8724435041169], [-73.9193366495162, 40.8722496166555], [-73.9189646749343, 40.8719344256654]]]}}, {"type": "Feature", "properties": {"zone_id": "0204I8Q4O5DXH4Y2DYOGNP", "tract_id": "36061030700", "city": "NEW YORK, NY", "zone_code": "R7A", "zone_category": "Residential", "ev_permitted": false}, "geometry": {"type": "Polygon", "coordinates": [[[-73.9187334168842, 40.8721571101053], [-73.9184592800329, 40.8723574956606], [-73.9188087446876, 40.8726355019702], [-73.9190714063672, 40.8724435041169], [-73.9187334168842, 40.8721571101053]]]}}, {"type": "Feature", "properties": {"zone_id": "0202HG4F3YBNK6LTRVDAJQ", "tract_id": "36061030700", "city": "NEW YORK, NY", "zone_code": "R7A", "zone_category": "Residential", "ev_permitted": false}, "geometry": {"type": "Polygon", "coordinates": [[[-73.9184592800329, 40.8723574956606], [-73.9183290516408, 40.8724526881156], [-73.9183040900606, 40.872432830654], [-73.9179400659986, 40.8726989171593], [-73.9184362090058, 40.8729078115548], [-73.9188087446876, 40.8726355019702], [-73.9184592800329, 40.8723574956606]]]}}, {"type": "Feature", "properties": {"zone_id": "0200N2F9E7XU9G4XNG4FTH", "tract_id": "36061030700", "city": "NEW YORK, NY", "zone_code": "R7A", "zone_category": "Residential", "ev_permitted": false}, "geometry": {"type": "Polygon", "coordinates": [[[-73.9180455077675, 40.8723841973417], [-73.9177337748, 40.8726120600752], [-73.9179033432633, 40.8726834554064], [-73.9181735798709, 40.8724859253573], [-73.9180455077675, 40.8723841973417]]]}}, {"type": "Feature", "properties": {"zone_id": "02075JF739T0J5JKUE2IPE", "tract_id": "36061030700", "city": "NEW YORK, NY", "zone_code": "R7A", "zone_category": "Residential", "ev_permitted": false}, "geometry": {"type": "Polygon", "coordinates": [[[-73.9183203456998, 40.8718070897446], [-73.9180609353652, 40.8719967097764], [-73.9184106799604, 40.8722745095289], [-73.9186583306988, 40.8720934849834], [-73.9183203456998, 40.8718070897446]]]}}, {"type": "Feature", "properties": {"zone_id": "0201RNMLSWXQS98UY20ST3", "tract_id": "36061030700", "city": "NEW YORK, NY", "zone_code": "R7A", "zone_category": "Residential", "ev_permitted": false}, "geometry": {"type": "Polygon", "coordinates": [[[-73.9186583306988, 40.8720934849834], [-73.9181485979439, 40.872466081198], [-73.9181735798709, 40.8724859253573], [-73.9179033432633, 40.8726834554064], [-73.9179400659986, 40.8726989171593], [-73.9183040900606, 40.872432830654], [-73.9183290516408, 40.8724526881156], [-73.9187334168842, 40.8721571101053], [-73.9186583306988, 40.8720934849834]]]}}, {"type": "Feature", "properties": {"zone_id": "0202V6ZEDIDODFIJ2DU3MW", "tract_id": "36061030700", "city": "NEW YORK, NY", "zone_code": "R7A", "zone_category": "Residential", "ev_permitted": false}, "geometry": {"type": "Polygon", "coordinates": [[[-73.9180609353652, 40.8719967097764], [-73.9179282519449, 40.8720936959944], [-73.9182779955695, 40.8723714968461], [-73.9184106799604, 40.8722745095289], [-73.9180609353652, 40.8719967097764]]]}}, {"type": "Feature", "properties": {"zone_id": "0200J957QNH0QNHYH3GJU8", "tract_id": "36061030700", "city": "NEW YORK, NY", "zone_code": "R7A", "zone_category": "Residential", "ev_permitted": false}, "geometry": {"type": "Polygon", "coordinates": [[[-73.9179282519449, 40.8720936959944], [-73.9177337394429, 40.8722358761846], [-73.9179803928334, 40.8724317930024], [-73.9180455077675, 40.8723841973417], [-73.9181485979439, 40.872466081198], [-73.9182779955695, 40.8723714968461], [-73.9179282519449, 40.8720936959944]]]}}, {"type": "Feature", "properties": {"zone_id": "0200KKD2GPEA7VE3RIUHB7", "tract_id": "36061030700", "city": "NEW YORK, NY", "zone_code": "R7A", "zone_category": "Residential", "ev_permitted": false}, "geometry": {"type": "Polygon", "coordinates": [[[-73.9177337394429, 40.8722358761846], [-73.9174072026785, 40.8724745587108], [-73.9177337748, 40.8726120600752], [-73.9179803928334, 40.8724317930024], [-73.9177337394429, 40.8722358761846]]]}}, {"type": "Feature", "properties": {"zone_id": "0200V1A4QH6V9L3CFH8M4C", "tract_id": "36061030700", "city": "NEW YORK, NY", "zone_code": "R7A", "zone_category": "Residential", "ev_permitted": false}, "geometry": {"type": "Polygon", "coordinates": [[[-73.9171123830909, 40.8720098181855], [-73.9168122617957, 40.8722295473832], [-73.9171437357625, 40.8723720820633], [-73.9173639025083, 40.8722111002802], [-73.9171123830909, 40.8720098181855]]]}}, {"type": "Feature", "properties": {"zone_id": "02078DA97HI6A9S1VHIJVD", "tract_id": "36061030700", "city": "NEW YORK, NY", "zone_code": "R7A", "zone_category": "Residential", "ev_permitted": false}, "geometry": {"type": "Polygon", "coordinates": [[[-73.9167919167716, 40.8718591997187], [-73.9167112354216, 40.8719182688264], [-73.9169626247266, 40.8721194617682], [-73.9170433060983, 40.8720603917842], [-73.9167919167716, 40.8718591997187]]]}}, {"type": "Feature", "properties": {"zone_id": "02035C10GC37JLD72O8MV1", "tract_id": "36061030700", "city": "NEW YORK, NY", "zone_code": "R7A", "zone_category": "Residential", "ev_permitted": false}, "geometry": {"type": "Polygon", "coordinates": [[[-73.9167112354216, 40.8719182688264], [-73.9166253489037, 40.8719811494617], [-73.9168767381874, 40.8721823418856], [-73.9169626247266, 40.8721194617682], [-73.9167112354216, 40.8719182688264]]]}}, {"type": "Feature", "properties": {"zone_id": "0204E098NFYFLX6ILWFPKT", "tract_id": "36061030700", "city": "NEW YORK, NY", "zone_code": "R7A", "zone_category": "Residential", "ev_permitted": false}, "geometry": {"type": "Polygon", "coordinates": [[[-73.9166253489037, 40.8719811494617], [-73.916480767046, 40.8720870025968], [-73.9168122617957, 40.8722295473832], [-73.9168767381874, 40.8721823418856], [-73.9166253489037, 40.8719811494617]]]}}, {"type": "Feature", "properties": {"zone_id": "0204BEORE743N09WKZUCGQ", "tract_id": "36061030700", "city": "NEW YORK, NY", "zone_code": "R7A", "zone_category": "Residential", "ev_permitted": false}, "geometry": {"type": "Polygon", "coordinates": [[[-73.9184484865888, 40.8717132982871], [-73.9183203456998, 40.8718070897446], [-73.9186990408163, 40.872127981063], [-73.9189646749343, 40.8719344256654], [-73.9188321364349, 40.8718221192113], [-73.9186952131215, 40.8719222061972], [-73.9184484865888, 40.8717132982871]]]}}, {"type": "Feature", "properties": {"zone_id": "0205XEPSICCHPP4CV7ZQRC", "tract_id": "36061030700", "city": "NEW YORK, NY", "zone_code": "R7A", "zone_category": "Residential", "ev_permitted": false}, "geometry": {"type": "Polygon", "coordinates": [[[-73.9185855885002, 40.8716132039872], [-73.9184484865888, 40.8717132982871], [-73.9186952131215, 40.8719222061972], [-73.9188321364349, 40.8718221192113], [-73.9185855885002, 40.8716132039872]]]}}, {"type": "Feature", "properties": {"zone_id": "0204K53L3LJFOXANUJWSF2", "tract_id": "36061030700", "city": "NEW YORK, NY", "zone_code": "R7A", "zone_category": "Residential", "ev_permitted": false}, "geometry": {"type": "Polygon", "coordinates": [[[-73.9180216569585, 40.8713440927072], [-73.9178901678817, 40.8714403630457], [-73.91814216001, 40.8716420407937], [-73.9182737286432, 40.8715458369789], [-73.9180216569585, 40.8713440927072]]]}}, {"type": "Feature", "properties": {"zone_id": "0203VTTECOV8FJ3RDT0MMK", "tract_id": "36061030700", "city": "NEW YORK, NY", "zone_code": "R7A", "zone_category": "Residential", "ev_permitted": false}, "geometry": {"type": "Polygon", "coordinates": [[[-73.9178901678817, 40.8714403630457], [-73.9175024134592, 40.8717242735128], [-73.9177541613735, 40.8719257460492], [-73.91814216001, 40.8716420407937], [-73.9178901678817, 40.8714403630457]]]}}, {"type": "Feature", "properties": {"zone_id": "0202ODYRZBOOE9ULTV55L8", "tract_id": "36061030700", "city": "NEW YORK, NY", "zone_code": "R7A", "zone_category": "Residential", "ev_permitted": false}, "geometry": {"type": "Polygon", "coordinates": [[[-73.9175024134592, 40.8717242735128], [-73.9171123830909, 40.8720098181855], [-73.9173639025083, 40.8722111002802], [-73.9177541613735, 40.8719257460492], [-73.9175024134592, 40.8717242735128]]]}}, {"type": "Feature", "properties": {"zone_id": "0204VM99FIRUR7T8OMRBIH", "tract_id": "36061030700", "city": "NEW YORK, NY", "zone_code": "R7A", "zone_category": "Residential", "ev_permitted": false}, "geometry": {"type": "Polygon", "coordinates": [[[-73.9173799043179, 40.8714287087937], [-73.9173148397756, 40.8714763455787], [-73.9175662292362, 40.8716775372216], [-73.9176312937961, 40.8716298995939], [-73.9173799043179, 40.8714287087937]]]}}, {"type": "Feature", "properties": {"zone_id": "0206JXFBQX4AV3CPA6GWS3", "tract_id": "36061030700", "city": "NEW YORK, NY", "zone_code": "R7A", "zone_category": "Residential", "ev_permitted": false}, "geometry": {"type": "Polygon", "coordinates": [[[-73.9173148397756, 40.8714763455787], [-73.9172510258654, 40.8715230824365], [-73.9175024134592, 40.8717242735128], [-73.9175662292362, 40.8716775372216], [-73.9173148397756, 40.8714763455787]]]}}, {"type": "Feature", "properties": {"zone_id": "0200K1GAEMHZJAMP7GPGLP", "tract_id": "36061030700", "city": "NEW YORK, NY", "zone_code": "R7A", "zone_category": "Residential", "ev_permitted": false}, "geometry": {"type": "Polygon", "coordinates": [[[-73.9181592547487, 40.871243360558], [-73.9180216569585, 40.8713440927072], [-73.9182737286432, 40.8715458369789], [-73.9184006942224, 40.8714529989258], [-73.9181592547487, 40.871243360558]]]}}, {"type": "Feature", "properties": {"zone_id": "0205BBGJX990A6AUUOAS2V", "tract_id": "36061030700", "city": "NEW YORK, NY", "zone_code": "R7A", "zone_category": "Residential", "ev_permitted": false}, "geometry": {"type": "Polygon", "coordinates": [[[-73.9179184020934, 40.8710342286983], [-73.9176387783377, 40.8712391720999], [-73.9178901678817, 40.8714403630457], [-73.9181592547487, 40.871243360558], [-73.9179184020934, 40.8710342286983]]]}}, {"type": "Feature", "properties": {"zone_id": "02040HXMBD9XEP82X6VKAD", "tract_id": "36061030700", "city": "NEW YORK, NY", "zone_code": "R7A", "zone_category": "Residential", "ev_permitted": false}, "geometry": {"type": "Polygon", "coordinates": [[[-73.9176387783377, 40.8712391720999], [-73.9173799043179, 40.8714287087937], [-73.9176312937961, 40.8716298995939], [-73.9178901678817, 40.8714403630457], [-73.9176387783377, 40.8712391720999]]]}}, {"type": "Feature", "properties": {"zone_id": "0205I1SQJ1R7ZZVWUDPEL0", "tract_id": "36061030700", "city": "NEW YORK, NY", "zone_code": "R7A", "zone_category": "Residential", "ev_permitted": false}, "geometry": {"type": "Polygon", "coordinates": [[[-73.9175016187026, 40.8706824671617], [-73.9170043394675, 40.8710161543021], [-73.9173001350871, 40.8712687661898], [-73.9177793617896, 40.8709204815945], [-73.9175016187026, 40.8706824671617]]]}}, {"type": "Feature", "properties": {"zone_id": "0207K6L8ESA2SYTOI8PCPJ", "tract_id": "36061030700", "city": "NEW YORK, NY", "zone_code": "R7A", "zone_category": "Residential", "ev_permitted": false}, "geometry": {"type": "Polygon", "coordinates": [[[-73.9167436887296, 40.8707935093906], [-73.9165358653089, 40.8709547364506], [-73.9165047011379, 40.8709416300098], [-73.9164889964833, 40.8709538136996], [-73.9161724438948, 40.8708206787467], [-73.9159068254481, 40.8710267404178], [-73.9165269747569, 40.8712879558552], [-73.9169578411607, 40.8709764356322], [-73.9167436887296, 40.8707935093906]]]}}, {"type": "Feature", "properties": {"zone_id": "0201SO13AXBFNZHM4NBHMG", "tract_id": "36061030700", "city": "NEW YORK, NY", "zone_code": "R7A", "zone_category": "Residential", "ev_permitted": false}, "geometry": {"type": "Polygon", "coordinates": [[[-73.9171212381706, 40.871618120683], [-73.9170520921428, 40.8716687153199], [-73.917303480611, 40.8718699068249], [-73.9173726275823, 40.8718193120398], [-73.9171212381706, 40.871618120683]]]}}, {"type": "Feature", "properties": {"zone_id": "0205JPRKE7I8IWE4UIKU2W", "tract_id": "36061030700", "city": "NEW YORK, NY", "zone_code": "R7A", "zone_category": "Residential", "ev_permitted": false}, "geometry": {"type": "Polygon", "coordinates": [[[-73.9170520921428, 40.8716687153199], [-73.9169886169758, 40.8717151880815], [-73.9172400054266, 40.8719163804256], [-73.917303480611, 40.8718699068249], [-73.9170520921428, 40.8716687153199]]]}}, {"type": "Feature", "properties": {"zone_id": "020186QFN9UL7W9VB8A1Z5", "tract_id": "36061030700", "city": "NEW YORK, NY", "zone_code": "R7A", "zone_category": "Residential", "ev_permitted": false}, "geometry": {"type": "Polygon", "coordinates": [[[-73.9169886169758, 40.8717151880815], [-73.9167919167716, 40.8718591997187], [-73.9170433060983, 40.8720603917842], [-73.9172400054266, 40.8719163804256], [-73.9169886169758, 40.8717151880815]]]}}, {"type": "Feature", "properties": {"zone_id": "0204M5847J37CM20M4Q2GD", "tract_id": "36061030700", "city": "NEW YORK, NY", "zone_code": "R7A", "zone_category": "Residential", "ev_permitted": false}, "geometry": {"type": "Polygon", "coordinates": [[[-73.9172510258654, 40.8715230824365], [-73.9171923160908, 40.8715658796953], [-73.9174438164847, 40.8717671609167], [-73.9175024134592, 40.8717242735128], [-73.9172510258654, 40.8715230824365]]]}}, {"type": "Feature", "properties": {"zone_id": "0204EH3MPNLZQJ9C03YR8I", "tract_id": "36061030700", "city": "NEW YORK, NY", "zone_code": "R7A", "zone_category": "Residential", "ev_permitted": false}, "geometry": {"type": "Polygon", "coordinates": [[[-73.9171923160908, 40.8715658796953], [-73.9171212381706, 40.871618120683], [-73.9173726275823, 40.8718193120398], [-73.9174438164847, 40.8717671609167], [-73.9171923160908, 40.8715658796953]]]}}, {"type": "Feature", "properties": {"zone_id": "0206Y63MJP5E9GAN12ELRN", "tract_id": "36061030700", "city": "NEW YORK, NY", "zone_code": "R7A", "zone_category": "Residential", "ev_permitted": false}, "geometry": {"type": "Polygon", "coordinates": [[[-73.9159147117434, 40.8715398996196], [-73.9157419253712, 40.8717752323967], [-73.9162862033738, 40.8720056376273], [-73.9165549878818, 40.8718103018294], [-73.9159147117434, 40.8715398996196]]]}}, {"type": "Feature", "properties": {"zone_id": "0200699TG2YXJ1E0HXPEOQ", "tract_id": "36061030700", "city": "NEW YORK, NY", "zone_code": "R7A", "zone_category": "Residential", "ev_permitted": false}, "geometry": {"type": "Polygon", "coordinates": [[[-73.9165997952024, 40.8714996196587], [-73.9165183130658, 40.8716105999418], [-73.9167155729748, 40.8716935980068], [-73.9168421873187, 40.8716015821013], [-73.9165997952024, 40.8714996196587]]]}}, {"type": "Feature", "properties": {"zone_id": "02013N4M5CEYD5CB3BPXZU", "tract_id": "36061030700", "city": "NEW YORK, NY", "zone_code": "R7A", "zone_category": "Residential", "ev_permitted": false}, "geometry": {"type": "Polygon", "coordinates": [[[-73.9165183130658, 40.8716105999418], [-73.9164149685734, 40.8717513556446], [-73.9165549878818, 40.8718103018294], [-73.9167155729748, 40.8716935980068], [-73.9165183130658, 40.8716105999418]]]}}, {"type": "Feature", "properties": {"zone_id": "02057LH3WBQDPU4LC8JI4S", "tract_id": "36061030700", "city": "NEW YORK, NY", "zone_code": "R7A", "zone_category": "Residential", "ev_permitted": false}, "geometry": {"type": "Polygon", "coordinates": [[[-73.9164923889669, 40.8714542201758], [-73.9163075611318, 40.871705955991], [-73.9164149685734, 40.8717513556446], [-73.9165997952024, 40.8714996196587], [-73.9164923889669, 40.8714542201758]]]}}, {"type": "Feature", "properties": {"zone_id": "0205RGE34Z86I2YG0DCOYU", "tract_id": "36061030700", "city": "NEW YORK, NY", "zone_code": "R7A", "zone_category": "Residential", "ev_permitted": false}, "geometry": {"type": "Polygon", "coordinates": [[[-73.9164103446787, 40.8714195409055], [-73.9162255175559, 40.8716712758889], [-73.9163075611318, 40.871705955991], [-73.9164923889669, 40.8714542201758], [-73.9164103446787, 40.8714195409055]]]}}, {"type": "Feature", "properties": {"zone_id": "02068T10DE2LW8WP8RWYMF", "tract_id": "36061030700", "city": "NEW YORK, NY", "zone_code": "R7A", "zone_category": "Residential", "ev_permitted": false}, "geometry": {"type": "Polygon", "coordinates": [[[-73.9163154243846, 40.8713794180072], [-73.9161305960875, 40.8716311535424], [-73.9162255175559, 40.8716712758889], [-73.9164103446787, 40.8714195409055], [-73.9163154243846, 40.8713794180072]]]}}, {"type": "Feature", "properties": {"zone_id": "0205D72APMEZ0Z06TFD1BM", "tract_id": "36061030700", "city": "NEW YORK, NY", "zone_code": "R7A", "zone_category": "Residential", "ev_permitted": false}, "geometry": {"type": "Polygon", "coordinates": [[[-73.9162355136507, 40.8713456402435], [-73.9160506860706, 40.8715973756529], [-73.9161305960875, 40.8716311535424], [-73.9163154243846, 40.8713794180072], [-73.9162355136507, 40.8713456402435]]]}}, {"type": "Feature", "properties": {"zone_id": "0205PLZ2ANFJXUTGYCFQK8", "tract_id": "36061030700", "city": "NEW YORK, NY", "zone_code": "R7A", "zone_category": "Residential", "ev_permitted": false}, "geometry": {"type": "Polygon", "coordinates": [[[-73.9169578411607, 40.8709764356322], [-73.9165269747569, 40.8712879558552], [-73.9169993008346, 40.8714873992681], [-73.9173001350871, 40.8712687661898], [-73.9169578411607, 40.8709764356322]]]}}, {"type": "Feature", "properties": {"zone_id": "0206G5QHQTPPVZ9702MNOD", "tract_id": "36061030700", "city": "NEW YORK, NY", "zone_code": "R7A", "zone_category": "Residential", "ev_permitted": false}, "geometry": {"type": "Polygon", "coordinates": [[[-73.9161533808187, 40.8713109220801], [-73.915968551172, 40.8715626580607], [-73.9160506860706, 40.8715973756529], [-73.9162355136507, 40.8713456402435], [-73.9161533808187, 40.8713109220801]]]}}, {"type": "Feature", "properties": {"zone_id": "0204MVTR042YSRJKTFXZHB", "tract_id": "36061030700", "city": "NEW YORK, NY", "zone_code": "R7A", "zone_category": "Residential", "ev_permitted": false}, "geometry": {"type": "Polygon", "coordinates": [[[-73.916068560548, 40.8712750699471], [-73.9158837325319, 40.8715268050923], [-73.915968551172, 40.8715626580607], [-73.9161533808187, 40.8713109220801], [-73.916068560548, 40.8712750699471]]]}}, {"type": "Feature", "properties": {"zone_id": "02041MLQT0GT7OL8UP7ZDD", "tract_id": "36061030700", "city": "NEW YORK, NY", "zone_code": "R7A", "zone_category": "Residential", "ev_permitted": false}, "geometry": {"type": "Polygon", "coordinates": [[[-73.9169917345829, 40.870245511374], [-73.9167117523093, 40.8704022889993], [-73.9166870300136, 40.870421468036], [-73.9169422450265, 40.8706394696341], [-73.9167436887296, 40.8707935093906], [-73.9170043394675, 40.8710161543021], [-73.9175016187026, 40.8706824671617], [-73.9169917345829, 40.870245511374]]]}}, {"type": "Feature", "properties": {"zone_id": "0207JX5TKV6I8AUSBYJE20", "tract_id": "36061030700", "city": "NEW YORK, NY", "zone_code": "R7A", "zone_category": "Residential", "ev_permitted": false}, "geometry": {"type": "Polygon", "coordinates": [[[-73.9166870300136, 40.870421468036], [-73.9161724438948, 40.8708206787467], [-73.9164889964833, 40.8709538136996], [-73.9165047011379, 40.8709416300098], [-73.9165358653089, 40.8709547364506], [-73.9169422450265, 40.8706394696341], [-73.9166870300136, 40.870421468036]]]}}, {"type": "Feature", "properties": {"zone_id": "020123PMRF92ABRG3THSH7", "tract_id": "36061030700", "city": "NEW YORK, NY", "zone_code": "R7A", "zone_category": "Residential", "ev_permitted": false}, "geometry": {"type": "Polygon", "coordinates": [[[-73.9165886553079, 40.8699248531714], [-73.9163252498135, 40.8700812392349], [-73.9161221296696, 40.8702395804184], [-73.9163880295161, 40.8704338768486], [-73.9165629878225, 40.8702983415759], [-73.9168461905478, 40.8701302006912], [-73.9165886553079, 40.8699248531714]]]}}, {"type": "Feature", "properties": {"zone_id": "0200WWGS4TBZB5U83Z7KH4", "tract_id": "36061030700", "city": "NEW YORK, NY", "zone_code": "R7D", "zone_category": "Residential", "ev_permitted": false}, "geometry": {"type": "Polygon", "coordinates": [[[-73.9160574872489, 40.8698855802738], [-73.9158046724685, 40.8700814269102], [-73.9160732497922, 40.8702776835867], [-73.9163252498135, 40.8700812392349], [-73.9160574872489, 40.8698855802738]]]}}, {"type": "Feature", "properties": {"zone_id": "020461X3CNXJWXXM9TV9NO", "tract_id": "36061030700", "city": "NEW YORK, NY", "zone_code": "R7D", "zone_category": "Residential", "ev_permitted": false}, "geometry": {"type": "Polygon", "coordinates": [[[-73.916331612663, 40.8697198974996], [-73.9160736911004, 40.8698730274138], [-73.9160574872489, 40.8698855802738], [-73.9163252498135, 40.8700812392349], [-73.9165886553079, 40.8699248531714], [-73.916331612663, 40.8697198974996]]]}}, {"type": "Feature", "properties": {"zone_id": "020144KVLDP6FRZRC7FBT9", "tract_id": "36061030700", "city": "NEW YORK, NY", "zone_code": "R7A", "zone_category": "Residential", "ev_permitted": false}, "geometry": {"type": "Polygon", "coordinates": [[[-73.9154796689319, 40.871356006062], [-73.9152215529191, 40.8715549426291], [-73.9157419253712, 40.8717752323967], [-73.9159147117434, 40.8715398996196], [-73.9154796689319, 40.871356006062]]]}}, {"type": "Feature", "properties": {"zone_id": "0205WJBV01POOZ5OQFV3PB", "tract_id": "36061030700", "city": "NEW YORK, NY", "zone_code": "R7A", "zone_category": "Residential", "ev_permitted": false}, "geometry": {"type": "Polygon", "coordinates": [[[-73.9157560657548, 40.8711429781269], [-73.9154796689319, 40.871356006062], [-73.9158120176387, 40.8714964914135], [-73.9159968467676, 40.8712447563825], [-73.9157560657548, 40.8711429781269]]]}}, {"type": "Feature", "properties": {"zone_id": "0200T4Z4GC13RG50MSN426", "tract_id": "36061030700", "city": "NEW YORK, NY", "zone_code": "R7A", "zone_category": "Residential", "ev_permitted": false}, "geometry": {"type": "Polygon", "coordinates": [[[-73.9159968467676, 40.8712447563825], [-73.9158120176387, 40.8714964914135], [-73.9158837325319, 40.8715268050923], [-73.916068560548, 40.8712750699471], [-73.9159968467676, 40.8712447563825]]]}}, {"type": "Feature", "properties": {"zone_id": "0202M4C9E49QC853MA4QNW", "tract_id": "36061030700", "city": "NEW YORK, NY", "zone_code": "R7A", "zone_category": "Residential", "ev_permitted": false}, "geometry": {"type": "Polygon", "coordinates": [[[-73.9152806623934, 40.8708942840913], [-73.9149739563896, 40.8711318704982], [-73.9153027576865, 40.8712745827874], [-73.9155446619978, 40.8710871940314], [-73.9152806623934, 40.8708942840913]]]}}, {"type": "Feature", "properties": {"zone_id": "0206MZSKBOF08QB5EENGTT", "tract_id": "36061030700", "city": "NEW YORK, NY", "zone_code": "R7A", "zone_category": "Residential", "ev_permitted": false}, "geometry": {"type": "Polygon", "coordinates": [[[-73.9150457055496, 40.8711630124378], [-73.9148761812288, 40.871400947518], [-73.9150450237619, 40.8714742317221], [-73.9153027576865, 40.8712745827874], [-73.9150457055496, 40.8711630124378]]]}}, {"type": "Feature", "properties": {"zone_id": "0207J9TRWRM7UT2EHDLDAT", "tract_id": "36061030700", "city": "NEW YORK, NY", "zone_code": "R7A", "zone_category": "Residential", "ev_permitted": false}, "geometry": {"type": "Polygon", "coordinates": [[[-73.9147654644831, 40.8710413759043], [-73.9145959394698, 40.871279310578], [-73.9148761812288, 40.871400947518], [-73.9150457055496, 40.8711630124378], [-73.9147654644831, 40.8710413759043]]]}}, {"type": "Feature", "properties": {"zone_id": "0206QMP5PCPL1DKY8NJ617", "tract_id": "36061030700", "city": "NEW YORK, NY", "zone_code": "R7D", "zone_category": "Residential", "ev_permitted": false}, "geometry": {"type": "Polygon", "coordinates": [[[-73.9148452089251, 40.8708246711312], [-73.9146372810366, 40.8709857387109], [-73.9149739563896, 40.8711318704982], [-73.9151155296009, 40.8710222023762], [-73.9148452089251, 40.8708246711312]]]}}, {"type": "Feature", "properties": {"zone_id": "0206YAD69GN8EICNQOUP10", "tract_id": "36061030700", "city": "NEW YORK, NY", "zone_code": "R7D", "zone_category": "Residential", "ev_permitted": false}, "geometry": {"type": "Polygon", "coordinates": [[[-73.9146372810366, 40.8709857387109], [-73.9143795462335, 40.8711853861696], [-73.9145959394698, 40.871279310578], [-73.9147654644831, 40.8710413759043], [-73.9146372810366, 40.8709857387109]]]}}, {"type": "Feature", "properties": {"zone_id": "0201VY24QK0MQRTHHRW786", "tract_id": "36061030700", "city": "NEW YORK, NY", "zone_code": "R7A", "zone_category": "Residential", "ev_permitted": false}, "geometry": {"type": "Polygon", "coordinates": [[[-73.9161221296696, 40.8702395804184], [-73.9156923422762, 40.8705746143734], [-73.9157536698716, 40.8706194272964], [-73.9155979133027, 40.8707408438462], [-73.9158005880344, 40.8708889423128], [-73.9163880295161, 40.8704338768486], [-73.9161221296696, 40.8702395804184]]]}}, {"type": "Feature", "properties": {"zone_id": "0203XAT9E4NSVN2LT02D0Q", "tract_id": "36061030700", "city": "NEW YORK, NY", "zone_code": "R7A", "zone_category": "Residential", "ev_permitted": false}, "geometry": {"type": "Polygon", "coordinates": [[[-73.9155365875489, 40.8706960329506], [-73.9152806623934, 40.8708942840913], [-73.9155446619978, 40.8710871940314], [-73.9158005880344, 40.8708889423128], [-73.9155365875489, 40.8706960329506]]]}}, {"type": "Feature", "properties": {"zone_id": "0203F1GUHCPM7S0276V6AM", "tract_id": "36061030700", "city": "NEW YORK, NY", "zone_code": "R7A", "zone_category": "Residential", "ev_permitted": false}, "geometry": {"type": "Polygon", "coordinates": [[[-73.9154225284735, 40.8703774551275], [-73.9152353920452, 40.8705224197219], [-73.9155057135761, 40.8707199507668], [-73.9155365875489, 40.8706960329506], [-73.9155979133027, 40.8707408438462], [-73.9157536698716, 40.8706194272964], [-73.9154225284735, 40.8703774551275]]]}}, {"type": "Feature", "properties": {"zone_id": "0207AHOXFOXA0AWZPPEQHS", "tract_id": "36061030700", "city": "NEW YORK, NY", "zone_code": "R7D", "zone_category": "Residential", "ev_permitted": false}, "geometry": {"type": "Polygon", "coordinates": [[[-73.9151042732944, 40.8706239893106], [-73.9149768093421, 40.8707227290919], [-73.9152471299944, 40.8709202600322], [-73.9153745948487, 40.8708215206592], [-73.9151042732944, 40.8706239893106]]]}}, {"type": "Feature", "properties": {"zone_id": "0201LIR1OMGQ54Q3IEFMP8", "tract_id": "36061030700", "city": "NEW YORK, NY", "zone_code": "R7D", "zone_category": "Residential", "ev_permitted": false}, "geometry": {"type": "Polygon", "coordinates": [[[-73.9149768093421, 40.8707227290919], [-73.9148452089251, 40.8708246711312], [-73.9151155296009, 40.8710222023762], [-73.9152471299944, 40.8709202600322], [-73.9149768093421, 40.8707227290919]]]}}, {"type": "Feature", "properties": {"zone_id": "02076MF56TAZWWN4C0HJNM", "tract_id": "36061030700", "city": "NEW YORK, NY", "zone_code": "R7D", "zone_category": "Residential", "ev_permitted": false}, "geometry": {"type": "Polygon", "coordinates": [[[-73.9152353920452, 40.8705224197219], [-73.9151042732944, 40.8706239893106], [-73.9153745948487, 40.8708215206592], [-73.9155057135761, 40.8707199507668], [-73.9152353920452, 40.8705224197219]]]}}, {"type": "Feature", "properties": {"zone_id": "02016PJUZK7X3YZ7B1BG1C", "tract_id": "36061030700", "city": "NEW YORK, NY", "zone_code": "C4-4D", "zone_category": "Commercial", "ev_permitted": true}, "geometry": {"type": "Polygon", "coordinates": [[[-73.9148063366354, 40.8703657392027], [-73.9146500684739, 40.8705870156957], [-73.9148995213195, 40.8704048038925], [-73.9148063366354, 40.8703657392027]]]}}, {"type": "Feature", "properties": {"zone_id": "0201ZXJUB22VDUHN8XUCPW", "tract_id": "36061030700", "city": "NEW YORK, NY", "zone_code": "R7D", "zone_category": "Residential", "ev_permitted": false}, "geometry": {"type": "Polygon", "coordinates": [[[-73.9158046724685, 40.8700814269102], [-73.9156190488722, 40.8702252205275], [-73.9158882273264, 40.8704219158151], [-73.9160732497922, 40.8702776835867], [-73.9158046724685, 40.8700814269102]]]}}, {"type": "Feature", "properties": {"zone_id": "0202EO8HE5FRQ9S0QITO80", "tract_id": "36061030700", "city": "NEW YORK, NY", "zone_code": "R7D", "zone_category": "Residential", "ev_permitted": false}, "geometry": {"type": "Polygon", "coordinates": [[[-73.9156190488722, 40.8702252205275], [-73.9154225284735, 40.8703774551275], [-73.9156923422762, 40.8705746143734], [-73.9158882273264, 40.8704219158151], [-73.9156190488722, 40.8702252205275]]]}}, {"type": "Feature", "properties": {"zone_id": "0203L4K0G7F7EBD61MTV00", "tract_id": "36061030700", "city": "NEW YORK, NY", "zone_code": "C4-4D", "zone_category": "Commercial", "ev_permitted": true}, "geometry": {"type": "Polygon", "coordinates": [[[-73.9152425108618, 40.8697360609564], [-73.9149254590133, 40.8702246395955], [-73.9150626912076, 40.8702815514071], [-73.9155825004944, 40.8698770585306], [-73.9152425108618, 40.8697360609564]]]}}]}