{"type": "FeatureCollection", "features": [{"type": "Feature", "properties": {"zone_id": "0206G8J4HMPMOWPSJO65HZ", "tract_id": "17031070103", "city": "CHICAGO, IL", "zone_code": "RM-5", "zone_category": "Residential", "ev_permitted": false}, "geometry": {"type": "Polygon", "coordinates": [[[-87.643967424, 41.9278238680001], [-87.643838191, 41.927846802], [-87.643893154, 41.928044334], [-87.64402205, 41.9280201890001], [-87.643967424, 41.9278238680001]]]}}, {"type": "Feature", "properties": {"zone_id": "020200HNZATVWXQGUUUF2A", "tract_id": "17031070103", "city": "CHICAGO, IL", "zone_code": "RM-5", "zone_category": "Residential", "ev_permitted": false}, "geometry": {"type": "Polygon", "coordinates": [[[-87.644082566, 41.9277786210001], [-87.6439608439999, 41.9278002280001], [-87.64402205, 41.9280201890001], [-87.6441361999999, 41.9279988650001], [-87.644082566, 41.9277786210001]]]}}, {"type": "Feature", "properties": {"zone_id": "0202W5CVA1OME9ZOW8ICP0", "tract_id": "17031070103", "city": "CHICAGO, IL", "zone_code": "RM-6", "zone_category": "Residential", "ev_permitted": false}, "geometry": {"type": "Polygon", "coordinates": [[[-87.643540302, 41.9273767940001], [-87.643352783, 41.9273796190001], [-87.643622626, 41.9280992380001], [-87.643763629, 41.9280685260001], [-87.643797359, 41.9280621980001], [-87.643540302, 41.9273767940001]]]}}, {"type": "Feature", "properties": {"zone_id": "0202CZO30THZVNUH20QPXM", "tract_id": "17031070103", "city": "CHICAGO, IL", "zone_code": "RM-5", "zone_category": "Residential", "ev_permitted": false}, "geometry": {"type": "Polygon", "coordinates": [[[-87.6435701459999, 41.9273763140001], [-87.643540302, 41.9273767940001], [-87.643797359, 41.9280621980001], [-87.643893154, 41.928044334], [-87.643772384, 41.9276104590001], [-87.643648303, 41.927612348], [-87.6435701459999, 41.9273763140001]]]}}, {"type": "Feature", "properties": {"zone_id": "0205Y9B1ZFSBT8Y9KMMMGM", "tract_id": "17031070103", "city": "CHICAGO, IL", "zone_code": "RM-5", "zone_category": "Residential", "ev_permitted": false}, "geometry": {"type": "Polygon", "coordinates": [[[-87.644028368, 41.9275562330001], [-87.6436317169999, 41.927562304], [-87.643648303, 41.927612348], [-87.644040617, 41.9276063610001], [-87.644028368, 41.9275562330001]]]}}, {"type": "Feature", "properties": {"zone_id": "0207HEQ1669KLZNDYEV8IK", "tract_id": "17031070103", "city": "CHICAGO, IL", "zone_code": "RM-5", "zone_category": "Residential", "ev_permitted": false}, "geometry": {"type": "Polygon", "coordinates": [[[-87.644040617, 41.9276063610001], [-87.643907419, 41.9276084150001], [-87.6439608439999, 41.9278002280001], [-87.644082566, 41.9277786210001], [-87.644040617, 41.9276063610001]]]}}, {"type": "Feature", "properties": {"zone_id": "0200TPWPMPXSLI1U3S6JWY", "tract_id": "17031070103", "city": "CHICAGO, IL", "zone_code": "RM-5", "zone_category": "Residential", "ev_permitted": false}, "geometry": {"type": "Polygon", "coordinates": [[[-87.643945985, 41.9277467370001], [-87.643816681, 41.9277694510001], [-87.643838191, 41.927846802], [-87.643967424, 41.9278238680001], [-87.643945985, 41.9277467370001]]]}}, {"type": "Feature", "properties": {"zone_id": "0207NPPIRKS3IBY5HI9AU9", "tract_id": "17031070103", "city": "CHICAGO, IL", "zone_code": "RM-5", "zone_category": "Residential", "ev_permitted": false}, "geometry": {"type": "Polygon", "coordinates": [[[-87.643907419, 41.9276084150001], [-87.643772384, 41.9276104590001], [-87.643816681, 41.9277694510001], [-87.643945985, 41.9277467370001], [-87.643907419, 41.9276084150001]]]}}, {"type": "Feature", "properties": {"zone_id": "0206QAWIBFDOJ77BEP5U3C", "tract_id": "17031070103", "city": "CHICAGO, IL", "zone_code": "RM-5", "zone_category": "Residential", "ev_permitted": false}, "geometry": {"type": "Polygon", "coordinates": [[[-87.64398304, 41.927370013], [-87.6435701459999, 41.9273763140001], [-87.643585308, 41.927422069], [-87.6439942329999, 41.9274158540001], [-87.64398304, 41.927370013]]]}}, {"type": "Feature", "properties": {"zone_id": "0204GDUIVS3GJVVV3Q704Q", "tract_id": "17031070103", "city": "CHICAGO, IL", "zone_code": "RM-5", "zone_category": "Residential", "ev_permitted": false}, "geometry": {"type": "Polygon", "coordinates": [[[-87.6439942329999, 41.9274158540001], [-87.643585308, 41.927422069], [-87.643600469, 41.9274678790001], [-87.644005352, 41.927461694], [-87.6439942329999, 41.9274158540001]]]}}, {"type": "Feature", "properties": {"zone_id": "0205R8TK6LXESR0RCPEDM6", "tract_id": "17031070103", "city": "CHICAGO, IL", "zone_code": "RM-5", "zone_category": "Residential", "ev_permitted": false}, "geometry": {"type": "Polygon", "coordinates": [[[-87.644005352, 41.927461694], [-87.643600469, 41.9274678790001], [-87.643616057, 41.927515064], [-87.644016897, 41.927508909], [-87.644005352, 41.927461694]]]}}, {"type": "Feature", "properties": {"zone_id": "0206C6Y4UOGOT1WH0HYI99", "tract_id": "17031070103", "city": "CHICAGO, IL", "zone_code": "RM-5", "zone_category": "Residential", "ev_permitted": false}, "geometry": {"type": "Polygon", "coordinates": [[[-87.644016897, 41.927508909], [-87.643616057, 41.927515064], [-87.6436317169999, 41.927562304], [-87.644028368, 41.9275562330001], [-87.644016897, 41.927508909]]]}}, {"type": "Feature", "properties": {"zone_id": "02075JAB45ZGOCGF7NL8TT", "tract_id": "17031070103", "city": "CHICAGO, IL", "zone_code": "RM-5", "zone_category": "Residential", "ev_permitted": false}, "geometry": {"type": "Polygon", "coordinates": [[[-87.6437497419999, 41.92683294], [-87.6436543299999, 41.926834398], [-87.643669238, 41.9273199400001], [-87.643764651, 41.927318482], [-87.6437497419999, 41.92683294]]]}}, {"type": "Feature", "properties": {"zone_id": "0206O799TTRY462ORMR0UX", "tract_id": "17031070103", "city": "CHICAGO, IL", "zone_code": "RM-5", "zone_category": "Residential", "ev_permitted": false}, "geometry": {"type": "Polygon", "coordinates": [[[-87.643562446, 41.9268357660001], [-87.6433272949999, 41.9268393470001], [-87.6433422009999, 41.9273248900001], [-87.6435773539999, 41.927321308], [-87.643562446, 41.9268357660001]]]}}, {"type": "Feature", "properties": {"zone_id": "020621CS4JCUCZWL1KPZG1", "tract_id": "17031070103", "city": "CHICAGO, IL", "zone_code": "RM-5", "zone_category": "Residential", "ev_permitted": false}, "geometry": {"type": "Polygon", "coordinates": [[[-87.6436543299999, 41.926834398], [-87.643562446, 41.9268357660001], [-87.6435773539999, 41.927321308], [-87.643669238, 41.9273199400001], [-87.6436543299999, 41.926834398]]]}}, {"type": "Feature", "properties": {"zone_id": "0205X70EVFVMWLEM52F6ND", "tract_id": "17031070103", "city": "CHICAGO, IL", "zone_code": "RM-5", "zone_category": "Residential", "ev_permitted": false}, "geometry": {"type": "Polygon", "coordinates": [[[-87.6439414449999, 41.927205933], [-87.643761277, 41.9272086930001], [-87.643764651, 41.927318482], [-87.643944819, 41.9273157220001], [-87.6439414449999, 41.927205933]]]}}, {"type": "Feature", "properties": {"zone_id": "0204O1M0V4FY62G5UJTXOK", "tract_id": "17031070103", "city": "CHICAGO, IL", "zone_code": "RM-5", "zone_category": "Residential", "ev_permitted": false}, "geometry": {"type": "Polygon", "coordinates": [[[-87.6439397569999, 41.927151038], [-87.6437595899999, 41.9271537980001], [-87.643761277, 41.9272086930001], [-87.6439414449999, 41.927205933], [-87.6439397569999, 41.927151038]]]}}, {"type": "Feature", "properties": {"zone_id": "0202XOEQUHQKHAU24MOPRE", "tract_id": "17031070103", "city": "CHICAGO, IL", "zone_code": "RM-5", "zone_category": "Residential", "ev_permitted": false}, "geometry": {"type": "Polygon", "coordinates": [[[-87.64393807, 41.9270961440001], [-87.6437579019999, 41.927098904], [-87.6437595899999, 41.9271537980001], [-87.6439397569999, 41.927151038], [-87.64393807, 41.9270961440001]]]}}, {"type": "Feature", "properties": {"zone_id": "020123Q81EKZLX94966RCW", "tract_id": "17031070103", "city": "CHICAGO, IL", "zone_code": "RM-5", "zone_category": "Residential", "ev_permitted": false}, "geometry": {"type": "Polygon", "coordinates": [[[-87.643929909, 41.92683018], [-87.643872867, 41.926831045], [-87.643881028, 41.9270970090001], [-87.64393807, 41.9270961440001], [-87.643929909, 41.92683018]]]}}, {"type": "Feature", "properties": {"zone_id": "0201L5IXQIYLLCQEBR739K", "tract_id": "17031070103", "city": "CHICAGO, IL", "zone_code": "RM-5", "zone_category": "Residential", "ev_permitted": false}, "geometry": {"type": "Polygon", "coordinates": [[[-87.643872867, 41.926831045], [-87.643811929, 41.926831996], [-87.64382009, 41.92709796], [-87.643881028, 41.9270970090001], [-87.643872867, 41.926831045]]]}}, {"type": "Feature", "properties": {"zone_id": "0202HOIBBVNB015EUB265O", "tract_id": "17031070103", "city": "CHICAGO, IL", "zone_code": "RM-5", "zone_category": "Residential", "ev_permitted": false}, "geometry": {"type": "Polygon", "coordinates": [[[-87.643811929, 41.926831996], [-87.6437497419999, 41.92683294], [-87.6437579019999, 41.927098904], [-87.64382009, 41.92709796], [-87.643811929, 41.926831996]]]}}, {"type": "Feature", "properties": {"zone_id": "020285VC0372IC29MEWEB4", "tract_id": "17031070103", "city": "CHICAGO, IL", "zone_code": "B1-3", "zone_category": "Commercial", "ev_permitted": true}, "geometry": {"type": "Polygon", "coordinates": [[[-87.642763071, 41.9278615810001], [-87.642093756, 41.9280777500001], [-87.64231424, 41.92845284], [-87.6426324669999, 41.928352176], [-87.642991353, 41.9282499990001], [-87.642763071, 41.9278615810001]]]}}, {"type": "Feature", "properties": {"zone_id": "02002DNEL8B0JUO77A4ML4", "tract_id": "17031070103", "city": "CHICAGO, IL", "zone_code": "B1-3", "zone_category": "Commercial", "ev_permitted": true}, "geometry": {"type": "Polygon", "coordinates": [[[-87.642168183, 41.9277260590001], [-87.641943278, 41.927821851], [-87.642093756, 41.9280777500001], [-87.642330064, 41.9280014560001], [-87.642168183, 41.9277260590001]]]}}, {"type": "Feature", "properties": {"zone_id": "0205CCA3IRS5E0IKJEO6T2", "tract_id": "17031070103", "city": "CHICAGO, IL", "zone_code": "RM-6", "zone_category": "Residential", "ev_permitted": false}, "geometry": {"type": "Polygon", "coordinates": [[[-87.643352783, 41.9273796190001], [-87.642953634, 41.9273857270001], [-87.643312377, 41.9281692180001], [-87.64339484, 41.9281488020001], [-87.643622626, 41.9280992380001], [-87.643352783, 41.9273796190001]]]}}, {"type": "Feature", "properties": {"zone_id": "0201MKPU4Q8V0G0C34MGBK", "tract_id": "17031070103", "city": "CHICAGO, IL", "zone_code": "RM-6", "zone_category": "Residential", "ev_permitted": false}, "geometry": {"type": "Polygon", "coordinates": [[[-87.642953634, 41.9273857270001], [-87.6425671279999, 41.9273915800001], [-87.6430608599999, 41.928231537], [-87.643312377, 41.9281692180001], [-87.642953634, 41.9273857270001]]]}}, {"type": "Feature", "properties": {"zone_id": "020752FTZESL8HG6FND8G0", "tract_id": "17031070103", "city": "CHICAGO, IL", "zone_code": "B1-3", "zone_category": "Commercial", "ev_permitted": true}, "geometry": {"type": "Polygon", "coordinates": [[[-87.642574775, 41.927541186], [-87.642211762, 41.9276584290001], [-87.642205844, 41.9276483510001], [-87.642117118, 41.927677015], [-87.642145049, 41.9277245480001], [-87.6421628429999, 41.927716972], [-87.642330064, 41.9280014560001], [-87.642763071, 41.9278615810001], [-87.642574775, 41.927541186]]]}}, {"type": "Feature", "properties": {"zone_id": "0200UTP1LMGVS9KSAVVNWG", "tract_id": "17031070103", "city": "CHICAGO, IL", "zone_code": "B1-3", "zone_category": "Commercial", "ev_permitted": true}, "geometry": {"type": "Polygon", "coordinates": [[[-87.6425384, 41.9274793870001], [-87.641869088, 41.927695554], [-87.641943278, 41.927821851], [-87.642168183, 41.9277260590001], [-87.6421628429999, 41.927716972], [-87.642145049, 41.9277245480001], [-87.642117118, 41.927677015], [-87.642205844, 41.9276483510001], [-87.642211762, 41.9276584290001], [-87.642574775, 41.927541186], [-87.6425384, 41.9274793870001]]]}}, {"type": "Feature", "properties": {"zone_id": "02010KH3D9QOIWBV05I9GU", "tract_id": "17031070103", "city": "CHICAGO, IL", "zone_code": "B1-3", "zone_category": "Commercial", "ev_permitted": true}, "geometry": {"type": "Polygon", "coordinates": [[[-87.642479147, 41.927378537], [-87.641944731, 41.9275511700001], [-87.642002684, 41.927649817], [-87.641867788, 41.9276934060001], [-87.641869088, 41.927695554], [-87.6425384, 41.9274793870001], [-87.642479147, 41.927378537]]]}}, {"type": "Feature", "properties": {"zone_id": "0205XIKEBXDR87BJSXSPX4", "tract_id": "17031070103", "city": "CHICAGO, IL", "zone_code": "B1-3", "zone_category": "Commercial", "ev_permitted": true}, "geometry": {"type": "Polygon", "coordinates": [[[-87.642313083, 41.927095926], [-87.641645287, 41.927314955], [-87.6418098359999, 41.927594759], [-87.642479147, 41.927378537], [-87.642313083, 41.927095926]]]}}, {"type": "Feature", "properties": {"zone_id": "0200CEQ3FL9RFRLBFF28EL", "tract_id": "17031070103", "city": "CHICAGO, IL", "zone_code": "RM-5", "zone_category": "Residential", "ev_permitted": false}, "geometry": {"type": "Polygon", "coordinates": [[[-87.6433272949999, 41.9268393470001], [-87.643316269, 41.9268395010001], [-87.643331175, 41.927325044], [-87.6433422009999, 41.9273248900001], [-87.6433272949999, 41.9268393470001]]]}}, {"type": "Feature", "properties": {"zone_id": "020415W21F07UXA8FD6ON0", "tract_id": "17031070103", "city": "CHICAGO, IL", "zone_code": "RM-5", "zone_category": "Residential", "ev_permitted": false}, "geometry": {"type": "Polygon", "coordinates": [[[-87.643316269, 41.9268395010001], [-87.643255626, 41.9268403990001], [-87.643270531, 41.927325942], [-87.643331175, 41.927325044], [-87.643316269, 41.9268395010001]]]}}, {"type": "Feature", "properties": {"zone_id": "02019DGM2FQ6K7MPUW7CKK", "tract_id": "17031070103", "city": "CHICAGO, IL", "zone_code": "RM-5", "zone_category": "Residential", "ev_permitted": false}, "geometry": {"type": "Polygon", "coordinates": [[[-87.643255626, 41.9268403990001], [-87.6430417189999, 41.926843723], [-87.643056696, 41.927329211], [-87.643270531, 41.927325942], [-87.643255626, 41.9268403990001]]]}}, {"type": "Feature", "properties": {"zone_id": "02043LR03XFHRUY9BBD6GT", "tract_id": "17031070103", "city": "CHICAGO, IL", "zone_code": "RM-6", "zone_category": "Residential", "ev_permitted": false}, "geometry": {"type": "Polygon", "coordinates": [[[-87.6430417189999, 41.926843723], [-87.6429138889999, 41.926845644], [-87.642928793, 41.9273311310001], [-87.643056696, 41.927329211], [-87.6430417189999, 41.926843723]]]}}, {"type": "Feature", "properties": {"zone_id": "0202CSVT2CMUHI096JZMAD", "tract_id": "17031070103", "city": "CHICAGO, IL", "zone_code": "RM-6", "zone_category": "Residential", "ev_permitted": false}, "geometry": {"type": "Polygon", "coordinates": [[[-87.6429138889999, 41.926845644], [-87.6426438239999, 41.926849728], [-87.6426587239999, 41.9273352700001], [-87.642928793, 41.9273311310001], [-87.6429138889999, 41.926845644]]]}}, {"type": "Feature", "properties": {"zone_id": "0203W5ZWHUP7UP16NG9U69", "tract_id": "17031070103", "city": "CHICAGO, IL", "zone_code": "RM-6", "zone_category": "Residential", "ev_permitted": false}, "geometry": {"type": "Polygon", "coordinates": [[[-87.6426438239999, 41.926849728], [-87.642252175, 41.926855714], [-87.642535083, 41.927337161], [-87.6426587239999, 41.9273352700001], [-87.6426438239999, 41.926849728]]]}}, {"type": "Feature", "properties": {"zone_id": "0203WHHIUW7PPJNVFV4IHF", "tract_id": "17031070103", "city": "CHICAGO, IL", "zone_code": "RM-6", "zone_category": "Residential", "ev_permitted": false}, "geometry": {"type": "Polygon", "coordinates": [[[-87.642167948, 41.9268490590001], [-87.642043573, 41.9268917800001], [-87.6421475709999, 41.9270686950001], [-87.642273172, 41.9270281230001], [-87.642167948, 41.9268490590001]]]}}, {"type": "Feature", "properties": {"zone_id": "0206XHD5556J02JFLM6LG0", "tract_id": "17031070103", "city": "CHICAGO, IL", "zone_code": "RM-6", "zone_category": "Residential", "ev_permitted": false}, "geometry": {"type": "Polygon", "coordinates": [[[-87.642043573, 41.9268917800001], [-87.642002632, 41.9269058580001], [-87.642146541, 41.927150521], [-87.642313083, 41.927095926], [-87.642273172, 41.9270281230001], [-87.6421475709999, 41.9270686950001], [-87.642043573, 41.9268917800001]]]}}, {"type": "Feature", "properties": {"zone_id": "0207FZZQDRHZOO9UM56UIO", "tract_id": "17031070103", "city": "CHICAGO, IL", "zone_code": "B1-3", "zone_category": "Commercial", "ev_permitted": true}, "geometry": {"type": "Polygon", "coordinates": [[[-87.641944731, 41.9275511700001], [-87.6418098359999, 41.927594759], [-87.641867788, 41.9276934060001], [-87.642002684, 41.927649817], [-87.641944731, 41.9275511700001]]]}}, {"type": "Feature", "properties": {"zone_id": "0204RNY128SHNZ21S3EGJ1", "tract_id": "17031070103", "city": "CHICAGO, IL", "zone_code": "RM-5", "zone_category": "Residential", "ev_permitted": false}, "geometry": {"type": "Polygon", "coordinates": [[[-87.641914035, 41.9269362790001], [-87.641831856, 41.926964544], [-87.641974392, 41.927207003], [-87.6420571469999, 41.9271798400001], [-87.641914035, 41.9269362790001]]]}}, {"type": "Feature", "properties": {"zone_id": "0206TTVODOZ9RSRGGZBF34", "tract_id": "17031070103", "city": "CHICAGO, IL", "zone_code": "B1-3", "zone_category": "Commercial", "ev_permitted": true}, "geometry": {"type": "Polygon", "coordinates": [[[-87.641831856, 41.926964544], [-87.6415052789999, 41.9270767360001], [-87.641645287, 41.927314955], [-87.641974392, 41.927207003], [-87.641831856, 41.926964544]]]}}, {"type": "Feature", "properties": {"zone_id": "0205KDNJ1I2N631EJ5ACXM", "tract_id": "17031070103", "city": "CHICAGO, IL", "zone_code": "RM-5", "zone_category": "Residential", "ev_permitted": false}, "geometry": {"type": "Polygon", "coordinates": [[[-87.642002632, 41.9269058580001], [-87.641914035, 41.9269362790001], [-87.6420571469999, 41.9271798400001], [-87.642146541, 41.927150521], [-87.642002632, 41.9269058580001]]]}}, {"type": "Feature", "properties": {"zone_id": "0202KCRV1BIBYGHMAWIFZG", "tract_id": "17031070103", "city": "CHICAGO, IL", "zone_code": "B1-2", "zone_category": "Commercial", "ev_permitted": true}, "geometry": {"type": "Polygon", "coordinates": [[[-87.6416297919999, 41.9267015280001], [-87.6413405169999, 41.9267964360001], [-87.641407778, 41.926910891], [-87.641694889, 41.926812238], [-87.6416297919999, 41.9267015280001]]]}}, {"type": "Feature", "properties": {"zone_id": "0202VXMZ5I5DV8REY6UFOS", "tract_id": "17031070103", "city": "CHICAGO, IL", "zone_code": "RM-5", "zone_category": "Residential", "ev_permitted": false}, "geometry": {"type": "Polygon", "coordinates": [[[-87.643540694, 41.926173729], [-87.643448441, 41.9261753150001], [-87.643463105, 41.9266561360001], [-87.643555356, 41.92665477], [-87.643540694, 41.926173729]]]}}, {"type": "Feature", "properties": {"zone_id": "02045UC3AV8JSGVLJNGCT9", "tract_id": "17031070103", "city": "CHICAGO, IL", "zone_code": "RM-5", "zone_category": "Residential", "ev_permitted": false}, "geometry": {"type": "Polygon", "coordinates": [[[-87.643914694, 41.926332012], [-87.64376709, 41.926334528], [-87.643776759, 41.9266513790001], [-87.643924362, 41.926649137], [-87.643914694, 41.926332012]]]}}, {"type": "Feature", "properties": {"zone_id": "0206K4E993KG7SL15VBKHJ", "tract_id": "17031070103", "city": "CHICAGO, IL", "zone_code": "RM-5", "zone_category": "Residential", "ev_permitted": false}, "geometry": {"type": "Polygon", "coordinates": [[[-87.64376709, 41.926334528], [-87.643693288, 41.926335786], [-87.643702957, 41.926652528], [-87.643776759, 41.9266513790001], [-87.64376709, 41.926334528]]]}}, {"type": "Feature", "properties": {"zone_id": "0201ZD34OWL6TYU58SMYQM", "tract_id": "17031070103", "city": "CHICAGO, IL", "zone_code": "RM-5", "zone_category": "Residential", "ev_permitted": false}, "geometry": {"type": "Polygon", "coordinates": [[[-87.643693288, 41.926335786], [-87.643619485, 41.926337045], [-87.643629158, 41.9266536220001], [-87.643702957, 41.926652528], [-87.643693288, 41.926335786]]]}}, {"type": "Feature", "properties": {"zone_id": "0206UBPPVE729DXTA1QDMI", "tract_id": "17031070103", "city": "CHICAGO, IL", "zone_code": "RM-5", "zone_category": "Residential", "ev_permitted": false}, "geometry": {"type": "Polygon", "coordinates": [[[-87.643619485, 41.926337045], [-87.643545683, 41.926338302], [-87.643555356, 41.92665477], [-87.643629158, 41.9266536220001], [-87.643619485, 41.926337045]]]}}, {"type": "Feature", "properties": {"zone_id": "02004Y27XBWSPQW46NJHZR", "tract_id": "17031070103", "city": "CHICAGO, IL", "zone_code": "RM-5", "zone_category": "Residential", "ev_permitted": false}, "geometry": {"type": "Polygon", "coordinates": [[[-87.643912566, 41.926263448], [-87.643543628, 41.9262697390001], [-87.643545683, 41.926338302], [-87.643914694, 41.926332012], [-87.643912566, 41.926263448]]]}}, {"type": "Feature", "properties": {"zone_id": "0207GXB5EIKB8FCWPSX5W5", "tract_id": "17031070103", "city": "CHICAGO, IL", "zone_code": "RM-5", "zone_category": "Residential", "ev_permitted": false}, "geometry": {"type": "Polygon", "coordinates": [[[-87.6435237169999, 41.9256347720001], [-87.6434314649999, 41.925636303], [-87.643445798, 41.926120525], [-87.6435380499999, 41.926118939], [-87.6435237169999, 41.9256347720001]]]}}, {"type": "Feature", "properties": {"zone_id": "0201XMHZSGNVECIUX9SE4O", "tract_id": "17031070103", "city": "CHICAGO, IL", "zone_code": "RM-5", "zone_category": "Residential", "ev_permitted": false}, "geometry": {"type": "Polygon", "coordinates": [[[-87.643909631, 41.9261674380001], [-87.643540694, 41.926173729], [-87.643543628, 41.9262697390001], [-87.643912566, 41.926263448], [-87.643909631, 41.9261674380001]]]}}, {"type": "Feature", "properties": {"zone_id": "0207MUNH3VG9KOPMZM4OWZ", "tract_id": "17031070103", "city": "CHICAGO, IL", "zone_code": "RM-5", "zone_category": "Residential", "ev_permitted": false}, "geometry": {"type": "Polygon", "coordinates": [[[-87.6439058179999, 41.92604376], [-87.643536, 41.9260500460001], [-87.6435380499999, 41.926118939], [-87.643907943, 41.926112598], [-87.6439058179999, 41.92604376]]]}}, {"type": "Feature", "properties": {"zone_id": "0206WUE8W0FL9H4C8Q686U", "tract_id": "17031070103", "city": "CHICAGO, IL", "zone_code": "RM-5", "zone_category": "Residential", "ev_permitted": false}, "geometry": {"type": "Polygon", "coordinates": [[[-87.643818994, 41.9256299040001], [-87.64374556, 41.9256311090001], [-87.643754906, 41.9259371470001], [-87.64382834, 41.925935941], [-87.643818994, 41.9256299040001]]]}}, {"type": "Feature", "properties": {"zone_id": "02075HGFUC8MEDS8NAWZ3I", "tract_id": "17031070103", "city": "CHICAGO, IL", "zone_code": "RM-5", "zone_category": "Residential", "ev_permitted": false}, "geometry": {"type": "Polygon", "coordinates": [[[-87.643898484, 41.9258033770001], [-87.6438243159999, 41.925804579], [-87.64382834, 41.925935941], [-87.643902509, 41.9259346850001], [-87.643898484, 41.9258033770001]]]}}, {"type": "Feature", "properties": {"zone_id": "0204Q0SNW6MH9E3UNR6NX5", "tract_id": "17031070103", "city": "CHICAGO, IL", "zone_code": "RM-5", "zone_category": "Residential", "ev_permitted": false}, "geometry": {"type": "Polygon", "coordinates": [[[-87.64374556, 41.9256311090001], [-87.6436721269999, 41.925632315], [-87.643681472, 41.9259383520001], [-87.643754906, 41.9259371470001], [-87.64374556, 41.9256311090001]]]}}, {"type": "Feature", "properties": {"zone_id": "0205E8LZPCUMQ7OBU7VJUP", "tract_id": "17031070103", "city": "CHICAGO, IL", "zone_code": "RM-5", "zone_category": "Residential", "ev_permitted": false}, "geometry": {"type": "Polygon", "coordinates": [[[-87.6436721269999, 41.925632315], [-87.64359568, 41.9256336120001], [-87.6436050249999, 41.9259395940001], [-87.643681472, 41.9259383520001], [-87.6436721269999, 41.925632315]]]}}, {"type": "Feature", "properties": {"zone_id": "0205NPRMZPI84QY1UZR507", "tract_id": "17031070103", "city": "CHICAGO, IL", "zone_code": "RM-5", "zone_category": "Residential", "ev_permitted": false}, "geometry": {"type": "Polygon", "coordinates": [[[-87.643902509, 41.9259346850001], [-87.643532767, 41.9259408070001], [-87.643536, 41.9260500460001], [-87.6439058179999, 41.92604376], [-87.643902509, 41.9259346850001]]]}}, {"type": "Feature", "properties": {"zone_id": "0206JBVNA7C4U3W689ILVF", "tract_id": "17031070103", "city": "CHICAGO, IL", "zone_code": "RM-5", "zone_category": "Residential", "ev_permitted": false}, "geometry": {"type": "Polygon", "coordinates": [[[-87.64359568, 41.9256336120001], [-87.6435237169999, 41.9256347720001], [-87.643532767, 41.9259408070001], [-87.6436050249999, 41.9259395940001], [-87.64359568, 41.9256336120001]]]}}, {"type": "Feature", "properties": {"zone_id": "0206U3TF1MLUTWV4IXFRID", "tract_id": "17031070103", "city": "CHICAGO, IL", "zone_code": "RM-5", "zone_category": "Residential", "ev_permitted": false}, "geometry": {"type": "Polygon", "coordinates": [[[-87.643893162, 41.925628703], [-87.643818994, 41.9256299040001], [-87.6438243159999, 41.925804579], [-87.643898484, 41.9258033770001], [-87.643893162, 41.925628703]]]}}, {"type": "Feature", "properties": {"zone_id": "02054H2G28RTZECMTW13U3", "tract_id": "17031070103", "city": "CHICAGO, IL", "zone_code": "RM-5", "zone_category": "Residential", "ev_permitted": false}, "geometry": {"type": "Polygon", "coordinates": [[[-87.642799071, 41.926186396], [-87.642725195, 41.9261876520001], [-87.642739867, 41.9266671560001], [-87.642813742, 41.926666009], [-87.642799071, 41.926186396]]]}}, {"type": "Feature", "properties": {"zone_id": "0203CD7TA8P0ETTWLZEIDI", "tract_id": "17031070103", "city": "CHICAGO, IL", "zone_code": "RM-5", "zone_category": "Residential", "ev_permitted": false}, "geometry": {"type": "Polygon", "coordinates": [[[-87.643448441, 41.9261753150001], [-87.643356188, 41.9261769020001], [-87.643370853, 41.926657558], [-87.643463105, 41.9266561360001], [-87.643448441, 41.9261753150001]]]}}, {"type": "Feature", "properties": {"zone_id": "0201JMXZK2N6GKV8MUQ7Y3", "tract_id": "17031070103", "city": "CHICAGO, IL", "zone_code": "RM-5", "zone_category": "Residential", "ev_permitted": false}, "geometry": {"type": "Polygon", "coordinates": [[[-87.643356188, 41.9261769020001], [-87.643171756, 41.9261800190001], [-87.643186424, 41.9266603460001], [-87.643370853, 41.926657558], [-87.643356188, 41.9261769020001]]]}}, {"type": "Feature", "properties": {"zone_id": "0201N4P17DF0DV4OZMVRKX", "tract_id": "17031070103", "city": "CHICAGO, IL", "zone_code": "RM-5", "zone_category": "Residential", "ev_permitted": false}, "geometry": {"type": "Polygon", "coordinates": [[[-87.643171756, 41.9261800190001], [-87.642872946, 41.9261851380001], [-87.6428876159999, 41.926664916], [-87.643186424, 41.9266603460001], [-87.643171756, 41.9261800190001]]]}}, {"type": "Feature", "properties": {"zone_id": "0200D9WTPTBBD4L0BIOYZG", "tract_id": "17031070103", "city": "CHICAGO, IL", "zone_code": "RM-5", "zone_category": "Residential", "ev_permitted": false}, "geometry": {"type": "Polygon", "coordinates": [[[-87.642872946, 41.9261851380001], [-87.642799071, 41.926186396], [-87.642813742, 41.926666009], [-87.6428876159999, 41.926664916], [-87.642872946, 41.9261851380001]]]}}, {"type": "Feature", "properties": {"zone_id": "0200JLXQPM4B8EUVEUAC8W", "tract_id": "17031070103", "city": "CHICAGO, IL", "zone_code": "RM-5", "zone_category": "Residential", "ev_permitted": false}, "geometry": {"type": "Polygon", "coordinates": [[[-87.642725195, 41.9261876520001], [-87.6426513929999, 41.9261889100001], [-87.642665992, 41.926668249], [-87.642739867, 41.9266671560001], [-87.642725195, 41.9261876520001]]]}}, {"type": "Feature", "properties": {"zone_id": "0205V7RO0EFSHLW57A1A5P", "tract_id": "17031070103", "city": "CHICAGO, IL", "zone_code": "RM-5", "zone_category": "Residential", "ev_permitted": false}, "geometry": {"type": "Polygon", "coordinates": [[[-87.6426513929999, 41.9261889100001], [-87.642577517, 41.9261901670001], [-87.6425921169999, 41.9266693960001], [-87.642665992, 41.926668249], [-87.6426513929999, 41.9261889100001]]]}}, {"type": "Feature", "properties": {"zone_id": "0206T5899MKN95HB2IJ52G", "tract_id": "17031070103", "city": "CHICAGO, IL", "zone_code": "B3-1", "zone_category": "Commercial", "ev_permitted": true}, "geometry": {"type": "Polygon", "coordinates": [[[-87.642577517, 41.9261901670001], [-87.6418680899999, 41.9262022520001], [-87.6421466639999, 41.926676156], [-87.6425921169999, 41.9266693960001], [-87.642577517, 41.9261901670001]]]}}, {"type": "Feature", "properties": {"zone_id": "0205YD69A9R1OD176A7JVM", "tract_id": "17031070103", "city": "CHICAGO, IL", "zone_code": "RM-5", "zone_category": "Residential", "ev_permitted": false}, "geometry": {"type": "Polygon", "coordinates": [[[-87.6430053449999, 41.9256433460001], [-87.6428559779999, 41.9256458520001], [-87.6428703029999, 41.926130293], [-87.643019671, 41.926127788], [-87.6430053449999, 41.9256433460001]]]}}, {"type": "Feature", "properties": {"zone_id": "0203PVO1ZQS0GGE5P7MUSQ", "tract_id": "17031070103", "city": "CHICAGO, IL", "zone_code": "RM-5", "zone_category": "Residential", "ev_permitted": false}, "geometry": {"type": "Polygon", "coordinates": [[[-87.6434314649999, 41.925636303], [-87.6433392869999, 41.925637835], [-87.643353619, 41.926122057], [-87.643445798, 41.926120525], [-87.6434314649999, 41.925636303]]]}}, {"type": "Feature", "properties": {"zone_id": "0206DIE4G1QBZ6MGK5UZEY", "tract_id": "17031070103", "city": "CHICAGO, IL", "zone_code": "RM-5", "zone_category": "Residential", "ev_permitted": false}, "geometry": {"type": "Polygon", "coordinates": [[[-87.6433392869999, 41.925637835], [-87.643247036, 41.925639366], [-87.643261366, 41.9261236420001], [-87.643353619, 41.926122057], [-87.6433392869999, 41.925637835]]]}}, {"type": "Feature", "properties": {"zone_id": "0201BVZIUNDS21SZDDPWWZ", "tract_id": "17031070103", "city": "CHICAGO, IL", "zone_code": "RM-5", "zone_category": "Residential", "ev_permitted": false}, "geometry": {"type": "Polygon", "coordinates": [[[-87.643247036, 41.925639366], [-87.643154784, 41.9256408970001], [-87.6431691129999, 41.926125229], [-87.643261366, 41.9261236420001], [-87.643247036, 41.925639366]]]}}, {"type": "Feature", "properties": {"zone_id": "0206TYZVSF81UTVWZPK4NT", "tract_id": "17031070103", "city": "CHICAGO, IL", "zone_code": "RM-5", "zone_category": "Residential", "ev_permitted": false}, "geometry": {"type": "Polygon", "coordinates": [[[-87.643154784, 41.9256408970001], [-87.6430053449999, 41.9256433460001], [-87.643019671, 41.926127788], [-87.6431691129999, 41.926125229], [-87.643154784, 41.9256408970001]]]}}, {"type": "Feature", "properties": {"zone_id": "0206JKY8GDXJ7CWH6O53JR", "tract_id": "17031070103", "city": "CHICAGO, IL", "zone_code": "RM-5", "zone_category": "Residential", "ev_permitted": false}, "geometry": {"type": "Polygon", "coordinates": [[[-87.6428559779999, 41.9256458520001], [-87.642376418, 41.925653724], [-87.642390737, 41.92613844], [-87.6428703029999, 41.926130293], [-87.6428559779999, 41.9256458520001]]]}}, {"type": "Feature", "properties": {"zone_id": "0207JJRVQOF3EIXTQ82AAM", "tract_id": "17031070103", "city": "CHICAGO, IL", "zone_code": "RM-5", "zone_category": "Residential", "ev_permitted": false}, "geometry": {"type": "Polygon", "coordinates": [[[-87.642376418, 41.925653724], [-87.642284166, 41.925655254], [-87.642298485, 41.9261400250001], [-87.642390737, 41.92613844], [-87.642376418, 41.925653724]]]}}, {"type": "Feature", "properties": {"zone_id": "0201U38DX66VYSCMCBMR3V", "tract_id": "17031070103", "city": "CHICAGO, IL", "zone_code": "RM-5", "zone_category": "Residential", "ev_permitted": false}, "geometry": {"type": "Polygon", "coordinates": [[[-87.642284166, 41.925655254], [-87.642191915, 41.9256567850001], [-87.642206232, 41.926141611], [-87.642298485, 41.9261400250001], [-87.642284166, 41.925655254]]]}}, {"type": "Feature", "properties": {"zone_id": "0201KVTIRUBZOKTRV2RKQ8", "tract_id": "17031070103", "city": "CHICAGO, IL", "zone_code": "RM-5", "zone_category": "Residential", "ev_permitted": false}, "geometry": {"type": "Polygon", "coordinates": [[[-87.642191915, 41.9256567850001], [-87.641915234, 41.9256613750001], [-87.6419295469999, 41.9261463660001], [-87.642206232, 41.926141611], [-87.642191915, 41.9256567850001]]]}}, {"type": "Feature", "properties": {"zone_id": "0207LBE8TQOO6VRYGS8C3F", "tract_id": "17031070103", "city": "CHICAGO, IL", "zone_code": "B1-2", "zone_category": "Commercial", "ev_permitted": true}, "geometry": {"type": "Polygon", "coordinates": [[[-87.641809338, 41.9262390000001], [-87.6411416229999, 41.9264580270001], [-87.641186295, 41.9265340370001], [-87.641854011, 41.9263149550001], [-87.641809338, 41.9262390000001]]]}}, {"type": "Feature", "properties": {"zone_id": "02040IZSNA6LV08X9VLURE", "tract_id": "17031070103", "city": "CHICAGO, IL", "zone_code": "RM-5", "zone_category": "Residential", "ev_permitted": false}, "geometry": {"type": "Polygon", "coordinates": [[[-87.641854011, 41.9263149550001], [-87.641186295, 41.9265340370001], [-87.641235729, 41.9266181990001], [-87.6419034459999, 41.926399116], [-87.641854011, 41.9263149550001]]]}}, {"type": "Feature", "properties": {"zone_id": "0200BKGOOMIY3QNO4W9MST", "tract_id": "17031070103", "city": "CHICAGO, IL", "zone_code": "RM-5", "zone_category": "Residential", "ev_permitted": false}, "geometry": {"type": "Polygon", "coordinates": [[[-87.6419034459999, 41.926399116], [-87.641829468, 41.9264234240001], [-87.6419969729999, 41.92670846], [-87.642070446, 41.926683215], [-87.6419034459999, 41.926399116]]]}}, {"type": "Feature", "properties": {"zone_id": "02005G0FUCWISD3P94PWH4", "tract_id": "17031070103", "city": "CHICAGO, IL", "zone_code": "RM-5", "zone_category": "Residential", "ev_permitted": false}, "geometry": {"type": "Polygon", "coordinates": [[[-87.641829468, 41.9264234240001], [-87.6417694309999, 41.926443095], [-87.641937441, 41.926728902], [-87.6419969729999, 41.92670846], [-87.641829468, 41.9264234240001]]]}}, {"type": "Feature", "properties": {"zone_id": "0201Z40WTT6ZD3DK8UKOKQ", "tract_id": "17031070103", "city": "CHICAGO, IL", "zone_code": "RM-5", "zone_category": "Residential", "ev_permitted": false}, "geometry": {"type": "Polygon", "coordinates": [[[-87.6417694309999, 41.926443095], [-87.641706222, 41.9264638440001], [-87.6418746639999, 41.926750478], [-87.641937441, 41.926728902], [-87.6417694309999, 41.926443095]]]}}, {"type": "Feature", "properties": {"zone_id": "0206ZH4ZBGVIA3VAFSZZTV", "tract_id": "17031070103", "city": "CHICAGO, IL", "zone_code": "RM-5", "zone_category": "Residential", "ev_permitted": false}, "geometry": {"type": "Polygon", "coordinates": [[[-87.641706222, 41.9264638440001], [-87.6416221389999, 41.9264914390001], [-87.641791231, 41.926779174], [-87.6418746639999, 41.926750478], [-87.641706222, 41.9264638440001]]]}}, {"type": "Feature", "properties": {"zone_id": "0201MZRW2UBU104BGDUYOF", "tract_id": "17031070103", "city": "CHICAGO, IL", "zone_code": "B1-2", "zone_category": "Commercial", "ev_permitted": true}, "geometry": {"type": "Polygon", "coordinates": [[[-87.6416748939999, 41.9265812190001], [-87.641288484, 41.926707978], [-87.641314538, 41.926752208], [-87.641700875, 41.926625447], [-87.6416748939999, 41.9265812190001]]]}}, {"type": "Feature", "properties": {"zone_id": "02026N61WJ6VGOLYADEY7L", "tract_id": "17031070103", "city": "CHICAGO, IL", "zone_code": "B1-2", "zone_category": "Commercial", "ev_permitted": true}, "geometry": {"type": "Polygon", "coordinates": [[[-87.641700875, 41.926625447], [-87.641314538, 41.926752208], [-87.6413405169999, 41.9267964360001], [-87.641726856, 41.9266696760001], [-87.641700875, 41.926625447]]]}}, {"type": "Feature", "properties": {"zone_id": "0203RQ2LUX23SKERAA70R5", "tract_id": "17031070103", "city": "CHICAGO, IL", "zone_code": "B1-2", "zone_category": "Commercial", "ev_permitted": true}, "geometry": {"type": "Polygon", "coordinates": [[[-87.641648914, 41.92653699], [-87.641262505, 41.9266636950001], [-87.641288484, 41.926707978], [-87.6416748939999, 41.9265812190001], [-87.641648914, 41.92653699]]]}}, {"type": "Feature", "properties": {"zone_id": "02079SASRSS8XGIHO2VFXK", "tract_id": "17031070103", "city": "CHICAGO, IL", "zone_code": "B1-2", "zone_category": "Commercial", "ev_permitted": true}, "geometry": {"type": "Polygon", "coordinates": [[[-87.6416221389999, 41.9264914390001], [-87.641235729, 41.9266181990001], [-87.641262505, 41.9266636950001], [-87.641648914, 41.92653699], [-87.6416221389999, 41.9264914390001]]]}}, {"type": "Feature", "properties": {"zone_id": "0202SHHKYIIKHEBQVYXZ2L", "tract_id": "17031070103", "city": "CHICAGO, IL", "zone_code": "B1-2", "zone_category": "Commercial", "ev_permitted": true}, "geometry": {"type": "Polygon", "coordinates": [[[-87.641726856, 41.9266696760001], [-87.6416297919999, 41.9267015280001], [-87.641694889, 41.926812238], [-87.641791231, 41.926779174], [-87.641726856, 41.9266696760001]]]}}, {"type": "Feature", "properties": {"zone_id": "0205HX5PJYVGIK9U3IK136", "tract_id": "17031070103", "city": "CHICAGO, IL", "zone_code": "RM-6", "zone_category": "Residential", "ev_permitted": false}, "geometry": {"type": "Polygon", "coordinates": [[[-87.641915234, 41.9256613750001], [-87.641553652, 41.9256673200001], [-87.641836191, 41.926147944], [-87.6419295469999, 41.9261463660001], [-87.641915234, 41.9256613750001]]]}}, {"type": "Feature", "properties": {"zone_id": "02071E28VMF1987SGILZ54", "tract_id": "17031070103", "city": "CHICAGO, IL", "zone_code": "B1-2", "zone_category": "Commercial", "ev_permitted": true}, "geometry": {"type": "Polygon", "coordinates": [[[-87.641666517, 41.92599599], [-87.6409988029999, 41.9262150710001], [-87.6411416229999, 41.9264580270001], [-87.641809338, 41.9262390000001], [-87.641666517, 41.92599599]]]}}, {"type": "Feature", "properties": {"zone_id": "02065IXF6BJ3UZD70COP6B", "tract_id": "17031070103", "city": "CHICAGO, IL", "zone_code": "B1-2", "zone_category": "Commercial", "ev_permitted": true}, "geometry": {"type": "Polygon", "coordinates": [[[-87.641474118, 41.9256686530001], [-87.6406853129999, 41.925681679], [-87.6409988029999, 41.9262150710001], [-87.641666517, 41.92599599], [-87.641474118, 41.9256686530001]]]}}]}