{"type": "FeatureCollection", "features": [{"type": "Feature", "properties": {"zone_id": "020762U1NRN3BGYASCA3ON", "tract_id": "12086000713", "city": "HIALEAH, FL", "zone_code": "C-2", "zone_category": "Commercial", "ev_permitted": true}, "geometry": {"type": "Polygon", "coordinates": [[[-80.3146745656799, 25.8639898557553], [-80.3137160744356, 25.8639906106474], [-80.3137827017006, 25.8664591321155], [-80.3147453035294, 25.8664573737034], [-80.3146745656799, 25.8639898557553]]]}}, {"type": "Feature", "properties": {"zone_id": "0207HXJNCKMP5CQ44Z8V8L", "tract_id": "12086000713", "city": "HIALEAH, FL", "zone_code": "C-2", "zone_category": "Commercial", "ev_permitted": true}, "geometry": {"type": "Polygon", "coordinates": [[[-80.3137497386784, 25.86523781412], [-80.3130795860502, 25.8652379381626], [-80.3131101124811, 25.8664603586038], [-80.3137827017006, 25.8664591321155], [-80.3137497386784, 25.86523781412]]]}}, {"type": "Feature", "properties": {"zone_id": "02002CNPASPPATCGKRK6W7", "tract_id": "12086000713", "city": "HIALEAH, FL", "zone_code": "C-2", "zone_category": "Commercial", "ev_permitted": true}, "geometry": {"type": "Polygon", "coordinates": [[[-80.3137160744356, 25.8639906106474], [-80.3130484535906, 25.8639911330099], [-80.3130795860502, 25.8652379381626], [-80.3137497386784, 25.86523781412], [-80.3137160744356, 25.8639906106474]]]}}, {"type": "Feature", "properties": {"zone_id": "0204GZ68ELZ9IRUIC81WF3", "tract_id": "12086000713", "city": "HIALEAH, FL", "zone_code": "C-2", "zone_category": "Commercial", "ev_permitted": true}, "geometry": {"type": "Polygon", "coordinates": [[[-80.3122803739613, 25.8644731252147], [-80.3122244187895, 25.8644735398502], [-80.3121125978915, 25.8644775334705], [-80.3120567806387, 25.8644811106216], [-80.3119454542008, 25.8644914181006], [-80.3118346991407, 25.8645059139552], [-80.3117795960246, 25.8645147249418], [-80.311670058462, 25.864535454], [-80.3116156717718, 25.8645473628408], [-80.3115077797909, 25.86457424391], [-80.3114012198436, 25.8646051694308], [-80.311296176972, 25.864640085602], [-80.3111928334065, 25.8646789319031], [-80.3111418552634, 25.8646998080779], [-80.311144676114, 25.864810755928], [-80.3112419604349, 25.8648087326239], [-80.3112698021027, 25.8659421675659], [-80.312180774156, 25.8659430976623], [-80.3121921020879, 25.8663346946944], [-80.312191937749, 25.8663556625676], [-80.3120751964517, 25.8664626877304], [-80.3131101124811, 25.8664603586038], [-80.3130609207206, 25.8644903995756], [-80.3122803739613, 25.8644731252147]]]}}, {"type": "Feature", "properties": {"zone_id": "0200XDD3TK86KQ0IMYKX7G", "tract_id": "12086000713", "city": "HIALEAH, FL", "zone_code": "R-3-4", "zone_category": "Residential", "ev_permitted": false}, "geometry": {"type": "Polygon", "coordinates": [[[-80.3130484535906, 25.8639911330099], [-80.3103966543983, 25.8639931673634], [-80.3104254131795, 25.864991749519], [-80.3105412071434, 25.8649552860349], [-80.3106553758991, 25.8649148442766], [-80.3107117983527, 25.8648931498247], [-80.3108158454301, 25.8648497913056], [-80.3108672514198, 25.8648269339388], [-80.3110114859179, 25.864758160269], [-80.3110980472299, 25.8647186114584], [-80.3111928334065, 25.8646789319031], [-80.311296176972, 25.864640085602], [-80.3114012198436, 25.8646051694308], [-80.3115077797909, 25.86457424391], [-80.3116156717718, 25.8645473628408], [-80.3117247079341, 25.8645245731337], [-80.3118346991407, 25.8645059139552], [-80.3119454542008, 25.8644914181006], [-80.3120567806387, 25.8644811106216], [-80.3121684852593, 25.8644750095167], [-80.3122244187895, 25.8644735398502], [-80.3123363264481, 25.8644737656668], [-80.3130609207206, 25.8644903995756], [-80.3130484535906, 25.8639911330099]]]}}, {"type": "Feature", "properties": {"zone_id": "02005EMQE44ZGZYVPC1O7I", "tract_id": "12086000713", "city": "HIALEAH, FL", "zone_code": "C-2", "zone_category": "Commercial", "ev_permitted": true}, "geometry": {"type": "Polygon", "coordinates": [[[-80.3112698021027, 25.8659421675659], [-80.311271169043, 25.8660380071567], [-80.3112839069284, 25.8664636363325], [-80.3120751964517, 25.8664626877304], [-80.312191937749, 25.8663556625676], [-80.3121921020879, 25.8663346946944], [-80.312180774156, 25.8659430976623], [-80.3112698021027, 25.8659421675659]]]}}, {"type": "Feature", "properties": {"zone_id": "0204NT1X312W47JUGIOVUD", "tract_id": "12086000713", "city": "HIALEAH, FL", "zone_code": "C-2", "zone_category": "Commercial", "ev_permitted": true}, "geometry": {"type": "Polygon", "coordinates": [[[-80.3111418552634, 25.8646998080779], [-80.3110545868438, 25.8647380638895], [-80.3108672514198, 25.8648269339388], [-80.3108158454301, 25.8648497913056], [-80.3107117983527, 25.8648931498247], [-80.3107517401856, 25.866464618937], [-80.3112839069284, 25.8664636363325], [-80.311271169043, 25.8660380071567], [-80.3112698021027, 25.8659421675659], [-80.3112561967606, 25.8653687742199], [-80.3112419604349, 25.8648087326239], [-80.311144676114, 25.864810755928], [-80.3111418552634, 25.8646998080779]]]}}, {"type": "Feature", "properties": {"zone_id": "020388PRUOU5JN9SAKD5QY", "tract_id": "12086000713", "city": "HIALEAH, FL", "zone_code": "C-3", "zone_category": "Commercial", "ev_permitted": true}, "geometry": {"type": "Polygon", "coordinates": [[[-80.3107117983527, 25.8648931498247], [-80.3106553758991, 25.8649148442766], [-80.3105412071434, 25.8649552860349], [-80.3104254131795, 25.864991749519], [-80.3103243611872, 25.8650156311222], [-80.3102845558467, 25.8650239840769], [-80.310204427006, 25.8650385022749], [-80.310123716118, 25.865050084266], [-80.3100057004005, 25.8650651582597], [-80.3098958239052, 25.8650766295137], [-80.3097722309599, 25.8650860406023], [-80.3095708738522, 25.8650858863867], [-80.3096191520368, 25.8664584197056], [-80.3107515315869, 25.8664563795388], [-80.3107117983527, 25.8648931498247]]]}}, {"type": "Feature", "properties": {"zone_id": "0205OXC53WTKK4A1LIF8R2", "tract_id": "12086000713", "city": "HIALEAH, FL", "zone_code": "R-3-4", "zone_category": "Residential", "ev_permitted": false}, "geometry": {"type": "Polygon", "coordinates": [[[-80.3103966543983, 25.8639931673634], [-80.3097470933662, 25.8639936590503], [-80.3097722309599, 25.8650860406023], [-80.3098958239052, 25.8650766295137], [-80.3100057004005, 25.8650651582597], [-80.310164136232, 25.8650446616551], [-80.3102445724585, 25.8650316088009], [-80.3102845558467, 25.8650239840769], [-80.3103243611872, 25.8650156311222], [-80.3104254131795, 25.864991749519], [-80.3103966543983, 25.8639931673634]]]}}, {"type": "Feature", "properties": {"zone_id": "020498T4GF9GE53ZC8FI1Q", "tract_id": "12086000713", "city": "HIALEAH, FL", "zone_code": "R-3-2", "zone_category": "Residential", "ev_permitted": false}, "geometry": {"type": "Polygon", "coordinates": [[[-80.3146577278952, 25.8633487415973], [-80.313028844725, 25.8633616318051], [-80.3130390987401, 25.8638055309968], [-80.3145740618821, 25.863801198544], [-80.3145951977207, 25.8637974138533], [-80.3146151551961, 25.8637900682325], [-80.3146244627609, 25.8637851386924], [-80.3146413130761, 25.8637729904532], [-80.3146553081322, 25.8637581692593], [-80.314661071388, 25.863749921599], [-80.3146698675734, 25.8637321266404], [-80.3146577278952, 25.8633487415973]]]}}, {"type": "Feature", "properties": {"zone_id": "02070C7TLS7L6J40VW2CR6", "tract_id": "12086000713", "city": "HIALEAH, FL", "zone_code": "R-3-2", "zone_category": "Residential", "ev_permitted": false}, "geometry": {"type": "Polygon", "coordinates": [[[-80.313011758975, 25.8626219067946], [-80.313028844725, 25.8633616318051], [-80.3146577278952, 25.8633487415973], [-80.3146368578709, 25.8626897754696], [-80.3146341576237, 25.8626736758855], [-80.3146270400932, 25.8626587194171], [-80.3146159691045, 25.8626458806652], [-80.3146091675844, 25.8626405237608], [-80.314593587225, 25.8626323717025], [-80.3145762333604, 25.8626280541434], [-80.3145672420477, 25.862627431682], [-80.313011758975, 25.8626219067946]]]}}, {"type": "Feature", "properties": {"zone_id": "02034FYSMSPHGLB4GKGW4B", "tract_id": "12086000713", "city": "HIALEAH, FL", "zone_code": "R-3-2", "zone_category": "Residential", "ev_permitted": false}, "geometry": {"type": "Polygon", "coordinates": [[[-80.313028844725, 25.8633616318051], [-80.3111711947514, 25.8633763096434], [-80.3111799011917, 25.8638128321688], [-80.3130390987401, 25.8638055309968], [-80.313028844725, 25.8633616318051]]]}}, {"type": "Feature", "properties": {"zone_id": "0201IL5L2AVTHH3CWQ6GM4", "tract_id": "12086000713", "city": "HIALEAH, FL", "zone_code": "R-3-2", "zone_category": "Residential", "ev_permitted": false}, "geometry": {"type": "Polygon", "coordinates": [[[-80.3111560166471, 25.8626152972396], [-80.3111711947514, 25.8633763096434], [-80.313028844725, 25.8633616318051], [-80.313011758975, 25.8626219067946], [-80.3111560166471, 25.8626152972396]]]}}, {"type": "Feature", "properties": {"zone_id": "02050EQMVA9YSGIEL17WTN", "tract_id": "12086000713", "city": "HIALEAH, FL", "zone_code": "R-3-2", "zone_category": "Residential", "ev_permitted": false}, "geometry": {"type": "Polygon", "coordinates": [[[-80.3111711947514, 25.8633763096434], [-80.3097466952057, 25.8633875466441], [-80.3097594127105, 25.8637528823178], [-80.3097621283583, 25.8637686087372], [-80.3097688251618, 25.8637833275094], [-80.3097791332321, 25.8637962262748], [-80.3097854707398, 25.863801765361], [-80.3098000747401, 25.8638106408348], [-80.3098081389629, 25.8638138541718], [-80.3098252351235, 25.8638176103266], [-80.3098340301688, 25.8638181009472], [-80.3111799011917, 25.8638128321688], [-80.3111711947514, 25.8633763096434]]]}}, {"type": "Feature", "properties": {"zone_id": "02062MAAY1WYWC56L12OGP", "tract_id": "12086000713", "city": "HIALEAH, FL", "zone_code": "R-3-2", "zone_category": "Residential", "ev_permitted": false}, "geometry": {"type": "Polygon", "coordinates": [[[-80.3097927667265, 25.8626104270514], [-80.309774019952, 25.8626150044592], [-80.309765222026, 25.8626187552888], [-80.3097493862201, 25.8626289216909], [-80.3097425679152, 25.8626351964441], [-80.309736612127, 25.8626421528047], [-80.3097276058835, 25.8626577168767], [-80.3097228658812, 25.8626747534024], [-80.3097221871279, 25.8626835312788], [-80.3097466952057, 25.8633875466441], [-80.3111711947514, 25.8633763096434], [-80.3111560166471, 25.8626152972396], [-80.3097927667265, 25.8626104270514]]]}}, {"type": "Feature", "properties": {"zone_id": "02066RY7NNRXF2385VMIS2", "tract_id": "12086000713", "city": "HIALEAH, FL", "zone_code": "C-2", "zone_category": "Commercial", "ev_permitted": true}, "geometry": {"type": "Polygon", "coordinates": [[[-80.3089623556826, 25.8650854223885], [-80.309011247393, 25.8664677598617], [-80.3096194422615, 25.8664666631034], [-80.3095708738522, 25.8650858863867], [-80.3089623556826, 25.8650854223885]]]}}, {"type": "Feature", "properties": {"zone_id": "0207DR9GIE3FAAUMML51SX", "tract_id": "12086000713", "city": "HIALEAH, FL", "zone_code": "C-3", "zone_category": "Commercial", "ev_permitted": true}, "geometry": {"type": "Polygon", "coordinates": [[[-80.3089912139432, 25.8658982948533], [-80.3086877149687, 25.8659007383418], [-80.3086942349729, 25.8664683272836], [-80.309011247393, 25.8664677598617], [-80.3089912139432, 25.8658982948533]]]}}, {"type": "Feature", "properties": {"zone_id": "0204H78N1OZQXT1IYAE3HP", "tract_id": "12086000713", "city": "HIALEAH, FL", "zone_code": "C-3", "zone_category": "Commercial", "ev_permitted": true}, "geometry": {"type": "Polygon", "coordinates": [[[-80.3084390790513, 25.8650850182311], [-80.308461174028, 25.8659028691451], [-80.3089912139432, 25.8658982948533], [-80.3089623556826, 25.8650854223885], [-80.3084390790513, 25.8650850182311]]]}}, {"type": "Feature", "properties": {"zone_id": "0201RBCIE26CPDBJXARLXY", "tract_id": "12086000713", "city": "HIALEAH, FL", "zone_code": "C-3", "zone_category": "Commercial", "ev_permitted": true}, "geometry": {"type": "Polygon", "coordinates": [[[-80.3069078579519, 25.8650838288455], [-80.3069436663031, 25.8663976296404], [-80.3069446352068, 25.866406597636], [-80.3069500143072, 25.8664239170886], [-80.306959708343, 25.8664396245943], [-80.3069660152482, 25.8664465984551], [-80.3069731833427, 25.8664528543848], [-80.3069896962273, 25.8664628770856], [-80.3070083369568, 25.8664691404997], [-80.3070280779647, 25.8664712992481], [-80.3084676750502, 25.8664687331004], [-80.308461174028, 25.8659028691451], [-80.3084390790513, 25.8650850182311], [-80.3069078579519, 25.8650838288455]]]}}, {"type": "Feature", "properties": {"zone_id": "0202V4O9SJG398BAQ5ZLNR", "tract_id": "12086000713", "city": "HIALEAH, FL", "zone_code": "C-3", "zone_category": "Commercial", "ev_permitted": true}, "geometry": {"type": "Polygon", "coordinates": [[[-80.3086877149687, 25.8659007383418], [-80.308461174028, 25.8659028691451], [-80.3084676750502, 25.8664687331004], [-80.3086942349729, 25.8664683272836], [-80.3086877149687, 25.8659007383418]]]}}, {"type": "Feature", "properties": {"zone_id": "0205P5POHN8IB5V73VW829", "tract_id": "12086000713", "city": "HIALEAH, FL", "zone_code": "R-3-4", "zone_category": "Residential", "ev_permitted": false}, "geometry": {"type": "Polygon", "coordinates": [[[-80.3096035981358, 25.8644308758607], [-80.3083955891017, 25.864443980926], [-80.3084037387777, 25.8649445892216], [-80.3095431200321, 25.864940397288], [-80.3095609023791, 25.8649379871334], [-80.3095693835384, 25.8649352369726], [-80.309584809842, 25.8649268791745], [-80.3095973352828, 25.8649152077436], [-80.309606114256, 25.8649010108597], [-80.3096105542828, 25.8648852467673], [-80.3096035981358, 25.8644308758607]]]}}, {"type": "Feature", "properties": {"zone_id": "0206XG93FG4G3EVI16BLGP", "tract_id": "12086000713", "city": "HIALEAH, FL", "zone_code": "R-3-4", "zone_category": "Residential", "ev_permitted": false}, "geometry": {"type": "Polygon", "coordinates": [[[-80.3083817205678, 25.8639924100471], [-80.3083955891017, 25.864443980926], [-80.3096035981358, 25.8644308758607], [-80.3095963768927, 25.8639979584367], [-80.3083817205678, 25.8639924100471]]]}}, {"type": "Feature", "properties": {"zone_id": "0203MO8OZ2BM0DT7RZGFF6", "tract_id": "12086000713", "city": "HIALEAH, FL", "zone_code": "R-3-5", "zone_category": "Residential", "ev_permitted": false}, "geometry": {"type": "Polygon", "coordinates": [[[-80.3068864150852, 25.8644407932905], [-80.3069047520011, 25.8649719967961], [-80.308404379544, 25.864983957793], [-80.3083955891017, 25.864443980926], [-80.3068864150852, 25.8644407932905]]]}}, {"type": "Feature", "properties": {"zone_id": "0202B3XNU2A6WXVDF3WT2N", "tract_id": "12086000713", "city": "HIALEAH, FL", "zone_code": "C-1", "zone_category": "Commercial", "ev_permitted": true}, "geometry": {"type": "Polygon", "coordinates": [[[-80.3069554588918, 25.8639858840323], [-80.3069365020596, 25.8639883279838], [-80.3069273580295, 25.8639909391531], [-80.3069185839999, 25.8639944381771], [-80.306902560166, 25.8640039227609], [-80.3068955020349, 25.8640097947135], [-80.3068837146619, 25.8640234476146], [-80.3068754855862, 25.8640390906987], [-80.3068728352131, 25.8640474278772], [-80.3068864150852, 25.8644407932905], [-80.3083955891017, 25.864443980926], [-80.3083817205678, 25.8639924100471], [-80.3069554588918, 25.8639858840323]]]}}, {"type": "Feature", "properties": {"zone_id": "0204UXY8SJAKTNI9H1MYM6", "tract_id": "12086000713", "city": "HIALEAH, FL", "zone_code": "R-2", "zone_category": "Residential", "ev_permitted": false}, "geometry": {"type": "Polygon", "coordinates": [[[-80.3094840594863, 25.8626020318878], [-80.3092375991912, 25.8626034608711], [-80.3092624085624, 25.8638143114985], [-80.3095321409855, 25.8638193992548], [-80.3095405530272, 25.8638180634469], [-80.3095565131182, 25.86381264038], [-80.3095705193973, 25.8638038464517], [-80.3095817195616, 25.8637922173788], [-80.3095894311723, 25.8637784611257], [-80.3095918230372, 25.8637710433169], [-80.3095934965681, 25.8637556932029], [-80.309563590442, 25.8626819024911], [-80.3095607784447, 25.8626641544377], [-80.3095578123748, 25.8626555870686], [-80.3095489313209, 25.8626395589416], [-80.3095431184652, 25.8626322830061], [-80.3095364766662, 25.8626256128835], [-80.3095210217008, 25.8626143904367], [-80.309503277285, 25.8626064077541], [-80.3094840594863, 25.8626020318878]]]}}, {"type": "Feature", "properties": {"zone_id": "0201WATJIO9GLZW1CVOVZE", "tract_id": "12086000713", "city": "HIALEAH, FL", "zone_code": "R-3-4", "zone_category": "Residential", "ev_permitted": false}, "geometry": {"type": "Polygon", "coordinates": [[[-80.3087884073707, 25.8630421050133], [-80.3088094179359, 25.8638130075168], [-80.3092624085624, 25.8638143114985], [-80.3092466199119, 25.8630437463067], [-80.3087884073707, 25.8630421050133]]]}}, {"type": "Feature", "properties": {"zone_id": "0203PF0H9KGTKUPEBYVBGT", "tract_id": "12086000713", "city": "HIALEAH, FL", "zone_code": "C-1", "zone_category": "Commercial", "ev_permitted": true}, "geometry": {"type": "Polygon", "coordinates": [[[-80.3068350637951, 25.8630350809313], [-80.3068592478973, 25.8637518566436], [-80.3068661447195, 25.8637675428913], [-80.3068767074868, 25.8637814591613], [-80.3068904126185, 25.8637929153015], [-80.3068982362847, 25.8637975378606], [-80.3069153403684, 25.8638042847075], [-80.3069336707682, 25.8638074394023], [-80.3069430129257, 25.8638076136599], [-80.3081970272041, 25.8638112402129], [-80.3081784792066, 25.8630399154018], [-80.3068350637951, 25.8630350809313]]]}}, {"type": "Feature", "properties": {"zone_id": "0206CR3T8VZKP2K2N7I5WY", "tract_id": "12086000713", "city": "HIALEAH, FL", "zone_code": "C-1", "zone_category": "Commercial", "ev_permitted": true}, "geometry": {"type": "Polygon", "coordinates": [[[-80.3081784792066, 25.8630399154018], [-80.3081970272041, 25.8638112402129], [-80.3088094179359, 25.8638130075168], [-80.3087884073707, 25.8630421050133], [-80.3081784792066, 25.8630399154018]]]}}, {"type": "Feature", "properties": {"zone_id": "0200REUGOKW288439SCNSO", "tract_id": "12086000713", "city": "HIALEAH, FL", "zone_code": "R-3-4", "zone_category": "Residential", "ev_permitted": false}, "geometry": {"type": "Polygon", "coordinates": [[[-80.3092375991912, 25.8626034608711], [-80.3086928021708, 25.8626068728959], [-80.3087009303183, 25.8630417895737], [-80.3092466199119, 25.8630437463067], [-80.3092375991912, 25.8626034608711]]]}}, {"type": "Feature", "properties": {"zone_id": "0203TYACOKNBTGMQN5RTVK", "tract_id": "12086000713", "city": "HIALEAH, FL", "zone_code": "C-2", "zone_category": "Commercial", "ev_permitted": true}, "geometry": {"type": "Polygon", "coordinates": [[[-80.3081681450795, 25.86261015394], [-80.306892439193, 25.8626181284647], [-80.3068839262991, 25.8626187130511], [-80.3068674467663, 25.8626226471305], [-80.3068524974803, 25.8626300525664], [-80.3068399561965, 25.8626404943752], [-80.3068348254763, 25.8626466683712], [-80.3068272213235, 25.8626604684941], [-80.3068235098775, 25.8626755185806], [-80.3068350637951, 25.8630350809313], [-80.3081784792066, 25.8630399154018], [-80.3081681450795, 25.86261015394]]]}}, {"type": "Feature", "properties": {"zone_id": "0207GTS4KQ2SV340GW78BJ", "tract_id": "12086000713", "city": "HIALEAH, FL", "zone_code": "R-3-4", "zone_category": "Residential", "ev_permitted": false}, "geometry": {"type": "Polygon", "coordinates": [[[-80.3086928021708, 25.8626068728959], [-80.3084445154626, 25.8626084252725], [-80.3084489356508, 25.8630408835431], [-80.3087009303183, 25.8630417895737], [-80.3086928021708, 25.8626068728959]]]}}, {"type": "Feature", "properties": {"zone_id": "0205QEWDUDJT8F322PL8HR", "tract_id": "12086000713", "city": "HIALEAH, FL", "zone_code": "R-3-4", "zone_category": "Residential", "ev_permitted": false}, "geometry": {"type": "Polygon", "coordinates": [[[-80.3084445154626, 25.8626084252725], [-80.3081681450795, 25.86261015394], [-80.3081784792066, 25.8630399154018], [-80.3084489356508, 25.8630408835431], [-80.3084445154626, 25.8626084252725]]]}}]}