{"type": "FeatureCollection", "features": [{"type": "Feature", "properties": {"zone_id": "0205SKOV7G0AWMMQRJXREV", "tract_id": "06037212306", "city": "LOS ANGELES, CA", "zone_code": "C2-1", "zone_category": "Commercial", "ev_permitted": true}, "geometry": {"type": "Polygon", "coordinates": [[[-118.296441713976, 34.0574981493122], [-118.295995920539, 34.0575007815369], [-118.29599629209, 34.0576244624104], [-118.296442053074, 34.0576218027869], [-118.296441713976, 34.0574981493122]]]}}, {"type": "Feature", "properties": {"zone_id": "0201DQG4O886AZ3D51LGQJ", "tract_id": "06037212306", "city": "LOS ANGELES, CA", "zone_code": "R4-2", "zone_category": "Residential", "ev_permitted": false}, "geometry": {"type": "Polygon", "coordinates": [[[-118.296440776703, 34.0571684067976], [-118.295994952009, 34.0571710390997], [-118.295995549085, 34.0573771281426], [-118.296441341766, 34.0573744684408], [-118.296440776703, 34.0571684067976]]]}}, {"type": "Feature", "properties": {"zone_id": "0202ROS7EOUNCXEUD1JTPG", "tract_id": "06037212306", "city": "LOS ANGELES, CA", "zone_code": "R4-2", "zone_category": "Residential", "ev_permitted": false}, "geometry": {"type": "Polygon", "coordinates": [[[-118.296441341766, 34.0573744684408], [-118.295995549085, 34.0573771281426], [-118.295995920539, 34.0575007815369], [-118.296441713976, 34.0574981493122], [-118.296441341766, 34.0573744684408]]]}}, {"type": "Feature", "properties": {"zone_id": "0200UUWJ2WDSIX08MX7F6J", "tract_id": "06037212306", "city": "LOS ANGELES, CA", "zone_code": "C2-1", "zone_category": "Commercial", "ev_permitted": true}, "geometry": {"type": "Polygon", "coordinates": [[[-118.295995969148, 34.057514520785], [-118.295517260232, 34.0575173418254], [-118.295517582448, 34.0576272559736], [-118.29599629209, 34.0576244624104], [-118.295995969148, 34.057514520785]]]}}, {"type": "Feature", "properties": {"zone_id": "0202SF4QF70KWMJH1BVPYN", "tract_id": "06037212306", "city": "LOS ANGELES, CA", "zone_code": "R4-2", "zone_category": "Residential", "ev_permitted": false}, "geometry": {"type": "Polygon", "coordinates": [[[-118.295995162039, 34.0572397354201], [-118.29551642168, 34.0572425565381], [-118.295516841052, 34.0573799766598], [-118.295995549085, 34.0573771281426], [-118.295995162039, 34.0572397354201]]]}}, {"type": "Feature", "properties": {"zone_id": "0203B44928G4W0G0L6FB50", "tract_id": "06037212306", "city": "LOS ANGELES, CA", "zone_code": "C2-1", "zone_category": "Commercial", "ev_permitted": true}, "geometry": {"type": "Polygon", "coordinates": [[[-118.295995549085, 34.0573771281426], [-118.295516841052, 34.0573799766598], [-118.295517260232, 34.0575173418254], [-118.295995969148, 34.057514520785], [-118.295995549085, 34.0573771281426]]]}}, {"type": "Feature", "properties": {"zone_id": "0205Q7OQCN30UXFCZW4Q53", "tract_id": "06037212306", "city": "LOS ANGELES, CA", "zone_code": "C2-2", "zone_category": "Commercial", "ev_permitted": true}, "geometry": {"type": "Polygon", "coordinates": [[[-118.295285740567, 34.057381338809], [-118.294806999277, 34.0573841296362], [-118.294807738672, 34.0576314364329], [-118.29528648128, 34.0576286181242], [-118.295285740567, 34.057381338809]]]}}, {"type": "Feature", "properties": {"zone_id": "0201ZSQOIHR2CMI4XMVCKP", "tract_id": "06037212306", "city": "LOS ANGELES, CA", "zone_code": "R4-2", "zone_category": "Residential", "ev_permitted": false}, "geometry": {"type": "Polygon", "coordinates": [[[-118.29528516062, 34.0571889616129], [-118.294806453639, 34.0571918073142], [-118.294806999277, 34.0573841296362], [-118.295285740567, 34.057381338809], [-118.29528516062, 34.0571889616129]]]}}, {"type": "Feature", "properties": {"zone_id": "0206G1ROJUH2PC8K6ICC06", "tract_id": "06037212306", "city": "LOS ANGELES, CA", "zone_code": "C2-1", "zone_category": "Commercial", "ev_permitted": true}, "geometry": {"type": "Polygon", "coordinates": [[[-118.294756674777, 34.0571096574902], [-118.294261593061, 34.0571125684754], [-118.29426313226, 34.0576346606502], [-118.294758217065, 34.0576317496587], [-118.294756674777, 34.0571096574902]]]}}, {"type": "Feature", "properties": {"zone_id": "0201FDMG17KT67ULS9OVMS", "tract_id": "06037212306", "city": "LOS ANGELES, CA", "zone_code": "C2-1", "zone_category": "Commercial", "ev_permitted": true}, "geometry": {"type": "Polygon", "coordinates": [[[-118.294031293949, 34.0573887135988], [-118.293552585687, 34.0573915268516], [-118.293553292448, 34.0576305901065], [-118.293982447359, 34.0576280623606], [-118.294031853176, 34.0575948027338], [-118.294031293949, 34.0573887135988]]]}}, {"type": "Feature", "properties": {"zone_id": "02031PI22ZE3EFUJKER7UE", "tract_id": "06037212306", "city": "LOS ANGELES, CA", "zone_code": "C2-1", "zone_category": "Commercial", "ev_permitted": true}, "geometry": {"type": "Polygon", "coordinates": [[[-118.293503272202, 34.0574605358881], [-118.293007561085, 34.057463443257], [-118.293008120597, 34.0576420536584], [-118.293503766646, 34.0576391189692], [-118.293503272202, 34.0574605358881]]]}}, {"type": "Feature", "properties": {"zone_id": "0204UHNP92CAB6YOIVC9YR", "tract_id": "06037212306", "city": "LOS ANGELES, CA", "zone_code": "C2-1", "zone_category": "Commercial", "ev_permitted": true}, "geometry": {"type": "Polygon", "coordinates": [[[-118.294030877114, 34.0572513209504], [-118.293552169638, 34.0572541342015], [-118.293552585687, 34.0573915268516], [-118.294031293949, 34.0573887135988], [-118.294030877114, 34.0572513209504]]]}}, {"type": "Feature", "properties": {"zone_id": "0201U0UEFFMG3YQ6S9VRGJ", "tract_id": "06037212306", "city": "LOS ANGELES, CA", "zone_code": "C2-1", "zone_category": "Commercial", "ev_permitted": true}, "geometry": {"type": "Polygon", "coordinates": [[[-118.293502735734, 34.057288795115], [-118.293007091664, 34.0572917023214], [-118.293007561085, 34.057463443257], [-118.293503272202, 34.0574605358881], [-118.293502735734, 34.057288795115]]]}}, {"type": "Feature", "properties": {"zone_id": "0200VZGX20M48O65XTLK93", "tract_id": "06037212306", "city": "LOS ANGELES, CA", "zone_code": "R4-2", "zone_category": "Residential", "ev_permitted": false}, "geometry": {"type": "Polygon", "coordinates": [[[-118.293502352781, 34.0571514023852], [-118.293006676511, 34.0571543096701], [-118.293007091664, 34.0572917023214], [-118.293502735734, 34.057288795115], [-118.293502352781, 34.0571514023852]]]}}, {"type": "Feature", "properties": {"zone_id": "0203FJ5TPK5ULQPLCYR8Y6", "tract_id": "06037212306", "city": "LOS ANGELES, CA", "zone_code": "C2-1", "zone_category": "Commercial", "ev_permitted": true}, "geometry": {"type": "Polygon", "coordinates": [[[-118.292248023115, 34.0573992247521], [-118.291803089033, 34.0574020042936], [-118.291803627193, 34.0575941617599], [-118.291853259657, 34.0576350950534], [-118.292248706951, 34.0576327923149], [-118.292248023115, 34.0573992247521]]]}}, {"type": "Feature", "properties": {"zone_id": "0207CSAPPOSSFVMQNRYYA1", "tract_id": "06037212306", "city": "LOS ANGELES, CA", "zone_code": "C2-1", "zone_category": "Commercial", "ev_permitted": true}, "geometry": {"type": "Polygon", "coordinates": [[[-118.292775870701, 34.0572585741524], [-118.292297163716, 34.0572615472997], [-118.292298228568, 34.0576324801181], [-118.292727416542, 34.057629956752], [-118.292776827025, 34.0575884540091], [-118.292775870701, 34.0572585741524]]]}}, {"type": "Feature", "properties": {"zone_id": "0206YPULYFBTAXDON1RDM3", "tract_id": "06037212306", "city": "LOS ANGELES, CA", "zone_code": "C2-1", "zone_category": "Commercial", "ev_permitted": true}, "geometry": {"type": "Polygon", "coordinates": [[[-118.292247642223, 34.0572618320176], [-118.29176969454, 34.0572648012367], [-118.291770074168, 34.0574020565802], [-118.292248023115, 34.0573992247521], [-118.292247642223, 34.0572618320176]]]}}, {"type": "Feature", "properties": {"zone_id": "0200FSCEZAHKMRONGQYSX7", "tract_id": "06037212306", "city": "LOS ANGELES, CA", "zone_code": "R4-2", "zone_category": "Residential", "ev_permitted": false}, "geometry": {"type": "Polygon", "coordinates": [[[-118.296440227213, 34.0569760570064], [-118.295994370529, 34.0569786893874], [-118.295994952009, 34.0571710390997], [-118.296440776703, 34.0571684067976], [-118.296440227213, 34.0569760570064]]]}}, {"type": "Feature", "properties": {"zone_id": "02002EZITVXH5W15O840HW", "tract_id": "06037212306", "city": "LOS ANGELES, CA", "zone_code": "R4-2", "zone_category": "Residential", "ev_permitted": false}, "geometry": {"type": "Polygon", "coordinates": [[[-118.296439225604, 34.056618835924], [-118.295993304795, 34.0566214684632], [-118.295993934878, 34.0568275574198], [-118.296439790757, 34.0568249250405], [-118.296439225604, 34.056618835924]]]}}, {"type": "Feature", "properties": {"zone_id": "0202Y6BNG69F17JKY16O90", "tract_id": "06037212306", "city": "LOS ANGELES, CA", "zone_code": "R4-2", "zone_category": "Residential", "ev_permitted": false}, "geometry": {"type": "Polygon", "coordinates": [[[-118.296439790757, 34.0568249250405], [-118.295993934878, 34.0568275574198], [-118.295994370529, 34.0569786893874], [-118.296440227213, 34.0569760570064], [-118.296439790757, 34.0568249250405]]]}}, {"type": "Feature", "properties": {"zone_id": "0202X4AGVFPDGHD3AQHEZ4", "tract_id": "06037212306", "city": "LOS ANGELES, CA", "zone_code": "R4-2", "zone_category": "Residential", "ev_permitted": false}, "geometry": {"type": "Polygon", "coordinates": [[[-118.295994741979, 34.0571023427795], [-118.295516035421, 34.057105163815], [-118.29551642168, 34.0572425565381], [-118.295995162039, 34.0572397354201], [-118.295994741979, 34.0571023427795]]]}}, {"type": "Feature", "properties": {"zone_id": "0207NWDQV1T8VZWIDZI0YW", "tract_id": "06037212306", "city": "LOS ANGELES, CA", "zone_code": "R4-2", "zone_category": "Residential", "ev_permitted": false}, "geometry": {"type": "Polygon", "coordinates": [[[-118.29599432192, 34.0569649501397], [-118.295515616149, 34.0569677711735], [-118.295516035421, 34.057105163815], [-118.295994741979, 34.0571023427795], [-118.29599432192, 34.0569649501397]]]}}, {"type": "Feature", "properties": {"zone_id": "0200O1R3OE60U6SAV0XTPB", "tract_id": "06037212306", "city": "LOS ANGELES, CA", "zone_code": "R4-2", "zone_category": "Residential", "ev_permitted": false}, "geometry": {"type": "Polygon", "coordinates": [[[-118.295993934878, 34.0568275574198], [-118.295515229892, 34.0568303784521], [-118.295515616149, 34.0569677711735], [-118.29599432192, 34.0569649501397], [-118.295993934878, 34.0568275574198]]]}}, {"type": "Feature", "properties": {"zone_id": "0205O5L02STVO2OE5L2UKU", "tract_id": "06037212306", "city": "LOS ANGELES, CA", "zone_code": "R4-2", "zone_category": "Residential", "ev_permitted": false}, "geometry": {"type": "Polygon", "coordinates": [[[-118.295993514822, 34.0566901647818], [-118.295514810623, 34.0566929858124], [-118.295515229892, 34.0568303784521], [-118.295993934878, 34.0568275574198], [-118.295993514822, 34.0566901647818]]]}}, {"type": "Feature", "properties": {"zone_id": "0200H5GDWVOVOTT8P07PZ5", "tract_id": "06037212306", "city": "LOS ANGELES, CA", "zone_code": "R4-2", "zone_category": "Residential", "ev_permitted": false}, "geometry": {"type": "Polygon", "coordinates": [[[-118.29643862744, 34.0564127468907], [-118.295992707729, 34.0564153794275], [-118.295993304795, 34.0566214684632], [-118.296439225604, 34.056618835924], [-118.29643862744, 34.0564127468907]]]}}, {"type": "Feature", "properties": {"zone_id": "0202QND29FFTELEJZ08S1H", "tract_id": "06037212306", "city": "LOS ANGELES, CA", "zone_code": "R4-2", "zone_category": "Residential", "ev_permitted": false}, "geometry": {"type": "Polygon", "coordinates": [[[-118.296438249406, 34.0562781020252], [-118.295992297399, 34.0562807346416], [-118.295992707729, 34.0564153794275], [-118.29643862744, 34.0564127468907], [-118.296438249406, 34.0562781020252]]]}}, {"type": "Feature", "properties": {"zone_id": "02012VISPV0QC91CCHF879", "tract_id": "06037212306", "city": "LOS ANGELES, CA", "zone_code": "R4-2", "zone_category": "Residential", "ev_permitted": false}, "geometry": {"type": "Polygon", "coordinates": [[[-118.296437863585, 34.0561412588811], [-118.295991911238, 34.0561435892326], [-118.295992287677, 34.0562779867921], [-118.29643823967, 34.0562753541758], [-118.296437863585, 34.0561412588811]]]}}, {"type": "Feature", "properties": {"zone_id": "020787802ICDLNJFWZE59L", "tract_id": "06037212306", "city": "LOS ANGELES, CA", "zone_code": "R4-2", "zone_category": "Residential", "ev_permitted": false}, "geometry": {"type": "Polygon", "coordinates": [[[-118.29643823967, 34.0562753541758], [-118.295992287677, 34.0562779867921], [-118.295992297399, 34.0562807346416], [-118.296438249406, 34.0562781020252], [-118.29643823967, 34.0562753541758]]]}}, {"type": "Feature", "properties": {"zone_id": "0200BZHE23JF75VKPLWN0G", "tract_id": "06037212306", "city": "LOS ANGELES, CA", "zone_code": "R4-2", "zone_category": "Residential", "ev_permitted": false}, "geometry": {"type": "Polygon", "coordinates": [[[-118.296437475818, 34.0560038661681], [-118.295991491189, 34.056006196599], [-118.295991911238, 34.0561435892326], [-118.296437863585, 34.0561412588811], [-118.296437475818, 34.0560038661681]]]}}, {"type": "Feature", "properties": {"zone_id": "0207JSXD2UYSBLU4O6O3ZM", "tract_id": "06037212306", "city": "LOS ANGELES, CA", "zone_code": "R4-2", "zone_category": "Residential", "ev_permitted": false}, "geometry": {"type": "Polygon", "coordinates": [[[-118.295992287677, 34.0562779867921], [-118.29551358603, 34.0562808627748], [-118.295514810623, 34.0566929858124], [-118.295993514822, 34.0566901647818], [-118.295992287677, 34.0562779867921]]]}}, {"type": "Feature", "properties": {"zone_id": "0204VPWNBC3E9Y5B6HIKIL", "tract_id": "06037212306", "city": "LOS ANGELES, CA", "zone_code": "R4-2", "zone_category": "Residential", "ev_permitted": false}, "geometry": {"type": "Polygon", "coordinates": [[[-118.295991510632, 34.0560116922978], [-118.295545823076, 34.0560140203547], [-118.295512873679, 34.0560417995464], [-118.29551358603, 34.0562808627748], [-118.295992287677, 34.0562779867921], [-118.295991510632, 34.0560116922978]]]}}, {"type": "Feature", "properties": {"zone_id": "020592L0C69XZ5YXR4OSWI", "tract_id": "06037212306", "city": "LOS ANGELES, CA", "zone_code": "R4-1", "zone_category": "Residential", "ev_permitted": false}, "geometry": {"type": "Polygon", "coordinates": [[[-118.296436229679, 34.0555589885459], [-118.295990544547, 34.055561318244], [-118.295991283156, 34.0558330810946], [-118.296404581113, 34.0558309201962], [-118.296436923575, 34.0558037467825], [-118.296436229679, 34.0555589885459]]]}}, {"type": "Feature", "properties": {"zone_id": "0206W6JXYIVBGHPUC3Q0M0", "tract_id": "06037212306", "city": "LOS ANGELES, CA", "zone_code": "R4-1", "zone_category": "Residential", "ev_permitted": false}, "geometry": {"type": "Polygon", "coordinates": [[[-118.295990397753, 34.0555198257185], [-118.295863262017, 34.0555204944729], [-118.295863417493, 34.055564460063], [-118.295854800926, 34.0555645086508], [-118.295855117822, 34.0556634587881], [-118.295825405345, 34.055663586531], [-118.295825937846, 34.0558421969851], [-118.295991304067, 34.055841324663], [-118.295990397753, 34.0555198257185]]]}}, {"type": "Feature", "properties": {"zone_id": "02034SXQT5FYOBU0QBSTE3", "tract_id": "06037212306", "city": "LOS ANGELES, CA", "zone_code": "R4-1", "zone_category": "Residential", "ev_permitted": false}, "geometry": {"type": "Polygon", "coordinates": [[[-118.295825453925, 34.055677325778], [-118.295511823227, 34.0556789729399], [-118.29551230653, 34.0558438441483], [-118.295825937846, 34.0558421969851], [-118.295825453925, 34.055677325778]]]}}, {"type": "Feature", "properties": {"zone_id": "0206J7Y0FB7MKN3MVUXDB5", "tract_id": "06037212306", "city": "LOS ANGELES, CA", "zone_code": "R4-1", "zone_category": "Residential", "ev_permitted": false}, "geometry": {"type": "Polygon", "coordinates": [[[-118.295863262017, 34.0555204944729], [-118.295511336028, 34.0555223453618], [-118.295511823227, 34.0556789729399], [-118.295825453925, 34.055677325778], [-118.295825405345, 34.055663586531], [-118.295855117822, 34.0556634587881], [-118.295854800926, 34.0555645086508], [-118.295863417493, 34.055564460063], [-118.295863262017, 34.0555204944729]]]}}, {"type": "Feature", "properties": {"zone_id": "02057MD5PNKH3J24YX7AQL", "tract_id": "06037212306", "city": "LOS ANGELES, CA", "zone_code": "R4-1", "zone_category": "Residential", "ev_permitted": false}, "geometry": {"type": "Polygon", "coordinates": [[[-118.296435454157, 34.0552842031281], [-118.295989770489, 34.0552865328232], [-118.295990157517, 34.0554239255331], [-118.296435841917, 34.0554215958366], [-118.296435454157, 34.0552842031281]]]}}, {"type": "Feature", "properties": {"zone_id": "02075IF2IOQ3ZIZXP3E1JS", "tract_id": "06037212306", "city": "LOS ANGELES, CA", "zone_code": "R4-1", "zone_category": "Residential", "ev_permitted": false}, "geometry": {"type": "Polygon", "coordinates": [[[-118.296435841917, 34.0554215958366], [-118.295990157517, 34.0554239255331], [-118.295990544547, 34.055561318244], [-118.296436229679, 34.0555589885459], [-118.296435841917, 34.0554215958366]]]}}, {"type": "Feature", "properties": {"zone_id": "0201N8284JV3PUWPUBUHGV", "tract_id": "06037212306", "city": "LOS ANGELES, CA", "zone_code": "R4-1", "zone_category": "Residential", "ev_permitted": false}, "geometry": {"type": "Polygon", "coordinates": [[[-118.296434290883, 34.054872025008], [-118.29598860941, 34.0548743546988], [-118.295988963421, 34.055011747487], [-118.296434678639, 34.0550094177139], [-118.296434290883, 34.054872025008]]]}}, {"type": "Feature", "properties": {"zone_id": "0202ZZ30OCQMZGMGOYYPAL", "tract_id": "06037212306", "city": "LOS ANGELES, CA", "zone_code": "R4-1", "zone_category": "Residential", "ev_permitted": false}, "geometry": {"type": "Polygon", "coordinates": [[[-118.296434678639, 34.0550094177139], [-118.295988963421, 34.055011747487], [-118.295989416475, 34.0551491400333], [-118.296435066397, 34.0551468104205], [-118.296434678639, 34.0550094177139]]]}}, {"type": "Feature", "properties": {"zone_id": "0201M9G92IIJLOYNQC7WEG", "tract_id": "06037212306", "city": "LOS ANGELES, CA", "zone_code": "R4-1", "zone_category": "Residential", "ev_permitted": false}, "geometry": {"type": "Polygon", "coordinates": [[[-118.296435066397, 34.0551468104205], [-118.295989416475, 34.0551491400333], [-118.295989770489, 34.0552865328232], [-118.296435454157, 34.0552842031281], [-118.296435066397, 34.0551468104205]]]}}, {"type": "Feature", "properties": {"zone_id": "0202M0CN7GO65IRNB1FRHS", "tract_id": "06037212306", "city": "LOS ANGELES, CA", "zone_code": "R4-1", "zone_category": "Residential", "ev_permitted": false}, "geometry": {"type": "Polygon", "coordinates": [[[-118.295989995422, 34.0553687761158], [-118.295510934271, 34.055371213322], [-118.295511336028, 34.0555223453618], [-118.295990397753, 34.0555198257185], [-118.295989995422, 34.0553687761158]]]}}, {"type": "Feature", "properties": {"zone_id": "0202MO4T0TN7VYWKH6IQUH", "tract_id": "06037212306", "city": "LOS ANGELES, CA", "zone_code": "R4-1", "zone_category": "Residential", "ev_permitted": false}, "geometry": {"type": "Polygon", "coordinates": [[[-118.295989559885, 34.0552176716382], [-118.295510466099, 34.0552199715309], [-118.295510934271, 34.055371213322], [-118.295989995422, 34.0553687761158], [-118.295989559885, 34.0552176716382]]]}}, {"type": "Feature", "properties": {"zone_id": "02070AXP8KSJGL6SK5JKJB", "tract_id": "06037212306", "city": "LOS ANGELES, CA", "zone_code": "R4-1", "zone_category": "Residential", "ev_permitted": false}, "geometry": {"type": "Polygon", "coordinates": [[[-118.295988845074, 34.0549689633926], [-118.295509719699, 34.0549712633632], [-118.295510092947, 34.0550956311859], [-118.295989219034, 34.0550933312138], [-118.295988845074, 34.0549689633926]]]}}, {"type": "Feature", "properties": {"zone_id": "02075M7PVBPU437YGL7YNT", "tract_id": "06037212306", "city": "LOS ANGELES, CA", "zone_code": "R4-1", "zone_category": "Residential", "ev_permitted": false}, "geometry": {"type": "Polygon", "coordinates": [[[-118.295989219034, 34.0550933312138], [-118.295510092947, 34.0550956311859], [-118.295510466099, 34.0552199715309], [-118.295989559885, 34.0552176716382], [-118.295989219034, 34.0550933312138]]]}}, {"type": "Feature", "properties": {"zone_id": "0203T6LJCM05QVY4FG0R1U", "tract_id": "06037212306", "city": "LOS ANGELES, CA", "zone_code": "R4-1", "zone_category": "Residential", "ev_permitted": false}, "geometry": {"type": "Polygon", "coordinates": [[[-118.296433495609, 34.0545916614652], [-118.295987815047, 34.0545938262821], [-118.295988189373, 34.0547369620734], [-118.296433903127, 34.0547346323031], [-118.296433495609, 34.0545916614652]]]}}, {"type": "Feature", "properties": {"zone_id": "0202HZ24XGHYVML74HSOT9", "tract_id": "06037212306", "city": "LOS ANGELES, CA", "zone_code": "R4-1", "zone_category": "Residential", "ev_permitted": false}, "geometry": {"type": "Polygon", "coordinates": [[[-118.296433903127, 34.0547346323031], [-118.295988189373, 34.0547369620734], [-118.29598860941, 34.0548743546988], [-118.296434290883, 34.054872025008], [-118.296433903127, 34.0547346323031]]]}}, {"type": "Feature", "properties": {"zone_id": "0202R7WEOVWSOG72RTE4T7", "tract_id": "06037212306", "city": "LOS ANGELES, CA", "zone_code": "R4-1", "zone_category": "Residential", "ev_permitted": false}, "geometry": {"type": "Polygon", "coordinates": [[[-118.295988192348, 34.0547284711383], [-118.295509002323, 34.0547307712679], [-118.295509346452, 34.0548468955412], [-118.295988504129, 34.0548445954911], [-118.295988192348, 34.0547284711383]]]}}, {"type": "Feature", "properties": {"zone_id": "0200SFJM192E5BQG5PSEQD", "tract_id": "06037212306", "city": "LOS ANGELES, CA", "zone_code": "R4-1", "zone_category": "Residential", "ev_permitted": false}, "geometry": {"type": "Polygon", "coordinates": [[[-118.295988504129, 34.0548445954911], [-118.295509346452, 34.0548468955412], [-118.295509719699, 34.0549712633632], [-118.295988845074, 34.0549689633926], [-118.295988504129, 34.0548445954911]]]}}, {"type": "Feature", "properties": {"zone_id": "0206V7YTT2J60ZN4469XHW", "tract_id": "06037212306", "city": "LOS ANGELES, CA", "zone_code": "R4-1", "zone_category": "Residential", "ev_permitted": false}, "geometry": {"type": "Polygon", "coordinates": [[[-118.295987815047, 34.0545938262821], [-118.29550859278, 34.054596126491], [-118.295509002323, 34.0547307712679], [-118.295988192348, 34.0547284711383], [-118.295987815047, 34.0545938262821]]]}}, {"type": "Feature", "properties": {"zone_id": "0200S6X55QJFHWN36JRVA3", "tract_id": "06037212306", "city": "LOS ANGELES, CA", "zone_code": "R4-2", "zone_category": "Residential", "ev_permitted": false}, "geometry": {"type": "Polygon", "coordinates": [[[-118.295284613787, 34.0569966118164], [-118.294805874892, 34.0569994575961], [-118.294806453639, 34.0571918073142], [-118.29528516062, 34.0571889616129], [-118.295284613787, 34.0569966118164]]]}}, {"type": "Feature", "properties": {"zone_id": "0200J0IOIYEPAXU6WVCWL0", "tract_id": "06037212306", "city": "LOS ANGELES, CA", "zone_code": "R4-2", "zone_category": "Residential", "ev_permitted": false}, "geometry": {"type": "Polygon", "coordinates": [[[-118.295284097911, 34.0568317406789], [-118.294805392974, 34.0568345863759], [-118.294805874892, 34.0569994575961], [-118.295284613787, 34.0569966118164], [-118.295284097911, 34.0568317406789]]]}}, {"type": "Feature", "properties": {"zone_id": "0203WPBX7YE4ZX5M3C3W6Q", "tract_id": "06037212306", "city": "LOS ANGELES, CA", "zone_code": "R4-2", "zone_category": "Residential", "ev_permitted": false}, "geometry": {"type": "Polygon", "coordinates": [[[-118.295283712035, 34.0566943479576], [-118.294805007885, 34.0566971936531], [-118.294805392974, 34.0568345863759], [-118.295284097911, 34.0568317406789], [-118.295283712035, 34.0566943479576]]]}}, {"type": "Feature", "properties": {"zone_id": "020321OQJHU2CB6MCY0V3P", "tract_id": "06037212306", "city": "LOS ANGELES, CA", "zone_code": "R4-2", "zone_category": "Residential", "ev_permitted": false}, "geometry": {"type": "Polygon", "coordinates": [[[-118.294755871742, 34.0568348721223], [-118.294260791652, 34.0568377831041], [-118.294261593061, 34.0571125684754], [-118.294756674777, 34.0571096574902], [-118.294755871742, 34.0568348721223]]]}}, {"type": "Feature", "properties": {"zone_id": "0202SR5ZW5NK5WXMF99T4X", "tract_id": "06037212306", "city": "LOS ANGELES, CA", "zone_code": "R4-2", "zone_category": "Residential", "ev_permitted": false}, "geometry": {"type": "Polygon", "coordinates": [[[-118.294755486734, 34.0566974793993], [-118.294260374443, 34.05670039046], [-118.294260791652, 34.0568377831041], [-118.294755871742, 34.0568348721223], [-118.294755486734, 34.0566974793993]]]}}, {"type": "Feature", "properties": {"zone_id": "0200GE2VIT74DO9OVF1UQQ", "tract_id": "06037212306", "city": "LOS ANGELES, CA", "zone_code": "R4-2", "zone_category": "Residential", "ev_permitted": false}, "geometry": {"type": "Polygon", "coordinates": [[[-118.295283293244, 34.0565569827965], [-118.294804622797, 34.0565598009312], [-118.294805007885, 34.0566971936531], [-118.295283712035, 34.0566943479576], [-118.295283293244, 34.0565569827965]]]}}, {"type": "Feature", "properties": {"zone_id": "0203KD28HA6NJP0F6GTV34", "tract_id": "06037212306", "city": "LOS ANGELES, CA", "zone_code": "R4-2", "zone_category": "Residential", "ev_permitted": false}, "geometry": {"type": "Polygon", "coordinates": [[[-118.295282874356, 34.0564195901577], [-118.294804171681, 34.0564224083714], [-118.294804622797, 34.0565598009312], [-118.295283293244, 34.0565569827965], [-118.295282874356, 34.0564195901577]]]}}, {"type": "Feature", "properties": {"zone_id": "0207FR3EIUK5MJ2YKJHDG2", "tract_id": "06037212306", "city": "LOS ANGELES, CA", "zone_code": "R4-2", "zone_category": "Residential", "ev_permitted": false}, "geometry": {"type": "Polygon", "coordinates": [[[-118.295281680336, 34.056006450338], [-118.294802980606, 34.0560094334179], [-118.294803368497, 34.0561476230126], [-118.2952820696, 34.0561448048021], [-118.295281680336, 34.056006450338]]]}}, {"type": "Feature", "properties": {"zone_id": "02051M2REKO4L2WJB84ACX", "tract_id": "06037212306", "city": "LOS ANGELES, CA", "zone_code": "R4-2", "zone_category": "Residential", "ev_permitted": false}, "geometry": {"type": "Polygon", "coordinates": [[[-118.2952820696, 34.0561448048021], [-118.294803368497, 34.0561476230126], [-118.294803786595, 34.0562850156512], [-118.295282488484, 34.0562821974391], [-118.2952820696, 34.0561448048021]]]}}, {"type": "Feature", "properties": {"zone_id": "020082JHVLWTWGB3CADIJZ", "tract_id": "06037212306", "city": "LOS ANGELES, CA", "zone_code": "R4-2", "zone_category": "Residential", "ev_permitted": false}, "geometry": {"type": "Polygon", "coordinates": [[[-118.295282488484, 34.0562821974391], [-118.294803786595, 34.0562850156512], [-118.294804171681, 34.0564224083714], [-118.295282874356, 34.0564195901577], [-118.295282488484, 34.0562821974391]]]}}, {"type": "Feature", "properties": {"zone_id": "0200OA42IVZY775VZY0X1V", "tract_id": "06037212306", "city": "LOS ANGELES, CA", "zone_code": "R4-2", "zone_category": "Residential", "ev_permitted": false}, "geometry": {"type": "Polygon", "coordinates": [[[-118.294754650693, 34.0564226941172], [-118.294259573042, 34.056425605094], [-118.29425992422, 34.0565629978973], [-118.294755068713, 34.0565600867578], [-118.294754650693, 34.0564226941172]]]}}, {"type": "Feature", "properties": {"zone_id": "02041POWC5F22IJ3WTLHLQ", "tract_id": "06037212306", "city": "LOS ANGELES, CA", "zone_code": "R4-2", "zone_category": "Residential", "ev_permitted": false}, "geometry": {"type": "Polygon", "coordinates": [[[-118.294755068713, 34.0565600867578], [-118.29425992422, 34.0565629978973], [-118.294260374443, 34.05670039046], [-118.294755486734, 34.0566974793993], [-118.294755068713, 34.0565600867578]]]}}, {"type": "Feature", "properties": {"zone_id": "0202GJCD5BS4L6IMCE9JKG", "tract_id": "06037212306", "city": "LOS ANGELES, CA", "zone_code": "R4-2", "zone_category": "Residential", "ev_permitted": false}, "geometry": {"type": "Polygon", "coordinates": [[[-118.294754265688, 34.0562853013969], [-118.294259155837, 34.0562882124526], [-118.294259573042, 34.056425605094], [-118.294754650693, 34.0564226941172], [-118.294754265688, 34.0562853013969]]]}}, {"type": "Feature", "properties": {"zone_id": "0203VZYKC4MGEN9L3HHH3G", "tract_id": "06037212306", "city": "LOS ANGELES, CA", "zone_code": "R4-2", "zone_category": "Residential", "ev_permitted": false}, "geometry": {"type": "Polygon", "coordinates": [[[-118.294753459959, 34.0560097466417], [-118.294258352318, 34.056012822565], [-118.294259155837, 34.0562882124526], [-118.294754265688, 34.0562853013969], [-118.294753459959, 34.0560097466417]]]}}, {"type": "Feature", "properties": {"zone_id": "0201AY4DCD01GYZKA91PKA", "tract_id": "06037212306", "city": "LOS ANGELES, CA", "zone_code": "R4-2", "zone_category": "Residential", "ev_permitted": false}, "geometry": {"type": "Polygon", "coordinates": [[[-118.294030076462, 34.0569765355758], [-118.293551370654, 34.0569793763021], [-118.293552169638, 34.0572541342015], [-118.294030877114, 34.0572513209504], [-118.294030076462, 34.0569765355758]]]}}, {"type": "Feature", "properties": {"zone_id": "0205DH6SZ5UHREE4HG93A7", "tract_id": "06037212306", "city": "LOS ANGELES, CA", "zone_code": "R4-2", "zone_category": "Residential", "ev_permitted": false}, "geometry": {"type": "Polygon", "coordinates": [[[-118.293501433368, 34.0568422688866], [-118.293005758929, 34.0568451761678], [-118.293006676511, 34.0571543096701], [-118.293502352781, 34.0571514023852], [-118.293501433368, 34.0568422688866]]]}}, {"type": "Feature", "properties": {"zone_id": "02029I204G2BDJKU0S85EO", "tract_id": "06037212306", "city": "LOS ANGELES, CA", "zone_code": "R4-2", "zone_category": "Residential", "ev_permitted": false}, "geometry": {"type": "Polygon", "coordinates": [[[-118.29402965963, 34.05683914293], [-118.293550954609, 34.0568419836547], [-118.293551370654, 34.0569793763021], [-118.294030076462, 34.0569765355758], [-118.29402965963, 34.05683914293]]]}}, {"type": "Feature", "properties": {"zone_id": "02044QBJ29XE6EXLYQAM55", "tract_id": "06037212306", "city": "LOS ANGELES, CA", "zone_code": "R4-2", "zone_category": "Residential", "ev_permitted": false}, "geometry": {"type": "Polygon", "coordinates": [[[-118.294028858986, 34.0565643575607], [-118.293550155537, 34.0565671982822], [-118.293550954609, 34.0568419836547], [-118.29402965963, 34.05683914293], [-118.294028858986, 34.0565643575607]]]}}, {"type": "Feature", "properties": {"zone_id": "0202M3NO6OWGKUAN259ZGD", "tract_id": "06037212306", "city": "LOS ANGELES, CA", "zone_code": "R4-2", "zone_category": "Residential", "ev_permitted": false}, "geometry": {"type": "Polygon", "coordinates": [[[-118.29350105042, 34.0567048761597], [-118.293005409809, 34.0567077833591], [-118.293005758929, 34.0568451761678], [-118.293501433368, 34.0568422688866], [-118.29350105042, 34.0567048761597]]]}}, {"type": "Feature", "properties": {"zone_id": "0202DKTPF5I2HXNWKIOWO4", "tract_id": "06037212306", "city": "LOS ANGELES, CA", "zone_code": "R4-2", "zone_category": "Residential", "ev_permitted": false}, "geometry": {"type": "Polygon", "coordinates": [[[-118.294028475173, 34.0564269648372], [-118.293549739496, 34.0564298056374], [-118.293550155537, 34.0565671982822], [-118.294028858986, 34.0565643575607], [-118.294028475173, 34.0564269648372]]]}}, {"type": "Feature", "properties": {"zone_id": "0203VIG71KC5HTJY3XXBHB", "tract_id": "06037212306", "city": "LOS ANGELES, CA", "zone_code": "R4-2", "zone_category": "Residential", "ev_permitted": false}, "geometry": {"type": "Polygon", "coordinates": [[[-118.293500634458, 34.0565674835138], [-118.293004994662, 34.0565703907115], [-118.293005409809, 34.0567077833591], [-118.29350105042, 34.0567048761597], [-118.293500634458, 34.0565674835138]]]}}, {"type": "Feature", "properties": {"zone_id": "0204OP6QHYPG5NPZNNT037", "tract_id": "06037212306", "city": "LOS ANGELES, CA", "zone_code": "R4-2", "zone_category": "Residential", "ev_permitted": false}, "geometry": {"type": "Polygon", "coordinates": [[[-118.293499835554, 34.0562926981445], [-118.293004197386, 34.0562956053389], [-118.293004612627, 34.0564330254632], [-118.293500218499, 34.0564300908688], [-118.293499835554, 34.0562926981445]]]}}, {"type": "Feature", "properties": {"zone_id": "0202TU1K9PJ0LN6NEY66ZB", "tract_id": "06037212306", "city": "LOS ANGELES, CA", "zone_code": "R4-2", "zone_category": "Residential", "ev_permitted": false}, "geometry": {"type": "Polygon", "coordinates": [[[-118.293500218499, 34.0564300908688], [-118.293004612627, 34.0564330254632], [-118.293004994662, 34.0565703907115], [-118.293500634458, 34.0565674835138], [-118.293500218499, 34.0564300908688]]]}}, {"type": "Feature", "properties": {"zone_id": "0207643UCM0M0XUD8DY79N", "tract_id": "06037212306", "city": "LOS ANGELES, CA", "zone_code": "R4-2", "zone_category": "Residential", "ev_permitted": false}, "geometry": {"type": "Polygon", "coordinates": [[[-118.294027255878, 34.0560142647413], [-118.293548556059, 34.0560172428488], [-118.293548940431, 34.0561550202701], [-118.294027641522, 34.0561521795536], [-118.294027255878, 34.0560142647413]]]}}, {"type": "Feature", "properties": {"zone_id": "0206PMNRUNF2K3HMJXF1MM", "tract_id": "06037212306", "city": "LOS ANGELES, CA", "zone_code": "R4-2", "zone_category": "Residential", "ev_permitted": false}, "geometry": {"type": "Polygon", "coordinates": [[[-118.294027641522, 34.0561521795536], [-118.293548940431, 34.0561550202701], [-118.293549739496, 34.0564298056374], [-118.294028475173, 34.0564269648372], [-118.294027641522, 34.0561521795536]]]}}, {"type": "Feature", "properties": {"zone_id": "0201GP4E3A5EYWL18WGE42", "tract_id": "06037212306", "city": "LOS ANGELES, CA", "zone_code": "R4-2", "zone_category": "Residential", "ev_permitted": false}, "geometry": {"type": "Polygon", "coordinates": [[[-118.293499419597, 34.0561553055013], [-118.293003815257, 34.0561582126138], [-118.293004197386, 34.0562956053389], [-118.293499835554, 34.0562926981445], [-118.293499419597, 34.0561553055013]]]}}, {"type": "Feature", "properties": {"zone_id": "0201EGOAAHKLNT8LMQR51S", "tract_id": "06037212306", "city": "LOS ANGELES, CA", "zone_code": "R4-2", "zone_category": "Residential", "ev_permitted": false}, "geometry": {"type": "Polygon", "coordinates": [[[-118.293499035306, 34.0560175280797], [-118.293003432359, 34.0560206000617], [-118.293003815257, 34.0561582126138], [-118.293499419597, 34.0561553055013], [-118.293499035306, 34.0560175280797]]]}}, {"type": "Feature", "properties": {"zone_id": "0200FTMTSN4249XGFWMJ8Y", "tract_id": "06037212306", "city": "LOS ANGELES, CA", "zone_code": "R4-1", "zone_category": "Residential", "ev_permitted": false}, "geometry": {"type": "Polygon", "coordinates": [[[-118.295280368496, 34.0555599241556], [-118.29476862475, 34.0555631252882], [-118.294769042789, 34.0557005179232], [-118.295280754361, 34.0556973168696], [-118.295280368496, 34.0555599241556]]]}}, {"type": "Feature", "properties": {"zone_id": "0201GNBDOHG3GYFZN12XW3", "tract_id": "06037212306", "city": "LOS ANGELES, CA", "zone_code": "R4-1", "zone_category": "Residential", "ev_permitted": false}, "geometry": {"type": "Polygon", "coordinates": [[[-118.295280754361, 34.0556973168696], [-118.294769042789, 34.0557005179232], [-118.294769452018, 34.0558447802634], [-118.295281197486, 34.0558415791274], [-118.295280754361, 34.0556973168696]]]}}, {"type": "Feature", "properties": {"zone_id": "02043Q2WI5PY7YGZ8TOPJ4", "tract_id": "06037212306", "city": "LOS ANGELES, CA", "zone_code": "R4-1", "zone_category": "Residential", "ev_permitted": false}, "geometry": {"type": "Polygon", "coordinates": [[[-118.29476862475, 34.0555631252882], [-118.294596953965, 34.0555641761891], [-118.294597747641, 34.055845831246], [-118.294769452018, 34.0558447802634], [-118.29476862475, 34.0555631252882]]]}}, {"type": "Feature", "properties": {"zone_id": "0206KXBDKB5VF3N3F71U79", "tract_id": "06037212306", "city": "LOS ANGELES, CA", "zone_code": "R4-1", "zone_category": "Residential", "ev_permitted": false}, "geometry": {"type": "Polygon", "coordinates": [[[-118.294597395911, 34.0557084384484], [-118.294257454188, 34.0557105312339], [-118.294257871484, 34.0558479513502], [-118.294597747641, 34.055845831246], [-118.294597395911, 34.0557084384484]]]}}, {"type": "Feature", "properties": {"zone_id": "020655NJWC109UUP6LIVF9", "tract_id": "06037212306", "city": "LOS ANGELES, CA", "zone_code": "R4-1", "zone_category": "Residential", "ev_permitted": false}, "geometry": {"type": "Polygon", "coordinates": [[[-118.294596953965, 34.0555641761891], [-118.294257045939, 34.0555662963714], [-118.294257454188, 34.0557105312339], [-118.294597395911, 34.0557084384484], [-118.294596953965, 34.0555641761891]]]}}, {"type": "Feature", "properties": {"zone_id": "0204WKNBQFIR05ELZNTDBV", "tract_id": "06037212306", "city": "LOS ANGELES, CA", "zone_code": "R4-1", "zone_category": "Residential", "ev_permitted": false}, "geometry": {"type": "Polygon", "coordinates": [[[-118.294025917719, 34.0555677386256], [-118.293860849627, 34.0555687449259], [-118.293861673839, 34.0558503999075], [-118.294026775501, 34.0558493935256], [-118.294025917719, 34.0555677386256]]]}}, {"type": "Feature", "properties": {"zone_id": "0203ZN2KGAC3OXGWNN43ON", "tract_id": "06037212306", "city": "LOS ANGELES, CA", "zone_code": "R4-1", "zone_category": "Residential", "ev_permitted": false}, "geometry": {"type": "Polygon", "coordinates": [[[-118.295279530839, 34.0552851663704], [-118.294767821691, 34.0552883399402], [-118.294768239727, 34.0554257325734], [-118.295279949618, 34.0554225315233], [-118.295279530839, 34.0552851663704]]]}}, {"type": "Feature", "properties": {"zone_id": "0204GTTVEOTCUP1MO0YY8K", "tract_id": "06037212306", "city": "LOS ANGELES, CA", "zone_code": "R4-1", "zone_category": "Residential", "ev_permitted": false}, "geometry": {"type": "Polygon", "coordinates": [[[-118.295279949618, 34.0554225315233], [-118.294768239727, 34.0554257325734], [-118.29476862475, 34.0555631252882], [-118.295280368496, 34.0555599241556], [-118.295279949618, 34.0554225315233]]]}}, {"type": "Feature", "properties": {"zone_id": "0204FBOBM1AA8DTOWSE5JJ", "tract_id": "06037212306", "city": "LOS ANGELES, CA", "zone_code": "R4-1", "zone_category": "Residential", "ev_permitted": false}, "geometry": {"type": "Polygon", "coordinates": [[[-118.295279144978, 34.0551477736591], [-118.294767403656, 34.0551509473078], [-118.294767821691, 34.0552883399402], [-118.295279530839, 34.0552851663704], [-118.295279144978, 34.0551477736591]]]}}, {"type": "Feature", "properties": {"zone_id": "0203BI4XR06W6UHFGLR925", "tract_id": "06037212306", "city": "LOS ANGELES, CA", "zone_code": "R4-1", "zone_category": "Residential", "ev_permitted": false}, "geometry": {"type": "Polygon", "coordinates": [[[-118.295278307232, 34.0548729884006], [-118.294766600605, 34.0548761619652], [-118.294767018637, 34.0550135545958], [-118.295278726104, 34.0550103810295], [-118.295278307232, 34.0548729884006]]]}}, {"type": "Feature", "properties": {"zone_id": "02056MXLHUI7TIE63NJVVI", "tract_id": "06037212306", "city": "LOS ANGELES, CA", "zone_code": "R4-1", "zone_category": "Residential", "ev_permitted": false}, "geometry": {"type": "Polygon", "coordinates": [[[-118.295278726104, 34.0550103810295], [-118.294767018637, 34.0550135545958], [-118.294767403656, 34.0551509473078], [-118.295279144978, 34.0551477736591], [-118.295278726104, 34.0550103810295]]]}}, {"type": "Feature", "properties": {"zone_id": "02007NNEPJ7UTOD7IFHYBR", "tract_id": "06037212306", "city": "LOS ANGELES, CA", "zone_code": "R4-1", "zone_category": "Residential", "ev_permitted": false}, "geometry": {"type": "Polygon", "coordinates": [[[-118.294768239727, 34.0554257325734], [-118.294256628742, 34.0554289037355], [-118.294257045939, 34.0555662963714], [-118.29476862475, 34.0555631252882], [-118.294768239727, 34.0554257325734]]]}}, {"type": "Feature", "properties": {"zone_id": "02049OHJV5KU00I2VL72VJ", "tract_id": "06037212306", "city": "LOS ANGELES, CA", "zone_code": "R4-1", "zone_category": "Residential", "ev_permitted": false}, "geometry": {"type": "Polygon", "coordinates": [[[-118.294767403656, 34.0551509473078], [-118.294255827366, 34.0551541183859], [-118.294256211546, 34.0552915111004], [-118.294767821691, 34.0552883399402], [-118.294767403656, 34.0551509473078]]]}}, {"type": "Feature", "properties": {"zone_id": "0201BWCTCG3UJB3GBSYTPL", "tract_id": "06037212306", "city": "LOS ANGELES, CA", "zone_code": "R4-1", "zone_category": "Residential", "ev_permitted": false}, "geometry": {"type": "Polygon", "coordinates": [[[-118.294767821691, 34.0552883399402], [-118.294256211546, 34.0552915111004], [-118.294256628742, 34.0554289037355], [-118.294768239727, 34.0554257325734], [-118.294767821691, 34.0552883399402]]]}}, {"type": "Feature", "properties": {"zone_id": "0205CDSX5AXPZ7AKQ08DYH", "tract_id": "06037212306", "city": "LOS ANGELES, CA", "zone_code": "R4-1", "zone_category": "Residential", "ev_permitted": false}, "geometry": {"type": "Polygon", "coordinates": [[[-118.294766600605, 34.0548761619652], [-118.294255025994, 34.0548793330398], [-118.294255410172, 34.0550167257526], [-118.294767018637, 34.0550135545958], [-118.294766600605, 34.0548761619652]]]}}, {"type": "Feature", "properties": {"zone_id": "02053CXMG8122JPLTOHIVM", "tract_id": "06037212306", "city": "LOS ANGELES, CA", "zone_code": "R4-1", "zone_category": "Residential", "ev_permitted": false}, "geometry": {"type": "Polygon", "coordinates": [[[-118.294767018637, 34.0550135545958], [-118.294255410172, 34.0550167257526], [-118.294255827366, 34.0551541183859], [-118.294767403656, 34.0551509473078], [-118.294767018637, 34.0550135545958]]]}}, {"type": "Feature", "properties": {"zone_id": "02072WYDLY4R3ETQAE02CG", "tract_id": "06037212306", "city": "LOS ANGELES, CA", "zone_code": "R4-1", "zone_category": "Residential", "ev_permitted": false}, "geometry": {"type": "Polygon", "coordinates": [[[-118.293860849627, 34.0555687449259], [-118.293687528214, 34.0555698260292], [-118.293688351842, 34.0558514810119], [-118.293861673839, 34.0558503999075], [-118.293860849627, 34.0555687449259]]]}}, {"type": "Feature", "properties": {"zone_id": "0206KSLRX6G3FSX9HHH48L", "tract_id": "06037212306", "city": "LOS ANGELES, CA", "zone_code": "R4-1", "zone_category": "Residential", "ev_permitted": false}, "geometry": {"type": "Polygon", "coordinates": [[[-118.294025117099, 34.0552929532726], [-118.293513407856, 34.0552961215272], [-118.293513823832, 34.0554335141648], [-118.294025533915, 34.0554303459084], [-118.294025117099, 34.0552929532726]]]}}, {"type": "Feature", "properties": {"zone_id": "0205OAPWG63OQYD5AQYA6J", "tract_id": "06037212306", "city": "LOS ANGELES, CA", "zone_code": "R4-1", "zone_category": "Residential", "ev_permitted": false}, "geometry": {"type": "Polygon", "coordinates": [[[-118.294024748569, 34.055169299885], [-118.293513039503, 34.0551723032671], [-118.293513407856, 34.0552961215272], [-118.294025117099, 34.0552929532726], [-118.294024748569, 34.055169299885]]]}}, {"type": "Feature", "properties": {"zone_id": "0201XBNOLD7NLGSTH2FP9N", "tract_id": "06037212306", "city": "LOS ANGELES, CA", "zone_code": "R4-1", "zone_category": "Residential", "ev_permitted": false}, "geometry": {"type": "Polygon", "coordinates": [[[-118.294024083248, 34.054933011908], [-118.293512340686, 34.0549354657975], [-118.293513039503, 34.0551723032671], [-118.294024748569, 34.055169299885], [-118.294024083248, 34.054933011908]]]}}, {"type": "Feature", "properties": {"zone_id": "0202Y0CGLT6F2KUMR20BSY", "tract_id": "06037212306", "city": "LOS ANGELES, CA", "zone_code": "R4-1", "zone_category": "Residential", "ev_permitted": false}, "geometry": {"type": "Polygon", "coordinates": [[[-118.2935121809, 34.0548805087276], [-118.293370222932, 34.0548812108828], [-118.293370319285, 34.0549086893778], [-118.293000204835, 34.0549104672226], [-118.293000523734, 34.0550203813641], [-118.293512596968, 34.055017928841], [-118.2935121809, 34.0548805087276]]]}}, {"type": "Feature", "properties": {"zone_id": "0203J5N75YLLXKG347GDK9", "tract_id": "06037212306", "city": "LOS ANGELES, CA", "zone_code": "R4-2", "zone_category": "Residential", "ev_permitted": false}, "geometry": {"type": "Polygon", "coordinates": [[[-118.292775488942, 34.0571211814204], [-118.29229674973, 34.0571241546462], [-118.292297163716, 34.0572615472997], [-118.292775870701, 34.0572585741524], [-118.292775488942, 34.0571211814204]]]}}, {"type": "Feature", "properties": {"zone_id": "02016XSP7WROAY5W28AN56", "tract_id": "06037212306", "city": "LOS ANGELES, CA", "zone_code": "R4-2", "zone_category": "Residential", "ev_permitted": false}, "geometry": {"type": "Polygon", "coordinates": [[[-118.29277507417, 34.0569837887694], [-118.292296368759, 34.0569867619136], [-118.29229674973, 34.0571241546462], [-118.292775488942, 34.0571211814204], [-118.29277507417, 34.0569837887694]]]}}, {"type": "Feature", "properties": {"zone_id": "02049EKQN4S8K7RGUYZ992", "tract_id": "06037212306", "city": "LOS ANGELES, CA", "zone_code": "C2-1", "zone_category": "Commercial", "ev_permitted": true}, "geometry": {"type": "Polygon", "coordinates": [[[-118.292247228317, 34.0571244393638], [-118.291769281419, 34.0571274085813], [-118.29176969454, 34.0572648012367], [-118.292247642223, 34.0572618320176], [-118.292247228317, 34.0571244393638]]]}}, {"type": "Feature", "properties": {"zone_id": "0205VLD0JQH3D8Z5RYZUN9", "tract_id": "06037212306", "city": "LOS ANGELES, CA", "zone_code": "R4-1", "zone_category": "Residential", "ev_permitted": false}, "geometry": {"type": "Polygon", "coordinates": [[[-118.293687528214, 34.0555698260292], [-118.293514206795, 34.0555709068836], [-118.29351502984, 34.0558525618675], [-118.293688351842, 34.0558514810119], [-118.293687528214, 34.0555698260292]]]}}, {"type": "Feature", "properties": {"zone_id": "02068B2S8Z5Y8ZX1EJCK8R", "tract_id": "06037212306", "city": "LOS ANGELES, CA", "zone_code": "R4-1", "zone_category": "Residential", "ev_permitted": false}, "geometry": {"type": "Polygon", "coordinates": [[[-118.293514255671, 34.0555848384809], [-118.29334588623, 34.0555858795796], [-118.293346388677, 34.0557574280705], [-118.293343087361, 34.055757463568], [-118.293343358542, 34.0558536384649], [-118.29351502984, 34.0558525618675], [-118.293514255671, 34.0555848384809]]]}}, {"type": "Feature", "properties": {"zone_id": "0204O7R49GRC9F39AI4Q7Y", "tract_id": "06037212306", "city": "LOS ANGELES, CA", "zone_code": "R4-1", "zone_category": "Residential", "ev_permitted": false}, "geometry": {"type": "Polygon", "coordinates": [[[-118.29334588623, 34.0555858795796], [-118.293002181468, 34.055588005452], [-118.293002172842, 34.055809432512], [-118.293004692106, 34.0558217371964], [-118.2930077551, 34.0558277612317], [-118.293011932429, 34.0558333065927], [-118.293023181652, 34.0558424155503], [-118.293029968829, 34.0558457486005], [-118.29304501375, 34.0558495521843], [-118.293343343399, 34.0558481427556], [-118.293343087361, 34.055757463568], [-118.293346388677, 34.0557574280705], [-118.29334588623, 34.0555858795796]]]}}, {"type": "Feature", "properties": {"zone_id": "0205HOEDH9KLS44AJXCK8P", "tract_id": "06037212306", "city": "LOS ANGELES, CA", "zone_code": "R4-1", "zone_category": "Residential", "ev_permitted": false}, "geometry": {"type": "Polygon", "coordinates": [[[-118.292787544471, 34.0555754787609], [-118.292300500843, 34.0555784979168], [-118.292301332209, 34.0558518920861], [-118.292755563494, 34.0558489730848], [-118.292788286457, 34.0558211093257], [-118.292787544471, 34.0555754787609]]]}}, {"type": "Feature", "properties": {"zone_id": "0201V12DMX3292QV184CTS", "tract_id": "06037212306", "city": "LOS ANGELES, CA", "zone_code": "R4-1", "zone_category": "Residential", "ev_permitted": false}, "geometry": {"type": "Polygon", "coordinates": [[[-118.293512596968, 34.055017928841], [-118.293000523734, 34.0550203813641], [-118.293002181468, 34.055588005452], [-118.293514255671, 34.0555848384809], [-118.293512596968, 34.055017928841]]]}}, {"type": "Feature", "properties": {"zone_id": "020444U7XV30WJ0LTQ07MU", "tract_id": "06037212306", "city": "LOS ANGELES, CA", "zone_code": "R4-1", "zone_category": "Residential", "ev_permitted": false}, "geometry": {"type": "Polygon", "coordinates": [[[-118.294025533915, 34.0554303459084], [-118.293513823832, 34.0554335141648], [-118.293514206795, 34.0555709068836], [-118.294025917719, 34.0555677386256], [-118.294025533915, 34.0554303459084]]]}}, {"type": "Feature", "properties": {"zone_id": "0206B5UEN47FIS6DX9M5NN", "tract_id": "06037212306", "city": "LOS ANGELES, CA", "zone_code": "C2-1", "zone_category": "Commercial", "ev_permitted": true}, "geometry": {"type": "Polygon", "coordinates": [[[-118.292246847428, 34.056987046631], [-118.291768934329, 34.0569900157672], [-118.291769281419, 34.0571274085813], [-118.292247228317, 34.0571244393638], [-118.292246847428, 34.056987046631]]]}}, {"type": "Feature", "properties": {"zone_id": "020067JJMLR9BB06SB3CPT", "tract_id": "06037212306", "city": "LOS ANGELES, CA", "zone_code": "R4-2", "zone_category": "Residential", "ev_permitted": false}, "geometry": {"type": "Polygon", "coordinates": [[[-118.292774277645, 34.0567090033899], [-118.292295573806, 34.0567119765309], [-118.292295987789, 34.0568493691818], [-118.292774692414, 34.0568463960392], [-118.292774277645, 34.0567090033899]]]}}, {"type": "Feature", "properties": {"zone_id": "0205N60KCKU1HQQO8UDXHR", "tract_id": "06037212306", "city": "LOS ANGELES, CA", "zone_code": "R4-2", "zone_category": "Residential", "ev_permitted": false}, "geometry": {"type": "Polygon", "coordinates": [[[-118.292774692414, 34.0568463960392], [-118.292295987789, 34.0568493691818], [-118.292296368759, 34.0569867619136], [-118.29277507417, 34.0569837887694], [-118.292774692414, 34.0568463960392]]]}}, {"type": "Feature", "properties": {"zone_id": "0203ITYPQ3IQSRBQDMAWW8", "tract_id": "06037212306", "city": "LOS ANGELES, CA", "zone_code": "C2-1", "zone_category": "Commercial", "ev_permitted": true}, "geometry": {"type": "Polygon", "coordinates": [[[-118.292246466635, 34.0568496813777], [-118.291801535475, 34.0568524609134], [-118.291801915537, 34.0569898261682], [-118.292246847428, 34.056987046631], [-118.292246466635, 34.0568496813777]]]}}, {"type": "Feature", "properties": {"zone_id": "0205MAHSSRMPB43F2WBNO7", "tract_id": "06037212306", "city": "LOS ANGELES, CA", "zone_code": "C2-1", "zone_category": "Commercial", "ev_permitted": true}, "geometry": {"type": "Polygon", "coordinates": [[[-118.292246052734, 34.0567122887266], [-118.291768108094, 34.0567152304608], [-118.291768521211, 34.0568526231136], [-118.292246466635, 34.0568496813777], [-118.292246052734, 34.0567122887266]]]}}, {"type": "Feature", "properties": {"zone_id": "0204WJVOAP77365RV1J25L", "tract_id": "06037212306", "city": "LOS ANGELES, CA", "zone_code": "R4-2", "zone_category": "Residential", "ev_permitted": false}, "geometry": {"type": "Polygon", "coordinates": [[[-118.292739506435, 34.0560277525584], [-118.292293622154, 34.0560305087492], [-118.292295573806, 34.0567119765309], [-118.292774277645, 34.0567090033899], [-118.292772418252, 34.056055014113], [-118.292739506435, 34.0560277525584]]]}}, {"type": "Feature", "properties": {"zone_id": "02073KDY0LQO9BG27S0KAS", "tract_id": "06037212306", "city": "LOS ANGELES, CA", "zone_code": "C2-1", "zone_category": "Commercial", "ev_permitted": true}, "geometry": {"type": "Polygon", "coordinates": [[[-118.292245257949, 34.0564375033472], [-118.291800361899, 34.0564402553201], [-118.291801089673, 34.0567151782546], [-118.292246052734, 34.0567122887266], [-118.292245257949, 34.0564375033472]]]}}, {"type": "Feature", "properties": {"zone_id": "0204UKQ9IN0JHXS0B41K9T", "tract_id": "06037212306", "city": "LOS ANGELES, CA", "zone_code": "C2-1", "zone_category": "Commercial", "ev_permitted": true}, "geometry": {"type": "Polygon", "coordinates": [[[-118.292244877065, 34.0563001106188], [-118.291766967795, 34.0563030522686], [-118.291767347414, 34.0564403076059], [-118.292245257949, 34.0564375033472], [-118.292244877065, 34.0563001106188]]]}}, {"type": "Feature", "properties": {"zone_id": "0200K9QFDO3VACC4658QDL", "tract_id": "06037212306", "city": "LOS ANGELES, CA", "zone_code": "C2-1", "zone_category": "Commercial", "ev_permitted": true}, "geometry": {"type": "Polygon", "coordinates": [[[-118.292244082288, 34.0560253252446], [-118.291766174587, 34.0560282668912], [-118.291766967795, 34.0563030522686], [-118.292244877065, 34.0563001106188], [-118.292244082288, 34.0560253252446]]]}}, {"type": "Feature", "properties": {"zone_id": "0201RTOXBRZZSG3ZIAVCK3", "tract_id": "06037212306", "city": "LOS ANGELES, CA", "zone_code": "C2-1", "zone_category": "Commercial", "ev_permitted": true}, "geometry": {"type": "Polygon", "coordinates": [[[-118.292243200551, 34.0557161916729], [-118.291765294616, 34.055719133316], [-118.291765698666, 34.0558633956665], [-118.292243605425, 34.0558604540218], [-118.292243200551, 34.0557161916729]]]}}, {"type": "Feature", "properties": {"zone_id": "0204MS98INU3RUL6RXKHDD", "tract_id": "06037212306", "city": "LOS ANGELES, CA", "zone_code": "R4-1", "zone_category": "Residential", "ev_permitted": false}, "geometry": {"type": "Polygon", "coordinates": [[[-118.292770622672, 34.0554381209858], [-118.292291926105, 34.0554410941121], [-118.292292340171, 34.0555785142334], [-118.292771037429, 34.0555755136269], [-118.292770622672, 34.0554381209858]]]}}, {"type": "Feature", "properties": {"zone_id": "02040BQN1E1BBSKBXB1UZ4", "tract_id": "06037212306", "city": "LOS ANGELES, CA", "zone_code": "C2-1", "zone_category": "Commercial", "ev_permitted": true}, "geometry": {"type": "Polygon", "coordinates": [[[-118.292242405785, 34.0554414063063], [-118.291797515523, 34.0554442990959], [-118.291798308229, 34.0557189127249], [-118.292243200551, 34.0557161916729], [-118.292242405785, 34.0554414063063]]]}}, {"type": "Feature", "properties": {"zone_id": "0202O8QIPJNEQQD059CJ7T", "tract_id": "06037212306", "city": "LOS ANGELES, CA", "zone_code": "R4-1", "zone_category": "Residential", "ev_permitted": false}, "geometry": {"type": "Polygon", "coordinates": [[[-118.292769859191, 34.0551633355461], [-118.292291131181, 34.0551663087494], [-118.292291545149, 34.0553037013903], [-118.292770240931, 34.0553007282655], [-118.292769859191, 34.0551633355461]]]}}, {"type": "Feature", "properties": {"zone_id": "0200R23D2E10T45LAHPZLF", "tract_id": "06037212306", "city": "LOS ANGELES, CA", "zone_code": "R4-1", "zone_category": "Residential", "ev_permitted": false}, "geometry": {"type": "Polygon", "coordinates": [[[-118.292770240931, 34.0553007282655], [-118.292291545149, 34.0553037013903], [-118.292291926105, 34.0554410941121], [-118.292770622672, 34.0554381209858], [-118.292770240931, 34.0553007282655]]]}}, {"type": "Feature", "properties": {"zone_id": "02013X1LQO51XK8DAVSB7G", "tract_id": "06037212306", "city": "LOS ANGELES, CA", "zone_code": "C2-1", "zone_category": "Commercial", "ev_permitted": true}, "geometry": {"type": "Polygon", "coordinates": [[[-118.292241230152, 34.055029228223], [-118.291796374605, 34.0550319801012], [-118.291797515523, 34.0554442990959], [-118.292242405785, 34.0554414063063], [-118.292241230152, 34.055029228223]]]}}, {"type": "Feature", "properties": {"zone_id": "02024M8H0E378S1PD84AA3", "tract_id": "06037212306", "city": "LOS ANGELES, CA", "zone_code": "R4-1", "zone_category": "Residential", "ev_permitted": false}, "geometry": {"type": "Polygon", "coordinates": [[[-118.292769444438, 34.0550259429077], [-118.292290750228, 34.0550289160293], [-118.292291131181, 34.0551663087494], [-118.292769859191, 34.0551633355461], [-118.292769444438, 34.0550259429077]]]}}, {"type": "Feature", "properties": {"zone_id": "0206ZQHRKMZPSHX5WUDSJW", "tract_id": "06037212306", "city": "LOS ANGELES, CA", "zone_code": "R4-1", "zone_category": "Residential", "ev_permitted": false}, "geometry": {"type": "Polygon", "coordinates": [[[-118.2927690627, 34.0548885501901], [-118.292290336263, 34.0548915233901], [-118.292290750228, 34.0550289160293], [-118.292769444438, 34.0550259429077], [-118.2927690627, 34.0548885501901]]]}}, {"type": "Feature", "properties": {"zone_id": "0204KAYJVKOFQIAHDQ6FYE", "tract_id": "06037212306", "city": "LOS ANGELES, CA", "zone_code": "R4-1", "zone_category": "Residential", "ev_permitted": false}, "geometry": {"type": "Polygon", "coordinates": [[[-118.295277954389, 34.0547355956113], [-118.294947788598, 34.0547376389681], [-118.294948140996, 34.0548750592369], [-118.295278307232, 34.0548729884006], [-118.295277954389, 34.0547355956113]]]}}, {"type": "Feature", "properties": {"zone_id": "02016KNSF2Y0BZZ39H9JFU", "tract_id": "06037212306", "city": "LOS ANGELES, CA", "zone_code": "R4-1", "zone_category": "Residential", "ev_permitted": false}, "geometry": {"type": "Polygon", "coordinates": [[[-118.295277499112, 34.0545972413178], [-118.294947365331, 34.0545988449368], [-118.294947788598, 34.0547376389681], [-118.295277954389, 34.0547355956113], [-118.295277499112, 34.0545972413178]]]}}, {"type": "Feature", "properties": {"zone_id": "0205D7APN3XE7T1EI9LNMP", "tract_id": "06037212306", "city": "LOS ANGELES, CA", "zone_code": "R4-1", "zone_category": "Residential", "ev_permitted": false}, "geometry": {"type": "Polygon", "coordinates": [[[-118.294947365331, 34.0545988449368], [-118.294828517124, 34.0545994099282], [-118.294829325895, 34.0548757615409], [-118.294948140996, 34.0548750592369], [-118.294947365331, 34.0545988449368]]]}}, {"type": "Feature", "properties": {"zone_id": "0203I0NH0112MD2PRXBJYD", "tract_id": "06037212306", "city": "LOS ANGELES, CA", "zone_code": "R4-1", "zone_category": "Residential", "ev_permitted": false}, "geometry": {"type": "Polygon", "coordinates": [[[-118.294828517124, 34.0545994099282], [-118.294709668916, 34.0545999748026], [-118.294710477972, 34.0548765187656], [-118.294829325895, 34.0548757615409], [-118.294828517124, 34.0545994099282]]]}}, {"type": "Feature", "properties": {"zone_id": "02005QDW2K9W6BZG1WH0MW", "tract_id": "06037212306", "city": "LOS ANGELES, CA", "zone_code": "R4-1", "zone_category": "Residential", "ev_permitted": false}, "geometry": {"type": "Polygon", "coordinates": [[[-118.294709668916, 34.0545999748026], [-118.29458421807, 34.0546005831448], [-118.294585027292, 34.0548772919796], [-118.294710477972, 34.0548765187656], [-118.294709668916, 34.0545999748026]]]}}, {"type": "Feature", "properties": {"zone_id": "0202JWT0T8B2D9WANFRB2B", "tract_id": "06037212306", "city": "LOS ANGELES, CA", "zone_code": "R4-1", "zone_category": "Residential", "ev_permitted": false}, "geometry": {"type": "Polygon", "coordinates": [[[-118.29458421807, 34.0546005831448], [-118.294254183207, 34.0546021571488], [-118.294255025994, 34.0548793330398], [-118.294585027292, 34.0548772919796], [-118.29458421807, 34.0546005831448]]]}}, {"type": "Feature", "properties": {"zone_id": "0203F1ATNZUH3JMOA348FO", "tract_id": "06037212306", "city": "LOS ANGELES, CA", "zone_code": "R4-1", "zone_category": "Residential", "ev_permitted": false}, "geometry": {"type": "Polygon", "coordinates": [[[-118.294023089506, 34.0546032695751], [-118.293907542653, 34.0546038256224], [-118.293908502926, 34.0549335680366], [-118.294024083248, 34.054933011908], [-118.294023089506, 34.0546032695751]]]}}, {"type": "Feature", "properties": {"zone_id": "0203PO9QATYJDI4ENXJ6OT", "tract_id": "06037212306", "city": "LOS ANGELES, CA", "zone_code": "R4-1", "zone_category": "Residential", "ev_permitted": false}, "geometry": {"type": "Polygon", "coordinates": [[[-118.293775489159, 34.0546044766717], [-118.293511382071, 34.0546057508586], [-118.293512340686, 34.0549354657975], [-118.293776448912, 34.054934219087], [-118.293775489159, 34.0546044766717]]]}}, {"type": "Feature", "properties": {"zone_id": "0204IIR2X2SH92RUU3NV8H", "tract_id": "06037212306", "city": "LOS ANGELES, CA", "zone_code": "R4-1", "zone_category": "Residential", "ev_permitted": false}, "geometry": {"type": "Polygon", "coordinates": [[[-118.293907542653, 34.0546038256224], [-118.293775489159, 34.0546044766717], [-118.293776448912, 34.054934219087], [-118.293908502926, 34.0549335680366], [-118.293907542653, 34.0546038256224]]]}}, {"type": "Feature", "properties": {"zone_id": "0200W3VGB157VZ783O1TQL", "tract_id": "06037212306", "city": "LOS ANGELES, CA", "zone_code": "R4-1", "zone_category": "Residential", "ev_permitted": false}, "geometry": {"type": "Polygon", "coordinates": [[[-118.293511382071, 34.0546057508586], [-118.293369424472, 34.0546064255345], [-118.293370222932, 34.0548812108828], [-118.2935121809, 34.0548805087276], [-118.293511382071, 34.0546057508586]]]}}, {"type": "Feature", "properties": {"zone_id": "0202MZ9DUCKLGVJ3UC5F1J", "tract_id": "06037212306", "city": "LOS ANGELES, CA", "zone_code": "R4-1", "zone_category": "Residential", "ev_permitted": false}, "geometry": {"type": "Polygon", "coordinates": [[[-118.293369840208, 34.0547438181681], [-118.292999759501, 34.0547455959313], [-118.293000204835, 34.0549104672226], [-118.293370319285, 34.0549086893778], [-118.293369840208, 34.0547438181681]]]}}, {"type": "Feature", "properties": {"zone_id": "0205WKV7IZNSZY5MTVW68H", "tract_id": "06037212306", "city": "LOS ANGELES, CA", "zone_code": "R4-1", "zone_category": "Residential", "ev_permitted": false}, "geometry": {"type": "Polygon", "coordinates": [[[-118.293369424472, 34.0546064255345], [-118.292999344373, 34.0546082032964], [-118.292999759501, 34.0547455959313], [-118.293369840208, 34.0547438181681], [-118.293369424472, 34.0546064255345]]]}}, {"type": "Feature", "properties": {"zone_id": "02077LJKW663MCHFD8HL91", "tract_id": "06037212306", "city": "LOS ANGELES, CA", "zone_code": "R4-1", "zone_category": "Residential", "ev_permitted": false}, "geometry": {"type": "Polygon", "coordinates": [[[-118.292768250638, 34.0546093133215], [-118.292289556412, 34.0546115994759], [-118.292289955313, 34.0547541306719], [-118.292768648046, 34.054751185032], [-118.292768250638, 34.0546093133215]]]}}, {"type": "Feature", "properties": {"zone_id": "0200R8MJNLB43EH2EKXZSG", "tract_id": "06037212306", "city": "LOS ANGELES, CA", "zone_code": "R4-1", "zone_category": "Residential", "ev_permitted": false}, "geometry": {"type": "Polygon", "coordinates": [[[-118.292768648046, 34.054751185032], [-118.292289955313, 34.0547541306719], [-118.292290336263, 34.0548915233901], [-118.2927690627, 34.0548885501901], [-118.292768648046, 34.054751185032]]]}}, {"type": "Feature", "properties": {"zone_id": "0206M208PXHF58JTPY5OUU", "tract_id": "06037212306", "city": "LOS ANGELES, CA", "zone_code": "C2-1", "zone_category": "Commercial", "ev_permitted": true}, "geometry": {"type": "Polygon", "coordinates": [[[-118.292240036295, 34.0546118292336], [-118.291843875541, 34.0546137215211], [-118.291795312012, 34.0546610473236], [-118.291796374605, 34.0550319801012], [-118.292241230152, 34.055029228223], [-118.292240036295, 34.0546118292336]]]}}]}