{"type": "FeatureCollection", "features": [{"type": "Feature", "properties": {"zone_id": "0201JGAGTMNNXO38P7ISOE", "tract_id": "34031175803", "city": "PASSAIC, NJ", "zone_code": "C-R", "zone_category": "Commercial", "ev_permitted": true}, "geometry": {"type": "Polygon", "coordinates": [[[-74.133999315629, 40.8652797744701], [-74.133194857524, 40.865496872261], [-74.1334354975087, 40.8660107840514], [-74.1332526140925, 40.8660601376386], [-74.1333989355017, 40.866371472088], [-74.1341656770458, 40.8661650016297], [-74.133999315629, 40.8652797744701]]]}}, {"type": "Feature", "properties": {"zone_id": "02026UI7NAN48R4ZWCUK9E", "tract_id": "34031175803", "city": "PASSAIC, NJ", "zone_code": "R-3", "zone_category": "Residential", "ev_permitted": false}, "geometry": {"type": "Polygon", "coordinates": [[[-74.1330345724103, 40.8661189782856], [-74.1329119238706, 40.8661520757988], [-74.1330588044047, 40.8664633025829], [-74.1331845972179, 40.8664293251498], [-74.1330345724103, 40.8661189782856]]]}}, {"type": "Feature", "properties": {"zone_id": "0206FCV090OYTBZSNCDMVD", "tract_id": "34031175803", "city": "PASSAIC, NJ", "zone_code": "R-3", "zone_category": "Residential", "ev_permitted": false}, "geometry": {"type": "Polygon", "coordinates": [[[-74.1331299657685, 40.8660932353849], [-74.1330345724103, 40.8661189782856], [-74.1331845972179, 40.8664293251498], [-74.1332785509151, 40.8664031335679], [-74.1331299657685, 40.8660932353849]]]}}, {"type": "Feature", "properties": {"zone_id": "0202BGEW01ZNQG79MSIILC", "tract_id": "34031175803", "city": "PASSAIC, NJ", "zone_code": "R-3", "zone_category": "Residential", "ev_permitted": false}, "geometry": {"type": "Polygon", "coordinates": [[[-74.1332526140925, 40.8660601376386], [-74.1331299657685, 40.8660932353849], [-74.1332785509151, 40.8664031335679], [-74.1333989355017, 40.866371472088], [-74.1332526140925, 40.8660601376386]]]}}, {"type": "Feature", "properties": {"zone_id": "02054XEFJ2RLKBPZJ0CW5U", "tract_id": "34031175803", "city": "PASSAIC, NJ", "zone_code": "C-R", "zone_category": "Commercial", "ev_permitted": true}, "geometry": {"type": "Polygon", "coordinates": [[[-74.133194857524, 40.865496872261], [-74.1318116570732, 40.8658701365209], [-74.1320522876682, 40.8663840520243], [-74.1334354975087, 40.8660107840514], [-74.133194857524, 40.865496872261]]]}}, {"type": "Feature", "properties": {"zone_id": "0204EWF6G5I20GLCE2B9O8", "tract_id": "34031175803", "city": "PASSAIC, NJ", "zone_code": "C-R", "zone_category": "Commercial", "ev_permitted": true}, "geometry": {"type": "Polygon", "coordinates": [[[-74.1318510148944, 40.8659541936458], [-74.1311856125698, 40.8661337493972], [-74.1315411781304, 40.8665219722302], [-74.131805866069, 40.8668030420499], [-74.1321461378987, 40.8667102016638], [-74.132000026057, 40.8663981539652], [-74.1320522876682, 40.8663840520243], [-74.1318510148944, 40.8659541936458]]]}}, {"type": "Feature", "properties": {"zone_id": "02077RGVF1FW2H4DZYGNQT", "tract_id": "34031175803", "city": "PASSAIC, NJ", "zone_code": "R-3", "zone_category": "Residential", "ev_permitted": false}, "geometry": {"type": "Polygon", "coordinates": [[[-74.1329119238706, 40.8661520757988], [-74.1328267499777, 40.8661750610776], [-74.1329737063845, 40.8664864485117], [-74.1330588044047, 40.8664633025829], [-74.1329119238706, 40.8661520757988]]]}}, {"type": "Feature", "properties": {"zone_id": "02031P4PNZ9A2OOR2SI4XE", "tract_id": "34031175803", "city": "PASSAIC, NJ", "zone_code": "R-3", "zone_category": "Residential", "ev_permitted": false}, "geometry": {"type": "Polygon", "coordinates": [[[-74.1328267499777, 40.8661750610776], [-74.1327415772175, 40.8661980453963], [-74.1328887126648, 40.8665098153496], [-74.1329737063845, 40.8664864485117], [-74.1328267499777, 40.8661750610776]]]}}, {"type": "Feature", "properties": {"zone_id": "0207K0EWXVXIKUVEHG49K9", "tract_id": "34031175803", "city": "PASSAIC, NJ", "zone_code": "R-3", "zone_category": "Residential", "ev_permitted": false}, "geometry": {"type": "Polygon", "coordinates": [[[-74.1327415772175, 40.8661980453963], [-74.1326564043988, 40.8662210296518], [-74.1328035394959, 40.8665327997111], [-74.1328887126648, 40.8665098153496], [-74.1327415772175, 40.8661980453963]]]}}, {"type": "Feature", "properties": {"zone_id": "0202O4BOBIALMI3RIF690R", "tract_id": "34031175803", "city": "PASSAIC, NJ", "zone_code": "R-3", "zone_category": "Residential", "ev_permitted": false}, "geometry": {"type": "Polygon", "coordinates": [[[-74.1326564043988, 40.8662210296518], [-74.1325712315216, 40.8662440138441], [-74.1327173445303, 40.8665560608338], [-74.1328035394959, 40.8665327997111], [-74.1326564043988, 40.8662210296518]]]}}, {"type": "Feature", "properties": {"zone_id": "02011W81SEGMI6WKGUXV0Q", "tract_id": "34031175803", "city": "PASSAIC, NJ", "zone_code": "R-3", "zone_category": "Residential", "ev_permitted": false}, "geometry": {"type": "Polygon", "coordinates": [[[-74.1325712315216, 40.8662440138441], [-74.1324753945903, 40.8662698755449], [-74.1326215072041, 40.8665819226529], [-74.1327173445303, 40.8665560608338], [-74.1325712315216, 40.8662440138441]]]}}, {"type": "Feature", "properties": {"zone_id": "0203FSHMGZHQUBDEIHB951", "tract_id": "34031175803", "city": "PASSAIC, NJ", "zone_code": "R-3", "zone_category": "Residential", "ev_permitted": false}, "geometry": {"type": "Polygon", "coordinates": [[[-74.1324753945903, 40.8662698755449], [-74.1323800007286, 40.8662956179013], [-74.1325261129494, 40.8666076651271], [-74.1326215072041, 40.8665819226529], [-74.1324753945903, 40.8662698755449]]]}}, {"type": "Feature", "properties": {"zone_id": "0200NH8NWZMSQQSU7MPTVU", "tract_id": "34031175803", "city": "PASSAIC, NJ", "zone_code": "R-3", "zone_category": "Residential", "ev_permitted": false}, "geometry": {"type": "Polygon", "coordinates": [[[-74.1323800007286, 40.8662956179013], [-74.1322848111399, 40.8663213049944], [-74.1324309229685, 40.8666333523376], [-74.1325261129494, 40.8666076651271], [-74.1323800007286, 40.8662956179013]]]}}, {"type": "Feature", "properties": {"zone_id": "020060RIXYKJOEKHF5FHTG", "tract_id": "34031175803", "city": "PASSAIC, NJ", "zone_code": "R-3", "zone_category": "Residential", "ev_permitted": false}, "geometry": {"type": "Polygon", "coordinates": [[[-74.1322848111399, 40.8663213049944], [-74.1321893482236, 40.8663470658846], [-74.1323354608453, 40.8666591133495], [-74.1324309229685, 40.8666333523376], [-74.1322848111399, 40.8663213049944]]]}}, {"type": "Feature", "properties": {"zone_id": "0203R50O1HI8UOGFOHLLGX", "tract_id": "34031175803", "city": "PASSAIC, NJ", "zone_code": "R-3", "zone_category": "Residential", "ev_permitted": false}, "geometry": {"type": "Polygon", "coordinates": [[[-74.132095489114, 40.866372394133], [-74.132000026057, 40.8663981539652], [-74.1321461378987, 40.8667102016638], [-74.1322416001677, 40.8666844408095], [-74.132095489114, 40.866372394133]]]}}, {"type": "Feature", "properties": {"zone_id": "02036UAR7JEYRU9LHS4WT4", "tract_id": "34031175803", "city": "PASSAIC, NJ", "zone_code": "R-3", "zone_category": "Residential", "ev_permitted": false}, "geometry": {"type": "Polygon", "coordinates": [[[-74.1321893482236, 40.8663470658846], [-74.132095489114, 40.866372394133], [-74.1322416001677, 40.8666844408095], [-74.1323354608453, 40.8666591133495], [-74.1321893482236, 40.8663470658846]]]}}, {"type": "Feature", "properties": {"zone_id": "0207BCJF3ZKZQLBY0ZUGT0", "tract_id": "34031175803", "city": "PASSAIC, NJ", "zone_code": "C-R", "zone_category": "Commercial", "ev_permitted": true}, "geometry": {"type": "Polygon", "coordinates": [[[-74.1332923777452, 40.8644436525555], [-74.1325849156836, 40.8646345722268], [-74.1329718678338, 40.865462369884], [-74.1331554982718, 40.8654128146813], [-74.133194857524, 40.865496872261], [-74.133999315629, 40.8652797744701], [-74.1339945603758, 40.8652544758208], [-74.1337404436013, 40.8647072741136], [-74.1334508627309, 40.8647854227026], [-74.1332923777452, 40.8644436525555]]]}}, {"type": "Feature", "properties": {"zone_id": "0204M674SQTXHVL7QS5RYO", "tract_id": "34031175803", "city": "PASSAIC, NJ", "zone_code": "C-R", "zone_category": "Commercial", "ev_permitted": true}, "geometry": {"type": "Polygon", "coordinates": [[[-74.1335819573073, 40.8643655043542], [-74.1332923777452, 40.8644436525555], [-74.1334508627309, 40.8647854227026], [-74.1337404436013, 40.8647072741136], [-74.1335819573073, 40.8643655043542]]]}}, {"type": "Feature", "properties": {"zone_id": "0201UP38ZA7R3RIP3SUL8I", "tract_id": "34031175803", "city": "PASSAIC, NJ", "zone_code": "M-1", "zone_category": "Industrial", "ev_permitted": true}, "geometry": {"type": "Polygon", "coordinates": [[[-74.1333296632238, 40.8637877942647], [-74.1329408141668, 40.8638872001064], [-74.1331270739253, 40.8643030041914], [-74.1335142798731, 40.8642040184816], [-74.1333296632238, 40.8637877942647]]]}}, {"type": "Feature", "properties": {"zone_id": "0203NTXAEWU9UW3OHSSF3O", "tract_id": "34031175803", "city": "PASSAIC, NJ", "zone_code": "M-1", "zone_category": "Industrial", "ev_permitted": true}, "geometry": {"type": "Polygon", "coordinates": [[[-74.1332173589752, 40.863534600646], [-74.1328285112368, 40.863634006119], [-74.1329408141668, 40.8638872001064], [-74.1333296632238, 40.8637877942647], [-74.1332173589752, 40.863534600646]]]}}, {"type": "Feature", "properties": {"zone_id": "0203XPJ0GIV35QKXC58FUN", "tract_id": "34031175803", "city": "PASSAIC, NJ", "zone_code": "C-R", "zone_category": "Commercial", "ev_permitted": true}, "geometry": {"type": "Polygon", "coordinates": [[[-74.1327781000912, 40.8650485491027], [-74.132267649798, 40.8651862990596], [-74.1322070982247, 40.8650569792816], [-74.1320367550949, 40.8651029469601], [-74.1320973051911, 40.8652322668214], [-74.1314156274028, 40.8654162172431], [-74.1316093865155, 40.8658300402512], [-74.1317722993559, 40.8657860784812], [-74.1318116570732, 40.8658701365209], [-74.133194857524, 40.865496872261], [-74.1331554982718, 40.8654128146813], [-74.1329718678338, 40.865462369884], [-74.1327781000912, 40.8650485491027]]]}}, {"type": "Feature", "properties": {"zone_id": "02063NUG09WHL91WMOE98V", "tract_id": "34031175803", "city": "PASSAIC, NJ", "zone_code": "R-3", "zone_category": "Residential", "ev_permitted": false}, "geometry": {"type": "Polygon", "coordinates": [[[-74.1323294017273, 40.8647035244965], [-74.132244230687, 40.8647265084612], [-74.1324379929848, 40.865140331041], [-74.1325231644904, 40.8651173469369], [-74.1323294017273, 40.8647035244965]]]}}, {"type": "Feature", "properties": {"zone_id": "0202F9VQ4S0JSW4MZ7BC8B", "tract_id": "34031175803", "city": "PASSAIC, NJ", "zone_code": "R-3", "zone_category": "Residential", "ev_permitted": false}, "geometry": {"type": "Polygon", "coordinates": [[[-74.1325849156836, 40.8646345722268], [-74.1324997436325, 40.8646575563774], [-74.1326935085174, 40.8650713776421], [-74.1327786798526, 40.8650483924477], [-74.1325849156836, 40.8646345722268]]]}}, {"type": "Feature", "properties": {"zone_id": "020273BTP453P76VEW0W68", "tract_id": "34031175803", "city": "PASSAIC, NJ", "zone_code": "R-3", "zone_category": "Residential", "ev_permitted": false}, "geometry": {"type": "Polygon", "coordinates": [[[-74.1324997436325, 40.8646575563774], [-74.1323294017273, 40.8647035244965], [-74.1325231644904, 40.8651173469369], [-74.1326935085174, 40.8650713776421], [-74.1324997436325, 40.8646575563774]]]}}, {"type": "Feature", "properties": {"zone_id": "02032WVFWBQK5ERV71EXSW", "tract_id": "34031175803", "city": "PASSAIC, NJ", "zone_code": "R-3", "zone_category": "Residential", "ev_permitted": false}, "geometry": {"type": "Polygon", "coordinates": [[[-74.132244230687, 40.8647265084612], [-74.1321590595832, 40.8647494932632], [-74.1323528214207, 40.8651633150819], [-74.1324379929848, 40.865140331041], [-74.132244230687, 40.8647265084612]]]}}, {"type": "Feature", "properties": {"zone_id": "0204T6XZOZJH4AVLLQ2A0S", "tract_id": "34031175803", "city": "PASSAIC, NJ", "zone_code": "R-3", "zone_category": "Residential", "ev_permitted": false}, "geometry": {"type": "Polygon", "coordinates": [[[-74.1321590595832, 40.8647494932632], [-74.1319875921438, 40.8647957643821], [-74.1320603735462, 40.8649512065611], [-74.1321219266891, 40.8650799631525], [-74.1322070982247, 40.8650569792816], [-74.132267649798, 40.8651862990596], [-74.1323528214207, 40.8651633150819], [-74.1321590595832, 40.8647494932632]]]}}, {"type": "Feature", "properties": {"zone_id": "0207E8FJVQH54NHP44DPS0", "tract_id": "34031175803", "city": "PASSAIC, NJ", "zone_code": "R-3", "zone_category": "Residential", "ev_permitted": false}, "geometry": {"type": "Polygon", "coordinates": [[[-74.1319035447496, 40.8648184445844], [-74.1318183734169, 40.864841428233], [-74.1320121333931, 40.8652552506094], [-74.1320973051911, 40.8652322668214], [-74.1319035447496, 40.8648184445844]]]}}, {"type": "Feature", "properties": {"zone_id": "0207DGQQ59J1XOBRLXMQOU", "tract_id": "34031175803", "city": "PASSAIC, NJ", "zone_code": "R-3", "zone_category": "Residential", "ev_permitted": false}, "geometry": {"type": "Polygon", "coordinates": [[[-74.1318183734169, 40.864841428233], [-74.1317332020207, 40.8648644127188], [-74.1319269615366, 40.8652782343342], [-74.1320121333931, 40.8652552506094], [-74.1318183734169, 40.864841428233]]]}}, {"type": "Feature", "properties": {"zone_id": "0207I7P3F0EIS3MSBZDNQ3", "tract_id": "34031175803", "city": "PASSAIC, NJ", "zone_code": "R-3", "zone_category": "Residential", "ev_permitted": false}, "geometry": {"type": "Polygon", "coordinates": [[[-74.1319875921438, 40.8647957643821], [-74.1319035447496, 40.8648184445844], [-74.1320367550949, 40.8651029469601], [-74.1321219266891, 40.8650799631525], [-74.1320603735462, 40.8649512065611], [-74.1319875921438, 40.8647957643821]]]}}, {"type": "Feature", "properties": {"zone_id": "0205Q7T3XOHQWL3QN1M18R", "tract_id": "34031175803", "city": "PASSAIC, NJ", "zone_code": "C-R", "zone_category": "Commercial", "ev_permitted": true}, "geometry": {"type": "Polygon", "coordinates": [[[-74.1310177569323, 40.86505747395], [-74.1308814825094, 40.8650942468875], [-74.131075237372, 40.8655080698972], [-74.1312115137256, 40.8654712967404], [-74.1310177569323, 40.86505747395]]]}}, {"type": "Feature", "properties": {"zone_id": "0201UC2HW7V8D1716AGFO1", "tract_id": "34031175803", "city": "PASSAIC, NJ", "zone_code": "C-R", "zone_category": "Commercial", "ev_permitted": true}, "geometry": {"type": "Polygon", "coordinates": [[[-74.1314156274028, 40.8654162172431], [-74.1310712229525, 40.8655091530538], [-74.1311071164217, 40.8655858137654], [-74.1307680260236, 40.8656773139393], [-74.1310470738454, 40.8659817770249], [-74.1316093865155, 40.8658300402512], [-74.1314156274028, 40.8654162172431]]]}}, {"type": "Feature", "properties": {"zone_id": "0202QD4ZYLBI129FQ5JGJO", "tract_id": "34031175803", "city": "PASSAIC, NJ", "zone_code": "C-R", "zone_category": "Commercial", "ev_permitted": true}, "geometry": {"type": "Polygon", "coordinates": [[[-74.1308814825094, 40.8650942468875], [-74.1303635314228, 40.8652340096084], [-74.1305337918626, 40.8654211202806], [-74.1308744827588, 40.865329188234], [-74.1309047567488, 40.8653938480167], [-74.1310086337174, 40.8653658186419], [-74.1308814825094, 40.8650942468875]]]}}, {"type": "Feature", "properties": {"zone_id": "02012UXVZ3T6TTTI08GDWY", "tract_id": "34031175803", "city": "PASSAIC, NJ", "zone_code": "C-R", "zone_category": "Commercial", "ev_permitted": true}, "geometry": {"type": "Polygon", "coordinates": [[[-74.1310712229525, 40.8655091530538], [-74.1307047078787, 40.8656080535815], [-74.1307680260236, 40.8656773139393], [-74.1311071164217, 40.8655858137654], [-74.1310712229525, 40.8655091530538]]]}}, {"type": "Feature", "properties": {"zone_id": "02059GFFO37Y66UB8TEPN1", "tract_id": "34031175803", "city": "PASSAIC, NJ", "zone_code": "C-R", "zone_category": "Commercial", "ev_permitted": true}, "geometry": {"type": "Polygon", "coordinates": [[[-74.1310086337174, 40.8653658186419], [-74.1305872325688, 40.8654795287289], [-74.1307047078787, 40.8656080535815], [-74.131075237372, 40.8655080698972], [-74.1310086337174, 40.8653658186419]]]}}, {"type": "Feature", "properties": {"zone_id": "0203FHUBD6YWHL64PHPO9R", "tract_id": "34031175803", "city": "PASSAIC, NJ", "zone_code": "C-R", "zone_category": "Commercial", "ev_permitted": true}, "geometry": {"type": "Polygon", "coordinates": [[[-74.1308744827588, 40.865329188234], [-74.1305337918626, 40.8654211202806], [-74.1305872325688, 40.8654795287289], [-74.1309047567488, 40.8653938480167], [-74.1308744827588, 40.865329188234]]]}}, {"type": "Feature", "properties": {"zone_id": "0203M8L2K4UCSCP7WI0663", "tract_id": "34031175803", "city": "PASSAIC, NJ", "zone_code": "R-3", "zone_category": "Residential", "ev_permitted": false}, "geometry": {"type": "Polygon", "coordinates": [[[-74.1317332020207, 40.8648644127188], [-74.1310177569323, 40.86505747395], [-74.1312115137256, 40.8654712967404], [-74.1319269615366, 40.8652782343342], [-74.1317332020207, 40.8648644127188]]]}}, {"type": "Feature", "properties": {"zone_id": "02037GL3EWUQIDSDK7OQKP", "tract_id": "34031175803", "city": "PASSAIC, NJ", "zone_code": "R-3", "zone_category": "Residential", "ev_permitted": false}, "geometry": {"type": "Polygon", "coordinates": [[[-74.1311987871653, 40.8646164294469], [-74.1310081626675, 40.8646667426669], [-74.1310853234153, 40.8648352721754], [-74.1312759483398, 40.8647849588313], [-74.1311987871653, 40.8646164294469]]]}}, {"type": "Feature", "properties": {"zone_id": "0205ZC0DOD3X4PANEBNCB2", "tract_id": "34031175803", "city": "PASSAIC, NJ", "zone_code": "C-R", "zone_category": "Commercial", "ev_permitted": true}, "geometry": {"type": "Polygon", "coordinates": [[[-74.1306647740651, 40.8645917292338], [-74.1299727670177, 40.8647745402807], [-74.1300650433297, 40.8648781976141], [-74.1307146312315, 40.8647006275392], [-74.1306647740651, 40.8645917292338]]]}}, {"type": "Feature", "properties": {"zone_id": "0201QMHJ5FIONI7XKQFQA7", "tract_id": "34031175803", "city": "PASSAIC, NJ", "zone_code": "C-R", "zone_category": "Commercial", "ev_permitted": true}, "geometry": {"type": "Polygon", "coordinates": [[[-74.1307146312315, 40.8647006275392], [-74.1304425294911, 40.8647750106062], [-74.1305361650359, 40.8649795891239], [-74.1308097323747, 40.8649080131106], [-74.1307146312315, 40.8647006275392]]]}}, {"type": "Feature", "properties": {"zone_id": "0207CD82TGKE0KXDQ4F7FF", "tract_id": "34031175803", "city": "PASSAIC, NJ", "zone_code": "C-R", "zone_category": "Commercial", "ev_permitted": true}, "geometry": {"type": "Polygon", "coordinates": [[[-74.1304182547194, 40.8648847593989], [-74.1301395275743, 40.8649583325188], [-74.1302295630445, 40.8650608009822], [-74.1304698217082, 40.8649973898498], [-74.1304182547194, 40.8648847593989]]]}}, {"type": "Feature", "properties": {"zone_id": "02066FH3RN4B2IZYJP2MM4", "tract_id": "34031175803", "city": "PASSAIC, NJ", "zone_code": "C-R", "zone_category": "Commercial", "ev_permitted": true}, "geometry": {"type": "Polygon", "coordinates": [[[-74.1304425294911, 40.8647750106062], [-74.1300650433297, 40.8648781976141], [-74.1301376945261, 40.8649588084473], [-74.1304182547194, 40.8648847593989], [-74.1304698217082, 40.8649973898498], [-74.1305361650359, 40.8649795891239], [-74.1304425294911, 40.8647750106062]]]}}, {"type": "Feature", "properties": {"zone_id": "0201F7GSGZHU1BOJJ8H4OU", "tract_id": "34031175803", "city": "PASSAIC, NJ", "zone_code": "R-3", "zone_category": "Residential", "ev_permitted": false}, "geometry": {"type": "Polygon", "coordinates": [[[-74.1323928216853, 40.8640272582268], [-74.132255758995, 40.8640623002862], [-74.1324404159605, 40.8644785191196], [-74.1325774770672, 40.8644434723362], [-74.1323928216853, 40.8640272582268]]]}}, {"type": "Feature", "properties": {"zone_id": "0200UWXWYQ0RYXCVPKU7EI", "tract_id": "34031175803", "city": "PASSAIC, NJ", "zone_code": "R-3", "zone_category": "Residential", "ev_permitted": false}, "geometry": {"type": "Polygon", "coordinates": [[[-74.1325298818795, 40.8639922123939], [-74.1323928216853, 40.8640272582268], [-74.1325774770672, 40.8644434723362], [-74.1327145380305, 40.8644084253891], [-74.1325298818795, 40.8639922123939]]]}}, {"type": "Feature", "properties": {"zone_id": "0200T76U5N7EWCCGPQ2PEO", "tract_id": "34031175803", "city": "PASSAIC, NJ", "zone_code": "R-3", "zone_category": "Residential", "ev_permitted": false}, "geometry": {"type": "Polygon", "coordinates": [[[-74.1321186973376, 40.8640973439869], [-74.1319816390356, 40.8641323983418], [-74.1321662933217, 40.8645486112947], [-74.1323033547103, 40.8645135657393], [-74.1321186973376, 40.8640973439869]]]}}, {"type": "Feature", "properties": {"zone_id": "020600I26NZHAJBPLMJE9V", "tract_id": "34031175803", "city": "PASSAIC, NJ", "zone_code": "R-3", "zone_category": "Residential", "ev_permitted": false}, "geometry": {"type": "Polygon", "coordinates": [[[-74.132255758995, 40.8640623002862], [-74.1321186973376, 40.8640973439869], [-74.1323033547103, 40.8645135657393], [-74.1324404159605, 40.8644785191196], [-74.132255758995, 40.8640623002862]]]}}, {"type": "Feature", "properties": {"zone_id": "0205YGIEE6H1EET9682VCU", "tract_id": "34031175803", "city": "PASSAIC, NJ", "zone_code": "R-3", "zone_category": "Residential", "ev_permitted": false}, "geometry": {"type": "Polygon", "coordinates": [[[-74.1320278023908, 40.8642364518348], [-74.1318907379179, 40.86427148895], [-74.1320292317847, 40.864583657587], [-74.1321662933217, 40.8645486112947], [-74.1320278023908, 40.8642364518348]]]}}, {"type": "Feature", "properties": {"zone_id": "02054ITVA29QUNW8AUOKCD", "tract_id": "34031175803", "city": "PASSAIC, NJ", "zone_code": "R-3", "zone_category": "Residential", "ev_permitted": false}, "geometry": {"type": "Polygon", "coordinates": [[[-74.1318907379179, 40.86427148895], [-74.1317705205371, 40.8643022200139], [-74.1319090281111, 40.8646143933397], [-74.1320292317847, 40.864583657587], [-74.1318907379179, 40.86427148895]]]}}, {"type": "Feature", "properties": {"zone_id": "02030FGQS0RT4A4F32VCON", "tract_id": "34031175803", "city": "PASSAIC, NJ", "zone_code": "R-3", "zone_category": "Residential", "ev_permitted": false}, "geometry": {"type": "Polygon", "coordinates": [[[-74.1319816390356, 40.8641323983418], [-74.1317243694177, 40.8641981637569], [-74.1317705205371, 40.8643022200139], [-74.1320278023908, 40.8642364518348], [-74.1319816390356, 40.8641323983418]]]}}, {"type": "Feature", "properties": {"zone_id": "0207J12YRKZWLXZUH2LPGH", "tract_id": "34031175803", "city": "PASSAIC, NJ", "zone_code": "M-1", "zone_category": "Industrial", "ev_permitted": true}, "geometry": {"type": "Polygon", "coordinates": [[[-74.1329408141668, 40.8638872001064], [-74.1326669606811, 40.8639572078834], [-74.1327659623362, 40.8641785829772], [-74.1326281915504, 40.8642138015371], [-74.1327145380305, 40.8644084253891], [-74.1331270739253, 40.8643030041914], [-74.1329408141668, 40.8638872001064]]]}}, {"type": "Feature", "properties": {"zone_id": "0205UJ3XUY0639K5JMPVJZ", "tract_id": "34031175803", "city": "PASSAIC, NJ", "zone_code": "M-1", "zone_category": "Industrial", "ev_permitted": true}, "geometry": {"type": "Polygon", "coordinates": [[[-74.1326669606811, 40.8639572078834], [-74.1325981551016, 40.8639747966668], [-74.1325958469545, 40.8639695939137], [-74.1325275889739, 40.8639870430093], [-74.1326281915504, 40.8642138015371], [-74.1327659623362, 40.8641785829772], [-74.1326669606811, 40.8639572078834]]]}}, {"type": "Feature", "properties": {"zone_id": "0205JFW1OYY5L121LAG8DV", "tract_id": "34031175803", "city": "PASSAIC, NJ", "zone_code": "R-3", "zone_category": "Residential", "ev_permitted": false}, "geometry": {"type": "Polygon", "coordinates": [[[-74.1325275889739, 40.8639870430093], [-74.1324073725571, 40.8640177459241], [-74.1324096795049, 40.864022948677], [-74.1325298818795, 40.8639922123939], [-74.1325275889739, 40.8639870430093]]]}}, {"type": "Feature", "properties": {"zone_id": "02031Y2DG8YR9887T404GL", "tract_id": "34031175803", "city": "PASSAIC, NJ", "zone_code": "R-3", "zone_category": "Residential", "ev_permitted": false}, "geometry": {"type": "Polygon", "coordinates": [[[-74.1328573572531, 40.8636990409056], [-74.1325146990515, 40.8637866372245], [-74.1325493127986, 40.8638646794148], [-74.1328919725446, 40.8637770829995], [-74.1328573572531, 40.8636990409056]]]}}, {"type": "Feature", "properties": {"zone_id": "0201F6884Z7LL3VFJ4WAHL", "tract_id": "34031175803", "city": "PASSAIC, NJ", "zone_code": "R-3", "zone_category": "Residential", "ev_permitted": false}, "geometry": {"type": "Polygon", "coordinates": [[[-74.1328919725446, 40.8637770829995], [-74.1325493127986, 40.8638646794148], [-74.1325981551016, 40.8639747966668], [-74.1329408141668, 40.8638872001064], [-74.1328919725446, 40.8637770829995]]]}}, {"type": "Feature", "properties": {"zone_id": "0203XGPBG4GFW0BWRQLY6J", "tract_id": "34031175803", "city": "PASSAIC, NJ", "zone_code": "R-3", "zone_category": "Residential", "ev_permitted": false}, "geometry": {"type": "Polygon", "coordinates": [[[-74.1323550812572, 40.8638998501642], [-74.1320124213678, 40.8639874449807], [-74.1320397201842, 40.8640489943196], [-74.132382380356, 40.863961399424], [-74.1323550812572, 40.8638998501642]]]}}, {"type": "Feature", "properties": {"zone_id": "0202733R2IPNYJ886TNJDO", "tract_id": "34031175803", "city": "PASSAIC, NJ", "zone_code": "R-3", "zone_category": "Residential", "ev_permitted": false}, "geometry": {"type": "Polygon", "coordinates": [[[-74.132382380356, 40.863961399424], [-74.1320397201842, 40.8640489943196], [-74.1320670260733, 40.8641105607848], [-74.1324096795049, 40.864022948677], [-74.132382380356, 40.863961399424]]]}}, {"type": "Feature", "properties": {"zone_id": "0203K8FU6TP1YPEE00G3BL", "tract_id": "34031175803", "city": "PASSAIC, NJ", "zone_code": "R-3", "zone_category": "Residential", "ev_permitted": false}, "geometry": {"type": "Polygon", "coordinates": [[[-74.1319978030512, 40.863954485131], [-74.1316551412307, 40.8640420788784], [-74.1317243694177, 40.8641981637569], [-74.1320670260733, 40.8641105607848], [-74.1319978030512, 40.863954485131]]]}}, {"type": "Feature", "properties": {"zone_id": "020380RR6USOX1DCG0NG8T", "tract_id": "34031175803", "city": "PASSAIC, NJ", "zone_code": "R-3", "zone_category": "Residential", "ev_permitted": false}, "geometry": {"type": "Polygon", "coordinates": [[[-74.1322858530782, 40.8637437656549], [-74.1319431939052, 40.8638313602713], [-74.1319778070031, 40.8639094026297], [-74.1323204665343, 40.8638218079132], [-74.1322858530782, 40.8637437656549]]]}}, {"type": "Feature", "properties": {"zone_id": "02062VTSUKK0LL6ZMBGCEE", "tract_id": "34031175803", "city": "PASSAIC, NJ", "zone_code": "R-3", "zone_category": "Residential", "ev_permitted": false}, "geometry": {"type": "Polygon", "coordinates": [[[-74.1323204665343, 40.8638218079132], [-74.1319778070031, 40.8639094026297], [-74.1320124213678, 40.8639874449807], [-74.1323550812572, 40.8638998501642], [-74.1323204665343, 40.8638218079132]]]}}, {"type": "Feature", "properties": {"zone_id": "0205P0IWHRBTQDG6K33IRK", "tract_id": "34031175803", "city": "PASSAIC, NJ", "zone_code": "R-3", "zone_category": "Residential", "ev_permitted": false}, "geometry": {"type": "Polygon", "coordinates": [[[-74.1322512385167, 40.8636657233818], [-74.1319085797018, 40.863753317898], [-74.1319431939052, 40.8638313602713], [-74.1322858530782, 40.8637437656549], [-74.1322512385167, 40.8636657233818]]]}}, {"type": "Feature", "properties": {"zone_id": "0203OFL17YLY0NZVXDV2TC", "tract_id": "34031175803", "city": "PASSAIC, NJ", "zone_code": "R-3", "zone_category": "Residential", "ev_permitted": false}, "geometry": {"type": "Polygon", "coordinates": [[[-74.1319258867934, 40.863792339086], [-74.1315832257171, 40.8638799326254], [-74.1316551412307, 40.8640420788784], [-74.1319978030512, 40.863954485131], [-74.1319258867934, 40.863792339086]]]}}, {"type": "Feature", "properties": {"zone_id": "020178F4RT5USZ71K3M19Q", "tract_id": "34031175803", "city": "PASSAIC, NJ", "zone_code": "R-3", "zone_category": "Residential", "ev_permitted": false}, "geometry": {"type": "Polygon", "coordinates": [[[-74.1318826191022, 40.8636947861108], [-74.1315399596597, 40.8637823795288], [-74.1315832257171, 40.8638799326254], [-74.1319258867934, 40.863792339086], [-74.1318826191022, 40.8636947861108]]]}}, {"type": "Feature", "properties": {"zone_id": "0206OG50HMES4429ABGDUX", "tract_id": "34031175803", "city": "PASSAIC, NJ", "zone_code": "R-3", "zone_category": "Residential", "ev_permitted": false}, "geometry": {"type": "Polygon", "coordinates": [[[-74.131839351537, 40.8635972331182], [-74.1314966925422, 40.8636848264111], [-74.1315399596597, 40.8637823795288], [-74.1318826191022, 40.8636947861108], [-74.131839351537, 40.8635972331182]]]}}, {"type": "Feature", "properties": {"zone_id": "02019P93CWFWF1DPB711FP", "tract_id": "34031175803", "city": "PASSAIC, NJ", "zone_code": "R-3", "zone_category": "Residential", "ev_permitted": false}, "geometry": {"type": "Polygon", "coordinates": [[[-74.1310231799469, 40.8639585483264], [-74.1306827819101, 40.8640483933526], [-74.1307124587591, 40.8641132124899], [-74.1310528570891, 40.8640233673783], [-74.1310231799469, 40.8639585483264]]]}}, {"type": "Feature", "properties": {"zone_id": "02051IX5IET6OS5LARPAXM", "tract_id": "34031175803", "city": "PASSAIC, NJ", "zone_code": "M-1", "zone_category": "Industrial", "ev_permitted": true}, "geometry": {"type": "Polygon", "coordinates": [[[-74.1331312585894, 40.8633393835455], [-74.1329266840948, 40.8633916809716], [-74.1329522740398, 40.8634575483112], [-74.1331599586639, 40.8634044556198], [-74.1331312585894, 40.8633393835455]]]}}, {"type": "Feature", "properties": {"zone_id": "0201LKTX98PHZUE6JGVKAN", "tract_id": "34031175803", "city": "PASSAIC, NJ", "zone_code": "M-1", "zone_category": "Industrial", "ev_permitted": true}, "geometry": {"type": "Polygon", "coordinates": [[[-74.1331599586639, 40.8634044556198], [-74.1327708205635, 40.863503935626], [-74.1328285112368, 40.863634006119], [-74.1332173589752, 40.863534600646], [-74.1331599586639, 40.8634044556198]]]}}, {"type": "Feature", "properties": {"zone_id": "020124WWWS3WQTCT7G3L6I", "tract_id": "34031175803", "city": "PASSAIC, NJ", "zone_code": "R-3", "zone_category": "Residential", "ev_permitted": false}, "geometry": {"type": "Polygon", "coordinates": [[[-74.1327996652815, 40.8635689704242], [-74.1324570076768, 40.8636565665763], [-74.1325146990515, 40.8637866372245], [-74.1328573572531, 40.8636990409056], [-74.1327996652815, 40.8635689704242]]]}}, {"type": "Feature", "properties": {"zone_id": "0203HQ439FXC190J80BQXH", "tract_id": "34031175803", "city": "PASSAIC, NJ", "zone_code": "R-3", "zone_category": "Residential", "ev_permitted": false}, "geometry": {"type": "Polygon", "coordinates": [[[-74.1327563976349, 40.8634714177718], [-74.1324137404778, 40.8635590137988], [-74.1324570076768, 40.8636565665763], [-74.1327996652815, 40.8635689704242], [-74.1327563976349, 40.8634714177718]]]}}, {"type": "Feature", "properties": {"zone_id": "02026W4UMI3Z7RUPCAHKQK", "tract_id": "34031175803", "city": "PASSAIC, NJ", "zone_code": "R-3", "zone_category": "Residential", "ev_permitted": false}, "geometry": {"type": "Polygon", "coordinates": [[[-74.132713128928, 40.8633738650984], [-74.1323704722187, 40.8634614610001], [-74.1324137404778, 40.8635590137988], [-74.1327563976349, 40.8634714177718], [-74.132713128928, 40.8633738650984]]]}}, {"type": "Feature", "properties": {"zone_id": "0200H9GJ86HRUOBSZXYTQX", "tract_id": "34031175803", "city": "PASSAIC, NJ", "zone_code": "C-R", "zone_category": "Commercial", "ev_permitted": true}, "geometry": {"type": "Polygon", "coordinates": [[[-74.1328614208156, 40.8630463190015], [-74.132767362566, 40.8630703647676], [-74.1328827445745, 40.8633305048459], [-74.1329757756081, 40.8633067222881], [-74.1328614208156, 40.8630463190015]]]}}, {"type": "Feature", "properties": {"zone_id": "0203UII9UQDRB5QQ40ORGX", "tract_id": "34031175803", "city": "PASSAIC, NJ", "zone_code": "M-1", "zone_category": "Industrial", "ev_permitted": true}, "geometry": {"type": "Polygon", "coordinates": [[[-74.1331025573845, 40.8632743114598], [-74.132713128928, 40.8633738650984], [-74.1327708205635, 40.863503935626], [-74.1329522740398, 40.8634575483112], [-74.1329266840948, 40.8633916809716], [-74.1331312585894, 40.8633393835455], [-74.1331025573845, 40.8632743114598]]]}}, {"type": "Feature", "properties": {"zone_id": "0201KX1P471N4E5816WBKR", "tract_id": "34031175803", "city": "PASSAIC, NJ", "zone_code": "C-R", "zone_category": "Commercial", "ev_permitted": true}, "geometry": {"type": "Polygon", "coordinates": [[[-74.132767362566, 40.8630703647676], [-74.1326731320051, 40.8630944540362], [-74.1327885136852, 40.8633545942062], [-74.1328827445745, 40.8633305048459], [-74.132767362566, 40.8630703647676]]]}}, {"type": "Feature", "properties": {"zone_id": "0203XE7Z0FKPOKLJUYV3TZ", "tract_id": "34031175803", "city": "PASSAIC, NJ", "zone_code": "C-R", "zone_category": "Commercial", "ev_permitted": true}, "geometry": {"type": "Polygon", "coordinates": [[[-74.1326731320051, 40.8630944540362], [-74.1325497762908, 40.8631259882436], [-74.1326651575412, 40.8633861285338], [-74.1327885136852, 40.8633545942062], [-74.1326731320051, 40.8630944540362]]]}}, {"type": "Feature", "properties": {"zone_id": "0201ZPGCE0NRUSP8SV45V4", "tract_id": "34031175803", "city": "PASSAIC, NJ", "zone_code": "C-R", "zone_category": "Commercial", "ev_permitted": true}, "geometry": {"type": "Polygon", "coordinates": [[[-74.1325497762908, 40.8631259882436], [-74.1324264204554, 40.863157523219], [-74.132541801281, 40.8634176627288], [-74.1326651575412, 40.8633861285338], [-74.1325497762908, 40.8631259882436]]]}}, {"type": "Feature", "properties": {"zone_id": "0202J2AHJFSQXQIE7B595K", "tract_id": "34031175803", "city": "PASSAIC, NJ", "zone_code": "C-R", "zone_category": "Commercial", "ev_permitted": true}, "geometry": {"type": "Polygon", "coordinates": [[[-74.1324264204554, 40.863157523219], [-74.132255091995, 40.863201320423], [-74.1323704722187, 40.8634614610001], [-74.132541801281, 40.8634176627288], [-74.1324264204554, 40.863157523219]]]}}, {"type": "Feature", "properties": {"zone_id": "020147D5RXPFIMTR6ZZRVU", "tract_id": "34031175803", "city": "PASSAIC, NJ", "zone_code": "R-3", "zone_category": "Residential", "ev_permitted": false}, "geometry": {"type": "Polygon", "coordinates": [[[-74.1322166240357, 40.8635876810975], [-74.1318739655791, 40.8636752755136], [-74.1319085797018, 40.863753317898], [-74.1322512385167, 40.8636657233818], [-74.1322166240357, 40.8635876810975]]]}}, {"type": "Feature", "properties": {"zone_id": "0206NV0RHNRUXU415JT5AP", "tract_id": "34031175803", "city": "PASSAIC, NJ", "zone_code": "R-3", "zone_category": "Residential", "ev_permitted": false}, "geometry": {"type": "Polygon", "coordinates": [[[-74.1321820108217, 40.8635096388059], [-74.131839351537, 40.8635972331182], [-74.1318739655791, 40.8636752755136], [-74.1322166240357, 40.8635876810975], [-74.1321820108217, 40.8635096388059]]]}}, {"type": "Feature", "properties": {"zone_id": "0200FUV65RLP9AQBW696KR", "tract_id": "34031175803", "city": "PASSAIC, NJ", "zone_code": "C-R", "zone_category": "Commercial", "ev_permitted": true}, "geometry": {"type": "Polygon", "coordinates": [[[-74.1319510177831, 40.863279051632], [-74.1318417785455, 40.8633069764992], [-74.1319571573242, 40.8635671183794], [-74.1320663969424, 40.8635391934059], [-74.1319510177831, 40.863279051632]]]}}, {"type": "Feature", "properties": {"zone_id": "0201D04MJ75U1K657B3L3O", "tract_id": "34031175803", "city": "PASSAIC, NJ", "zone_code": "C-R", "zone_category": "Commercial", "ev_permitted": true}, "geometry": {"type": "Polygon", "coordinates": [[[-74.1318417785455, 40.8633069764992], [-74.1317319915855, 40.8633350418045], [-74.1318473699867, 40.863595182891], [-74.1319571573242, 40.8635671183794], [-74.1318417785455, 40.8633069764992]]]}}, {"type": "Feature", "properties": {"zone_id": "0206R9PVFXW4UWCC84400M", "tract_id": "34031175803", "city": "PASSAIC, NJ", "zone_code": "C-R", "zone_category": "Commercial", "ev_permitted": true}, "geometry": {"type": "Polygon", "coordinates": [[[-74.1317319915855, 40.8633350418045], [-74.1316211758025, 40.8633633693882], [-74.1317365538125, 40.8636235114833], [-74.1318473699867, 40.863595182891], [-74.1317319915855, 40.8633350418045]]]}}, {"type": "Feature", "properties": {"zone_id": "0201QOVIQSWNXXSY0SNNQ9", "tract_id": "34031175803", "city": "PASSAIC, NJ", "zone_code": "C-R", "zone_category": "Commercial", "ev_permitted": true}, "geometry": {"type": "Polygon", "coordinates": [[[-74.1316211758025, 40.8633633693882], [-74.1315098122934, 40.863391837406], [-74.1316251899204, 40.8636519787089], [-74.1317365538125, 40.8636235114833], [-74.1316211758025, 40.8633633693882]]]}}, {"type": "Feature", "properties": {"zone_id": "0204N1RL4CNHARU5OAPVE7", "tract_id": "34031175803", "city": "PASSAIC, NJ", "zone_code": "C-R", "zone_category": "Commercial", "ev_permitted": true}, "geometry": {"type": "Polygon", "coordinates": [[[-74.1320666312546, 40.8632494980453], [-74.1319510177831, 40.863279051632], [-74.1320663969424, 40.8635391934059], [-74.1321820108217, 40.8635096388059], [-74.1320666312546, 40.8632494980453]]]}}, {"type": "Feature", "properties": {"zone_id": "02001Z9AEED7G1PXWKYBWL", "tract_id": "34031175803", "city": "PASSAIC, NJ", "zone_code": "C-R", "zone_category": "Commercial", "ev_permitted": true}, "geometry": {"type": "Polygon", "coordinates": [[[-74.1329871746102, 40.8630141715957], [-74.1328614208156, 40.8630463190015], [-74.1329757756081, 40.8633067222881], [-74.1331025573845, 40.8632743114598], [-74.1329871746102, 40.8630141715957]]]}}, {"type": "Feature", "properties": {"zone_id": "0206WGQP8ZFBBJYKZNXBT8", "tract_id": "34031175803", "city": "PASSAIC, NJ", "zone_code": "C-R", "zone_category": "Commercial", "ev_permitted": true}, "geometry": {"type": "Polygon", "coordinates": [[[-74.1328073413032, 40.8626160091555], [-74.1327167215984, 40.8626299100729], [-74.1327864363338, 40.86289331892], [-74.1329166165777, 40.8628592890757], [-74.1328073413032, 40.8626160091555]]]}}, {"type": "Feature", "properties": {"zone_id": "0206C4J1WGRUMNRZT4IG65", "tract_id": "34031175803", "city": "PASSAIC, NJ", "zone_code": "C-R", "zone_category": "Commercial", "ev_permitted": true}, "geometry": {"type": "Polygon", "coordinates": [[[-74.1327167215984, 40.8626299100729], [-74.13245057163, 40.8626707372209], [-74.1324684723278, 40.8627380012776], [-74.1323798730488, 40.8627515922663], [-74.1324415842685, 40.8629834638788], [-74.1327864363338, 40.86289331892], [-74.1327167215984, 40.8626299100729]]]}}, {"type": "Feature", "properties": {"zone_id": "0204FVQEN1HET56RW4FEXZ", "tract_id": "34031175803", "city": "PASSAIC, NJ", "zone_code": "C-R", "zone_category": "Commercial", "ev_permitted": true}, "geometry": {"type": "Polygon", "coordinates": [[[-74.1323798730488, 40.8627515922663], [-74.1322912749252, 40.86276518229], [-74.1323553657655, 40.863006000615], [-74.1324415842685, 40.8629834638788], [-74.1323798730488, 40.8627515922663]]]}}, {"type": "Feature", "properties": {"zone_id": "0203UNRZVVS88LGYX390WB", "tract_id": "34031175803", "city": "PASSAIC, NJ", "zone_code": "C-R", "zone_category": "Commercial", "ev_permitted": true}, "geometry": {"type": "Polygon", "coordinates": [[[-74.1322912749252, 40.86276518229], [-74.1321140761935, 40.8627923630256], [-74.1321829285754, 40.8630510756941], [-74.1323553657655, 40.863006000615], [-74.1322912749252, 40.86276518229]]]}}, {"type": "Feature", "properties": {"zone_id": "0204ORQ34V6JY2ZRNV7AKU", "tract_id": "34031175803", "city": "PASSAIC, NJ", "zone_code": "C-R", "zone_category": "Commercial", "ev_permitted": true}, "geometry": {"type": "Polygon", "coordinates": [[[-74.1319160396644, 40.8628314122835], [-74.131649670778, 40.8628704105213], [-74.1317216749438, 40.8631673619207], [-74.1319818287306, 40.8631031510795], [-74.1319160396644, 40.8628314122835]]]}}, {"type": "Feature", "properties": {"zone_id": "0204KJR9MQU6ZOL6BHSJ3H", "tract_id": "34031175803", "city": "PASSAIC, NJ", "zone_code": "R-3", "zone_category": "Residential", "ev_permitted": false}, "geometry": {"type": "Polygon", "coordinates": [[[-74.13245057163, 40.8626707372209], [-74.1320961746492, 40.8627250998128], [-74.1321140761935, 40.8627923630256], [-74.1324684723278, 40.8627380012776], [-74.13245057163, 40.8626707372209]]]}}, {"type": "Feature", "properties": {"zone_id": "0200CETFLFJ7N8AENKK1HC", "tract_id": "34031175803", "city": "PASSAIC, NJ", "zone_code": "R-3", "zone_category": "Residential", "ev_permitted": false}, "geometry": {"type": "Polygon", "coordinates": [[[-74.1324120084949, 40.862606642174], [-74.1320782743319, 40.8626578356999], [-74.1320961746492, 40.8627250998128], [-74.1324299103231, 40.8626739062409], [-74.1324120084949, 40.862606642174]]]}}, {"type": "Feature", "properties": {"zone_id": "0203JUNQ6G4N6OFZ3O2F85", "tract_id": "34031175803", "city": "PASSAIC, NJ", "zone_code": "C-R", "zone_category": "Commercial", "ev_permitted": true}, "geometry": {"type": "Polygon", "coordinates": [[[-74.1318965274908, 40.8627547095041], [-74.1315415291619, 40.8628067576023], [-74.1315586691611, 40.8628741355416], [-74.1316474185837, 40.8628611238312], [-74.131649670778, 40.8628704105213], [-74.1319160396644, 40.8628314122835], [-74.1318965274908, 40.8627547095041]]]}}, {"type": "Feature", "properties": {"zone_id": "02040QQ8OOWRDGOK533NFT", "tract_id": "34031175803", "city": "PASSAIC, NJ", "zone_code": "R-3", "zone_category": "Residential", "ev_permitted": false}, "geometry": {"type": "Polygon", "coordinates": [[[-74.1318793883699, 40.8626873307155], [-74.1315243891969, 40.8627393796598], [-74.1315415291619, 40.8628067576023], [-74.1318965274908, 40.8627547095041], [-74.1318793883699, 40.8626873307155]]]}}, {"type": "Feature", "properties": {"zone_id": "0201PIYEA1CA1N4QD9CUV3", "tract_id": "34031175803", "city": "PASSAIC, NJ", "zone_code": "R-3", "zone_category": "Residential", "ev_permitted": false}, "geometry": {"type": "Polygon", "coordinates": [[[-74.1318622492783, 40.8626199528243], [-74.1315072504574, 40.8626720008174], [-74.1315243891969, 40.8627393796598], [-74.1318793883699, 40.8626873307155], [-74.1318622492783, 40.8626199528243]]]}}, {"type": "Feature", "properties": {"zone_id": "0206TA9B8O9NY7M5U58U02", "tract_id": "34031175803", "city": "PASSAIC, NJ", "zone_code": "C-R", "zone_category": "Commercial", "ev_permitted": true}, "geometry": {"type": "Polygon", "coordinates": [[[-74.1315098122934, 40.863391837406], [-74.1313813153629, 40.863424684983], [-74.1314966925422, 40.8636848264111], [-74.1316251899204, 40.8636519787089], [-74.1315098122934, 40.863391837406]]]}}, {"type": "Feature", "properties": {"zone_id": "02067X14FKMNGYDD21JTYN", "tract_id": "34031175803", "city": "PASSAIC, NJ", "zone_code": "C-R", "zone_category": "Commercial", "ev_permitted": true}, "geometry": {"type": "Polygon", "coordinates": [[[-74.1310477931616, 40.8630843181475], [-74.1309494773172, 40.8630995150979], [-74.1310177807735, 40.8633542065324], [-74.1311134343999, 40.8633290830082], [-74.1310477931616, 40.8630843181475]]]}}, {"type": "Feature", "properties": {"zone_id": "0206F09KGCLXEYR61K0S1M", "tract_id": "34031175803", "city": "PASSAIC, NJ", "zone_code": "C-R", "zone_category": "Commercial", "ev_permitted": true}, "geometry": {"type": "Polygon", "coordinates": [[[-74.1309494773172, 40.8630995150979], [-74.1308467329967, 40.8631153966362], [-74.1309178927047, 40.8633807393327], [-74.1310177807735, 40.8633542065324], [-74.1309494773172, 40.8630995150979]]]}}, {"type": "Feature", "properties": {"zone_id": "02028MXZAWAM5VBCGDIQTP", "tract_id": "34031175803", "city": "PASSAIC, NJ", "zone_code": "C-R", "zone_category": "Commercial", "ev_permitted": true}, "geometry": {"type": "Polygon", "coordinates": [[[-74.1308467329967, 40.8631153966362], [-74.1307439886328, 40.8631312771823], [-74.1308178592655, 40.8634067339393], [-74.1309178927047, 40.8633807393327], [-74.1308467329967, 40.8631153966362]]]}}, {"type": "Feature", "properties": {"zone_id": "0204M5S61BWG3JOYJPBVVI", "tract_id": "34031175803", "city": "PASSAIC, NJ", "zone_code": "C-R", "zone_category": "Commercial", "ev_permitted": true}, "geometry": {"type": "Polygon", "coordinates": [[[-74.1307439886328, 40.8631312771823], [-74.1306935021162, 40.8631390811181], [-74.1307083614621, 40.8631944895748], [-74.1306543321458, 40.8632028405059], [-74.1307161729218, 40.863433441824], [-74.1308178592655, 40.8634067339393], [-74.1307439886328, 40.8631312771823]]]}}, {"type": "Feature", "properties": {"zone_id": "02027JHA4ZEAF6B4VYFFP3", "tract_id": "34031175803", "city": "PASSAIC, NJ", "zone_code": "C-R", "zone_category": "Commercial", "ev_permitted": true}, "geometry": {"type": "Polygon", "coordinates": [[[-74.1306543321458, 40.8632028405059], [-74.130551587597, 40.8632187217801], [-74.1306162102436, 40.8634596958467], [-74.1307161729218, 40.863433441824], [-74.1306543321458, 40.8632028405059]]]}}, {"type": "Feature", "properties": {"zone_id": "02015EOK37FDD5OZV8YG41", "tract_id": "34031175803", "city": "PASSAIC, NJ", "zone_code": "R-3", "zone_category": "Residential", "ev_permitted": false}, "geometry": {"type": "Polygon", "coordinates": [[[-74.1307820715275, 40.8625062325299], [-74.1306651560402, 40.8625243046702], [-74.1307365665863, 40.8627905894056], [-74.1308534825236, 40.8627725171956], [-74.1307820715275, 40.8625062325299]]]}}, {"type": "Feature", "properties": {"zone_id": "0206JBTJHEVOO4XCWTHRTB", "tract_id": "34031175803", "city": "PASSAIC, NJ", "zone_code": "R-3", "zone_category": "Residential", "ev_permitted": false}, "geometry": {"type": "Polygon", "coordinates": [[[-74.1309597690333, 40.8627560886274], [-74.1306196505913, 40.8628086605961], [-74.1306203722924, 40.8628113502152], [-74.1306062013691, 40.862813540957], [-74.1306345554132, 40.8629192742985], [-74.130694430488, 40.8629100199057], [-74.1307425828625, 40.8628820455818], [-74.1309835586238, 40.86284479727], [-74.1309597690333, 40.8627560886274]]]}}, {"type": "Feature", "properties": {"zone_id": "0206672Q0RL0WUEOR7Q4US", "tract_id": "34031175803", "city": "PASSAIC, NJ", "zone_code": "R-3", "zone_category": "Residential", "ev_permitted": false}, "geometry": {"type": "Polygon", "coordinates": [[[-74.1314366248352, 40.8642775757606], [-74.1313004648188, 40.8643135147352], [-74.1314904017783, 40.8647283560554], [-74.131626562545, 40.8646924168624], [-74.1314366248352, 40.8642775757606]]]}}, {"type": "Feature", "properties": {"zone_id": "02015WAF3ZOG4IHW93WQ6E", "tract_id": "34031175803", "city": "PASSAIC, NJ", "zone_code": "R-3", "zone_category": "Residential", "ev_permitted": false}, "geometry": {"type": "Polygon", "coordinates": [[[-74.1313004648188, 40.8643135147352], [-74.1311932393264, 40.8643418164534], [-74.1313831757, 40.8647566570451], [-74.1314904017783, 40.8647283560554], [-74.1313004648188, 40.8643135147352]]]}}, {"type": "Feature", "properties": {"zone_id": "020335CBBSL62P57JPLUFG", "tract_id": "34031175803", "city": "PASSAIC, NJ", "zone_code": "R-3", "zone_category": "Residential", "ev_permitted": false}, "geometry": {"type": "Polygon", "coordinates": [[[-74.131197988479, 40.8643521873171], [-74.1310907616949, 40.8643804889356], [-74.1312759483398, 40.8647849588313], [-74.1313831757, 40.8647566570451], [-74.131197988479, 40.8643521873171]]]}}, {"type": "Feature", "properties": {"zone_id": "0201UEU76PHXLR4QPBG6HR", "tract_id": "34031175803", "city": "PASSAIC, NJ", "zone_code": "R-3", "zone_category": "Residential", "ev_permitted": false}, "geometry": {"type": "Polygon", "coordinates": [[[-74.1310907616949, 40.8643804889356], [-74.1308624214162, 40.8644407559901], [-74.1308576734961, 40.8644303851167], [-74.1308245748357, 40.8644391210071], [-74.1310146469813, 40.864853926608], [-74.1310853234153, 40.8648352721754], [-74.1310081626675, 40.8646667426669], [-74.1311987871653, 40.8646164294469], [-74.1310907616949, 40.8643804889356]]]}}, {"type": "Feature", "properties": {"zone_id": "0207BPJC3TN7L48MUU0WVH", "tract_id": "34031175803", "city": "PASSAIC, NJ", "zone_code": "R-3", "zone_category": "Residential", "ev_permitted": false}, "geometry": {"type": "Polygon", "coordinates": [[[-74.13160969839, 40.8644062584387], [-74.131507850904, 40.8644331412118], [-74.131626562545, 40.8646924168624], [-74.1317284103767, 40.8646655348878], [-74.13160969839, 40.8644062584387]]]}}, {"type": "Feature", "properties": {"zone_id": "0202CZAJV2G86XW5BB5V2E", "tract_id": "34031175803", "city": "PASSAIC, NJ", "zone_code": "R-3", "zone_category": "Residential", "ev_permitted": false}, "geometry": {"type": "Polygon", "coordinates": [[[-74.1315021593792, 40.8641713816311], [-74.131161759701, 40.8642612280618], [-74.1311980732551, 40.8643405404883], [-74.1315384721057, 40.8642506939494], [-74.1315021593792, 40.8641713816311]]]}}, {"type": "Feature", "properties": {"zone_id": "020136YKV98RD580CM6UB2", "tract_id": "34031175803", "city": "PASSAIC, NJ", "zone_code": "R-3", "zone_category": "Residential", "ev_permitted": false}, "geometry": {"type": "Polygon", "coordinates": [[[-74.1315384721057, 40.8642506939494], [-74.1314366248352, 40.8642775757606], [-74.131507850904, 40.8644331412118], [-74.13160969839, 40.8644062584387], [-74.1315384721057, 40.8642506939494]]]}}, {"type": "Feature", "properties": {"zone_id": "02017EFYFB7TRWRU2DHGVE", "tract_id": "34031175803", "city": "PASSAIC, NJ", "zone_code": "R-3", "zone_category": "Residential", "ev_permitted": false}, "geometry": {"type": "Polygon", "coordinates": [[[-74.1311418876741, 40.8642178244816], [-74.1308014884648, 40.8643076698491], [-74.1308311655487, 40.8643724880533], [-74.131171565046, 40.8642826435011], [-74.1311418876741, 40.8642178244816]]]}}, {"type": "Feature", "properties": {"zone_id": "0205PLMRFU5B1N0G8HITDA", "tract_id": "34031175803", "city": "PASSAIC, NJ", "zone_code": "R-3", "zone_category": "Residential", "ev_permitted": false}, "geometry": {"type": "Polygon", "coordinates": [[[-74.1311122115458, 40.8641530054578], [-74.1307718114434, 40.8642428507362], [-74.1308014884648, 40.8643076698491], [-74.1311418876741, 40.8642178244816], [-74.1311122115458, 40.8641530054578]]]}}, {"type": "Feature", "properties": {"zone_id": "0200NZ8DLT7CAYN9QHY93Q", "tract_id": "34031175803", "city": "PASSAIC, NJ", "zone_code": "R-3", "zone_category": "Residential", "ev_permitted": false}, "geometry": {"type": "Polygon", "coordinates": [[[-74.1308245748357, 40.8644391210071], [-74.1307562711757, 40.8644571488742], [-74.1309463393813, 40.864871955474], [-74.1310146469813, 40.864853926608], [-74.1308245748357, 40.8644391210071]]]}}, {"type": "Feature", "properties": {"zone_id": "0204G67YTI5C7MPCCEVPY5", "tract_id": "34031175803", "city": "PASSAIC, NJ", "zone_code": "R-3", "zone_category": "Residential", "ev_permitted": false}, "geometry": {"type": "Polygon", "coordinates": [[[-74.131171565046, 40.8642826435011], [-74.1308311655487, 40.8643724880533], [-74.130855298946, 40.8644251992278], [-74.1306680783419, 40.8644746141036], [-74.1306704528841, 40.8644797990957], [-74.1308576734961, 40.8644303851167], [-74.1308624214162, 40.8644407559901], [-74.131197988479, 40.8643521873171], [-74.1311932393264, 40.8643418164534], [-74.1311980732551, 40.8643405404883], [-74.131171565046, 40.8642826435011]]]}}, {"type": "Feature", "properties": {"zone_id": "0205DKI5EYXM8ZHFINQ28X", "tract_id": "34031175803", "city": "PASSAIC, NJ", "zone_code": "C-R", "zone_category": "Commercial", "ev_permitted": true}, "geometry": {"type": "Polygon", "coordinates": [[[-74.1307562711757, 40.8644571488742], [-74.1306196649367, 40.8644932035898], [-74.1308097323747, 40.8649080131106], [-74.1309463393813, 40.864871955474], [-74.1307562711757, 40.8644571488742]]]}}, {"type": "Feature", "properties": {"zone_id": "0203QB6056WI9ZVPLU92R7", "tract_id": "34031175803", "city": "PASSAIC, NJ", "zone_code": "C-R", "zone_category": "Commercial", "ev_permitted": true}, "geometry": {"type": "Polygon", "coordinates": [[[-74.1306196649367, 40.8644932035898], [-74.1298930425603, 40.8646849828777], [-74.1299727670177, 40.8647745402807], [-74.1306647740651, 40.8645917292338], [-74.1306196649367, 40.8644932035898]]]}}, {"type": "Feature", "properties": {"zone_id": "0203MCGW8WQMGWG86N6661", "tract_id": "34031175803", "city": "PASSAIC, NJ", "zone_code": "C-R", "zone_category": "Commercial", "ev_permitted": true}, "geometry": {"type": "Polygon", "coordinates": [[[-74.1306008074444, 40.8643276819806], [-74.1302093457375, 40.8644310012274], [-74.1302789903812, 40.8645831194734], [-74.1306704528841, 40.8644797990957], [-74.1306008074444, 40.8643276819806]]]}}, {"type": "Feature", "properties": {"zone_id": "0202S1EL9ZWLYUTDGWRZS5", "tract_id": "34031175803", "city": "PASSAIC, NJ", "zone_code": "C-R", "zone_category": "Commercial", "ev_permitted": true}, "geometry": {"type": "Polygon", "coordinates": [[[-74.1305659901111, 40.8642516360311], [-74.1301745299809, 40.8643549560673], [-74.1302093457375, 40.8644310012274], [-74.1306008074444, 40.8643276819806], [-74.1305659901111, 40.8642516360311]]]}}, {"type": "Feature", "properties": {"zone_id": "02036XRVCVSEJCR69T23Z6", "tract_id": "34031175803", "city": "PASSAIC, NJ", "zone_code": "C-R", "zone_category": "Commercial", "ev_permitted": true}, "geometry": {"type": "Polygon", "coordinates": [[[-74.1305311740432, 40.8641755900743], [-74.1301397143084, 40.8642789099953], [-74.1301745299809, 40.8643549560673], [-74.1305659901111, 40.8642516360311], [-74.1305311740432, 40.8641755900743]]]}}, {"type": "Feature", "properties": {"zone_id": "0207JU6BOP5DVR9CYEKJXC", "tract_id": "34031175803", "city": "PASSAIC, NJ", "zone_code": "C-R", "zone_category": "Commercial", "ev_permitted": true}, "geometry": {"type": "Polygon", "coordinates": [[[-74.1311855148567, 40.8634797874234], [-74.1309302178231, 40.8635471721096], [-74.1310489256506, 40.8638064483781], [-74.130963825835, 40.8638289101982], [-74.1310083419905, 40.8639261387993], [-74.1313487389673, 40.8638362928058], [-74.1311855148567, 40.8634797874234]]]}}, {"type": "Feature", "properties": {"zone_id": "02043W0ZI4AXPQE6W642MS", "tract_id": "34031175803", "city": "PASSAIC, NJ", "zone_code": "R-3", "zone_category": "Residential", "ev_permitted": false}, "geometry": {"type": "Polygon", "coordinates": [[[-74.1314658572749, 40.8640920945504], [-74.1311254591415, 40.8641819408805], [-74.131161759701, 40.8642612280618], [-74.1315021593792, 40.8641713816311], [-74.1314658572749, 40.8640920945504]]]}}, {"type": "Feature", "properties": {"zone_id": "0204NH22XOM9SYG1ELAOGO", "tract_id": "34031175803", "city": "PASSAIC, NJ", "zone_code": "R-3", "zone_category": "Residential", "ev_permitted": false}, "geometry": {"type": "Polygon", "coordinates": [[[-74.1314295564379, 40.8640128083619], [-74.1310891574817, 40.8641026536833], [-74.1311254591415, 40.8641819408805], [-74.1314658572749, 40.8640920945504], [-74.1314295564379, 40.8640128083619]]]}}, {"type": "Feature", "properties": {"zone_id": "02032HPDPO7O86TOFJLPZD", "tract_id": "34031175803", "city": "PASSAIC, NJ", "zone_code": "R-3", "zone_category": "Residential", "ev_permitted": false}, "geometry": {"type": "Polygon", "coordinates": [[[-74.1313932545056, 40.8639335212569], [-74.1310528570891, 40.8640233673783], [-74.1310891574817, 40.8641026536833], [-74.1314295564379, 40.8640128083619], [-74.1313932545056, 40.8639335212569]]]}}, {"type": "Feature", "properties": {"zone_id": "0201ST9JLF7JUF03QQ51DA", "tract_id": "34031175803", "city": "PASSAIC, NJ", "zone_code": "R-3", "zone_category": "Residential", "ev_permitted": false}, "geometry": {"type": "Polygon", "coordinates": [[[-74.1313487389673, 40.8638362928058], [-74.1310083419905, 40.8639261387993], [-74.1310528570891, 40.8640233673783], [-74.1313932545056, 40.8639335212569], [-74.1313487389673, 40.8638362928058]]]}}, {"type": "Feature", "properties": {"zone_id": "0202ROA4JNWUZCH4Q0OVX7", "tract_id": "34031175803", "city": "PASSAIC, NJ", "zone_code": "R-3", "zone_category": "Residential", "ev_permitted": false}, "geometry": {"type": "Polygon", "coordinates": [[[-74.1310825342887, 40.8640881864221], [-74.1307421344794, 40.8641780316152], [-74.1307718114434, 40.8642428507362], [-74.1311122115458, 40.8641530054578], [-74.1310825342887, 40.8640881864221]]]}}, {"type": "Feature", "properties": {"zone_id": "0206CAH9N88LAJ49MTMG6F", "tract_id": "34031175803", "city": "PASSAIC, NJ", "zone_code": "R-3", "zone_category": "Residential", "ev_permitted": false}, "geometry": {"type": "Polygon", "coordinates": [[[-74.1310528570891, 40.8640233673783], [-74.1307124587591, 40.8641132124899], [-74.1307421344794, 40.8641780316152], [-74.1310825342887, 40.8640881864221], [-74.1310528570891, 40.8640233673783]]]}}, {"type": "Feature", "properties": {"zone_id": "0203J2AYCH2LX4K104S9PW", "tract_id": "34031175803", "city": "PASSAIC, NJ", "zone_code": "R-3", "zone_category": "Residential", "ev_permitted": false}, "geometry": {"type": "Polygon", "coordinates": [[[-74.1309935028622, 40.8638937292663], [-74.1306531051235, 40.8639835733067], [-74.1306827819101, 40.8640483933526], [-74.1310231799469, 40.8639585483264], [-74.1309935028622, 40.8638937292663]]]}}, {"type": "Feature", "properties": {"zone_id": "0207CENZZFOLN967IDXO39", "tract_id": "34031175803", "city": "PASSAIC, NJ", "zone_code": "C-R", "zone_category": "Commercial", "ev_permitted": true}, "geometry": {"type": "Polygon", "coordinates": [[[-74.1304712276659, 40.8640446556791], [-74.1300797686119, 40.8641479754019], [-74.1301397143084, 40.8642789099953], [-74.1305311740432, 40.8641755900743], [-74.1304712276659, 40.8640446556791]]]}}, {"type": "Feature", "properties": {"zone_id": "0200V0RUNZZC7OAIAXXCE6", "tract_id": "34031175803", "city": "PASSAIC, NJ", "zone_code": "C-R", "zone_category": "Commercial", "ev_permitted": true}, "geometry": {"type": "Polygon", "coordinates": [[[-74.1304362090447, 40.8639681686624], [-74.1300447503885, 40.8640714882695], [-74.1300797686119, 40.8641479754019], [-74.1304712276659, 40.8640446556791], [-74.1304362090447, 40.8639681686624]]]}}, {"type": "Feature", "properties": {"zone_id": "02047DJY8CQMDVK1WGC218", "tract_id": "34031175803", "city": "PASSAIC, NJ", "zone_code": "C-R", "zone_category": "Commercial", "ev_permitted": true}, "geometry": {"type": "Polygon", "coordinates": [[[-74.1309302178231, 40.8635471721096], [-74.1306749214668, 40.863614555331], [-74.1307936272238, 40.8638738327522], [-74.1310489256506, 40.8638064483781], [-74.1309302178231, 40.8635471721096]]]}}, {"type": "Feature", "properties": {"zone_id": "0204YBO4ZRZ7LLG532CBQN", "tract_id": "34031175803", "city": "PASSAIC, NJ", "zone_code": "R-3", "zone_category": "Residential", "ev_permitted": false}, "geometry": {"type": "Polygon", "coordinates": [[[-74.130963825835, 40.8638289101982], [-74.1306234283893, 40.8639187541532], [-74.1306531051235, 40.8639835733067], [-74.1309935028622, 40.8638937292663], [-74.130963825835, 40.8638289101982]]]}}, {"type": "Feature", "properties": {"zone_id": "02020BZQDVZ8XBQR2119UH", "tract_id": "34031175803", "city": "PASSAIC, NJ", "zone_code": "C-R", "zone_category": "Commercial", "ev_permitted": true}, "geometry": {"type": "Polygon", "coordinates": [[[-74.1306749214668, 40.863614555331], [-74.1305898217781, 40.8636370159758], [-74.1307085284282, 40.8638962934862], [-74.1307936272238, 40.8638738327522], [-74.1306749214668, 40.863614555331]]]}}, {"type": "Feature", "properties": {"zone_id": "0203XMF24U9S5DQYQDER8G", "tract_id": "34031175803", "city": "PASSAIC, NJ", "zone_code": "C-R", "zone_category": "Commercial", "ev_permitted": true}, "geometry": {"type": "Polygon", "coordinates": [[[-74.1305898217781, 40.8636370159758], [-74.1305047220272, 40.8636594774581], [-74.1306234283893, 40.8639187541532], [-74.1307085284282, 40.8638962934862], [-74.1305898217781, 40.8636370159758]]]}}, {"type": "Feature", "properties": {"zone_id": "0204KPVKEU799SKW4YZ9HP", "tract_id": "34031175803", "city": "PASSAIC, NJ", "zone_code": "MA-RA", "zone_category": "Other", "ev_permitted": false}, "geometry": {"type": "Polygon", "coordinates": [[[-74.1303175045186, 40.8637088908829], [-74.1300928414779, 40.8637681874845], [-74.1302115452302, 40.8640274654893], [-74.1304362090447, 40.8639681686624], [-74.1303175045186, 40.8637088908829]]]}}, {"type": "Feature", "properties": {"zone_id": "0200RP61WQ5MBJTB4BHBH8", "tract_id": "34031175803", "city": "PASSAIC, NJ", "zone_code": "C-R", "zone_category": "Commercial", "ev_permitted": true}, "geometry": {"type": "Polygon", "coordinates": [[[-74.1300586620289, 40.864101874965], [-74.1295859639459, 40.864361518521], [-74.1297550459442, 40.8645396190596], [-74.1301577925213, 40.8643183977113], [-74.1300586620289, 40.864101874965]]]}}, {"type": "Feature", "properties": {"zone_id": "02027QU85820LHGMF3XVUP", "tract_id": "34031175803", "city": "PASSAIC, NJ", "zone_code": "C-R", "zone_category": "Commercial", "ev_permitted": true}, "geometry": {"type": "Polygon", "coordinates": [[[-74.1300447503885, 40.8640714882695], [-74.1298220258741, 40.864130271826], [-74.129522873895, 40.8642945582952], [-74.1295859639459, 40.864361518521], [-74.1300586620289, 40.864101874965], [-74.1300447503885, 40.8640714882695]]]}}, {"type": "Feature", "properties": {"zone_id": "0205YB2IBSYV7NKFUYCV2X", "tract_id": "34031175803", "city": "PASSAIC, NJ", "zone_code": "C-R", "zone_category": "Commercial", "ev_permitted": true}, "geometry": {"type": "Polygon", "coordinates": [[[-74.1301577925213, 40.8643183977113], [-74.1297550459442, 40.8645396190596], [-74.1298930425603, 40.8646849828777], [-74.1302789903812, 40.8645831194734], [-74.1301577925213, 40.8643183977113]]]}}, {"type": "Feature", "properties": {"zone_id": "0203XPOFGASSIHZFRA9T5A", "tract_id": "34031175803", "city": "PASSAIC, NJ", "zone_code": "MA-RA", "zone_category": "Other", "ev_permitted": false}, "geometry": {"type": "Polygon", "coordinates": [[[-74.1297263677477, 40.864040894611], [-74.129427737506, 40.8641943954575], [-74.129522873895, 40.8642945582952], [-74.1298149579611, 40.8641341531241], [-74.1297263677477, 40.864040894611]]]}}, {"type": "Feature", "properties": {"zone_id": "02028CDDXF5IUFTN6XU20M", "tract_id": "34031175803", "city": "PASSAIC, NJ", "zone_code": "MA-RA", "zone_category": "Other", "ev_permitted": false}, "geometry": {"type": "Polygon", "coordinates": [[[-74.1297643563177, 40.8638548853826], [-74.1295926638566, 40.8639001435861], [-74.1298149579611, 40.8641341531241], [-74.1298220258741, 40.864130271826], [-74.1298830601299, 40.8641141628199], [-74.1297643563177, 40.8638548853826]]]}}, {"type": "Feature", "properties": {"zone_id": "0205ORLGNEWWII0R1AFDWB", "tract_id": "34031175803", "city": "PASSAIC, NJ", "zone_code": "MA-RA", "zone_category": "Other", "ev_permitted": false}, "geometry": {"type": "Polygon", "coordinates": [[[-74.1298920066625, 40.8638211948598], [-74.1297643563177, 40.8638548853826], [-74.1298830601299, 40.8641141628199], [-74.1300107097282, 40.8640804721653], [-74.1298920066625, 40.8638211948598]]]}}, {"type": "Feature", "properties": {"zone_id": "0200U1DANAF6SITMGGNMW9", "tract_id": "34031175803", "city": "PASSAIC, NJ", "zone_code": "MA-RA", "zone_category": "Other", "ev_permitted": false}, "geometry": {"type": "Polygon", "coordinates": [[[-74.1299771056382, 40.8637987338281], [-74.1298920066625, 40.8638211948598], [-74.1300107097282, 40.8640804721653], [-74.1300958101781, 40.8640580119527], [-74.1299771056382, 40.8637987338281]]]}}, {"type": "Feature", "properties": {"zone_id": "0206Y2UFGAXMI0YJCY11KW", "tract_id": "34031175803", "city": "PASSAIC, NJ", "zone_code": "MA-RA", "zone_category": "Other", "ev_permitted": false}, "geometry": {"type": "Polygon", "coordinates": [[[-74.1300928414779, 40.8637681874845], [-74.1299771056382, 40.8637987338281], [-74.1300958101781, 40.8640580119527], [-74.1302115452302, 40.8640274654893], [-74.1300928414779, 40.8637681874845]]]}}, {"type": "Feature", "properties": {"zone_id": "02022WM5Z44RJTFYWV5LD5", "tract_id": "34031175803", "city": "PASSAIC, NJ", "zone_code": "MA-RA", "zone_category": "Other", "ev_permitted": false}, "geometry": {"type": "Polygon", "coordinates": [[[-74.129680064931, 40.8639921510937], [-74.1293326013932, 40.8640942343419], [-74.129427737506, 40.8641943954575], [-74.1297263677477, 40.864040894611], [-74.129680064931, 40.8639921510937]]]}}, {"type": "Feature", "properties": {"zone_id": "020515FDQGKKOORYFXDA9Z", "tract_id": "34031175803", "city": "PASSAIC, NJ", "zone_code": "MA-RA", "zone_category": "Other", "ev_permitted": false}, "geometry": {"type": "Polygon", "coordinates": [[[-74.1295926638566, 40.8639001435861], [-74.1292372367753, 40.8639938328598], [-74.1293326013932, 40.8640942343419], [-74.129680064931, 40.8639921510937], [-74.1295926638566, 40.8639001435861]]]}}, {"type": "Feature", "properties": {"zone_id": "0204DH3351O7HY35SICNGC", "tract_id": "34031175803", "city": "PASSAIC, NJ", "zone_code": "MA-RA", "zone_category": "Other", "ev_permitted": false}, "geometry": {"type": "Polygon", "coordinates": [[[-74.1293369143439, 40.8637227873797], [-74.1290507607016, 40.8637971355325], [-74.1291057466956, 40.8638553596295], [-74.1293549238877, 40.8637906511344], [-74.1293369143439, 40.8637227873797]]]}}, {"type": "Feature", "properties": {"zone_id": "0200OZSZS0OKWHUFBWMQIU", "tract_id": "34031175803", "city": "PASSAIC, NJ", "zone_code": "C-R", "zone_category": "Commercial", "ev_permitted": true}, "geometry": {"type": "Polygon", "coordinates": [[[-74.130551587597, 40.8632187217801], [-74.1304461847503, 40.8632350132123], [-74.1305136635992, 40.8634866385486], [-74.1306162102436, 40.8634596958467], [-74.130551587597, 40.8632187217801]]]}}, {"type": "Feature", "properties": {"zone_id": "0201YCW3T891O820OZJICV", "tract_id": "34031175803", "city": "PASSAIC, NJ", "zone_code": "C-R", "zone_category": "Commercial", "ev_permitted": true}, "geometry": {"type": "Polygon", "coordinates": [[[-74.1304461847503, 40.8632350132123], [-74.1303540695621, 40.8632492505974], [-74.1304240443599, 40.8635101850942], [-74.1305136635992, 40.8634866385486], [-74.1304461847503, 40.8632350132123]]]}}, {"type": "Feature", "properties": {"zone_id": "0202M40U8DR07BTHCKHL5W", "tract_id": "34031175803", "city": "PASSAIC, NJ", "zone_code": "R-3", "zone_category": "Residential", "ev_permitted": false}, "geometry": {"type": "Polygon", "coordinates": [[[-74.130688344466, 40.8631198490929], [-74.1303340529432, 40.863174610957], [-74.1303540695621, 40.8632492505974], [-74.1307083614621, 40.8631944895748], [-74.130688344466, 40.8631198490929]]]}}, {"type": "Feature", "properties": {"zone_id": "0206FMALUZ1X96HNRU5UUE", "tract_id": "34031175803", "city": "PASSAIC, NJ", "zone_code": "C-R", "zone_category": "Commercial", "ev_permitted": true}, "geometry": {"type": "Polygon", "coordinates": [[[-74.1316474185837, 40.8628611238312], [-74.131469918513, 40.8628871480802], [-74.1315522552616, 40.8632108327636], [-74.1317216749438, 40.8631673619207], [-74.1316474185837, 40.8628611238312]]]}}, {"type": "Feature", "properties": {"zone_id": "02054KM6A4K6W2KVMDL31H", "tract_id": "34031175803", "city": "PASSAIC, NJ", "zone_code": "C-R", "zone_category": "Commercial", "ev_permitted": true}, "geometry": {"type": "Polygon", "coordinates": [[[-74.1314870584597, 40.862954526029], [-74.1313983076906, 40.8629675385118], [-74.1314657771993, 40.8632327934391], [-74.1315522552616, 40.8632108327636], [-74.1314870584597, 40.862954526029]]]}}, {"type": "Feature", "properties": {"zone_id": "0200UUWZW3N8VQJ8TSGGFM", "tract_id": "34031175803", "city": "PASSAIC, NJ", "zone_code": "C-R", "zone_category": "Commercial", "ev_permitted": true}, "geometry": {"type": "Polygon", "coordinates": [[[-74.1313983076906, 40.8629675385118], [-74.1313095580835, 40.8629805491288], [-74.1313793096064, 40.8632547811002], [-74.1314657771993, 40.8632327934391], [-74.1313983076906, 40.8629675385118]]]}}, {"type": "Feature", "properties": {"zone_id": "02068IHSNT28VJZZDPA9PO", "tract_id": "34031175803", "city": "PASSAIC, NJ", "zone_code": "C-R", "zone_category": "Commercial", "ev_permitted": true}, "geometry": {"type": "Polygon", "coordinates": [[[-74.1313095580835, 40.8629805491288], [-74.1312208084321, 40.8629935614785], [-74.1312928349992, 40.8632767398556], [-74.1313793096064, 40.8632547811002], [-74.1313095580835, 40.8629805491288]]]}}, {"type": "Feature", "properties": {"zone_id": "0202S14EALG985JYJS24JW", "tract_id": "34031175803", "city": "PASSAIC, NJ", "zone_code": "R-3", "zone_category": "Residential", "ev_permitted": false}, "geometry": {"type": "Polygon", "coordinates": [[[-74.1315046837158, 40.8628645782291], [-74.1311993838296, 40.8629093389946], [-74.1312208084321, 40.8629935614785], [-74.1314870584597, 40.862954526029], [-74.131469918513, 40.8628871480802], [-74.1315089687067, 40.8628814227154], [-74.1315046837158, 40.8628645782291]]]}}, {"type": "Feature", "properties": {"zone_id": "0205DRXZNFRDO2A3CVVPAY", "tract_id": "34031175803", "city": "PASSAIC, NJ", "zone_code": "R-3", "zone_category": "Residential", "ev_permitted": false}, "geometry": {"type": "Polygon", "coordinates": [[[-74.1315329591751, 40.8627730686314], [-74.1311779604718, 40.8628251156089], [-74.1311993838296, 40.8629093389946], [-74.1315046837158, 40.8628645782291], [-74.1315089687067, 40.8628814227154], [-74.1315586691611, 40.8628741355416], [-74.1315329591751, 40.8627730686314]]]}}, {"type": "Feature", "properties": {"zone_id": "0207J8B19577OJIJ9G7UP0", "tract_id": "34031175803", "city": "PASSAIC, NJ", "zone_code": "R-3", "zone_category": "Residential", "ev_permitted": false}, "geometry": {"type": "Polygon", "coordinates": [[[-74.1315072504574, 40.8626720008174], [-74.1311522522698, 40.8627240486194], [-74.1311779604718, 40.8628251156089], [-74.1315329591751, 40.8627730686314], [-74.1315072504574, 40.8626720008174]]]}}, {"type": "Feature", "properties": {"zone_id": "02034ZGBHYPX7HO4JJUI16", "tract_id": "34031175803", "city": "PASSAIC, NJ", "zone_code": "R-3", "zone_category": "Residential", "ev_permitted": false}, "geometry": {"type": "Polygon", "coordinates": [[[-74.1310256118435, 40.8630016088758], [-74.1306713212266, 40.8630563708802], [-74.1306935021162, 40.8631390811181], [-74.1310477931616, 40.8630843181475], [-74.1310256118435, 40.8630016088758]]]}}, {"type": "Feature", "properties": {"zone_id": "020238MA4EBUGCCUN5SHQH", "tract_id": "34031175803", "city": "PASSAIC, NJ", "zone_code": "R-3", "zone_category": "Residential", "ev_permitted": false}, "geometry": {"type": "Polygon", "coordinates": [[[-74.1310035107884, 40.8629191952431], [-74.1306492205935, 40.8629739571823], [-74.1306713212266, 40.8630563708802], [-74.1310256118435, 40.8630016088758], [-74.1310035107884, 40.8629191952431]]]}}, {"type": "Feature", "properties": {"zone_id": "0201X0Q1XEZP8ZZW6I5XCR", "tract_id": "34031175803", "city": "PASSAIC, NJ", "zone_code": "R-3", "zone_category": "Residential", "ev_permitted": false}, "geometry": {"type": "Polygon", "coordinates": [[[-74.1309835586238, 40.86284479727], [-74.1307425828625, 40.8628820455818], [-74.130694430488, 40.8629100199057], [-74.1306345554132, 40.8629192742985], [-74.1306492205935, 40.8629739571823], [-74.1310035107884, 40.8629191952431], [-74.1309835586238, 40.86284479727]]]}}, {"type": "Feature", "properties": {"zone_id": "0205Y3U2CY4UECY1UDJ1PQ", "tract_id": "34031175803", "city": "PASSAIC, NJ", "zone_code": "R-3", "zone_category": "Residential", "ev_permitted": false}, "geometry": {"type": "Polygon", "coordinates": [[[-74.1306683786617, 40.8630453969901], [-74.1303140875251, 40.8631001578947], [-74.1303340529432, 40.863174610957], [-74.130688344466, 40.8631198490929], [-74.1306683786617, 40.8630453969901]]]}}, {"type": "Feature", "properties": {"zone_id": "0202QE659NCTUC92HLJ5T4", "tract_id": "34031175803", "city": "PASSAIC, NJ", "zone_code": "R-3", "zone_category": "Residential", "ev_permitted": false}, "geometry": {"type": "Polygon", "coordinates": [[[-74.1306485279492, 40.8629713748246], [-74.1302942371867, 40.863026136571], [-74.1303140875251, 40.8631001578947], [-74.1306683786617, 40.8630453969901], [-74.1306485279492, 40.8629713748246]]]}}, {"type": "Feature", "properties": {"zone_id": "0205JA0YWTBHAKT4PGRQ9O", "tract_id": "34031175803", "city": "PASSAIC, NJ", "zone_code": "R-3", "zone_category": "Residential", "ev_permitted": false}, "geometry": {"type": "Polygon", "coordinates": [[[-74.1306296430072, 40.8629009571362], [-74.1302753526052, 40.8629557188269], [-74.1302942371867, 40.863026136571], [-74.1306485279492, 40.8629713748246], [-74.1306296430072, 40.8629009571362]]]}}, {"type": "Feature", "properties": {"zone_id": "0202JUXA60TL0KPN6MW9K2", "tract_id": "34031175803", "city": "PASSAIC, NJ", "zone_code": "R-3", "zone_category": "Residential", "ev_permitted": false}, "geometry": {"type": "Polygon", "coordinates": [[[-74.1306651560402, 40.8625243046702], [-74.1305482416813, 40.862542375795], [-74.1306196505913, 40.8628086605961], [-74.1307365665863, 40.8627905894056], [-74.1306651560402, 40.8625243046702]]]}}, {"type": "Feature", "properties": {"zone_id": "0205XFQ7BPCZYSBZ514A9B", "tract_id": "34031175803", "city": "PASSAIC, NJ", "zone_code": "R-3", "zone_category": "Residential", "ev_permitted": false}, "geometry": {"type": "Polygon", "coordinates": [[[-74.1305482416813, 40.862542375795], [-74.1304313260736, 40.8625604467971], [-74.1305034562252, 40.8628294221882], [-74.1306203722924, 40.8628113502152], [-74.1305482416813, 40.862542375795]]]}}, {"type": "Feature", "properties": {"zone_id": "02075XI297GJUZY91EMXS5", "tract_id": "34031175803", "city": "PASSAIC, NJ", "zone_code": "R-3", "zone_category": "Residential", "ev_permitted": false}, "geometry": {"type": "Polygon", "coordinates": [[[-74.1304313260736, 40.8625604467971], [-74.1303126378534, 40.8625787920775], [-74.130384769921, 40.8628477666471], [-74.1305034562252, 40.8628294221882], [-74.1304313260736, 40.8625604467971]]]}}, {"type": "Feature", "properties": {"zone_id": "0201ZYWZUT41IMAGZ7ZY8G", "tract_id": "34031175803", "city": "PASSAIC, NJ", "zone_code": "R-3", "zone_category": "Residential", "ev_permitted": false}, "geometry": {"type": "Polygon", "coordinates": [[[-74.1306062013691, 40.862813540957], [-74.1302519102335, 40.8628683016741], [-74.1302753526052, 40.8629557188269], [-74.1306296430072, 40.8629009571362], [-74.1306062013691, 40.862813540957]]]}}, {"type": "Feature", "properties": {"zone_id": "0206AT02JNMQPE26PXNFQZ", "tract_id": "34031175803", "city": "PASSAIC, NJ", "zone_code": "R-3", "zone_category": "Residential", "ev_permitted": false}, "geometry": {"type": "Polygon", "coordinates": [[[-74.1303126378534, 40.8625787920775], [-74.1301797810547, 40.8625993270322], [-74.1302519102335, 40.8628683016741], [-74.130384769921, 40.8628477666471], [-74.1303126378534, 40.8625787920775]]]}}, {"type": "Feature", "properties": {"zone_id": "02071W7S4XVIOKMG50XIQD", "tract_id": "34031175803", "city": "PASSAIC, NJ", "zone_code": "R-3", "zone_category": "Residential", "ev_permitted": false}, "geometry": {"type": "Polygon", "coordinates": [[[-74.132777921848, 40.8625505123267], [-74.1324120084949, 40.862606642174], [-74.1324299103231, 40.8626739062409], [-74.1328073413032, 40.8626160091555], [-74.132777921848, 40.8625505123267]]]}}, {"type": "Feature", "properties": {"zone_id": "0205UAN6BOOW44YXS8U8GH", "tract_id": "34031175803", "city": "PASSAIC, NJ", "zone_code": "R-3", "zone_category": "Residential", "ev_permitted": false}, "geometry": {"type": "Polygon", "coordinates": [[[-74.1327485000779, 40.8624850154824], [-74.1323941067025, 40.8625393781037], [-74.1324120084949, 40.862606642174], [-74.132777921848, 40.8625505123267], [-74.1327485000779, 40.8624850154824]]]}}, {"type": "Feature", "properties": {"zone_id": "0203UMUYGJBPC7TBH9128B", "tract_id": "34031175803", "city": "PASSAIC, NJ", "zone_code": "R-3", "zone_category": "Residential", "ev_permitted": false}, "geometry": {"type": "Polygon", "coordinates": [[[-74.1325202858934, 40.862239983167], [-74.1323431622577, 40.8622671536911], [-74.1324147679692, 40.8625362090898], [-74.1325919658979, 40.8625090278876], [-74.1325202858934, 40.862239983167]]]}}, {"type": "Feature", "properties": {"zone_id": "0204YA8N3ZYUBRWZVXZYHR", "tract_id": "34031175803", "city": "PASSAIC, NJ", "zone_code": "R-3", "zone_category": "Residential", "ev_permitted": false}, "geometry": {"type": "Polygon", "coordinates": [[[-74.132630812382, 40.8622230289217], [-74.1325202858934, 40.862239983167], [-74.1325919658979, 40.8625090278876], [-74.1327485000779, 40.8624850154824], [-74.132630812382, 40.8622230289217]]]}}, {"type": "Feature", "properties": {"zone_id": "0205TEZ5QV0LPEAHNYB17S", "tract_id": "34031175803", "city": "PASSAIC, NJ", "zone_code": "R-3", "zone_category": "Residential", "ev_permitted": false}, "geometry": {"type": "Polygon", "coordinates": [[[-74.1323431622577, 40.8622671536911], [-74.1321659660616, 40.8622943345183], [-74.1322375710837, 40.8625633900228], [-74.1324147679692, 40.8625362090898], [-74.1323431622577, 40.8622671536911]]]}}, {"type": "Feature", "properties": {"zone_id": "0205AXMSNYBJHZIBO81IHL", "tract_id": "34031175803", "city": "PASSAIC, NJ", "zone_code": "R-3", "zone_category": "Residential", "ev_permitted": false}, "geometry": {"type": "Polygon", "coordinates": [[[-74.1323941067025, 40.8625393781037], [-74.1320603728641, 40.8625905715797], [-74.1320782743319, 40.8626578356999], [-74.1324120084949, 40.862606642174], [-74.1323941067025, 40.8625393781037]]]}}, {"type": "Feature", "properties": {"zone_id": "0205VQ7YZZZDRFDRJLV9VT", "tract_id": "34031175803", "city": "PASSAIC, NJ", "zone_code": "R-3", "zone_category": "Residential", "ev_permitted": false}, "geometry": {"type": "Polygon", "coordinates": [[[-74.1321659660616, 40.8622943345183], [-74.1319887685314, 40.8623215159694], [-74.1320603728641, 40.8625905715797], [-74.1322375710837, 40.8625633900228], [-74.1321659660616, 40.8622943345183]]]}}, {"type": "Feature", "properties": {"zone_id": "0207MGS19UVA1EWO039HOR", "tract_id": "34031175803", "city": "PASSAIC, NJ", "zone_code": "R-3", "zone_category": "Residential", "ev_permitted": false}, "geometry": {"type": "Polygon", "coordinates": [[[-74.1317936908869, 40.8623504403195], [-74.1317049421745, 40.8623634521465], [-74.1317734990276, 40.8626329655988], [-74.1318622492783, 40.8626199528243], [-74.1317936908869, 40.8623504403195]]]}}, {"type": "Feature", "properties": {"zone_id": "020649G4AQKDJGCCYHFDBM", "tract_id": "34031175803", "city": "PASSAIC, NJ", "zone_code": "R-3", "zone_category": "Residential", "ev_permitted": false}, "geometry": {"type": "Polygon", "coordinates": [[[-74.1317049421745, 40.8623634521465], [-74.1316161934279, 40.8623764639051], [-74.1316847499339, 40.8626459774081], [-74.1317734990276, 40.8626329655988], [-74.1317049421745, 40.8623634521465]]]}}, {"type": "Feature", "properties": {"zone_id": "0205BH6F7ZJO6KB0SIEX38", "tract_id": "34031175803", "city": "PASSAIC, NJ", "zone_code": "R-3", "zone_category": "Residential", "ev_permitted": false}, "geometry": {"type": "Polygon", "coordinates": [[[-74.1313055701652, 40.8624220058644], [-74.1311946340327, 40.8624382703919], [-74.1312631900759, 40.8627077841393], [-74.1313741266474, 40.8626915186478], [-74.1313055701652, 40.8624220058644]]]}}, {"type": "Feature", "properties": {"zone_id": "0205NS773NH4R2U9Y4TBDA", "tract_id": "34031175803", "city": "PASSAIC, NJ", "zone_code": "R-3", "zone_category": "Residential", "ev_permitted": false}, "geometry": {"type": "Polygon", "coordinates": [[[-74.1316161934279, 40.8623764639051], [-74.1315274434559, 40.862389476492], [-74.1315960008059, 40.8626589891488], [-74.1316847499339, 40.8626459774081], [-74.1316161934279, 40.8623764639051]]]}}, {"type": "Feature", "properties": {"zone_id": "0205DO9PF3Y0XEX5BOLAF7", "tract_id": "34031175803", "city": "PASSAIC, NJ", "zone_code": "R-3", "zone_category": "Residential", "ev_permitted": false}, "geometry": {"type": "Polygon", "coordinates": [[[-74.1315274434559, 40.862389476492], [-74.1314165074304, 40.8624057412336], [-74.1314850631603, 40.8626752539499], [-74.1315960008059, 40.8626589891488], [-74.1315274434559, 40.862389476492]]]}}, {"type": "Feature", "properties": {"zone_id": "0200JG7L0LM2XZF6JBMT7X", "tract_id": "34031175803", "city": "PASSAIC, NJ", "zone_code": "R-3", "zone_category": "Residential", "ev_permitted": false}, "geometry": {"type": "Polygon", "coordinates": [[[-74.1314165074304, 40.8624057412336], [-74.1313055701652, 40.8624220058644], [-74.1313741266474, 40.8626915186478], [-74.1314850631603, 40.8626752539499], [-74.1314165074304, 40.8624057412336]]]}}, {"type": "Feature", "properties": {"zone_id": "02043G5KBKL4VE59RP343A", "tract_id": "34031175803", "city": "PASSAIC, NJ", "zone_code": "R-3", "zone_category": "Residential", "ev_permitted": false}, "geometry": {"type": "Polygon", "coordinates": [[[-74.1311946340327, 40.8624382703919], [-74.1310836978417, 40.8624545357131], [-74.1311522522698, 40.8627240486194], [-74.1312631900759, 40.8627077841393], [-74.1311946340327, 40.8624382703919]]]}}, {"type": "Feature", "properties": {"zone_id": "0201BPTZZD8X0YN7S32W0U", "tract_id": "34031175803", "city": "PASSAIC, NJ", "zone_code": "R-3", "zone_category": "Residential", "ev_permitted": false}, "geometry": {"type": "Polygon", "coordinates": [[[-74.1308883576282, 40.862489804025], [-74.1307820715275, 40.8625062325299], [-74.1308534825236, 40.8627725171956], [-74.1309597690333, 40.8627560886274], [-74.1308883576282, 40.862489804025]]]}}, {"type": "Feature", "properties": {"zone_id": "0204JTAGO7PUFR15BFI2PJ", "tract_id": "34031175803", "city": "PASSAIC, NJ", "zone_code": "MA-RA", "zone_category": "Other", "ev_permitted": false}, "geometry": {"type": "Polygon", "coordinates": [[[-74.1302153859812, 40.8634890085436], [-74.1298609456904, 40.8635432218241], [-74.1298895879268, 40.8636511518542], [-74.1302345303304, 40.8635611508191], [-74.1302153859812, 40.8634890085436]]]}}, {"type": "Feature", "properties": {"zone_id": "0205380HYW5CR04BXO81N0", "tract_id": "34031175803", "city": "PASSAIC, NJ", "zone_code": "MA-RA", "zone_category": "Other", "ev_permitted": false}, "geometry": {"type": "Polygon", "coordinates": [[[-74.1301943199019, 40.8634096285074], [-74.1298398800232, 40.8634638408251], [-74.1298609456904, 40.8635432218241], [-74.1302153859812, 40.8634890085436], [-74.1301943199019, 40.8634096285074]]]}}, {"type": "Feature", "properties": {"zone_id": "02018MGYCDMU9KI5Y1ZD0D", "tract_id": "34031175803", "city": "PASSAIC, NJ", "zone_code": "MA-RA", "zone_category": "Other", "ev_permitted": false}, "geometry": {"type": "Polygon", "coordinates": [[[-74.1298755839759, 40.863598383818], [-74.1295211428321, 40.8636525960496], [-74.1295446434099, 40.8637411518486], [-74.1298895879268, 40.8636511518542], [-74.1298755839759, 40.863598383818]]]}}, {"type": "Feature", "properties": {"zone_id": "0201Q0U3J00KJ4BS2BMM41", "tract_id": "34031175803", "city": "PASSAIC, NJ", "zone_code": "MA-RA", "zone_category": "Other", "ev_permitted": false}, "geometry": {"type": "Polygon", "coordinates": [[[-74.1298541615872, 40.8635176580239], [-74.1294997208573, 40.8635718701923], [-74.1295211428321, 40.8636525960496], [-74.1298755839759, 40.863598383818], [-74.1298541615872, 40.8635176580239]]]}}, {"type": "Feature", "properties": {"zone_id": "02061E6GB321DN7SW4ES5D", "tract_id": "34031175803", "city": "PASSAIC, NJ", "zone_code": "MA-RA", "zone_category": "Other", "ev_permitted": false}, "geometry": {"type": "Polygon", "coordinates": [[[-74.1298327392498, 40.863436932225], [-74.1294782989337, 40.86349114433], [-74.1294997208573, 40.8635718701923], [-74.1298541615872, 40.8635176580239], [-74.1298327392498, 40.863436932225]]]}}, {"type": "Feature", "properties": {"zone_id": "0205CHFPUC11ANX5XIIKQZ", "tract_id": "34031175803", "city": "PASSAIC, NJ", "zone_code": "MA-RA", "zone_category": "Other", "ev_permitted": false}, "geometry": {"type": "Polygon", "coordinates": [[[-74.1298113157774, 40.8633562064173], [-74.1294568770615, 40.8634104184629], [-74.1294782989337, 40.86349114433], [-74.1298327392498, 40.863436932225], [-74.1298113157774, 40.8633562064173]]]}}, {"type": "Feature", "properties": {"zone_id": "0202KJUF95U5RK8VR7X3CI", "tract_id": "34031175803", "city": "PASSAIC, NJ", "zone_code": "R-3", "zone_category": "Residential", "ev_permitted": false}, "geometry": {"type": "Polygon", "coordinates": [[[-74.1301736105649, 40.863331593264], [-74.1298191722674, 40.863385806425], [-74.1298398800232, 40.8634638408251], [-74.1301943199019, 40.8634096285074], [-74.1301736105649, 40.863331593264]]]}}, {"type": "Feature", "properties": {"zone_id": "0203TV0ZSQBHQ3S98SIXCI", "tract_id": "34031175803", "city": "PASSAIC, NJ", "zone_code": "R-3", "zone_category": "Residential", "ev_permitted": false}, "geometry": {"type": "Polygon", "coordinates": [[[-74.1301529024569, 40.8632535589204], [-74.1297984633784, 40.8633077711158], [-74.1298191722674, 40.863385806425], [-74.1301736105649, 40.863331593264], [-74.1301529024569, 40.8632535589204]]]}}, {"type": "Feature", "properties": {"zone_id": "0203757LCHU1WDP70R7E5B", "tract_id": "34031175803", "city": "PASSAIC, NJ", "zone_code": "R-3", "zone_category": "Residential", "ev_permitted": false}, "geometry": {"type": "Polygon", "coordinates": [[[-74.1301321932158, 40.8631755236679], [-74.1297777545323, 40.8632297367027], [-74.1297984633784, 40.8633077711158], [-74.1301529024569, 40.8632535589204], [-74.1301321932158, 40.8631755236679]]]}}, {"type": "Feature", "properties": {"zone_id": "0200HMQ6YIKW94YOXV6M1Y", "tract_id": "34031175803", "city": "PASSAIC, NJ", "zone_code": "R-3", "zone_category": "Residential", "ev_permitted": false}, "geometry": {"type": "Polygon", "coordinates": [[[-74.1301121985789, 40.8631001798113], [-74.1297577602867, 40.8631543918864], [-74.1297777545323, 40.8632297367027], [-74.1301321932158, 40.8631755236679], [-74.1301121985789, 40.8631001798113]]]}}, {"type": "Feature", "properties": {"zone_id": "0207NBR9NJ8OW6R5K4UQUC", "tract_id": "34031175803", "city": "PASSAIC, NJ", "zone_code": "R-3", "zone_category": "Residential", "ev_permitted": false}, "geometry": {"type": "Polygon", "coordinates": [[[-74.1297891801787, 40.8632727901107], [-74.1294347407093, 40.8633270011866], [-74.1294568770615, 40.8634104184629], [-74.1298113157774, 40.8633562064173], [-74.1297891801787, 40.8632727901107]]]}}, {"type": "Feature", "properties": {"zone_id": "02056YVSN5R1LPOXU941JL", "tract_id": "34031175803", "city": "PASSAIC, NJ", "zone_code": "R-3", "zone_category": "Residential", "ev_permitted": false}, "geometry": {"type": "Polygon", "coordinates": [[[-74.1297666867701, 40.8631880280958], [-74.1294122477353, 40.8632422391052], [-74.1294347407093, 40.8633270011866], [-74.1297891801787, 40.8632727901107], [-74.1297666867701, 40.8631880280958]]]}}, {"type": "Feature", "properties": {"zone_id": "020608XU6TMHPC9UY00H3T", "tract_id": "34031175803", "city": "PASSAIC, NJ", "zone_code": "R-3", "zone_category": "Residential", "ev_permitted": false}, "geometry": {"type": "Polygon", "coordinates": [[[-74.1297488349933, 40.8631207565804], [-74.1293943963034, 40.8631749675371], [-74.1294122477353, 40.8632422391052], [-74.1297666867701, 40.8631880280958], [-74.1297488349933, 40.8631207565804]]]}}, {"type": "Feature", "properties": {"zone_id": "0204ODDZIAXWO65RIYHHRF", "tract_id": "34031175803", "city": "PASSAIC, NJ", "zone_code": "MA-RA", "zone_category": "Other", "ev_permitted": false}, "geometry": {"type": "Polygon", "coordinates": [[[-74.1292494278988, 40.8633931030019], [-74.1288653666021, 40.8636008250232], [-74.1290507607016, 40.8637971355325], [-74.1293369143439, 40.8637227873797], [-74.1292494278988, 40.8633931030019]]]}}, {"type": "Feature", "properties": {"zone_id": "0202VDFGMBPB07H1N7CPRV", "tract_id": "34031175803", "city": "PASSAIC, NJ", "zone_code": "MA-RA", "zone_category": "Other", "ev_permitted": false}, "geometry": {"type": "Polygon", "coordinates": [[[-74.1291649409221, 40.8630747204593], [-74.1287264023139, 40.8632977468188], [-74.1286291381531, 40.8633506836568], [-74.1288653666021, 40.8636008250232], [-74.1292494278988, 40.8633931030019], [-74.1291649409221, 40.8630747204593]]]}}, {"type": "Feature", "properties": {"zone_id": "0201QE0W21F80OWTFXNNK7", "tract_id": "34031175803", "city": "PASSAIC, NJ", "zone_code": "R-3", "zone_category": "Residential", "ev_permitted": false}, "geometry": {"type": "Polygon", "coordinates": [[[-74.130085421027, 40.8629992730656], [-74.1297309832522, 40.8630534850616], [-74.1297577602867, 40.8631543918864], [-74.1301121985789, 40.8631001798113], [-74.130085421027, 40.8629992730656]]]}}, {"type": "Feature", "properties": {"zone_id": "0204EZA710NSCA2345VEDC", "tract_id": "34031175803", "city": "PASSAIC, NJ", "zone_code": "R-3", "zone_category": "Residential", "ev_permitted": false}, "geometry": {"type": "Polygon", "coordinates": [[[-74.1300586423742, 40.862898365408], [-74.1297042051117, 40.8629525782254], [-74.1297309832522, 40.8630534850616], [-74.130085421027, 40.8629992730656], [-74.1300586423742, 40.862898365408]]]}}, {"type": "Feature", "properties": {"zone_id": "02057JPF7TRE5NUHSBY6LL", "tract_id": "34031175803", "city": "PASSAIC, NJ", "zone_code": "R-3", "zone_category": "Residential", "ev_permitted": false}, "geometry": {"type": "Polygon", "coordinates": [[[-74.1299872346002, 40.8626292794894], [-74.1298691004504, 40.862647348714], [-74.1299405089508, 40.8629164347067], [-74.1300586423742, 40.862898365408], [-74.1299872346002, 40.8626292794894]]]}}, {"type": "Feature", "properties": {"zone_id": "0202PWHT7QC1SYOEEOT6VN", "tract_id": "34031175803", "city": "PASSAIC, NJ", "zone_code": "R-3", "zone_category": "Residential", "ev_permitted": false}, "geometry": {"type": "Polygon", "coordinates": [[[-74.1298691004504, 40.862647348714], [-74.1297509674236, 40.8626654178211], [-74.1298223742779, 40.8629345038803], [-74.1299405089508, 40.8629164347067], [-74.1298691004504, 40.862647348714]]]}}, {"type": "Feature", "properties": {"zone_id": "0204P9LONSH7TVFW8R8PJH", "tract_id": "34031175803", "city": "PASSAIC, NJ", "zone_code": "R-3", "zone_category": "Residential", "ev_permitted": false}, "geometry": {"type": "Polygon", "coordinates": [[[-74.1297509674236, 40.8626654178211], [-74.1296327987173, 40.862683492096], [-74.1297042051117, 40.8629525782254], [-74.1298223742779, 40.8629345038803], [-74.1297509674236, 40.8626654178211]]]}}, {"type": "Feature", "properties": {"zone_id": "02033RZTO1P0EHHVBKV7TU", "tract_id": "34031175803", "city": "PASSAIC, NJ", "zone_code": "R-3", "zone_category": "Residential", "ev_permitted": false}, "geometry": {"type": "Polygon", "coordinates": [[[-74.1296327987173, 40.862683492096], [-74.1295441896587, 40.8626970448518], [-74.1296155957082, 40.862966131034], [-74.1297042051117, 40.8629525782254], [-74.1296327987173, 40.862683492096]]]}}, {"type": "Feature", "properties": {"zone_id": "0203Z8GNIGR2DLTWYQJ8RO", "tract_id": "34031175803", "city": "PASSAIC, NJ", "zone_code": "R-3", "zone_category": "Residential", "ev_permitted": false}, "geometry": {"type": "Polygon", "coordinates": [[[-74.1297309832522, 40.8630534850616], [-74.1293765449071, 40.8631076959655], [-74.1293943963034, 40.8631749675371], [-74.1297488349933, 40.8631207565804], [-74.1297309832522, 40.8630534850616]]]}}, {"type": "Feature", "properties": {"zone_id": "0203GJ3OQXINND1986FJWC", "tract_id": "34031175803", "city": "PASSAIC, NJ", "zone_code": "R-3", "zone_category": "Residential", "ev_permitted": false}, "geometry": {"type": "Polygon", "coordinates": [[[-74.1297042051117, 40.8629525782254], [-74.1293497672839, 40.8630067890503], [-74.1293765449071, 40.8631076959655], [-74.1297309832522, 40.8630534850616], [-74.1297042051117, 40.8629525782254]]]}}, {"type": "Feature", "properties": {"zone_id": "02050ALVW7JZPSRMC3Y2W9", "tract_id": "34031175803", "city": "PASSAIC, NJ", "zone_code": "R-3", "zone_category": "Residential", "ev_permitted": false}, "geometry": {"type": "Polygon", "coordinates": [[[-74.1295441896587, 40.8626970448518], [-74.1294555805645, 40.8627105975394], [-74.1295269862691, 40.8629796837744], [-74.1296155957082, 40.862966131034], [-74.1295441896587, 40.8626970448518]]]}}, {"type": "Feature", "properties": {"zone_id": "02000VYYMRPSIF0XY3WLDZ", "tract_id": "34031175803", "city": "PASSAIC, NJ", "zone_code": "R-3", "zone_category": "Residential", "ev_permitted": false}, "geometry": {"type": "Polygon", "coordinates": [[[-74.1294555805645, 40.8627105975394], [-74.1293669714346, 40.8627241501587], [-74.1294383767943, 40.8629932364464], [-74.1295269862691, 40.8629796837744], [-74.1294555805645, 40.8627105975394]]]}}, {"type": "Feature", "properties": {"zone_id": "02024KBRUBU9PAT12K2B0Z", "tract_id": "34031175803", "city": "PASSAIC, NJ", "zone_code": "R-3", "zone_category": "Residential", "ev_permitted": false}, "geometry": {"type": "Polygon", "coordinates": [[[-74.1293669714346, 40.8627241501587], [-74.1292783622691, 40.8627377027098], [-74.1293497672839, 40.8630067890503], [-74.1294383767943, 40.8629932364464], [-74.1293669714346, 40.8627241501587]]]}}, {"type": "Feature", "properties": {"zone_id": "0205AYW8D7OHNR3EJAZHAH", "tract_id": "34031175803", "city": "PASSAIC, NJ", "zone_code": "MA-RA", "zone_category": "Other", "ev_permitted": false}, "geometry": {"type": "Polygon", "coordinates": [[[-74.1287247403437, 40.8629808291685], [-74.1284308915369, 40.8631407603332], [-74.1286291381531, 40.8633506836568], [-74.1287264023139, 40.8632977468188], [-74.1291649409221, 40.8630747204593], [-74.1291547158719, 40.8630361872186], [-74.1288253731218, 40.86308739805], [-74.1287247403437, 40.8629808291685]]]}}, {"type": "Feature", "properties": {"zone_id": "0204HA0IFL6OBLYRJSGMCW", "tract_id": "34031175803", "city": "PASSAIC, NJ", "zone_code": "MA-RA", "zone_category": "Other", "ev_permitted": false}, "geometry": {"type": "Polygon", "coordinates": [[[-74.1285936267075, 40.8628419801058], [-74.1282048963708, 40.8629014317963], [-74.1284308915369, 40.8631407603332], [-74.1287247403437, 40.8629808291685], [-74.1285936267075, 40.8628419801058]]]}}, {"type": "Feature", "properties": {"zone_id": "0201IPOK6W4U4TFHR5TDMS", "tract_id": "34031175803", "city": "PASSAIC, NJ", "zone_code": "MA-RA", "zone_category": "Other", "ev_permitted": false}, "geometry": {"type": "Polygon", "coordinates": [[[-74.1290833116167, 40.8627671007621], [-74.1285936868466, 40.8628420442401], [-74.1288253731218, 40.86308739805], [-74.1291547158719, 40.8630361872186], [-74.1290833116167, 40.8627671007621]]]}}]}