{"type": "FeatureCollection", "features": [{"type": "Feature", "properties": {"zone_id": "0204A7EHZK9FLZC604QG5B", "tract_id": "36081074100", "city": "FLUSHING, NY", "zone_code": "R7-1", "zone_category": "Residential", "ev_permitted": false}, "geometry": {"type": "Polygon", "coordinates": [[[-73.8493871920954, 40.7292611799884], [-73.8484703198571, 40.7295336780173], [-73.8487341058398, 40.7300463591166], [-73.8500355419094, 40.7296544883536], [-73.8493871920954, 40.7292611799884]]]}}, {"type": "Feature", "properties": {"zone_id": "020630IMKK8RNNUYV7HEHP", "tract_id": "36081074100", "city": "FLUSHING, NY", "zone_code": "R4", "zone_category": "Residential", "ev_permitted": false}, "geometry": {"type": "Polygon", "coordinates": [[[-73.8474792199273, 40.7301261587778], [-73.8473789918777, 40.7301558446937], [-73.8475098814456, 40.7304085851569], [-73.8476099884259, 40.7303786656849], [-73.8474792199273, 40.7301261587778]]]}}, {"type": "Feature", "properties": {"zone_id": "0205TNYWPNL6E7U2N8A2CS", "tract_id": "36081074100", "city": "FLUSHING, NY", "zone_code": "R4", "zone_category": "Residential", "ev_permitted": false}, "geometry": {"type": "Polygon", "coordinates": [[[-73.8473789918777, 40.7301558446937], [-73.8473245229899, 40.7301719764931], [-73.8474554776725, 40.7304248442854], [-73.8475098814456, 40.7304085851569], [-73.8473789918777, 40.7301558446937]]]}}, {"type": "Feature", "properties": {"zone_id": "020770N197NF2716QH44EM", "tract_id": "36081074100", "city": "FLUSHING, NY", "zone_code": "R7-1", "zone_category": "Residential", "ev_permitted": false}, "geometry": {"type": "Polygon", "coordinates": [[[-73.8484703198571, 40.7295336780173], [-73.8480670361116, 40.7296535323846], [-73.8483315211288, 40.7301675756701], [-73.8487341058398, 40.7300463591166], [-73.8484703198571, 40.7295336780173]]]}}, {"type": "Feature", "properties": {"zone_id": "0200HGI4YD20QRZ3E5F55A", "tract_id": "36081074100", "city": "FLUSHING, NY", "zone_code": "R1-2A", "zone_category": "Residential", "ev_permitted": false}, "geometry": {"type": "Polygon", "coordinates": [[[-73.8477918529026, 40.7297399409629], [-73.847462351201, 40.729837530016], [-73.8475941913374, 40.7300921055926], [-73.8474792199273, 40.7301261587778], [-73.8476099884259, 40.7303786656849], [-73.848053926049, 40.7302459840361], [-73.8477918529026, 40.7297399409629]]]}}, {"type": "Feature", "properties": {"zone_id": "0203G9HI4D49C9QL15ZHK8", "tract_id": "36081074100", "city": "FLUSHING, NY", "zone_code": "R1-2A", "zone_category": "Residential", "ev_permitted": false}, "geometry": {"type": "Polygon", "coordinates": [[[-73.847462351201, 40.729837530016], [-73.8473278609237, 40.7298773618542], [-73.8474596997014, 40.7301319375821], [-73.8475941913374, 40.7300921055926], [-73.847462351201, 40.729837530016]]]}}, {"type": "Feature", "properties": {"zone_id": "0205L1YTVG9HTWJE2APQXA", "tract_id": "36081074100", "city": "FLUSHING, NY", "zone_code": "R7-1", "zone_category": "Residential", "ev_permitted": false}, "geometry": {"type": "Polygon", "coordinates": [[[-73.8491173213256, 40.7285717315744], [-73.8477273879702, 40.7289947847629], [-73.8479908885358, 40.7295024094998], [-73.8492450304485, 40.7291307259875], [-73.8492001419796, 40.7289942573021], [-73.8491807922059, 40.7289269762965], [-73.8491641072408, 40.7288592736694], [-73.84915009888, 40.7287912393776], [-73.8491388135155, 40.7287231854633], [-73.8491173213256, 40.7285717315744]]]}}, {"type": "Feature", "properties": {"zone_id": "02061DPJYM5L3QZBYNVHXQ", "tract_id": "36081074100", "city": "FLUSHING, NY", "zone_code": "R1-2A", "zone_category": "Residential", "ev_permitted": false}, "geometry": {"type": "Polygon", "coordinates": [[[-73.8474632678058, 40.7290719187469], [-73.8471281126808, 40.7291710163994], [-73.8473887801741, 40.7296790547195], [-73.8477237140095, 40.7295795217768], [-73.8474632678058, 40.7290719187469]]]}}, {"type": "Feature", "properties": {"zone_id": "02066MVTC0PLYXQQU9UJTM", "tract_id": "36081074100", "city": "FLUSHING, NY", "zone_code": "R4", "zone_category": "Residential", "ev_permitted": false}, "geometry": {"type": "Polygon", "coordinates": [[[-73.8471452228436, 40.7302250746128], [-73.8470907538427, 40.7302412063014], [-73.8472219928498, 40.7304946256195], [-73.8472763967385, 40.7304783658989], [-73.8471452228436, 40.7302250746128]]]}}, {"type": "Feature", "properties": {"zone_id": "0205G2S3EN4J2WTJFTNCGN", "tract_id": "36081074100", "city": "FLUSHING, NY", "zone_code": "R4", "zone_category": "Residential", "ev_permitted": false}, "geometry": {"type": "Polygon", "coordinates": [[[-73.8470907538427, 40.7302412063014], [-73.8470009238378, 40.7302678104851], [-73.8471322710671, 40.7305214401436], [-73.8472219928498, 40.7304946256195], [-73.8470907538427, 40.7302412063014]]]}}, {"type": "Feature", "properties": {"zone_id": "02032NLVNMTLETK16DBN1P", "tract_id": "36081074100", "city": "FLUSHING, NY", "zone_code": "R4", "zone_category": "Residential", "ev_permitted": false}, "geometry": {"type": "Polygon", "coordinates": [[[-73.8470009238378, 40.7302678104851], [-73.8469140422831, 40.7302935416008], [-73.8470454959141, 40.7305473738648], [-73.8471322710671, 40.7305214401436], [-73.8470009238378, 40.7302678104851]]]}}, {"type": "Feature", "properties": {"zone_id": "0206LJ16WKPAHT1Y4N14A4", "tract_id": "36081074100", "city": "FLUSHING, NY", "zone_code": "R4", "zone_category": "Residential", "ev_permitted": false}, "geometry": {"type": "Polygon", "coordinates": [[[-73.8469140422831, 40.7302935416008], [-73.8468237425912, 40.7303202848509], [-73.8469553053608, 40.7305743295653], [-73.8470454959141, 40.7305473738648], [-73.8469140422831, 40.7302935416008]]]}}, {"type": "Feature", "properties": {"zone_id": "02059B553VSL105KXPAE8D", "tract_id": "36081074100", "city": "FLUSHING, NY", "zone_code": "R4", "zone_category": "Residential", "ev_permitted": false}, "geometry": {"type": "Polygon", "coordinates": [[[-73.8468237425912, 40.7303202848509], [-73.8467368608997, 40.7303460158327], [-73.8468685291448, 40.7306002638544], [-73.8469553053608, 40.7305743295653], [-73.8468237425912, 40.7303202848509]]]}}, {"type": "Feature", "properties": {"zone_id": "0204Q6EG4KUF80ARTTF1PX", "tract_id": "36081074100", "city": "FLUSHING, NY", "zone_code": "R4", "zone_category": "Residential", "ev_permitted": false}, "geometry": {"type": "Polygon", "coordinates": [[[-73.8467368608997, 40.7303460158327], [-73.846682391701, 40.730362147328], [-73.8468141250571, 40.730616523382], [-73.8468685291448, 40.7306002638544], [-73.8467368608997, 40.7303460158327]]]}}, {"type": "Feature", "properties": {"zone_id": "0200OT3JQRYK8RJTWN71DP", "tract_id": "36081074100", "city": "FLUSHING, NY", "zone_code": "R4", "zone_category": "Residential", "ev_permitted": false}, "geometry": {"type": "Polygon", "coordinates": [[[-73.846682391701, 40.730362147328], [-73.8465927527011, 40.7303886945321], [-73.8467246118421, 40.7306432746266], [-73.8468141250571, 40.730616523382], [-73.846682391701, 40.730362147328]]]}}, {"type": "Feature", "properties": {"zone_id": "0203PBYM379HGK9ZAVO9JZ", "tract_id": "36081074100", "city": "FLUSHING, NY", "zone_code": "R4", "zone_category": "Residential", "ev_permitted": false}, "geometry": {"type": "Polygon", "coordinates": [[[-73.8473245229899, 40.7301719764931], [-73.8472327429098, 40.7301991544519], [-73.8473638113323, 40.7304522410255], [-73.8474554776725, 40.7304248442854], [-73.8473245229899, 40.7301719764931]]]}}, {"type": "Feature", "properties": {"zone_id": "0202MJB7ZINI80I4GECTLV", "tract_id": "36081074100", "city": "FLUSHING, NY", "zone_code": "R4", "zone_category": "Residential", "ev_permitted": false}, "geometry": {"type": "Polygon", "coordinates": [[[-73.8472327429098, 40.7301991544519], [-73.8471452228436, 40.7302250746128], [-73.8472763967385, 40.7304783658989], [-73.8473638113323, 40.7304522410255], [-73.8472327429098, 40.7301991544519]]]}}, {"type": "Feature", "properties": {"zone_id": "0201OHZX38GTHLGSDW367K", "tract_id": "36081074100", "city": "FLUSHING, NY", "zone_code": "R1-2A", "zone_category": "Residential", "ev_permitted": false}, "geometry": {"type": "Polygon", "coordinates": [[[-73.8469916326805, 40.7299769404076], [-73.8468151546677, 40.7300292063034], [-73.8469469927092, 40.730283783317], [-73.8471234712928, 40.7302315172209], [-73.8469916326805, 40.7299769404076]]]}}, {"type": "Feature", "properties": {"zone_id": "0203ZA1IYOCFY4T02XTWRF", "tract_id": "36081074100", "city": "FLUSHING, NY", "zone_code": "R1-2A", "zone_category": "Residential", "ev_permitted": false}, "geometry": {"type": "Polygon", "coordinates": [[[-73.8468151546677, 40.7300292063034], [-73.8466806636167, 40.7300690373847], [-73.8468125002995, 40.7303236145495], [-73.8469469927092, 40.730283783317], [-73.8468151546677, 40.7300292063034]]]}}, {"type": "Feature", "properties": {"zone_id": "0200UXR34RQDUIYS1LG0AV", "tract_id": "36081074100", "city": "FLUSHING, NY", "zone_code": "R4", "zone_category": "Residential", "ev_permitted": false}, "geometry": {"type": "Polygon", "coordinates": [[[-73.8465927527011, 40.7303886945321], [-73.8465025414853, 40.7304154109471], [-73.846634493126, 40.730670208389], [-73.8467246118421, 40.7306432746266], [-73.8465927527011, 40.7303886945321]]]}}, {"type": "Feature", "properties": {"zone_id": "0201I7TZ77TR26PW1ALOWF", "tract_id": "36081074100", "city": "FLUSHING, NY", "zone_code": "R4", "zone_category": "Residential", "ev_permitted": false}, "geometry": {"type": "Polygon", "coordinates": [[[-73.8465025414853, 40.7304154109471], [-73.8464480721731, 40.7304315423314], [-73.8465800889241, 40.7306864678059], [-73.846634493126, 40.730670208389], [-73.8465025414853, 40.7304154109471]]]}}, {"type": "Feature", "properties": {"zone_id": "0201RNEQNV6BLCKZJWH7UV", "tract_id": "36081074100", "city": "FLUSHING, NY", "zone_code": "R4", "zone_category": "Residential", "ev_permitted": false}, "geometry": {"type": "Polygon", "coordinates": [[[-73.8464480721731, 40.7304315423314], [-73.8463172338749, 40.7304702908456], [-73.8464494092937, 40.7307255223373], [-73.8465800889241, 40.7306864678059], [-73.8464480721731, 40.7304315423314]]]}}, {"type": "Feature", "properties": {"zone_id": "02034XOVMKJA1GHY8KOBKY", "tract_id": "36081074100", "city": "FLUSHING, NY", "zone_code": "R4", "zone_category": "Residential", "ev_permitted": false}, "geometry": {"type": "Polygon", "coordinates": [[[-73.8463172338749, 40.7304702908456], [-73.8462516219516, 40.7304897217049], [-73.8463838771628, 40.7307451072601], [-73.8464494092937, 40.7307255223373], [-73.8463172338749, 40.7304702908456]]]}}, {"type": "Feature", "properties": {"zone_id": "02050GZ5UQ7XRLJTU4N3FB", "tract_id": "36081074100", "city": "FLUSHING, NY", "zone_code": "R1-2A", "zone_category": "Residential", "ev_permitted": false}, "geometry": {"type": "Polygon", "coordinates": [[[-73.8461197870813, 40.7302351446063], [-73.8459833717203, 40.7302755442655], [-73.8461152061494, 40.7305301215188], [-73.8462516219516, 40.7304897217049], [-73.8461197870813, 40.7302351446063]]]}}, {"type": "Feature", "properties": {"zone_id": "0202RQATMPXMLI05XCGW5H", "tract_id": "36081074100", "city": "FLUSHING, NY", "zone_code": "R1-2A", "zone_category": "Residential", "ev_permitted": false}, "geometry": {"type": "Polygon", "coordinates": [[[-73.8459833717203, 40.7302755442655], [-73.845849566435, 40.7303151708196], [-73.845851189105, 40.7303659780073], [-73.8458538404029, 40.7303917796608], [-73.8458624808544, 40.7304431183172], [-73.8458684590518, 40.7304686012005], [-73.8458836938843, 40.7305190387386], [-73.8458929413858, 40.730543949816], [-73.8459131937733, 40.7305899476422], [-73.8461152061494, 40.7305301215188], [-73.8459833717203, 40.7302755442655]]]}}, {"type": "Feature", "properties": {"zone_id": "0204BNJNTM77OMUHBAALLD", "tract_id": "36081074100", "city": "FLUSHING, NY", "zone_code": "R1-2A", "zone_category": "Residential", "ev_permitted": false}, "geometry": {"type": "Polygon", "coordinates": [[[-73.8466806636167, 40.7300690373847], [-73.8465125481917, 40.7301188258374], [-73.8466443852544, 40.7303734031943], [-73.8468125002995, 40.7303236145495], [-73.8466806636167, 40.7300690373847]]]}}, {"type": "Feature", "properties": {"zone_id": "0206BJ907QR7854UDPR0VI", "tract_id": "36081074100", "city": "FLUSHING, NY", "zone_code": "R1-2A", "zone_category": "Residential", "ev_permitted": false}, "geometry": {"type": "Polygon", "coordinates": [[[-73.8465125481917, 40.7301188258374], [-73.846378056779, 40.7301586565647], [-73.846509892483, 40.7304132340729], [-73.8466443852544, 40.7303734031943], [-73.8465125481917, 40.7301188258374]]]}}, {"type": "Feature", "properties": {"zone_id": "0205UOY6W6DD2KNSIJMX12", "tract_id": "36081074100", "city": "FLUSHING, NY", "zone_code": "R1-2A", "zone_category": "Residential", "ev_permitted": false}, "geometry": {"type": "Polygon", "coordinates": [[[-73.846378056779, 40.7301586565647], [-73.8462435642818, 40.7301984871335], [-73.8463754004745, 40.7304530647955], [-73.846509892483, 40.7304132340729], [-73.846378056779, 40.7301586565647]]]}}, {"type": "Feature", "properties": {"zone_id": "0202B0F1K8NQRG27AJKIBF", "tract_id": "36081074100", "city": "FLUSHING, NY", "zone_code": "R1-2A", "zone_category": "Residential", "ev_permitted": false}, "geometry": {"type": "Polygon", "coordinates": [[[-73.8462435642818, 40.7301984871335], [-73.8461197870813, 40.7302351446063], [-73.8462516219516, 40.7304897217049], [-73.8463754004745, 40.7304530647955], [-73.8462435642818, 40.7301984871335]]]}}, {"type": "Feature", "properties": {"zone_id": "0201QXBC181EVIMRJT9H5B", "tract_id": "36081074100", "city": "FLUSHING, NY", "zone_code": "R1-2A", "zone_category": "Residential", "ev_permitted": false}, "geometry": {"type": "Polygon", "coordinates": [[[-73.8473278609237, 40.7298773618542], [-73.8471597464659, 40.7299271512532], [-73.8472915856235, 40.7301817271731], [-73.8474596997014, 40.7301319375821], [-73.8473278609237, 40.7298773618542]]]}}, {"type": "Feature", "properties": {"zone_id": "0202KC3IL7KU464JSJ5D9H", "tract_id": "36081074100", "city": "FLUSHING, NY", "zone_code": "R1-2A", "zone_category": "Residential", "ev_permitted": false}, "geometry": {"type": "Polygon", "coordinates": [[[-73.8471597464659, 40.7299271512532], [-73.8469916326805, 40.7299769404076], [-73.8471234712928, 40.7302315172209], [-73.8472915856235, 40.7301817271731], [-73.8471597464659, 40.7299271512532]]]}}, {"type": "Feature", "properties": {"zone_id": "0202QFQBLTG694BAVJ11GN", "tract_id": "36081074100", "city": "FLUSHING, NY", "zone_code": "R1-2A", "zone_category": "Residential", "ev_permitted": false}, "geometry": {"type": "Polygon", "coordinates": [[[-73.8472587788106, 40.729425683579], [-73.8471209536394, 40.7294664347491], [-73.8472510465137, 40.7297199853437], [-73.8473887801741, 40.7296790547195], [-73.8472587788106, 40.729425683579]]]}}, {"type": "Feature", "properties": {"zone_id": "02066NI3EOFK8TAM4PGATC", "tract_id": "36081074100", "city": "FLUSHING, NY", "zone_code": "R1-2A", "zone_category": "Residential", "ev_permitted": false}, "geometry": {"type": "Polygon", "coordinates": [[[-73.8471209536394, 40.7294664347491], [-73.8469995501474, 40.7295023311252], [-73.8471297244763, 40.7297560386572], [-73.8472510465137, 40.7297199853437], [-73.8471209536394, 40.7294664347491]]]}}, {"type": "Feature", "properties": {"zone_id": "0201RA2K7YTFBHZNVBOL81", "tract_id": "36081074100", "city": "FLUSHING, NY", "zone_code": "R1-2A", "zone_category": "Residential", "ev_permitted": false}, "geometry": {"type": "Polygon", "coordinates": [[[-73.8469995501474, 40.7295023311252], [-73.846851916088, 40.7295459821616], [-73.846982187408, 40.7297998818143], [-73.8471297244763, 40.7297560386572], [-73.8469995501474, 40.7295023311252]]]}}, {"type": "Feature", "properties": {"zone_id": "0200ZF9QENR763R61OCZ8U", "tract_id": "36081074100", "city": "FLUSHING, NY", "zone_code": "R1-2A", "zone_category": "Residential", "ev_permitted": false}, "geometry": {"type": "Polygon", "coordinates": [[[-73.846851916088, 40.7295459821616], [-73.8467042809116, 40.7295896330073], [-73.8468346501487, 40.7298437233768], [-73.846982187408, 40.7297998818143], [-73.846851916088, 40.7295459821616]]]}}, {"type": "Feature", "properties": {"zone_id": "0203XMJEQA5EBZYHDTAAZ6", "tract_id": "36081074100", "city": "FLUSHING, NY", "zone_code": "R1-2A", "zone_category": "Residential", "ev_permitted": false}, "geometry": {"type": "Polygon", "coordinates": [[[-73.8467042809116, 40.7295896330073], [-73.8465828778959, 40.7296255282421], [-73.8467133267355, 40.7298797769524], [-73.8468346501487, 40.7298437233768], [-73.8467042809116, 40.7295896330073]]]}}, {"type": "Feature", "properties": {"zone_id": "0206PFUKWMCKRYQX0LV9JO", "tract_id": "36081074100", "city": "FLUSHING, NY", "zone_code": "R1-2A", "zone_category": "Residential", "ev_permitted": false}, "geometry": {"type": "Polygon", "coordinates": [[[-73.8463138381363, 40.7297050743945], [-73.8461793189393, 40.7297448472359], [-73.8463100349774, 40.7299996195355], [-73.8464444654167, 40.7299596721646], [-73.8463138381363, 40.7297050743945]]]}}, {"type": "Feature", "properties": {"zone_id": "0205YW1HM5OGBGPKI2SJTJ", "tract_id": "36081074100", "city": "FLUSHING, NY", "zone_code": "R1-2A", "zone_category": "Residential", "ev_permitted": false}, "geometry": {"type": "Polygon", "coordinates": [[[-73.8461793189393, 40.7297448472359], [-73.846044798658, 40.7297846199187], [-73.8461756043769, 40.7300395667493], [-73.8463100349774, 40.7299996195355], [-73.8461793189393, 40.7297448472359]]]}}, {"type": "Feature", "properties": {"zone_id": "0200G2LRG2GDTHKG7LQWV2", "tract_id": "36081074100", "city": "FLUSHING, NY", "zone_code": "R1-2A", "zone_category": "Residential", "ev_permitted": false}, "geometry": {"type": "Polygon", "coordinates": [[[-73.846044798658, 40.7297846199187], [-73.8459258406252, 40.7298197911808], [-73.8459292362528, 40.7298560458754], [-73.8459305945172, 40.7298878008294], [-73.8459305460138, 40.7299195658462], [-73.8459290778645, 40.7299513170182], [-73.845926189241, 40.7299830121847], [-73.8459218820862, 40.7300146091887], [-73.8459161675437, 40.730046081344], [-73.8459090466296, 40.7300773878974], [-73.8458959994894, 40.7301226525589], [-73.8461756043769, 40.7300395667493], [-73.846044798658, 40.7297846199187]]]}}, {"type": "Feature", "properties": {"zone_id": "02014ZJXF1EB1NZ95QC54J", "tract_id": "36081074100", "city": "FLUSHING, NY", "zone_code": "R1-2A", "zone_category": "Residential", "ev_permitted": false}, "geometry": {"type": "Polygon", "coordinates": [[[-73.8465828778959, 40.7296255282421], [-73.8464559419264, 40.7296630594894], [-73.8465864749538, 40.7299174728769], [-73.8467133267355, 40.7298797769524], [-73.8465828778959, 40.7296255282421]]]}}, {"type": "Feature", "properties": {"zone_id": "0206RY0J9L6X730EFLX0PH", "tract_id": "36081074100", "city": "FLUSHING, NY", "zone_code": "R1-2A", "zone_category": "Residential", "ev_permitted": false}, "geometry": {"type": "Polygon", "coordinates": [[[-73.8464559419264, 40.7296630594894], [-73.8463138381363, 40.7297050743945], [-73.8464444654167, 40.7299596721646], [-73.8465864749538, 40.7299174728769], [-73.8464559419264, 40.7296630594894]]]}}, {"type": "Feature", "properties": {"zone_id": "02011ANZZYO16W1QHCLN34", "tract_id": "36081074100", "city": "FLUSHING, NY", "zone_code": "R1-2A", "zone_category": "Residential", "ev_permitted": false}, "geometry": {"type": "Polygon", "coordinates": [[[-73.8461831759935, 40.7294504061536], [-73.8460150268241, 40.7295001221664], [-73.8461456884234, 40.7297547898937], [-73.8463138381363, 40.7297050743945], [-73.8461831759935, 40.7294504061536]]]}}, {"type": "Feature", "properties": {"zone_id": "0204MPP6WLVMXY0UF3YS9N", "tract_id": "36081074100", "city": "FLUSHING, NY", "zone_code": "R1-2A", "zone_category": "Residential", "ev_permitted": false}, "geometry": {"type": "Polygon", "coordinates": [[[-73.8460150268241, 40.7295001221664], [-73.8458409369613, 40.7295515943561], [-73.845867742755, 40.7296070236209], [-73.8458802621908, 40.7296373312836], [-73.8458914360885, 40.7296679392871], [-73.8459012312366, 40.7296988293183], [-73.8459096283681, 40.7297299444365], [-73.8459166413912, 40.72976126077], [-73.845922247302, 40.7297927396423], [-73.8459258406252, 40.7298197911808], [-73.8461456884234, 40.7297547898937], [-73.8460150268241, 40.7295001221664]]]}}, {"type": "Feature", "properties": {"zone_id": "0206264S5O2NOMWBX77165", "tract_id": "36081074100", "city": "FLUSHING, NY", "zone_code": "R1-2A", "zone_category": "Residential", "ev_permitted": false}, "geometry": {"type": "Polygon", "coordinates": [[[-73.8471281126808, 40.7291710163994], [-73.8469902888783, 40.7292117681184], [-73.8471209536394, 40.7294664347491], [-73.8472587788106, 40.729425683579], [-73.8471281126808, 40.7291710163994]]]}}, {"type": "Feature", "properties": {"zone_id": "0204LJVXWI21PXBW1HZGFI", "tract_id": "36081074100", "city": "FLUSHING, NY", "zone_code": "R1-2A", "zone_category": "Residential", "ev_permitted": false}, "geometry": {"type": "Polygon", "coordinates": [[[-73.8469902888783, 40.7292117681184], [-73.8468688848563, 40.7292476643567], [-73.8469995501474, 40.7295023311252], [-73.8471209536394, 40.7294664347491], [-73.8469902888783, 40.7292117681184]]]}}, {"type": "Feature", "properties": {"zone_id": "0203OJXXJDSXK32BCGUC1K", "tract_id": "36081074100", "city": "FLUSHING, NY", "zone_code": "R1-2A", "zone_category": "Residential", "ev_permitted": false}, "geometry": {"type": "Polygon", "coordinates": [[[-73.8468688848563, 40.7292476643567], [-73.8467212522008, 40.7292913145257], [-73.846851916088, 40.7295459821616], [-73.8469995501474, 40.7295023311252], [-73.8468688848563, 40.7292476643567]]]}}, {"type": "Feature", "properties": {"zone_id": "02033YZRN4XD9FC3JQJ418", "tract_id": "36081074100", "city": "FLUSHING, NY", "zone_code": "R1-2A", "zone_category": "Residential", "ev_permitted": false}, "geometry": {"type": "Polygon", "coordinates": [[[-73.8467212522008, 40.7292913145257], [-73.8465736175013, 40.7293349659081], [-73.8467042809116, 40.7295896330073], [-73.846851916088, 40.7295459821616], [-73.8467212522008, 40.7292913145257]]]}}, {"type": "Feature", "properties": {"zone_id": "0203FQXMP6XPDA8I0LGBUA", "tract_id": "36081074100", "city": "FLUSHING, NY", "zone_code": "R1-2A", "zone_category": "Residential", "ev_permitted": false}, "geometry": {"type": "Polygon", "coordinates": [[[-73.846452213032, 40.7293708610039], [-73.8463252793229, 40.7294083914082], [-73.8464559419264, 40.7296630594894], [-73.8465828778959, 40.7296255282421], [-73.846452213032, 40.7293708610039]]]}}, {"type": "Feature", "properties": {"zone_id": "02075GPAOFK1XZ9YYX872C", "tract_id": "36081074100", "city": "FLUSHING, NY", "zone_code": "R1-2A", "zone_category": "Residential", "ev_permitted": false}, "geometry": {"type": "Polygon", "coordinates": [[[-73.8465736175013, 40.7293349659081], [-73.846452213032, 40.7293708610039], [-73.8465828778959, 40.7296255282421], [-73.8467042809116, 40.7295896330073], [-73.8465736175013, 40.7293349659081]]]}}, {"type": "Feature", "properties": {"zone_id": "0206YRH2YKDJBHZ273Z299", "tract_id": "36081074100", "city": "FLUSHING, NY", "zone_code": "R1-2A", "zone_category": "Residential", "ev_permitted": false}, "geometry": {"type": "Polygon", "coordinates": [[[-73.8463252793229, 40.7294083914082], [-73.8461831759935, 40.7294504061536], [-73.8463138381363, 40.7297050743945], [-73.8464559419264, 40.7296630594894], [-73.8463252793229, 40.7294083914082]]]}}, {"type": "Feature", "properties": {"zone_id": "0204JO3D7Q7YXTTUVTTPBS", "tract_id": "36081074100", "city": "FLUSHING, NY", "zone_code": "R1-2A", "zone_category": "Residential", "ev_permitted": false}, "geometry": {"type": "Polygon", "coordinates": [[[-73.8463724246649, 40.7289236663], [-73.8462376171845, 40.728963782427], [-73.8463684652327, 40.7292188197679], [-73.8465032988994, 40.7291787527095], [-73.8463724246649, 40.7289236663]]]}}, {"type": "Feature", "properties": {"zone_id": "02017JQ1X41MZQ8Y09K9WB", "tract_id": "36081074100", "city": "FLUSHING, NY", "zone_code": "R1-2A", "zone_category": "Residential", "ev_permitted": false}, "geometry": {"type": "Polygon", "coordinates": [[[-73.846107479055, 40.7290025091569], [-73.8459729984511, 40.7290425291467], [-73.8461037950689, 40.7292974676431], [-73.8462383018543, 40.7292574981277], [-73.846107479055, 40.7290025091569]]]}}, {"type": "Feature", "properties": {"zone_id": "0201R9YX1VBPM8YSCQ35HG", "tract_id": "36081074100", "city": "FLUSHING, NY", "zone_code": "R1-2A", "zone_category": "Residential", "ev_permitted": false}, "geometry": {"type": "Polygon", "coordinates": [[[-73.8462376171845, 40.728963782427], [-73.846107479055, 40.7290025091569], [-73.8462383018543, 40.7292574981277], [-73.8463684652327, 40.7292188197679], [-73.8462376171845, 40.728963782427]]]}}, {"type": "Feature", "properties": {"zone_id": "0204M9C474IQ1KVXQ6NA8I", "tract_id": "36081074100", "city": "FLUSHING, NY", "zone_code": "R1-2A", "zone_category": "Residential", "ev_permitted": false}, "geometry": {"type": "Polygon", "coordinates": [[[-73.8471175276021, 40.7284084723508], [-73.846781522561, 40.7285084644636], [-73.8470431199652, 40.7290183387955], [-73.847379191557, 40.7289184696795], [-73.8471175276021, 40.7284084723508]]]}}, {"type": "Feature", "properties": {"zone_id": "02012VHRTLZDMWKF6MHNEY", "tract_id": "36081074100", "city": "FLUSHING, NY", "zone_code": "R1-2A", "zone_category": "Residential", "ev_permitted": false}, "geometry": {"type": "Polygon", "coordinates": [[[-73.8467749014413, 40.7288038940762], [-73.846642689838, 40.7288432390993], [-73.8467736164442, 40.7290984250506], [-73.8469058523752, 40.7290591305016], [-73.8467749014413, 40.7288038940762]]]}}, {"type": "Feature", "properties": {"zone_id": "0205DI2KD89WLI103CGHEY", "tract_id": "36081074100", "city": "FLUSHING, NY", "zone_code": "R1-2A", "zone_category": "Residential", "ev_permitted": false}, "geometry": {"type": "Polygon", "coordinates": [[[-73.8469121419144, 40.7287630526006], [-73.8467749014413, 40.7288038940762], [-73.8469058523752, 40.7290591305016], [-73.8470431199652, 40.7290183387955], [-73.8469121419144, 40.7287630526006]]]}}, {"type": "Feature", "properties": {"zone_id": "0202HM3PVAMF7OBH47XOD7", "tract_id": "36081074100", "city": "FLUSHING, NY", "zone_code": "R1-2A", "zone_category": "Residential", "ev_permitted": false}, "geometry": {"type": "Polygon", "coordinates": [[[-73.846781522561, 40.7285084644636], [-73.8465715461638, 40.7285709512548], [-73.8467021639138, 40.7288255396265], [-73.8469121419144, 40.7287630526006], [-73.846781522561, 40.7285084644636]]]}}, {"type": "Feature", "properties": {"zone_id": "02051UQX7UDNA4HTHVQ84U", "tract_id": "36081074100", "city": "FLUSHING, NY", "zone_code": "R1-2A", "zone_category": "Residential", "ev_permitted": false}, "geometry": {"type": "Polygon", "coordinates": [[[-73.846506828071, 40.7288836696311], [-73.8463724246649, 40.7289236663], [-73.8465032988994, 40.7291787527095], [-73.8466377275652, 40.7291388058111], [-73.846506828071, 40.7288836696311]]]}}, {"type": "Feature", "properties": {"zone_id": "0200HAVX84KI6B5SHO4C94", "tract_id": "36081074100", "city": "FLUSHING, NY", "zone_code": "R1-2A", "zone_category": "Residential", "ev_permitted": false}, "geometry": {"type": "Polygon", "coordinates": [[[-73.846642689838, 40.7288432390993], [-73.846506828071, 40.7288836696311], [-73.8466377275652, 40.7291388058111], [-73.8467736164442, 40.7290984250506], [-73.846642689838, 40.7288432390993]]]}}, {"type": "Feature", "properties": {"zone_id": "0206OI29F5027CBGKO1BL6", "tract_id": "36081074100", "city": "FLUSHING, NY", "zone_code": "R1-2A", "zone_category": "Residential", "ev_permitted": false}, "geometry": {"type": "Polygon", "coordinates": [[[-73.8461952351023, 40.7286829364306], [-73.8460510843896, 40.7287258329276], [-73.8461817013785, 40.7289804218855], [-73.8463258525579, 40.7289375252265], [-73.8461952351023, 40.7286829364306]]]}}, {"type": "Feature", "properties": {"zone_id": "0201HVWYJ0SN1QVSF2XTKI", "tract_id": "36081074100", "city": "FLUSHING, NY", "zone_code": "R1-2A", "zone_category": "Residential", "ev_permitted": false}, "geometry": {"type": "Polygon", "coordinates": [[[-73.8460510843896, 40.7287258329276], [-73.8458423821394, 40.7287879392516], [-73.8459729984511, 40.7290425291467], [-73.8461817013785, 40.7289804218855], [-73.8460510843896, 40.7287258329276]]]}}, {"type": "Feature", "properties": {"zone_id": "0202IYAULON1A4AAGV2OTP", "tract_id": "36081074100", "city": "FLUSHING, NY", "zone_code": "R1-2A", "zone_category": "Residential", "ev_permitted": false}, "geometry": {"type": "Polygon", "coordinates": [[[-73.8465715461638, 40.7285709512548], [-73.8464270631928, 40.7286139475573], [-73.8465576813989, 40.7288685360926], [-73.8467021639138, 40.7288255396265], [-73.8465715461638, 40.7285709512548]]]}}, {"type": "Feature", "properties": {"zone_id": "0200GJHJWJGANPG7PDZGCG", "tract_id": "36081074100", "city": "FLUSHING, NY", "zone_code": "R1-2A", "zone_category": "Residential", "ev_permitted": false}, "geometry": {"type": "Polygon", "coordinates": [[[-73.8464270631928, 40.7286139475573], [-73.8461952351023, 40.7286829364306], [-73.8463258525579, 40.7289375252265], [-73.8465576813989, 40.7288685360926], [-73.8464270631928, 40.7286139475573]]]}}, {"type": "Feature", "properties": {"zone_id": "02044IO9KCQS5YCHE57EGY", "tract_id": "36081074100", "city": "FLUSHING, NY", "zone_code": "R1-2A", "zone_category": "Residential", "ev_permitted": false}, "geometry": {"type": "Polygon", "coordinates": [[[-73.8459729984511, 40.7290425291467], [-73.8458386720479, 40.7290825007026], [-73.84596944248, 40.7293373908322], [-73.8461037950689, 40.7292974676431], [-73.8459729984511, 40.7290425291467]]]}}, {"type": "Feature", "properties": {"zone_id": "0201VHM9S2M3KYOT7QN8UA", "tract_id": "36081074100", "city": "FLUSHING, NY", "zone_code": "R1-2A", "zone_category": "Residential", "ev_permitted": false}, "geometry": {"type": "Polygon", "coordinates": [[[-73.8458386720479, 40.7290825007026], [-73.8456026204673, 40.7291527439988], [-73.8456392954817, 40.7291984758121], [-73.8456659548865, 40.7292348228327], [-73.8456853229293, 40.7292632052784], [-73.8457130404436, 40.7293073286225], [-73.8457328172233, 40.7293419055424], [-73.8457619474249, 40.7293990482186], [-73.84596944248, 40.7293373908322], [-73.8458386720479, 40.7290825007026]]]}}, {"type": "Feature", "properties": {"zone_id": "0204JABPVIPS6WS053QSQD", "tract_id": "36081074100", "city": "FLUSHING, NY", "zone_code": "R1-2A", "zone_category": "Residential", "ev_permitted": false}, "geometry": {"type": "Polygon", "coordinates": [[[-73.8458423821394, 40.7287879392516], [-73.8456743778323, 40.7288379332163], [-73.8458049945254, 40.7290925225989], [-73.8459729984511, 40.7290425291467], [-73.8458423821394, 40.7287879392516]]]}}, {"type": "Feature", "properties": {"zone_id": "0204X43YUYG4MUI7BQY0UR", "tract_id": "36081074100", "city": "FLUSHING, NY", "zone_code": "R1-2A", "zone_category": "Residential", "ev_permitted": false}, "geometry": {"type": "Polygon", "coordinates": [[[-73.8456743778323, 40.7288379332163], [-73.8453629065736, 40.7289306190152], [-73.8454139125965, 40.728969637975], [-73.845442372519, 40.7289930135782], [-73.8454986344471, 40.7290430958872], [-73.8455489347725, 40.7290929565639], [-73.8455780797669, 40.7291244684326], [-73.8456026204673, 40.7291527439988], [-73.8458049945254, 40.7290925225989], [-73.8456743778323, 40.7288379332163]]]}}, {"type": "Feature", "properties": {"zone_id": "0205RE4ME4NR703XDQ5V4A", "tract_id": "36081074100", "city": "FLUSHING, NY", "zone_code": "R1-2A", "zone_category": "Residential", "ev_permitted": false}, "geometry": {"type": "Polygon", "coordinates": [[[-73.8454749035691, 40.7284230451256], [-73.8453117643141, 40.728471638369], [-73.8454452121141, 40.7287264659639], [-73.8456084401752, 40.7286780412896], [-73.8454749035691, 40.7284230451256]]]}}, {"type": "Feature", "properties": {"zone_id": "02003EJHDFPSU4VL08XST7", "tract_id": "36081074100", "city": "FLUSHING, NY", "zone_code": "R1-2A", "zone_category": "Residential", "ev_permitted": false}, "geometry": {"type": "Polygon", "coordinates": [[[-73.8453117643141, 40.728471638369], [-73.8448928694074, 40.7285964101901], [-73.844957894585, 40.7287237323734], [-73.8453784444049, 40.7285989695659], [-73.8453117643141, 40.728471638369]]]}}, {"type": "Feature", "properties": {"zone_id": "0203RH1EKNAX6USLI0BUIM", "tract_id": "36081074100", "city": "FLUSHING, NY", "zone_code": "R1-2A", "zone_category": "Residential", "ev_permitted": false}, "geometry": {"type": "Polygon", "coordinates": [[[-73.8453784444049, 40.7285989695659], [-73.844957894585, 40.7287237323734], [-73.845023226191, 40.7288516550002], [-73.8454452121141, 40.7287264659639], [-73.8453784444049, 40.7285989695659]]]}}, {"type": "Feature", "properties": {"zone_id": "0206536WWBWAHTVTDHRXNM", "tract_id": "36081074100", "city": "FLUSHING, NY", "zone_code": "R7-1", "zone_category": "Residential", "ev_permitted": false}, "geometry": {"type": "Polygon", "coordinates": [[[-73.8490106075148, 40.7278408281575], [-73.8473835100558, 40.7283250268312], [-73.847650255627, 40.7288363147424], [-73.8491021322321, 40.728406802623], [-73.8490106075148, 40.7278408281575]]]}}, {"type": "Feature", "properties": {"zone_id": "0204UIUY33GQ1SSN2YCC62", "tract_id": "36081074100", "city": "FLUSHING, NY", "zone_code": "R7-1", "zone_category": "Residential", "ev_permitted": false}, "geometry": {"type": "Polygon", "coordinates": [[[-73.8482093817418, 40.7273086308273], [-73.8470356723647, 40.7276595508675], [-73.8472989118678, 40.7281749258672], [-73.8484742243486, 40.7278271257748], [-73.8482093817418, 40.7273086308273]]]}}, {"type": "Feature", "properties": {"zone_id": "02021C648ON7VGDUO0G447", "tract_id": "36081074100", "city": "FLUSHING, NY", "zone_code": "R7-1", "zone_category": "Residential", "ev_permitted": false}, "geometry": {"type": "Polygon", "coordinates": [[[-73.8479059389076, 40.7266325467493], [-73.8466888368609, 40.7269954649767], [-73.8469557250516, 40.7275112012181], [-73.8481759184196, 40.727154237888], [-73.8479059389076, 40.7266325467493]]]}}, {"type": "Feature", "properties": {"zone_id": "0205VVWJPWJZA1UEQH60H2", "tract_id": "36081074100", "city": "FOREST HILLS, NY", "zone_code": "R7-1", "zone_category": "Residential", "ev_permitted": false}, "geometry": {"type": "Polygon", "coordinates": [[[-73.8487845681468, 40.7271366530484], [-73.8482093817418, 40.7273086308273], [-73.8484742243486, 40.7278271257748], [-73.848972360862, 40.7276797117746], [-73.8489405983475, 40.7275703251807], [-73.8489049885475, 40.7274570660946], [-73.8488830032365, 40.7273935541399], [-73.8488487453936, 40.7272996241375], [-73.8487845681468, 40.7271366530484]]]}}, {"type": "Feature", "properties": {"zone_id": "0205VPDAW3A1F51A0N7GKV", "tract_id": "36081074100", "city": "FLUSHING, NY", "zone_code": "R7-1", "zone_category": "Residential", "ev_permitted": false}, "geometry": {"type": "Polygon", "coordinates": [[[-73.8484478712912, 40.7264709471424], [-73.8479059389076, 40.7266325467493], [-73.8481759184196, 40.727154237888], [-73.8487201719179, 40.7269950136479], [-73.8486570115904, 40.7268579283586], [-73.848592606104, 40.7267291383889], [-73.8485286879183, 40.7266103738541], [-73.8484478712912, 40.7264709471424]]]}}, {"type": "Feature", "properties": {"zone_id": "020576IXYK59IUV5GGBB8F", "tract_id": "36081074100", "city": "FLUSHING, NY", "zone_code": "R1-2A", "zone_category": "Residential", "ev_permitted": false}, "geometry": {"type": "Polygon", "coordinates": [[[-73.8469343303875, 40.7280386094547], [-73.8466881133328, 40.7280735680026], [-73.8466226052886, 40.7280930814257], [-73.8466172127486, 40.7280827852121], [-73.8465746988224, 40.7280954488021], [-73.8467088339638, 40.728351580693], [-73.8470458681867, 40.7282515887529], [-73.8469343303875, 40.7280386094547]]]}}, {"type": "Feature", "properties": {"zone_id": "0206DVTHH8S3EQ3421IPOI", "tract_id": "36081074100", "city": "FLUSHING, NY", "zone_code": "R1-2A", "zone_category": "Residential", "ev_permitted": false}, "geometry": {"type": "Polygon", "coordinates": [[[-73.8463631049828, 40.7281584776205], [-73.8462186393129, 40.7282015102242], [-73.8463525801812, 40.7284572747781], [-73.8464971254093, 40.7284143910769], [-73.8463631049828, 40.7281584776205]]]}}, {"type": "Feature", "properties": {"zone_id": "02028PHDFIEG3JBLPDHD4S", "tract_id": "36081074100", "city": "FLUSHING, NY", "zone_code": "R1-2A", "zone_category": "Residential", "ev_permitted": false}, "geometry": {"type": "Polygon", "coordinates": [[[-73.8462186393129, 40.7282015102242], [-73.8459830107234, 40.7282716958456], [-73.8461168239251, 40.7285272180843], [-73.8463525801812, 40.7284572747781], [-73.8462186393129, 40.7282015102242]]]}}, {"type": "Feature", "properties": {"zone_id": "02000GKNKHIXG7RL8UN47D", "tract_id": "36081074100", "city": "FLUSHING, NY", "zone_code": "R1-2A", "zone_category": "Residential", "ev_permitted": false}, "geometry": {"type": "Polygon", "coordinates": [[[-73.8465746988224, 40.7280954488021], [-73.8463631049828, 40.7281584776205], [-73.8464971254093, 40.7284143910769], [-73.8467088339638, 40.728351580693], [-73.8465746988224, 40.7280954488021]]]}}, {"type": "Feature", "properties": {"zone_id": "02024C6S4FV2AZ9QEACG4R", "tract_id": "36081074100", "city": "FLUSHING, NY", "zone_code": "R1-2A", "zone_category": "Residential", "ev_permitted": false}, "geometry": {"type": "Polygon", "coordinates": [[[-73.8462743876829, 40.7278884026773], [-73.846105627949, 40.7279386717076], [-73.8462399476442, 40.7281951627557], [-73.8464087088515, 40.7281448928288], [-73.8462743876829, 40.7278884026773]]]}}, {"type": "Feature", "properties": {"zone_id": "02043NV1N6KG9A7BKDUOTH", "tract_id": "36081074100", "city": "FLUSHING, NY", "zone_code": "R1-2A", "zone_category": "Residential", "ev_permitted": false}, "geometry": {"type": "Polygon", "coordinates": [[[-73.846105627949, 40.7279386717076], [-73.8459357551319, 40.7279892713589], [-73.8460700761225, 40.7282457626057], [-73.8462399476442, 40.7281951627557], [-73.846105627949, 40.7279386717076]]]}}, {"type": "Feature", "properties": {"zone_id": "0202ZZFUY4031AZQAJXQG5", "tract_id": "36081074100", "city": "FLUSHING, NY", "zone_code": "R1-2A", "zone_category": "Residential", "ev_permitted": false}, "geometry": {"type": "Polygon", "coordinates": [[[-73.846777227071, 40.7277386182174], [-73.8466030720606, 40.728055782175], [-73.8466226052886, 40.7280930814257], [-73.8466881133328, 40.7280735680026], [-73.8469343303875, 40.7280386094547], [-73.846777227071, 40.7277386182174]]]}}, {"type": "Feature", "properties": {"zone_id": "02013N4I6HJFAKD54QAQPN", "tract_id": "36081074100", "city": "FLUSHING, NY", "zone_code": "R1-2A", "zone_category": "Residential", "ev_permitted": false}, "geometry": {"type": "Polygon", "coordinates": [[[-73.846777227071, 40.7277386182174], [-73.8464403771161, 40.7278389581398], [-73.8465746988224, 40.7280954488021], [-73.8466172127486, 40.7280827852121], [-73.8466030720606, 40.728055782175], [-73.846777227071, 40.7277386182174]]]}}, {"type": "Feature", "properties": {"zone_id": "0207HK4BQ0V54R3PKHWIXW", "tract_id": "36081074100", "city": "FLUSHING, NY", "zone_code": "R1-2A", "zone_category": "Residential", "ev_permitted": false}, "geometry": {"type": "Polygon", "coordinates": [[[-73.8464403771161, 40.7278389581398], [-73.8462743876829, 40.7278884026773], [-73.8464087088515, 40.7281448928288], [-73.8465746988224, 40.7280954488021], [-73.8464403771161, 40.7278389581398]]]}}, {"type": "Feature", "properties": {"zone_id": "0200WE7LQ7GTN0OGTDLPM2", "tract_id": "36081074100", "city": "FLUSHING, NY", "zone_code": "R1-2A", "zone_category": "Residential", "ev_permitted": false}, "geometry": {"type": "Polygon", "coordinates": [[[-73.8462300420897, 40.7274300020136], [-73.8460582126862, 40.727481346863], [-73.8461899837638, 40.7277350892921], [-73.8463618146454, 40.7276837435464], [-73.8462300420897, 40.7274300020136]]]}}, {"type": "Feature", "properties": {"zone_id": "02009U35747M5RPNQX9CLW", "tract_id": "36081074100", "city": "FLUSHING, NY", "zone_code": "R1-2A", "zone_category": "Residential", "ev_permitted": false}, "geometry": {"type": "Polygon", "coordinates": [[[-73.8460582126862, 40.727481346863], [-73.8458903019366, 40.7275315204502], [-73.8460220733978, 40.7277852630709], [-73.8461899837638, 40.7277350892921], [-73.8460582126862, 40.727481346863]]]}}, {"type": "Feature", "properties": {"zone_id": "0205N8QZRCYZ7OCY34BTH4", "tract_id": "36081074100", "city": "FLUSHING, NY", "zone_code": "R1-2A", "zone_category": "Residential", "ev_permitted": false}, "geometry": {"type": "Polygon", "coordinates": [[[-73.8459830107234, 40.7282716958456], [-73.8458385436373, 40.7283147286733], [-73.8459722782075, 40.7285701013075], [-73.8461168239251, 40.7285272180843], [-73.8459830107234, 40.7282716958456]]]}}, {"type": "Feature", "properties": {"zone_id": "02059W61SRNY1PZRKT03TS", "tract_id": "36081074100", "city": "FLUSHING, NY", "zone_code": "R1-2A", "zone_category": "Residential", "ev_permitted": false}, "geometry": {"type": "Polygon", "coordinates": [[[-73.8458385436373, 40.7283147286733], [-73.8456302434777, 40.7283767747245], [-73.8457638642649, 40.7286319317308], [-73.8459722782075, 40.7285701013075], [-73.8458385436373, 40.7283147286733]]]}}, {"type": "Feature", "properties": {"zone_id": "0204NPACWKC4U7ECCGYHB2", "tract_id": "36081074100", "city": "FLUSHING, NY", "zone_code": "R1-2A", "zone_category": "Residential", "ev_permitted": false}, "geometry": {"type": "Polygon", "coordinates": [[[-73.8456302434777, 40.7283767747245], [-73.8454749035691, 40.7284230451256], [-73.8456084401752, 40.7286780412896], [-73.8457638642649, 40.7286319317308], [-73.8456302434777, 40.7283767747245]]]}}, {"type": "Feature", "properties": {"zone_id": "0203468MLFI6Z9Q3WOYS97", "tract_id": "36081074100", "city": "FLUSHING, NY", "zone_code": "R1-2A", "zone_category": "Residential", "ev_permitted": false}, "geometry": {"type": "Polygon", "coordinates": [[[-73.845431699301, 40.7281394144883], [-73.8452632913714, 40.7281895773575], [-73.845397609257, 40.7284460679752], [-73.8455660177322, 40.728395905614], [-73.845431699301, 40.7281394144883]]]}}, {"type": "Feature", "properties": {"zone_id": "0203DR5V43RKPD3U8FOOLO", "tract_id": "36081074100", "city": "FLUSHING, NY", "zone_code": "R1-2A", "zone_category": "Residential", "ev_permitted": false}, "geometry": {"type": "Polygon", "coordinates": [[[-73.8459357551319, 40.7279892713589], [-73.845768439533, 40.7280391103947], [-73.8459027590581, 40.7282956011312], [-73.8460700761225, 40.7282457626057], [-73.8459357551319, 40.7279892713589]]]}}, {"type": "Feature", "properties": {"zone_id": "0201C9HLIBPH7WUFAM4JDH", "tract_id": "36081074100", "city": "FLUSHING, NY", "zone_code": "R1-2A", "zone_category": "Residential", "ev_permitted": false}, "geometry": {"type": "Polygon", "coordinates": [[[-73.845768439533, 40.7280391103947], [-73.8456012882073, 40.7280888995191], [-73.8457356062657, 40.7283453904475], [-73.8459027590581, 40.7282956011312], [-73.845768439533, 40.7280391103947]]]}}, {"type": "Feature", "properties": {"zone_id": "0203Y1KSCKB2KPMK63I95T", "tract_id": "36081074100", "city": "FLUSHING, NY", "zone_code": "R1-2A", "zone_category": "Residential", "ev_permitted": false}, "geometry": {"type": "Polygon", "coordinates": [[[-73.8456012882073, 40.7280888995191], [-73.845431699301, 40.7281394144883], [-73.8455660177322, 40.728395905614], [-73.8457356062657, 40.7283453904475], [-73.8456012882073, 40.7280888995191]]]}}, {"type": "Feature", "properties": {"zone_id": "02045BENIEGRE8WE0DN4KL", "tract_id": "36081074100", "city": "FLUSHING, NY", "zone_code": "R1-2A", "zone_category": "Residential", "ev_permitted": false}, "geometry": {"type": "Polygon", "coordinates": [[[-73.8452632913714, 40.7281895773575], [-73.8450953065132, 40.7282396126656], [-73.8452296229263, 40.7284961048817], [-73.845397609257, 40.7284460679752], [-73.8452632913714, 40.7281895773575]]]}}, {"type": "Feature", "properties": {"zone_id": "0206I6WVAME6563609852Q", "tract_id": "36081074100", "city": "FLUSHING, NY", "zone_code": "R1-2A", "zone_category": "Residential", "ev_permitted": false}, "geometry": {"type": "Polygon", "coordinates": [[[-73.8451637165816, 40.7283702488146], [-73.8448282003073, 40.7284697847821], [-73.8448928694074, 40.7285964101901], [-73.8452296229263, 40.7284961048817], [-73.8451637165816, 40.7283702488146]]]}}, {"type": "Feature", "properties": {"zone_id": "0200D20WCXZ4TXTSA4YDI8", "tract_id": "36081074100", "city": "FLUSHING, NY", "zone_code": "R1-2A", "zone_category": "Residential", "ev_permitted": false}, "geometry": {"type": "Polygon", "coordinates": [[[-73.8455104670483, 40.7273543672686], [-73.8452564325165, 40.7274298015708], [-73.8453873048157, 40.7276818215001], [-73.8456411277514, 40.7276059762744], [-73.8455104670483, 40.7273543672686]]]}}, {"type": "Feature", "properties": {"zone_id": "020166BSPH7UQ4H3VJE078", "tract_id": "36081074100", "city": "FLUSHING, NY", "zone_code": "R1-2A", "zone_category": "Residential", "ev_permitted": false}, "geometry": {"type": "Polygon", "coordinates": [[[-73.8452201435725, 40.7277317688602], [-73.8450556245914, 40.7277809283396], [-73.8451873933675, 40.7280346719068], [-73.8453519128762, 40.7279855129436], [-73.8452201435725, 40.7277317688602]]]}}, {"type": "Feature", "properties": {"zone_id": "0204GLEQAQD48TQPWPU8BZ", "tract_id": "36081074100", "city": "FLUSHING, NY", "zone_code": "R1-2A", "zone_category": "Residential", "ev_permitted": false}, "geometry": {"type": "Polygon", "coordinates": [[[-73.8450556245914, 40.7277809283396], [-73.8448863157419, 40.7278315180685], [-73.8450180830497, 40.7280852618265], [-73.8451873933675, 40.7280346719068], [-73.8450556245914, 40.7277809283396]]]}}, {"type": "Feature", "properties": {"zone_id": "02001QQC08G4F99ZRIVDSU", "tract_id": "36081074100", "city": "FLUSHING, NY", "zone_code": "R1-2A", "zone_category": "Residential", "ev_permitted": false}, "geometry": {"type": "Polygon", "coordinates": [[[-73.8448863157419, 40.7278315180685], [-73.8445470188483, 40.727932898931], [-73.844613300902, 40.7280605385128], [-73.8449525974226, 40.7279591567529], [-73.8448863157419, 40.7278315180685]]]}}, {"type": "Feature", "properties": {"zone_id": "0204VSIU9L28R88PIFMKEZ", "tract_id": "36081074100", "city": "FLUSHING, NY", "zone_code": "R1-2A", "zone_category": "Residential", "ev_permitted": false}, "geometry": {"type": "Polygon", "coordinates": [[[-73.8448200352403, 40.7277038786424], [-73.8444807379705, 40.7278052600127], [-73.8445470188483, 40.727932898931], [-73.8448863157419, 40.7278315180685], [-73.8448200352403, 40.7277038786424]]]}}, {"type": "Feature", "properties": {"zone_id": "0202XG5YKHE879TYEE8MYM", "tract_id": "36081074100", "city": "FLUSHING, NY", "zone_code": "R4", "zone_category": "Residential", "ev_permitted": false}, "geometry": {"type": "Polygon", "coordinates": [[[-73.8462516219516, 40.7304897217049], [-73.8461831751371, 40.7305099926327], [-73.8463155128876, 40.7307655385825], [-73.8463838771628, 40.7307451072601], [-73.8462516219516, 40.7304897217049]]]}}, {"type": "Feature", "properties": {"zone_id": "0201C0WLZQSNY44YVJY9DT", "tract_id": "36081074100", "city": "FLUSHING, NY", "zone_code": "R4", "zone_category": "Residential", "ev_permitted": false}, "geometry": {"type": "Polygon", "coordinates": [[[-73.8461831751371, 40.7305099926327], [-73.8461152061494, 40.7305301215188], [-73.8462476264421, 40.7307858271599], [-73.8463155128876, 40.7307655385825], [-73.8461831751371, 40.7305099926327]]]}}, {"type": "Feature", "properties": {"zone_id": "02046CBOWBI22Z2TGWCUTP", "tract_id": "36081074100", "city": "FLUSHING, NY", "zone_code": "R4", "zone_category": "Residential", "ev_permitted": false}, "geometry": {"type": "Polygon", "coordinates": [[[-73.8461152061494, 40.7305301215188], [-73.8460491042236, 40.7305496977608], [-73.8461816043047, 40.730805558169], [-73.8462476264421, 40.7307858271599], [-73.8461152061494, 40.7305301215188]]]}}, {"type": "Feature", "properties": {"zone_id": "0204079W5V1MW72NBUY70F", "tract_id": "36081074100", "city": "FLUSHING, NY", "zone_code": "R4", "zone_category": "Residential", "ev_permitted": false}, "geometry": {"type": "Polygon", "coordinates": [[[-73.8460491042236, 40.7305496977608], [-73.845981227584, 40.7305697999903], [-73.8461138092866, 40.7308258186833], [-73.8461816043047, 40.730805558169], [-73.8460491042236, 40.7305496977608]]]}}, {"type": "Feature", "properties": {"zone_id": "020159KU2ACBRXM5Z4Q7I4", "tract_id": "36081074100", "city": "FLUSHING, NY", "zone_code": "R4", "zone_category": "Residential", "ev_permitted": false}, "geometry": {"type": "Polygon", "coordinates": [[[-73.845981227584, 40.7305697999903], [-73.8459131937733, 40.7305899476422], [-73.8460439483743, 40.730846696843], [-73.8461138092866, 40.7308258186833], [-73.845981227584, 40.7305697999903]]]}}, {"type": "Feature", "properties": {"zone_id": "0207M43V1J6Y5BBRI9EM74", "tract_id": "36081074100", "city": "FLUSHING, NY", "zone_code": "R1-2A", "zone_category": "Residential", "ev_permitted": false}, "geometry": {"type": "Polygon", "coordinates": [[[-73.8450953065132, 40.7282396126656], [-73.8447614378642, 40.7283390586079], [-73.8448282003073, 40.7284697847821], [-73.8451637165816, 40.7283702488146], [-73.8450953065132, 40.7282396126656]]]}}, {"type": "Feature", "properties": {"zone_id": "0205KNF8Y5YU3EOZPA5FSI", "tract_id": "36081074100", "city": "FLUSHING, NY", "zone_code": "R1-2A", "zone_category": "Residential", "ev_permitted": false}, "geometry": {"type": "Polygon", "coordinates": [[[-73.8449525974226, 40.7279591567529], [-73.844613300902, 40.7280605385128], [-73.8446787859866, 40.7281866437776], [-73.8450180830497, 40.7280852618265], [-73.8449525974226, 40.7279591567529]]]}}, {"type": "Feature", "properties": {"zone_id": "02013YGR9G4UWFFPPJ1NWR", "tract_id": "36081074100", "city": "FLUSHING, NY", "zone_code": "R1-2A", "zone_category": "Residential", "ev_permitted": false}, "geometry": {"type": "Polygon", "coordinates": [[[-73.8455569521156, 40.7276311289003], [-73.8453873048157, 40.7276818215001], [-73.8455190746603, 40.7279355639885], [-73.8456887225043, 40.727884871899], [-73.8455569521156, 40.7276311289003]]]}}, {"type": "Feature", "properties": {"zone_id": "0207D5OPL890BEQJQNDTE1", "tract_id": "36081074100", "city": "FLUSHING, NY", "zone_code": "R1-2A", "zone_category": "Residential", "ev_permitted": false}, "geometry": {"type": "Polygon", "coordinates": [[[-73.8453873048157, 40.7276818215001], [-73.8452201435725, 40.7277317688602], [-73.8453519128762, 40.7279855129436], [-73.8455190746603, 40.7279355639885], [-73.8453873048157, 40.7276818215001]]]}}, {"type": "Feature", "properties": {"zone_id": "0202O2M94W1TG7V8SMMY6Y", "tract_id": "36081074100", "city": "FLUSHING, NY", "zone_code": "R1-2A", "zone_category": "Residential", "ev_permitted": false}, "geometry": {"type": "Polygon", "coordinates": [[[-73.8458903019366, 40.7275315204502], [-73.8457240037936, 40.7275812118213], [-73.8458557747181, 40.7278349553332], [-73.8460220733978, 40.7277852630709], [-73.8458903019366, 40.7275315204502]]]}}, {"type": "Feature", "properties": {"zone_id": "02018JAXJ8C12396JFWEJZ", "tract_id": "36081074100", "city": "FLUSHING, NY", "zone_code": "R1-2A", "zone_category": "Residential", "ev_permitted": false}, "geometry": {"type": "Polygon", "coordinates": [[[-73.8457240037936, 40.7275812118213], [-73.8455569521156, 40.7276311289003], [-73.8456887225043, 40.727884871899], [-73.8458557747181, 40.7278349553332], [-73.8457240037936, 40.7275812118213]]]}}, {"type": "Feature", "properties": {"zone_id": "020367WS4ZJMCDL0E0T47C", "tract_id": "36081074100", "city": "FLUSHING, NY", "zone_code": "R1-2A", "zone_category": "Residential", "ev_permitted": false}, "geometry": {"type": "Polygon", "coordinates": [[[-73.845089130189, 40.7274794815419], [-73.8449244756546, 40.7275283750474], [-73.8450556245914, 40.7277809283396], [-73.8452201435725, 40.7277317688602], [-73.845089130189, 40.7274794815419]]]}}, {"type": "Feature", "properties": {"zone_id": "0203202NCFUCGXHE6JVY3D", "tract_id": "36081074100", "city": "FLUSHING, NY", "zone_code": "R1-2A", "zone_category": "Residential", "ev_permitted": false}, "geometry": {"type": "Polygon", "coordinates": [[[-73.8452564325165, 40.7274298015708], [-73.845089130189, 40.7274794815419], [-73.8452201435725, 40.7277317688602], [-73.8453873048157, 40.7276818215001], [-73.8452564325165, 40.7274298015708]]]}}, {"type": "Feature", "properties": {"zone_id": "0202UPKXQEG2J6P4XIGB0B", "tract_id": "36081074100", "city": "FLUSHING, NY", "zone_code": "R1-2A", "zone_category": "Residential", "ev_permitted": false}, "geometry": {"type": "Polygon", "coordinates": [[[-73.8449244756546, 40.7275283750474], [-73.8447550257429, 40.7275786917628], [-73.8448863157419, 40.7278315180685], [-73.8450556245914, 40.7277809283396], [-73.8449244756546, 40.7275283750474]]]}}, {"type": "Feature", "properties": {"zone_id": "0201PS1TTR4GT4HRTO28KD", "tract_id": "36081074100", "city": "FLUSHING, NY", "zone_code": "R1-2A", "zone_category": "Residential", "ev_permitted": false}, "geometry": {"type": "Polygon", "coordinates": [[[-73.8447550257429, 40.7275786917628], [-73.8444154458087, 40.7276795258922], [-73.8444807379705, 40.7278052600127], [-73.8448200352403, 40.7277038786424], [-73.8447550257429, 40.7275786917628]]]}}, {"type": "Feature", "properties": {"zone_id": "0201L1S1FPJQPERG10260I", "tract_id": "36081074100", "city": "FLUSHING, NY", "zone_code": "R1-2A", "zone_category": "Residential", "ev_permitted": false}, "geometry": {"type": "Polygon", "coordinates": [[[-73.8464418456792, 40.7270777895984], [-73.8460998723847, 40.7271793415128], [-73.8463618146454, 40.7276837435464], [-73.8467028479118, 40.7275818368719], [-73.8464418456792, 40.7270777895984]]]}}, {"type": "Feature", "properties": {"zone_id": "02031CJF5IBFI0FUMY9ULM", "tract_id": "36081074100", "city": "FLUSHING, NY", "zone_code": "R1-2A", "zone_category": "Residential", "ev_permitted": false}, "geometry": {"type": "Polygon", "coordinates": [[[-73.8460998723847, 40.7271793415128], [-73.8459278982309, 40.7272304105332], [-73.8460582126862, 40.727481346863], [-73.8462300420897, 40.7274300020136], [-73.8460998723847, 40.7271793415128]]]}}, {"type": "Feature", "properties": {"zone_id": "0204XJGWO3NEYAMLVE8MP7", "tract_id": "36081074100", "city": "FLUSHING, NY", "zone_code": "R7-1", "zone_category": "Residential", "ev_permitted": false}, "geometry": {"type": "Polygon", "coordinates": [[[-73.8467631490385, 40.7262062195066], [-73.8463461790104, 40.7263303141], [-73.8466146956424, 40.7268469127105], [-73.8470246098836, 40.7267249115364], [-73.8468927460664, 40.7264712226051], [-73.8468998018049, 40.7264691226053], [-73.8467631490385, 40.7262062195066]]]}}, {"type": "Feature", "properties": {"zone_id": "0203XDLYU96E39HHKPMCZD", "tract_id": "36081074100", "city": "FLUSHING, NY", "zone_code": "R7-1", "zone_category": "Residential", "ev_permitted": false}, "geometry": {"type": "Polygon", "coordinates": [[[-73.8468337080098, 40.7261852202727], [-73.8467631490385, 40.7262062195066], [-73.8468998018049, 40.7264691226053], [-73.8468927460664, 40.7264712226051], [-73.8470246098836, 40.7267249115364], [-73.8471022241581, 40.726701810725], [-73.8468337080098, 40.7261852202727]]]}}, {"type": "Feature", "properties": {"zone_id": "0207LVNLD7EWDQVDH9M5UU", "tract_id": "36081074100", "city": "FLUSHING, NY", "zone_code": "R1-2A", "zone_category": "Residential", "ev_permitted": false}, "geometry": {"type": "Polygon", "coordinates": [[[-73.8461996281209, 40.7266042389899], [-73.8458564353092, 40.7267064265704], [-73.8460215660087, 40.727024698275], [-73.8463630762031, 40.7269230117662], [-73.8461996281209, 40.7266042389899]]]}}, {"type": "Feature", "properties": {"zone_id": "0203XH5RBCDV44SXENDF4P", "tract_id": "36081074100", "city": "FLUSHING, NY", "zone_code": "R1-2A", "zone_category": "Residential", "ev_permitted": false}, "geometry": {"type": "Polygon", "coordinates": [[[-73.8456785164789, 40.7273044649439], [-73.8455104670483, 40.7273543672686], [-73.8456411277514, 40.7276059762744], [-73.8458090370289, 40.7275558030486], [-73.8456785164789, 40.7273044649439]]]}}, {"type": "Feature", "properties": {"zone_id": "02009QXFC9JPEDUVVS9LHP", "tract_id": "36081074100", "city": "FLUSHING, NY", "zone_code": "R1-2A", "zone_category": "Residential", "ev_permitted": false}, "geometry": {"type": "Polygon", "coordinates": [[[-73.8459278982309, 40.7272304105332], [-73.8456785164789, 40.7273044649439], [-73.8458090370289, 40.7275558030486], [-73.8460582126862, 40.727481346863], [-73.8459278982309, 40.7272304105332]]]}}, {"type": "Feature", "properties": {"zone_id": "0202IP773QGC1WMP0Q24OH", "tract_id": "36081074100", "city": "FLUSHING, NY", "zone_code": "R1-2A", "zone_category": "Residential", "ev_permitted": false}, "geometry": {"type": "Polygon", "coordinates": [[[-73.8457190955925, 40.7268200101143], [-73.8455511090279, 40.7268700285229], [-73.8456835697563, 40.7271253373029], [-73.8458515596375, 40.7270753180038], [-73.8457190955925, 40.7268200101143]]]}}, {"type": "Feature", "properties": {"zone_id": "0205MM3JQSNL9BXKS764P7", "tract_id": "36081074100", "city": "FLUSHING, NY", "zone_code": "R1-2A", "zone_category": "Residential", "ev_permitted": false}, "geometry": {"type": "Polygon", "coordinates": [[[-73.8453831203638, 40.7269200466836], [-73.8452151323697, 40.7269700653028], [-73.845347592935, 40.7272253737645], [-73.8455155823954, 40.7271753556576], [-73.8453831203638, 40.7269200466836]]]}}, {"type": "Feature", "properties": {"zone_id": "0207NUAO8YA5GPXGYF6TCD", "tract_id": "36081074100", "city": "FLUSHING, NY", "zone_code": "R1-2A", "zone_category": "Residential", "ev_permitted": false}, "geometry": {"type": "Polygon", "coordinates": [[[-73.8455511090279, 40.7268700285229], [-73.8453831203638, 40.7269200466836], [-73.8455155823954, 40.7271753556576], [-73.8456835697563, 40.7271253373029], [-73.8455511090279, 40.7268700285229]]]}}, {"type": "Feature", "properties": {"zone_id": "02059H1WY24QLA9RO7F5MW", "tract_id": "36081074100", "city": "FLUSHING, NY", "zone_code": "R1-2A", "zone_category": "Residential", "ev_permitted": false}, "geometry": {"type": "Polygon", "coordinates": [[[-73.8447963392682, 40.7270947575223], [-73.8445443554026, 40.7271697826672], [-73.8446768137918, 40.7274250932989], [-73.844928799399, 40.7273500671652], [-73.8447963392682, 40.7270947575223]]]}}, {"type": "Feature", "properties": {"zone_id": "0207CH6QTNBUXI6359VK2Q", "tract_id": "36081074100", "city": "FLUSHING, NY", "zone_code": "R1-2A", "zone_category": "Residential", "ev_permitted": false}, "geometry": {"type": "Polygon", "coordinates": [[[-73.8452151323697, 40.7269700653028], [-73.8449643288131, 40.7270447402188], [-73.8450967885643, 40.727300049669], [-73.845347592935, 40.7272253737645], [-73.8452151323697, 40.7269700653028]]]}}, {"type": "Feature", "properties": {"zone_id": "020584FZGZL4Y5HYJZ9NY4", "tract_id": "36081074100", "city": "FLUSHING, NY", "zone_code": "R1-2A", "zone_category": "Residential", "ev_permitted": false}, "geometry": {"type": "Polygon", "coordinates": [[[-73.8449643288131, 40.7270447402188], [-73.8447963392682, 40.7270947575223], [-73.844928799399, 40.7273500671652], [-73.8450967885643, 40.727300049669], [-73.8449643288131, 40.7270447402188]]]}}, {"type": "Feature", "properties": {"zone_id": "0205MPL3LXTR4FNRJYIFO4", "tract_id": "36081074100", "city": "FLUSHING, NY", "zone_code": "R1-2A", "zone_category": "Residential", "ev_permitted": false}, "geometry": {"type": "Polygon", "coordinates": [[[-73.8458891032618, 40.7267693898791], [-73.8457190955925, 40.7268200101143], [-73.8458515596375, 40.7270753180038], [-73.8460215660087, 40.727024698275], [-73.8458891032618, 40.7267693898791]]]}}, {"type": "Feature", "properties": {"zone_id": "0200XD6ZYR09U04HGH3YLC", "tract_id": "36081074100", "city": "FLUSHING, NY", "zone_code": "R1-2A", "zone_category": "Residential", "ev_permitted": false}, "geometry": {"type": "Polygon", "coordinates": [[[-73.8454155137763, 40.7266086788303], [-73.8452474511907, 40.7266585526498], [-73.8453831203638, 40.7269200466836], [-73.8455511090279, 40.7268700285229], [-73.8454155137763, 40.7266086788303]]]}}, {"type": "Feature", "properties": {"zone_id": "0201H0NXD965WQJOH9A0OO", "tract_id": "36081074100", "city": "FLUSHING, NY", "zone_code": "R1-2A", "zone_category": "Residential", "ev_permitted": false}, "geometry": {"type": "Polygon", "coordinates": [[[-73.8455835761088, 40.7265588054677], [-73.8454155137763, 40.7266086788303], [-73.8455511090279, 40.7268700285229], [-73.8457190955925, 40.7268200101143], [-73.8455835761088, 40.7265588054677]]]}}, {"type": "Feature", "properties": {"zone_id": "02001FX76LVDM9UXZ73A3F", "tract_id": "36081074100", "city": "FLUSHING, NY", "zone_code": "R1-2A", "zone_category": "Residential", "ev_permitted": false}, "geometry": {"type": "Polygon", "coordinates": [[[-73.8460980503769, 40.7264061298505], [-73.8457536576878, 40.7265083323863], [-73.8458564353092, 40.7267064265704], [-73.8461996281209, 40.7266042389899], [-73.8460980503769, 40.7264061298505]]]}}, {"type": "Feature", "properties": {"zone_id": "0204SMT6902X5W3HIB9QP0", "tract_id": "36081074100", "city": "FLUSHING, NY", "zone_code": "R1-2A", "zone_category": "Residential", "ev_permitted": false}, "geometry": {"type": "Polygon", "coordinates": [[[-73.8457536576878, 40.7265083323863], [-73.8455835761088, 40.7265588054677], [-73.8457190955925, 40.7268200101143], [-73.8458891032618, 40.7267693898791], [-73.8457536576878, 40.7265083323863]]]}}, {"type": "Feature", "properties": {"zone_id": "0201S36OJ6GIUHE89FMANQ", "tract_id": "36081074100", "city": "FLUSHING, NY", "zone_code": "R1-2A", "zone_category": "Residential", "ev_permitted": false}, "geometry": {"type": "Polygon", "coordinates": [[[-73.8452474511907, 40.7266585526498], [-73.8450793883551, 40.726708425521], [-73.8452151323697, 40.7269700653028], [-73.8453831203638, 40.7269200466836], [-73.8452474511907, 40.7266585526498]]]}}, {"type": "Feature", "properties": {"zone_id": "0203YNNXQN2ZP969HIM0EI", "tract_id": "36081074100", "city": "FLUSHING, NY", "zone_code": "R1-2A", "zone_category": "Residential", "ev_permitted": false}, "geometry": {"type": "Polygon", "coordinates": [[[-73.8450793883551, 40.726708425521], [-73.8448284734516, 40.7267828842766], [-73.8449643288131, 40.7270447402188], [-73.8452151323697, 40.7269700653028], [-73.8450793883551, 40.726708425521]]]}}, {"type": "Feature", "properties": {"zone_id": "02054EJ2JYVO42X0KR99TW", "tract_id": "36081074100", "city": "FLUSHING, NY", "zone_code": "R1-2A", "zone_category": "Residential", "ev_permitted": false}, "geometry": {"type": "Polygon", "coordinates": [[[-73.8448284734516, 40.7267828842766], [-73.8446604099872, 40.7268327572381], [-73.8447963392682, 40.7270947575223], [-73.8449643288131, 40.7270447402188], [-73.8448284734516, 40.7267828842766]]]}}, {"type": "Feature", "properties": {"zone_id": "0205IYEHKNT13S4E55HOF1", "tract_id": "36081074100", "city": "FLUSHING, NY", "zone_code": "R1-2A", "zone_category": "Residential", "ev_permitted": false}, "geometry": {"type": "Polygon", "coordinates": [[[-73.8445443554026, 40.7271697826672], [-73.8442109877214, 40.7272690386829], [-73.8442763551507, 40.7273950323105], [-73.8446097224395, 40.7272957768086], [-73.8445443554026, 40.7271697826672]]]}}, {"type": "Feature", "properties": {"zone_id": "02024KD34E80ZJ2JN4UVZG", "tract_id": "36081074100", "city": "FLUSHING, NY", "zone_code": "R1-2A", "zone_category": "Residential", "ev_permitted": false}, "geometry": {"type": "Polygon", "coordinates": [[[-73.8446097224395, 40.7272957768086], [-73.8442763551507, 40.7273950323105], [-73.844343445956, 40.7275243489932], [-73.8446768137918, 40.7274250932989], [-73.8446097224395, 40.7272957768086]]]}}, {"type": "Feature", "properties": {"zone_id": "0202ULJ13VTE2QJZRL9GRN", "tract_id": "36081074100", "city": "FLUSHING, NY", "zone_code": "R1-2A", "zone_category": "Residential", "ev_permitted": false}, "geometry": {"type": "Polygon", "coordinates": [[[-73.8444083138573, 40.7269075662192], [-73.8440747992542, 40.7270065342567], [-73.8442109877214, 40.7272690386829], [-73.8445443554026, 40.7271697826672], [-73.8444083138573, 40.7269075662192]]]}}, {"type": "Feature", "properties": {"zone_id": "02027G12VI4TN9IWBJQQBN", "tract_id": "36081074100", "city": "FLUSHING, NY", "zone_code": "R1-2A", "zone_category": "Residential", "ev_permitted": false}, "geometry": {"type": "Polygon", "coordinates": [[[-73.8446604099872, 40.7268327572381], [-73.8444083138573, 40.7269075662192], [-73.8445443554026, 40.7271697826672], [-73.8447963392682, 40.7270947575223], [-73.8446604099872, 40.7268327572381]]]}}, {"type": "Feature", "properties": {"zone_id": "02031K6PUY8JYSZS95FE32", "tract_id": "36081074100", "city": "FLUSHING, NY", "zone_code": "R7-1", "zone_category": "Residential", "ev_permitted": false}, "geometry": {"type": "Polygon", "coordinates": [[[-73.8479957683686, 40.7258393678018], [-73.8468337080098, 40.7261852202727], [-73.8471022241581, 40.726701810725], [-73.8483549762483, 40.7263289439754], [-73.8482583354481, 40.7261832756442], [-73.8482108649601, 40.7261169172168], [-73.8480796204603, 40.7259433988986], [-73.8479957683686, 40.7258393678018]]]}}]}