{"type": "FeatureCollection", "features": [{"type": "Feature", "properties": {"zone_id": "0201KYE34QC2QH8KO1BTTP", "tract_id": "06037119341", "city": "PANORAMA CITY, CA", "zone_code": "RD3-1", "zone_category": "Residential", "ev_permitted": false}, "geometry": {"type": "Polygon", "coordinates": [[[-118.444404252577, 34.2388978691558], [-118.44396768237, 34.2390916009492], [-118.4440870355, 34.2392237216693], [-118.444086862286, 34.2393342152749], [-118.444493767441, 34.2390369138197], [-118.444404252577, 34.2388978691558]]]}}, {"type": "Feature", "properties": {"zone_id": "0204R31IMKAN3LCP2CSDJ5", "tract_id": "06037119341", "city": "PANORAMA CITY, CA", "zone_code": "RD3-1", "zone_category": "Residential", "ev_permitted": false}, "geometry": {"type": "Polygon", "coordinates": [[[-118.44396768237, 34.2390916009492], [-118.44338074408, 34.2393520274349], [-118.443559433894, 34.2396295973467], [-118.443565255116, 34.239637136269], [-118.443572488556, 34.2396437872698], [-118.443580939676, 34.2396493714752], [-118.443590381188, 34.2396537387023], [-118.443600559169, 34.2396567714975], [-118.44361119989, 34.2396583882963], [-118.443622017176, 34.2396585456158], [-118.443632720104, 34.2396572392251], [-118.443643020825, 34.2396545042587], [-118.443652642309, 34.2396504142714], [-118.443661325793, 34.2396450792605], [-118.444086862286, 34.2393342152749], [-118.4440870355, 34.2392237216693], [-118.44396768237, 34.2390916009492]]]}}, {"type": "Feature", "properties": {"zone_id": "020010XH4R1RB6MQR6BA93", "tract_id": "06037119341", "city": "PANORAMA CITY, CA", "zone_code": "RA-1", "zone_category": "Other", "ev_permitted": false}, "geometry": {"type": "Polygon", "coordinates": [[[-118.449165684169, 34.2386648537496], [-118.44916528477, 34.2389534395235], [-118.450025116394, 34.2389593410528], [-118.450036637906, 34.2389585584965], [-118.450047820323, 34.2389561348646], [-118.450058324292, 34.2389521437066], [-118.450067831052, 34.2389467061415], [-118.450076052102, 34.2389399871819], [-118.450082737959, 34.2389321907268], [-118.450087685729, 34.2389235533739], [-118.450090745262, 34.2389143372394], [-118.45009182371, 34.238904822004], [-118.450092152262, 34.2386711944492], [-118.449165684169, 34.2386648537496]]]}}, {"type": "Feature", "properties": {"zone_id": "0206MEWT7XT2QO8CZ558EC", "tract_id": "06037119341", "city": "PANORAMA CITY, CA", "zone_code": "R3-1", "zone_category": "Residential", "ev_permitted": false}, "geometry": {"type": "Polygon", "coordinates": [[[-118.44916674748, 34.2378539724562], [-118.449165684169, 34.2386648537496], [-118.450085534629, 34.2386711486439], [-118.450086622166, 34.2378602809586], [-118.44916674748, 34.2378539724562]]]}}, {"type": "Feature", "properties": {"zone_id": "0205Q2X87ZY2S1CUDHGKZ0", "tract_id": "06037119341", "city": "PANORAMA CITY, CA", "zone_code": "R3-1", "zone_category": "Residential", "ev_permitted": false}, "geometry": {"type": "Polygon", "coordinates": [[[-118.449233467551, 34.2374145282163], [-118.449233245363, 34.2376068819328], [-118.450093526176, 34.2376127537784], [-118.450093845788, 34.2374204271696], [-118.449233467551, 34.2374145282163]]]}}, {"type": "Feature", "properties": {"zone_id": "02028O0ZFD0J0TZ0JYBYI5", "tract_id": "06037119341", "city": "PANORAMA CITY, CA", "zone_code": "RA-1", "zone_category": "Other", "ev_permitted": false}, "geometry": {"type": "Polygon", "coordinates": [[[-118.449233245363, 34.2376068819328], [-118.449233041031, 34.2377718115563], [-118.449266079114, 34.2377996900076], [-118.450093307303, 34.237805354802], [-118.450093526176, 34.2376127537784], [-118.449233245363, 34.2376068819328]]]}}, {"type": "Feature", "properties": {"zone_id": "0207FC460Y87XP16NN0FQI", "tract_id": "06037119341", "city": "PANORAMA CITY, CA", "zone_code": "R3-1", "zone_category": "Residential", "ev_permitted": false}, "geometry": {"type": "Polygon", "coordinates": [[[-118.449166815733, 34.2377990142341], [-118.44916674748, 34.2378539724562], [-118.449170056222, 34.2378539876557], [-118.449170124473, 34.2377990294336], [-118.449166815733, 34.2377990142341]]]}}, {"type": "Feature", "properties": {"zone_id": "0201VCCMC486B6JK0M8QAA", "tract_id": "06037119341", "city": "PANORAMA CITY, CA", "zone_code": "R3-1", "zone_category": "Residential", "ev_permitted": false}, "geometry": {"type": "Polygon", "coordinates": [[[-118.449234155359, 34.2369336434326], [-118.449233467551, 34.2374145282163], [-118.450093845788, 34.2374204271696], [-118.450094495406, 34.2369395150256], [-118.449234155359, 34.2369336434326]]]}}, {"type": "Feature", "properties": {"zone_id": "0202AKLM09QJQ39EER1D13", "tract_id": "06037119341", "city": "PANORAMA CITY, CA", "zone_code": "C1-1VL", "zone_category": "Commercial", "ev_permitted": true}, "geometry": {"type": "Polygon", "coordinates": [[[-118.449857389551, 34.236127210951], [-118.44985701748, 34.2364020021898], [-118.450095245594, 34.2364036170551], [-118.450095583944, 34.2361288534171], [-118.449857389551, 34.236127210951]]]}}, {"type": "Feature", "properties": {"zone_id": "02071H7VP072LSQ1PNIWWT", "tract_id": "06037119341", "city": "PANORAMA CITY, CA", "zone_code": "C1-1VL", "zone_category": "Commercial", "ev_permitted": true}, "geometry": {"type": "Polygon", "coordinates": [[[-118.449168670325, 34.2363972768703], [-118.449167980507, 34.236933202068], [-118.450094495406, 34.2369395150256], [-118.450095245594, 34.2364036170551], [-118.449168670325, 34.2363972768703]]]}}, {"type": "Feature", "properties": {"zone_id": "0206S2CF9Y6DIFE8XFGD92", "tract_id": "06037119341", "city": "PANORAMA CITY, CA", "zone_code": "C2-1VL", "zone_category": "Commercial", "ev_permitted": true}, "geometry": {"type": "Polygon", "coordinates": [[[-118.449467564614, 34.2356773719251], [-118.449169344209, 34.2358952882758], [-118.449168670325, 34.2363972768703], [-118.44985701748, 34.2364020021898], [-118.449857389551, 34.236127210951], [-118.449466928233, 34.2361245398143], [-118.449467564614, 34.2356773719251]]]}}, {"type": "Feature", "properties": {"zone_id": "0203TC9V7BLF68YH87UWWQ", "tract_id": "06037119341", "city": "PANORAMA CITY, CA", "zone_code": "C2-1VL", "zone_category": "Commercial", "ev_permitted": true}, "geometry": {"type": "Polygon", "coordinates": [[[-118.449644538555, 34.235548057942], [-118.449467564614, 34.2356773719251], [-118.449466928233, 34.2361245398143], [-118.450095583944, 34.2361288534171], [-118.450096319003, 34.2355717417222], [-118.450071326469, 34.2355509506373], [-118.449644538555, 34.235548057942]]]}}, {"type": "Feature", "properties": {"zone_id": "0200RJXKYI6RRC005CHJQU", "tract_id": "06037119341", "city": "PANORAMA CITY, CA", "zone_code": "RD2-1", "zone_category": "Residential", "ev_permitted": false}, "geometry": {"type": "Polygon", "coordinates": [[[-118.448179751951, 34.2385893966958], [-118.448179332859, 34.2389057637786], [-118.448180053958, 34.2389128774725], [-118.448182252338, 34.2389197808827], [-118.448185861749, 34.238926265971], [-118.448190773419, 34.2389321373058], [-118.448196839332, 34.2389372179512], [-118.448203876689, 34.2389413547993], [-118.448211673415, 34.2389444231838], [-118.448228589334, 34.2389470196782], [-118.44916528477, 34.2389534395235], [-118.449165777758, 34.2385961559418], [-118.448179751951, 34.2385893966958]]]}}, {"type": "Feature", "properties": {"zone_id": "020110XZM1E7Z4GA0SUSO1", "tract_id": "06037119341", "city": "PANORAMA CITY, CA", "zone_code": "R3-1", "zone_category": "Residential", "ev_permitted": false}, "geometry": {"type": "Polygon", "coordinates": [[[-118.448173409449, 34.2383694234439], [-118.448173134262, 34.2385893387641], [-118.449165777758, 34.2385961559418], [-118.449166050331, 34.2383762406194], [-118.448173409449, 34.2383694234439]]]}}, {"type": "Feature", "properties": {"zone_id": "0200WL8PIALGL43MLDNT2E", "tract_id": "06037119341", "city": "PANORAMA CITY, CA", "zone_code": "R3-1", "zone_category": "Residential", "ev_permitted": false}, "geometry": {"type": "Polygon", "coordinates": [[[-118.448180462733, 34.238080843959], [-118.448180027057, 34.2383694693538], [-118.449166050331, 34.2383762406194], [-118.449166449576, 34.2380876273657], [-118.448180462733, 34.238080843959]]]}}, {"type": "Feature", "properties": {"zone_id": "0204N6WIE6J5G5V3WD0JIQ", "tract_id": "06037119341", "city": "PANORAMA CITY, CA", "zone_code": "RD2-1", "zone_category": "Residential", "ev_permitted": false}, "geometry": {"type": "Polygon", "coordinates": [[[-118.446983238246, 34.2375403048158], [-118.446701747206, 34.2377459800599], [-118.446700720857, 34.2385064096979], [-118.446981903164, 34.2385083118341], [-118.446983238246, 34.2375403048158]]]}}, {"type": "Feature", "properties": {"zone_id": "0204VAIST1COVCVT87G80R", "tract_id": "06037119341", "city": "PANORAMA CITY, CA", "zone_code": "RA-1", "zone_category": "Other", "ev_permitted": false}, "geometry": {"type": "Polygon", "coordinates": [[[-118.44698210832, 34.238361243567], [-118.446981734607, 34.2386498566906], [-118.447974577244, 34.2386566829049], [-118.447974914437, 34.2383680699008], [-118.44698210832, 34.238361243567]]]}}, {"type": "Feature", "properties": {"zone_id": "0207EHR2AWLLXS8ZZ6FUAQ", "tract_id": "06037119341", "city": "PANORAMA CITY, CA", "zone_code": "RD2-1", "zone_category": "Residential", "ev_permitted": false}, "geometry": {"type": "Polygon", "coordinates": [[[-118.447477990474, 34.2386532714275], [-118.447477618475, 34.2389418845519], [-118.44791755984, 34.2389449011482], [-118.447932942618, 34.2389429633094], [-118.447946847183, 34.2389371889785], [-118.447957911269, 34.2389281438813], [-118.447962025377, 34.2389226613996], [-118.447966913265, 34.2389104488183], [-118.447967566582, 34.2389040196978], [-118.447967926463, 34.2386566250845], [-118.447477990474, 34.2386532714275]]]}}, {"type": "Feature", "properties": {"zone_id": "0206V57AJ8CG2L9UL3NAI7", "tract_id": "06037119341", "city": "PANORAMA CITY, CA", "zone_code": "RD2-1", "zone_category": "Residential", "ev_permitted": false}, "geometry": {"type": "Polygon", "coordinates": [[[-118.446981734607, 34.2386498566906], [-118.446981327806, 34.2389384699357], [-118.447477618475, 34.2389418845519], [-118.447477990474, 34.2386532714275], [-118.446981734607, 34.2386498566906]]]}}, {"type": "Feature", "properties": {"zone_id": "0206ZQRE0XWK9UETQ7XZ6K", "tract_id": "06037119341", "city": "PANORAMA CITY, CA", "zone_code": "RA-1", "zone_category": "Other", "ev_permitted": false}, "geometry": {"type": "Polygon", "coordinates": [[[-118.446272024986, 34.2385021931054], [-118.446271452581, 34.2389335877333], [-118.446626489516, 34.2389360427278], [-118.446627066849, 34.2385059121064], [-118.446272024986, 34.2385021931054]]]}}, {"type": "Feature", "properties": {"zone_id": "0204W5IJM0MBQ10UC9FOOI", "tract_id": "06037119341", "city": "PANORAMA CITY, CA", "zone_code": "RA-1", "zone_category": "Other", "ev_permitted": false}, "geometry": {"type": "Polygon", "coordinates": [[[-118.446627066849, 34.2385059121064], [-118.446626489516, 34.2389360427278], [-118.446981327806, 34.2389384699357], [-118.446981903164, 34.2385083118341], [-118.446627066849, 34.2385059121064]]]}}, {"type": "Feature", "properties": {"zone_id": "0203FH0UJ2TFCGAVRTIFG9", "tract_id": "06037119341", "city": "PANORAMA CITY, CA", "zone_code": "RD2-1", "zone_category": "Residential", "ev_permitted": false}, "geometry": {"type": "Polygon", "coordinates": [[[-118.44698288897, 34.237784044674], [-118.44698210832, 34.238361243567], [-118.447968296765, 34.2383680119579], [-118.447969070597, 34.2377908130585], [-118.44698288897, 34.237784044674]]]}}, {"type": "Feature", "properties": {"zone_id": "0204VG7HFG1ADYG5979ZEW", "tract_id": "06037119341", "city": "PANORAMA CITY, CA", "zone_code": "RD2-1", "zone_category": "Residential", "ev_permitted": false}, "geometry": {"type": "Polygon", "coordinates": [[[-118.446701747206, 34.2377459800599], [-118.446272669357, 34.2380595043493], [-118.446272024986, 34.2385021931054], [-118.446700720857, 34.2385064096979], [-118.446701747206, 34.2377459800599]]]}}, {"type": "Feature", "properties": {"zone_id": "02047MXDXWXMN352BNHWLF", "tract_id": "06037119341", "city": "PANORAMA CITY, CA", "zone_code": "RD2-1", "zone_category": "Residential", "ev_permitted": false}, "geometry": {"type": "Polygon", "coordinates": [[[-118.448174541274, 34.2375448574055], [-118.44817384536, 34.2380808375494], [-118.449166449576, 34.2380876273657], [-118.449167138969, 34.2375516197378], [-118.448174541274, 34.2375448574055]]]}}, {"type": "Feature", "properties": {"zone_id": "0200U0P1DU6A0AS7IA8RHX", "tract_id": "06037119341", "city": "PANORAMA CITY, CA", "zone_code": "RD2-1", "zone_category": "Residential", "ev_permitted": false}, "geometry": {"type": "Polygon", "coordinates": [[[-118.448506231439, 34.2369286765184], [-118.448505923457, 34.2371484820508], [-118.448175081164, 34.2371462177958], [-118.448174541274, 34.2375448574055], [-118.449167138969, 34.2375516197378], [-118.449167980507, 34.236933202068], [-118.448506231439, 34.2369286765184]]]}}, {"type": "Feature", "properties": {"zone_id": "0204SSDWTEJNMZKM44MCU0", "tract_id": "06037119341", "city": "PANORAMA CITY, CA", "zone_code": "RD2-1", "zone_category": "Residential", "ev_permitted": false}, "geometry": {"type": "Polygon", "coordinates": [[[-118.448175759595, 34.2366377991329], [-118.44817538987, 34.2369263847858], [-118.449167980507, 34.236933202068], [-118.449168346654, 34.2366445889337], [-118.448175759595, 34.2366377991329]]]}}, {"type": "Feature", "properties": {"zone_id": "0202BQP928TRB0W8AIJBID", "tract_id": "06037119341", "city": "PANORAMA CITY, CA", "zone_code": "RD2-1", "zone_category": "Residential", "ev_permitted": false}, "geometry": {"type": "Polygon", "coordinates": [[[-118.44817538987, 34.2369263847858], [-118.448175081164, 34.2371462177958], [-118.448505923457, 34.2371484820508], [-118.448506231439, 34.2369286765184], [-118.44817538987, 34.2369263847858]]]}}, {"type": "Feature", "properties": {"zone_id": "0202WSLB3M5SQMXH9UI0JS", "tract_id": "06037119341", "city": "PANORAMA CITY, CA", "zone_code": "RD3-1", "zone_category": "Residential", "ev_permitted": false}, "geometry": {"type": "Polygon", "coordinates": [[[-118.446235121187, 34.2364325573745], [-118.445829101192, 34.2365400950943], [-118.446586497529, 34.2375154170569], [-118.446983273517, 34.2372255604277], [-118.446235121187, 34.2364325573745]]]}}, {"type": "Feature", "properties": {"zone_id": "0201DKJCWH9REHIJZ6H8W9", "tract_id": "06037119341", "city": "PANORAMA CITY, CA", "zone_code": "RA-1", "zone_category": "Other", "ev_permitted": false}, "geometry": {"type": "Polygon", "coordinates": [[[-118.447977073581, 34.2367665593012], [-118.446983281048, 34.2374926835823], [-118.44698288897, 34.237784044674], [-118.447975721014, 34.2377908159221], [-118.447977073581, 34.2367665593012]]]}}, {"type": "Feature", "properties": {"zone_id": "0200CXOEKRA7IRH2VL1H7Z", "tract_id": "06037119341", "city": "PANORAMA CITY, CA", "zone_code": "RD2-1", "zone_category": "Residential", "ev_permitted": false}, "geometry": {"type": "Polygon", "coordinates": [[[-118.446272669357, 34.2380595043493], [-118.445249842911, 34.2388067702277], [-118.445240251149, 34.238815013627], [-118.445232447931, 34.2388244590674], [-118.44522664983, 34.2388348443958], [-118.44522301777, 34.2388458813732], [-118.445221652557, 34.2388572636748], [-118.44522259208, 34.2388686753912], [-118.445225810264, 34.238879799797], [-118.44523121779, 34.238890328141], [-118.445238664576, 34.2388999682156], [-118.44524794394, 34.2389084524665], [-118.445258798339, 34.2389155454185], [-118.445270926515, 34.2389210502115], [-118.445283991859, 34.2389248140633], [-118.445303787133, 34.2389269571746], [-118.446271452581, 34.2389335877333], [-118.446272669357, 34.2380595043493]]]}}, {"type": "Feature", "properties": {"zone_id": "0200VEUG3APP9SI7HKYG45", "tract_id": "06037119341", "city": "PANORAMA CITY, CA", "zone_code": "RD3-1", "zone_category": "Residential", "ev_permitted": false}, "geometry": {"type": "Polygon", "coordinates": [[[-118.444146577681, 34.2375542926556], [-118.44367422435, 34.2377639310935], [-118.444500146243, 34.2390468618274], [-118.445168548027, 34.238558549379], [-118.445165445219, 34.2385537244912], [-118.445386958644, 34.238391882716], [-118.445390161598, 34.2383968721036], [-118.445479280821, 34.2383317486797], [-118.445300040418, 34.2381625332284], [-118.444874218249, 34.2384737048399], [-118.444802090024, 34.2384056022415], [-118.444745314617, 34.2383375805799], [-118.444762187672, 34.2383000922068], [-118.444745059754, 34.2382711098665], [-118.444698658425, 34.2382188504747], [-118.444662199237, 34.2381571842068], [-118.444641387434, 34.2381136515277], [-118.444612252617, 34.2380666870691], [-118.444585445387, 34.2380343053914], [-118.444540273317, 34.2379767379812], [-118.444524890449, 34.2379523381901], [-118.444482489932, 34.2378933041933], [-118.444452096576, 34.2378398592797], [-118.444424963564, 34.2378519122716], [-118.44439690541, 34.2378082687647], [-118.444376500872, 34.2378175062063], [-118.444316014527, 34.2378404413677], [-118.444276357421, 34.2377559791729], [-118.444146577681, 34.2375542926556]]]}}, {"type": "Feature", "properties": {"zone_id": "0207H1YXD7TR00XZTITS3Y", "tract_id": "06037119341", "city": "ARLETA, CA", "zone_code": "RD3-1", "zone_category": "Residential", "ev_permitted": false}, "geometry": {"type": "Polygon", "coordinates": [[[-118.444248252349, 34.2386555534528], [-118.443191435522, 34.2391245078848], [-118.443350705519, 34.2393653548604], [-118.444404252577, 34.2388978691558], [-118.444248252349, 34.2386555534528]]]}}, {"type": "Feature", "properties": {"zone_id": "02007PC0ZCLKK9VN8UW1DT", "tract_id": "06037119341", "city": "ARLETA, CA", "zone_code": "RD3-1", "zone_category": "Residential", "ev_permitted": false}, "geometry": {"type": "Polygon", "coordinates": [[[-118.444092286406, 34.2384132923836], [-118.444088291896, 34.2384149832581], [-118.444087799764, 34.238726754679], [-118.444248252349, 34.2386555534528], [-118.444092286406, 34.2384132923836]]]}}, {"type": "Feature", "properties": {"zone_id": "02045AB3A1694I3LGX62IH", "tract_id": "06037119341", "city": "ARLETA, CA", "zone_code": "RD3-1", "zone_category": "Residential", "ev_permitted": false}, "geometry": {"type": "Polygon", "coordinates": [[[-118.444088316271, 34.2384071258984], [-118.444088291896, 34.2384149832581], [-118.444092286406, 34.2384132923836], [-118.444088316271, 34.2384071258984]]]}}, {"type": "Feature", "properties": {"zone_id": "0204IDCO0EH0LTSRQY9WTB", "tract_id": "06037119341", "city": "PANORAMA CITY, CA", "zone_code": "RD3-1", "zone_category": "Residential", "ev_permitted": false}, "geometry": {"type": "Polygon", "coordinates": [[[-118.445829101192, 34.2365400950943], [-118.445626008308, 34.2365939049656], [-118.444963603311, 34.2368878666261], [-118.445095083517, 34.2370918267734], [-118.445065706291, 34.2371048774068], [-118.445205261391, 34.2373214755515], [-118.445231521631, 34.2373691648961], [-118.445258698479, 34.2374230889269], [-118.445286635473, 34.2374668984509], [-118.445318866005, 34.2375086442869], [-118.445355168545, 34.2375480395112], [-118.445517432445, 34.2377060492708], [-118.445579138895, 34.2377645618646], [-118.445587675953, 34.2377742249703], [-118.445594064644, 34.2377849623382], [-118.44559811273, 34.2377964508793], [-118.445599698405, 34.237808344902], [-118.445598773955, 34.2378202865138], [-118.445595367197, 34.2378319163905], [-118.44558958064, 34.2378428845882], [-118.445581588404, 34.2378528610728], [-118.445571630974, 34.2378615456514], [-118.44563285171, 34.2379193008996], [-118.445647748775, 34.2379084193295], [-118.44582705551, 34.2380776340224], [-118.446590095933, 34.2375201026849], [-118.445829101192, 34.2365400950943]]]}}, {"type": "Feature", "properties": {"zone_id": "0206LUMPTV2LH05C1AL1JM", "tract_id": "06037119341", "city": "PANORAMA CITY, CA", "zone_code": "RD3-1", "zone_category": "Residential", "ev_permitted": false}, "geometry": {"type": "Polygon", "coordinates": [[[-118.444963603311, 34.2368878666261], [-118.444540636047, 34.2370755635381], [-118.444692735357, 34.2373119010579], [-118.444146577681, 34.2375542926556], [-118.444276357421, 34.2377559791729], [-118.444316014527, 34.2378404413677], [-118.444376500872, 34.2378175062063], [-118.44439690541, 34.2378082687647], [-118.444424963564, 34.2378519122716], [-118.444452096576, 34.2378398592797], [-118.444482489932, 34.2378933041933], [-118.444524890449, 34.2379523381901], [-118.444540273317, 34.2379767379812], [-118.444585445387, 34.2380343053914], [-118.444612252617, 34.2380666870691], [-118.444641387434, 34.2381136515277], [-118.444662199237, 34.2381571842068], [-118.444698658425, 34.2382188504747], [-118.444745059754, 34.2382711098665], [-118.444762187672, 34.2383000922068], [-118.444745314617, 34.2383375805799], [-118.444802090024, 34.2384056022415], [-118.444874218249, 34.2384737048399], [-118.445300040418, 34.2381625332284], [-118.445479280821, 34.2383317486797], [-118.44582705551, 34.2380776340224], [-118.445647748775, 34.2379084193295], [-118.44563285171, 34.2379193008996], [-118.445571630974, 34.2378615456514], [-118.445581588404, 34.2378528610728], [-118.44558958064, 34.2378428845882], [-118.445595367197, 34.2378319163905], [-118.445598773955, 34.2378202865138], [-118.445599698405, 34.237808344902], [-118.44559811273, 34.2377964508793], [-118.445594064644, 34.2377849623382], [-118.445587675953, 34.2377742249703], [-118.445579138895, 34.2377645618646], [-118.445517432445, 34.2377060492708], [-118.445355168545, 34.2375480395112], [-118.445318865874, 34.2375086443578], [-118.445286635294, 34.2374668985373], [-118.44525869834, 34.2374230889854], [-118.445231521631, 34.2373691648961], [-118.445205261391, 34.2373214755515], [-118.445065706291, 34.2371048774068], [-118.445095083517, 34.2370918267734], [-118.444963603311, 34.2368878666261]]]}}, {"type": "Feature", "properties": {"zone_id": "02073DMEFMX6JIGOCSYUEW", "tract_id": "06037119341", "city": "PANORAMA CITY, CA", "zone_code": "RD3-1", "zone_category": "Residential", "ev_permitted": false}, "geometry": {"type": "Polygon", "coordinates": [[[-118.443977058671, 34.2372089268133], [-118.443785081593, 34.2372941562374], [-118.443775398764, 34.2372990337833], [-118.443758406383, 34.2373114009283], [-118.443966119621, 34.2376343415231], [-118.444186253862, 34.2375366704176], [-118.443977058671, 34.2372089268133]]]}}, {"type": "Feature", "properties": {"zone_id": "0202UNN5PM5I9GUFJAUPHA", "tract_id": "06037119341", "city": "PANORAMA CITY, CA", "zone_code": "RD3-1", "zone_category": "Residential", "ev_permitted": false}, "geometry": {"type": "Polygon", "coordinates": [[[-118.443758406383, 34.2373114009283], [-118.443724493294, 34.2373487470035], [-118.443696430429, 34.2373724014134], [-118.443664807727, 34.2373927561774], [-118.443630188313, 34.2374094488276], [-118.443817316962, 34.2377004246386], [-118.443966119621, 34.2376343415231], [-118.443758406383, 34.2373114009283]]]}}, {"type": "Feature", "properties": {"zone_id": "0201P7ZZ33PRAYGTVYUWEJ", "tract_id": "06037119341", "city": "PANORAMA CITY, CA", "zone_code": "RD3-1", "zone_category": "Residential", "ev_permitted": false}, "geometry": {"type": "Polygon", "coordinates": [[[-118.443630188313, 34.2374094488276], [-118.443588991839, 34.2374232327308], [-118.443545767876, 34.2374317776001], [-118.44350148524, 34.2374348919134], [-118.443457136477, 34.2374325058676], [-118.443671319507, 34.2377652057752], [-118.443817316962, 34.2377004246386], [-118.443630188313, 34.2374094488276]]]}}, {"type": "Feature", "properties": {"zone_id": "0200Y6XHXIJQ0UDR3TUE9N", "tract_id": "06037119341", "city": "PANORAMA CITY, CA", "zone_code": "RD3-1", "zone_category": "Residential", "ev_permitted": false}, "geometry": {"type": "Polygon", "coordinates": [[[-118.444769789228, 34.2366155478942], [-118.444361280731, 34.2367968708824], [-118.444540636047, 34.2370755635381], [-118.445051305841, 34.2368489361878], [-118.444926496819, 34.2366550087762], [-118.44490984039, 34.2366610501204], [-118.444892243571, 34.2366648556949], [-118.444874142404, 34.2366663311995], [-118.444855985429, 34.2366654400719], [-118.444838222567, 34.2366622043939], [-118.444821293976, 34.2366567043438], [-118.444805619138, 34.2366490762102], [-118.44479158647, 34.2366395090147], [-118.444779543695, 34.2366282398276], [-118.444769789228, 34.2366155478942]]]}}, {"type": "Feature", "properties": {"zone_id": "0202XDES517UADIIFS8JWY", "tract_id": "06037119341", "city": "PANORAMA CITY, CA", "zone_code": "RD3-1", "zone_category": "Residential", "ev_permitted": false}, "geometry": {"type": "Polygon", "coordinates": [[[-118.444444750768, 34.2369265691559], [-118.444254329998, 34.2370114346693], [-118.444261073688, 34.2370294976778], [-118.44426441846, 34.2370481981569], [-118.444264286606, 34.2370671016512], [-118.444260681189, 34.2370857689889], [-118.444253685972, 34.2371037664851], [-118.44424346347, 34.2371206760169], [-118.44443761345, 34.2374251172813], [-118.444692735357, 34.2373119010579], [-118.444444750768, 34.2369265691559]]]}}, {"type": "Feature", "properties": {"zone_id": "02017V4ZX1B7I94EE1ZB3A", "tract_id": "06037119341", "city": "PANORAMA CITY, CA", "zone_code": "RA-1", "zone_category": "Other", "ev_permitted": false}, "geometry": {"type": "Polygon", "coordinates": [[[-118.443837009654, 34.2366623065485], [-118.44349659513, 34.2368133973109], [-118.443717116023, 34.2371560487782], [-118.443933948329, 34.2370598191402], [-118.443943965257, 34.2370545719384], [-118.443952974232, 34.2370481969857], [-118.443960790949, 34.2370408246983], [-118.443967255499, 34.2370326058953], [-118.443982287534, 34.2370022202513], [-118.443994365509, 34.2369855118007], [-118.444009425796, 34.2369705499635], [-118.444027105497, 34.2369576952676], [-118.443837009654, 34.2366623065485]]]}}, {"type": "Feature", "properties": {"zone_id": "02065PNTHYMQZR2VL0WI7T", "tract_id": "06037119341", "city": "PANORAMA CITY, CA", "zone_code": "R1-1", "zone_category": "Residential", "ev_permitted": false}, "geometry": {"type": "Polygon", "coordinates": [[[-118.44424346347, 34.2371206760169], [-118.444233610015, 34.2371327342373], [-118.444216540404, 34.2371483871302], [-118.444196494989, 34.2371614073807], [-118.444174281896, 34.2371713297692], [-118.444150354356, 34.2371779922219], [-118.44412540633, 34.2371812015107], [-118.444100161378, 34.237180864558], [-118.444060891446, 34.2371743745332], [-118.444048094201, 34.2371738229897], [-118.444035348334, 34.2371749189566], [-118.444022962299, 34.2371776359111], [-118.444011235842, 34.237181908102], [-118.443971163613, 34.2371996914575], [-118.444186253862, 34.2375366704176], [-118.44443761345, 34.2374251172813], [-118.44424346347, 34.2371206760169]]]}}, {"type": "Feature", "properties": {"zone_id": "0201NPU41KY2OETPVWLQA9", "tract_id": "06037119341", "city": "PANORAMA CITY, CA", "zone_code": "C2-1VL", "zone_category": "Commercial", "ev_permitted": true}, "geometry": {"type": "Polygon", "coordinates": [[[-118.449169344209, 34.2358952882758], [-118.448838165819, 34.2361372877913], [-118.44883750634, 34.2366423264895], [-118.449168346654, 34.2366445889337], [-118.449169344209, 34.2358952882758]]]}}, {"type": "Feature", "properties": {"zone_id": "0206DMXDUU12NBRF0U6KHR", "tract_id": "06037119341", "city": "PANORAMA CITY, CA", "zone_code": "C2-1", "zone_category": "Commercial", "ev_permitted": true}, "geometry": {"type": "Polygon", "coordinates": [[[-118.448838165819, 34.2361372877913], [-118.448175770488, 34.2366213391815], [-118.448175759595, 34.2366377991329], [-118.44883750634, 34.2366423264895], [-118.448838165819, 34.2361372877913]]]}}, {"type": "Feature", "properties": {"zone_id": "0206WT4HXOFW59Z8D0KGNL", "tract_id": "06037119341", "city": "PANORAMA CITY, CA", "zone_code": "R3-1VL", "zone_category": "Residential", "ev_permitted": false}, "geometry": {"type": "Polygon", "coordinates": [[[-118.44829297321, 34.2355391124841], [-118.448282019141, 34.2355398760399], [-118.448271368289, 34.2355421256018], [-118.448261313513, 34.2355457993156], [-118.448252131277, 34.2355507961682], [-118.44824407406, 34.2355569787656], [-118.448237363401, 34.2355641771102], [-118.448232183818, 34.2355721932755], [-118.44822867773, 34.2355808068482], [-118.44822694154, 34.2355897809884], [-118.448225918539, 34.2362434823193], [-118.448226733089, 34.2362524003197], [-118.448229295628, 34.2362610891682], [-118.448233537569, 34.2362693163008], [-118.448239345373, 34.2362768615115], [-118.448246563588, 34.2362835228469], [-118.448254999013, 34.2362891220109], [-118.448264425867, 34.2362935091376], [-118.448274591834, 34.2362965668021], [-118.448285224811, 34.2362982131637], [-118.448296040199, 34.2362984041561], [-118.448306748515, 34.2362971346674], [-118.448317063142, 34.2362944386763], [-118.448326708, 34.2362903883432], [-118.448335424937, 34.2362850920785], [-118.448869385962, 34.2358948897996], [-118.448871398278, 34.2355430414188], [-118.44829297321, 34.2355391124841]]]}}, {"type": "Feature", "properties": {"zone_id": "0203I7D4C6FDGCV1AEIUY0", "tract_id": "06037119341", "city": "PANORAMA CITY, CA", "zone_code": "C2-1VL", "zone_category": "Commercial", "ev_permitted": true}, "geometry": {"type": "Polygon", "coordinates": [[[-118.448871398278, 34.2355430414188], [-118.448869385962, 34.2358948897996], [-118.449309054908, 34.2355736227868], [-118.449296730398, 34.2355459422448], [-118.448871398278, 34.2355430414188]]]}}, {"type": "Feature", "properties": {"zone_id": "02043M7TDTGRZMN1OPJOA9", "tract_id": "06037119341", "city": "PANORAMA CITY, CA", "zone_code": "RD3-1", "zone_category": "Residential", "ev_permitted": false}, "geometry": {"type": "Polygon", "coordinates": [[[-118.447739782134, 34.2359415462473], [-118.447740327425, 34.2360864014066], [-118.447968032607, 34.236086738676], [-118.447968225259, 34.2359422895349], [-118.447739782134, 34.2359415462473]]]}}, {"type": "Feature", "properties": {"zone_id": "02033Y0K8B4CRSCYIHHLRY", "tract_id": "06037119341", "city": "PANORAMA CITY, CA", "zone_code": "RD3-1", "zone_category": "Residential", "ev_permitted": false}, "geometry": {"type": "Polygon", "coordinates": [[[-118.447739237517, 34.2357968164583], [-118.447739782134, 34.2359415462473], [-118.447968225259, 34.2359422895349], [-118.447968418486, 34.2357975621666], [-118.447739237517, 34.2357968164583]]]}}, {"type": "Feature", "properties": {"zone_id": "0204LLQ11TLYGRBX12LIMC", "tract_id": "06037119341", "city": "PANORAMA CITY, CA", "zone_code": "RD3-1", "zone_category": "Residential", "ev_permitted": false}, "geometry": {"type": "Polygon", "coordinates": [[[-118.447738789481, 34.2356781913458], [-118.447739237517, 34.2357968164583], [-118.447968418486, 34.2357975621666], [-118.447968576014, 34.2356789382471], [-118.447738789481, 34.2356781913458]]]}}, {"type": "Feature", "properties": {"zone_id": "02030BU54TDU8EUTKCHTGX", "tract_id": "06037119341", "city": "PANORAMA CITY, CA", "zone_code": "RD3-1", "zone_category": "Residential", "ev_permitted": false}, "geometry": {"type": "Polygon", "coordinates": [[[-118.447126352823, 34.2361965211008], [-118.446235121187, 34.2364325573745], [-118.446979164031, 34.2372212047292], [-118.447673963719, 34.2367134957409], [-118.447126352823, 34.2361965211008]]]}}, {"type": "Feature", "properties": {"zone_id": "02022Y1WOTPOEHFOF4GXZ3", "tract_id": "06037119341", "city": "PANORAMA CITY, CA", "zone_code": "RD3-1", "zone_category": "Residential", "ev_permitted": false}, "geometry": {"type": "Polygon", "coordinates": [[[-118.446225241058, 34.2355249905323], [-118.446216222785, 34.236437573269], [-118.44654793647, 34.2363496811147], [-118.446556076874, 34.2355272601174], [-118.446225241058, 34.2355249905323]]]}}, {"type": "Feature", "properties": {"zone_id": "020434X87PRNXH8PWHVFFM", "tract_id": "06037119341", "city": "PANORAMA CITY, CA", "zone_code": "RA-1", "zone_category": "Other", "ev_permitted": false}, "geometry": {"type": "Polygon", "coordinates": [[[-118.447543140094, 34.2360861088656], [-118.447126352823, 34.2361965211008], [-118.447684891974, 34.2367238114593], [-118.44795497412, 34.2365264747858], [-118.447962744976, 34.236519747305], [-118.447969033674, 34.2365120335852], [-118.447973660407, 34.2365035541777], [-118.447976492887, 34.2364945515262], [-118.447977450128, 34.2364852830354], [-118.447977958457, 34.2360867534594], [-118.447543140094, 34.2360861088656]]]}}, {"type": "Feature", "properties": {"zone_id": "0200P2TGW824Z011PK8DJQ", "tract_id": "06037119341", "city": "PANORAMA CITY, CA", "zone_code": "RD3-1", "zone_category": "Residential", "ev_permitted": false}, "geometry": {"type": "Polygon", "coordinates": [[[-118.446715453569, 34.2361368599201], [-118.446550041412, 34.2361370272495], [-118.44654793647, 34.2363496811147], [-118.446713776673, 34.2363057656709], [-118.446715453569, 34.2361368599201]]]}}, {"type": "Feature", "properties": {"zone_id": "0201AYKBVEIDRCCBPV9Z63", "tract_id": "06037119341", "city": "PANORAMA CITY, CA", "zone_code": "RD3-1", "zone_category": "Residential", "ev_permitted": false}, "geometry": {"type": "Polygon", "coordinates": [[[-118.44721774841, 34.2355317690961], [-118.447211395271, 34.2361739763915], [-118.447543140094, 34.2360861088656], [-118.447548584279, 34.2355340359681], [-118.44721774841, 34.2355317690961]]]}}, {"type": "Feature", "properties": {"zone_id": "02015V4JB5YQGCH0YWM25L", "tract_id": "06037119341", "city": "PANORAMA CITY, CA", "zone_code": "RD3-1", "zone_category": "Residential", "ev_permitted": false}, "geometry": {"type": "Polygon", "coordinates": [[[-118.446886912559, 34.2355295013197], [-118.446879649751, 34.2362618430081], [-118.447211395271, 34.2361739763915], [-118.44721774841, 34.2355317690961], [-118.446886912559, 34.2355295013197]]]}}, {"type": "Feature", "properties": {"zone_id": "0206ZXRFI75I4VV5CN0SI6", "tract_id": "06037119341", "city": "PANORAMA CITY, CA", "zone_code": "RD3-1", "zone_category": "Residential", "ev_permitted": false}, "geometry": {"type": "Polygon", "coordinates": [[[-118.447544459831, 34.2359523414494], [-118.447543140094, 34.2360861088656], [-118.447740327425, 34.2360864014066], [-118.44773982483, 34.2359529773463], [-118.447544459831, 34.2359523414494]]]}}, {"type": "Feature", "properties": {"zone_id": "0204Y6CXYXE7AD5CQXG8PA", "tract_id": "06037119341", "city": "PANORAMA CITY, CA", "zone_code": "RD3-1", "zone_category": "Residential", "ev_permitted": false}, "geometry": {"type": "Polygon", "coordinates": [[[-118.447545754902, 34.2358209167075], [-118.447544459831, 34.2359523414494], [-118.44773982483, 34.2359529773463], [-118.447739328796, 34.2358215472053], [-118.447545754902, 34.2358209167075]]]}}, {"type": "Feature", "properties": {"zone_id": "0204EXT0Z44DV0NWMU0SEL", "tract_id": "06037119341", "city": "PANORAMA CITY, CA", "zone_code": "RD3-1", "zone_category": "Residential", "ev_permitted": false}, "geometry": {"type": "Polygon", "coordinates": [[[-118.447547052045, 34.2356894936753], [-118.447545754902, 34.2358209167075], [-118.447739328796, 34.2358215472053], [-118.447738832762, 34.2356901170643], [-118.447547052045, 34.2356894936753]]]}}, {"type": "Feature", "properties": {"zone_id": "0204MT6K7ARE908XNNH87O", "tract_id": "06037119341", "city": "PANORAMA CITY, CA", "zone_code": "RD3-1", "zone_category": "Residential", "ev_permitted": false}, "geometry": {"type": "Polygon", "coordinates": [[[-118.446881380643, 34.236087248905], [-118.446715945434, 34.2360873409794], [-118.446713776673, 34.2363057656709], [-118.446879649751, 34.2362618430081], [-118.446881380643, 34.236087248905]]]}}, {"type": "Feature", "properties": {"zone_id": "02046PZG84OH1PR0V7A4WK", "tract_id": "06037119341", "city": "PANORAMA CITY, CA", "zone_code": "RD3-1", "zone_category": "Residential", "ev_permitted": false}, "geometry": {"type": "Polygon", "coordinates": [[[-118.446883214111, 34.2359024597206], [-118.446717779554, 34.235902605037], [-118.446715945434, 34.2360873409794], [-118.446881380643, 34.236087248905], [-118.446883214111, 34.2359024597206]]]}}, {"type": "Feature", "properties": {"zone_id": "0207M1N0LGK6SP7BBS31M4", "tract_id": "06037119341", "city": "PANORAMA CITY, CA", "zone_code": "RD3-1", "zone_category": "Residential", "ev_permitted": false}, "geometry": {"type": "Polygon", "coordinates": [[[-118.446716843204, 34.2359969713167], [-118.44655142422, 34.2359973567886], [-118.446550041412, 34.2361370272495], [-118.446715453569, 34.2361368599201], [-118.446716843204, 34.2359969713167]]]}}, {"type": "Feature", "properties": {"zone_id": "0203Q031XQIB0J3NPYOENO", "tract_id": "06037119341", "city": "PANORAMA CITY, CA", "zone_code": "RD3-1", "zone_category": "Residential", "ev_permitted": false}, "geometry": {"type": "Polygon", "coordinates": [[[-118.446885045504, 34.2357176705435], [-118.446719615301, 34.2357177883688], [-118.446717779554, 34.235902605037], [-118.446883214111, 34.2359024597206], [-118.446885045504, 34.2357176705435]]]}}, {"type": "Feature", "properties": {"zone_id": "0206DE5KFQAEVXXF2IKWCU", "tract_id": "06037119341", "city": "PANORAMA CITY, CA", "zone_code": "RD3-1", "zone_category": "Residential", "ev_permitted": false}, "geometry": {"type": "Polygon", "coordinates": [[[-118.446718226916, 34.2358575223986], [-118.446552806867, 34.2358576571317], [-118.44655142422, 34.2359973567886], [-118.446716843204, 34.2359969713167], [-118.446718226916, 34.2358575223986]]]}}, {"type": "Feature", "properties": {"zone_id": "02054H10LJJQ6FA38B9THA", "tract_id": "06037119341", "city": "PANORAMA CITY, CA", "zone_code": "RD3-1", "zone_category": "Residential", "ev_permitted": false}, "geometry": {"type": "Polygon", "coordinates": [[[-118.446719615301, 34.2357177883688], [-118.446554189372, 34.2357179317136], [-118.446552806867, 34.2358576571317], [-118.446718226916, 34.2358575223986], [-118.446719615301, 34.2357177883688]]]}}, {"type": "Feature", "properties": {"zone_id": "0206NEEMW3OWGL7TP9MWV1", "tract_id": "06037119341", "city": "PANORAMA CITY, CA", "zone_code": "RD3-1", "zone_category": "Residential", "ev_permitted": false}, "geometry": {"type": "Polygon", "coordinates": [[[-118.447738301684, 34.2355490676912], [-118.447738789481, 34.2356781913458], [-118.447968576014, 34.2356789382471], [-118.447968674674, 34.2356052220741], [-118.447967717721, 34.2355957382924], [-118.447964791812, 34.2355865341212], [-118.447959985075, 34.2355778867899], [-118.447953442289, 34.2355700567562], [-118.447945360523, 34.2355632798609], [-118.447935983199, 34.2355577602241], [-118.447925592762, 34.2355536640975], [-118.447914502171, 34.2355511148565], [-118.447903045476, 34.2355501892843], [-118.447738301684, 34.2355490676912]]]}}, {"type": "Feature", "properties": {"zone_id": "02027HBAADQNRPNA215L6W", "tract_id": "06037119341", "city": "PANORAMA CITY, CA", "zone_code": "RD3-1", "zone_category": "Residential", "ev_permitted": false}, "geometry": {"type": "Polygon", "coordinates": [[[-118.447548449075, 34.235547774242], [-118.447547052045, 34.2356894936753], [-118.447738832762, 34.2356901170643], [-118.447738301684, 34.2355490676912], [-118.447548449075, 34.235547774242]]]}}, {"type": "Feature", "properties": {"zone_id": "0202F32ZCPDM4LT41C1G11", "tract_id": "06037119341", "city": "PANORAMA CITY, CA", "zone_code": "RD3-1", "zone_category": "Residential", "ev_permitted": false}, "geometry": {"type": "Polygon", "coordinates": [[[-118.446721357307, 34.2355421191122], [-118.446719615301, 34.2357177883688], [-118.446885045504, 34.2357176705435], [-118.446886775326, 34.235543267079], [-118.446721357307, 34.2355421191122]]]}}, {"type": "Feature", "properties": {"zone_id": "0203IY9SNLJ49GMO5IXXS3", "tract_id": "06037119341", "city": "PANORAMA CITY, CA", "zone_code": "RD3-1", "zone_category": "Residential", "ev_permitted": false}, "geometry": {"type": "Polygon", "coordinates": [[[-118.446555941507, 34.2355409983902], [-118.446554189372, 34.2357179317136], [-118.446719615301, 34.2357177883688], [-118.446721357307, 34.2355421191122], [-118.446555941507, 34.2355409983902]]]}}, {"type": "Feature", "properties": {"zone_id": "0202JT1VQOY1CRIODJFX8X", "tract_id": "06037119341", "city": "PANORAMA CITY, CA", "zone_code": "RD3-1", "zone_category": "Residential", "ev_permitted": false}, "geometry": {"type": "Polygon", "coordinates": [[[-118.445398102046, 34.2355193265347], [-118.445390666314, 34.2362713161928], [-118.445626008308, 34.2365939049656], [-118.446216222785, 34.236437573269], [-118.446225241058, 34.2355249905323], [-118.445398102046, 34.2355193265347]]]}}, {"type": "Feature", "properties": {"zone_id": "0203RMGK6C3FOV1TYCXZIK", "tract_id": "06037119341", "city": "PANORAMA CITY, CA", "zone_code": "RD3-1", "zone_category": "Residential", "ev_permitted": false}, "geometry": {"type": "Polygon", "coordinates": [[[-118.445428493477, 34.2363231672105], [-118.444974242934, 34.2365251874159], [-118.444982093156, 34.2365405798863], [-118.444986610445, 34.2365568618], [-118.444987659087, 34.2365735440009], [-118.444985207579, 34.2365901253072], [-118.444979329571, 34.2366061075689], [-118.444970201655, 34.2366210106331], [-118.444958098061, 34.2366343867693], [-118.444943382416, 34.2366458341206], [-118.444926496819, 34.2366550087762], [-118.445051305841, 34.2368489361878], [-118.445626008308, 34.2365939049656], [-118.445428493477, 34.2363231672105]]]}}, {"type": "Feature", "properties": {"zone_id": "0203LYC39G2LWSGDYINKD5", "tract_id": "06037119341", "city": "PANORAMA CITY, CA", "zone_code": "RA-1", "zone_category": "Other", "ev_permitted": false}, "geometry": {"type": "Polygon", "coordinates": [[[-118.445231050673, 34.2360525113092], [-118.444750918726, 34.2362656174808], [-118.444862748623, 34.2364393407707], [-118.444873233116, 34.2364527714427], [-118.444886234141, 34.2364646031121], [-118.444901401365, 34.2364745169579], [-118.444938505604, 34.2364915086151], [-118.444952519106, 34.2365011282157], [-118.444964530954, 34.2365124481617], [-118.444974242934, 34.2365251874159], [-118.445428493477, 34.2363231672105], [-118.445231050673, 34.2360525113092]]]}}, {"type": "Feature", "properties": {"zone_id": "0202G8AX0U22Z1N7K9QDCH", "tract_id": "06037119341", "city": "PANORAMA CITY, CA", "zone_code": "RD3-1", "zone_category": "Residential", "ev_permitted": false}, "geometry": {"type": "Polygon", "coordinates": [[[-118.444839264225, 34.2355154189244], [-118.445390666314, 34.2362713161928], [-118.445398102046, 34.2355193265347], [-118.444839264225, 34.2355154189244]]]}}, {"type": "Feature", "properties": {"zone_id": "0206MF04F0UPK748EK5FVG", "tract_id": "06037119341", "city": "PANORAMA CITY, CA", "zone_code": "RA-1", "zone_category": "Other", "ev_permitted": false}, "geometry": {"type": "Polygon", "coordinates": [[[-118.444634202713, 34.2363174320226], [-118.444181926612, 34.2365181779604], [-118.444361280731, 34.2367968708824], [-118.444769789228, 34.2366155478942], [-118.444762630251, 34.2366020237155], [-118.444758053154, 34.2365877544009], [-118.444756165287, 34.2365730746177], [-118.444757010928, 34.23655832866], [-118.444759775517, 34.2365375124113], [-118.44475828075, 34.2365216300178], [-118.444753715838, 34.2365061530937], [-118.44474619962, 34.2364914845536], [-118.444634202713, 34.2363174320226]]]}}, {"type": "Feature", "properties": {"zone_id": "02059DWOT23MP5K90YGWLI", "tract_id": "06037119341", "city": "PANORAMA CITY, CA", "zone_code": "RA-1", "zone_category": "Other", "ev_permitted": false}, "geometry": {"type": "Polygon", "coordinates": [[[-118.444454881798, 34.2360387393824], [-118.444002606775, 34.2362394846505], [-118.444181926612, 34.2365181779604], [-118.444634202713, 34.2363174320226], [-118.444454881798, 34.2360387393824]]]}}, {"type": "Feature", "properties": {"zone_id": "0204E6E9DNRB8E5XFCYBHG", "tract_id": "06037119341", "city": "PANORAMA CITY, CA", "zone_code": "RA-1", "zone_category": "Other", "ev_permitted": false}, "geometry": {"type": "Polygon", "coordinates": [[[-118.443534465315, 34.2363188842433], [-118.443522788333, 34.2363373993996], [-118.443507493289, 34.2363540160547], [-118.443489020481, 34.2363682558679], [-118.443467901683, 34.23637970892], [-118.44344474484, 34.2363880455143], [-118.443420216567, 34.236393025667], [-118.443395022957, 34.2363945060154], [-118.443369889255, 34.236392443945], [-118.443354535611, 34.2364606480547], [-118.443625030596, 34.236756402346], [-118.444136459841, 34.2365293913678], [-118.443534465315, 34.2363188842433]]]}}, {"type": "Feature", "properties": {"zone_id": "0200H7VH6WSEBTW5XVIBEN", "tract_id": "06037119341", "city": "PANORAMA CITY, CA", "zone_code": "R1-1", "zone_category": "Residential", "ev_permitted": false}, "geometry": {"type": "Polygon", "coordinates": [[[-118.444177449836, 34.2365112164472], [-118.443837009654, 34.2366623065485], [-118.444027105497, 34.2369576952676], [-118.444048164065, 34.2369468495977], [-118.444071111819, 34.2369390516435], [-118.444095309076, 34.2369345187802], [-118.444120081315, 34.2369333773653], [-118.444144737993, 34.2369356592169], [-118.444168591783, 34.2369413007262], [-118.444190977744, 34.2369501446312], [-118.444211271849, 34.2369619443999], [-118.444228908383, 34.2369763711034], [-118.444243395715, 34.2369930225846], [-118.444254329998, 34.2370114346693], [-118.444444750768, 34.2369265691559], [-118.444177449836, 34.2365112164472]]]}}, {"type": "Feature", "properties": {"zone_id": "0206YJVE1SFRQQP8P9J1CB", "tract_id": "06037119341", "city": "PANORAMA CITY, CA", "zone_code": "RA-1", "zone_category": "Other", "ev_permitted": false}, "geometry": {"type": "Polygon", "coordinates": [[[-118.443828125664, 34.2359683300534], [-118.443510923798, 34.2361910558724], [-118.4435245717, 34.2362068472076], [-118.443535077048, 34.2362242035857], [-118.443542183279, 34.2362427011287], [-118.443545716846, 34.236261888089], [-118.443545591452, 34.2362812958824], [-118.44354181016, 34.236300450532], [-118.443534465315, 34.2363188842433], [-118.444136459841, 34.2365293913678], [-118.444177449836, 34.2365112164472], [-118.443828125664, 34.2359683300534]]]}}, {"type": "Feature", "properties": {"zone_id": "02004FSI8TARV8FM2BXJIN", "tract_id": "06037119341", "city": "PANORAMA CITY, CA", "zone_code": "RA-1", "zone_category": "Other", "ev_permitted": false}, "geometry": {"type": "Polygon", "coordinates": [[[-118.445033607081, 34.2357818550928], [-118.444571597533, 34.2359869250134], [-118.444750918726, 34.2362656174808], [-118.445231050673, 34.2360525113092], [-118.445033607081, 34.2357818550928]]]}}, {"type": "Feature", "properties": {"zone_id": "020502RVHT7TRXC2T1Q7MY", "tract_id": "06037119341", "city": "PANORAMA CITY, CA", "zone_code": "RA-1", "zone_category": "Other", "ev_permitted": false}, "geometry": {"type": "Polygon", "coordinates": [[[-118.444377040422, 34.2355122257117], [-118.444365648773, 34.2355129990454], [-118.444354585794, 34.2355153743952], [-118.444344178602, 34.2355192815253], [-118.444334734922, 34.2355246049073], [-118.44432653399, 34.2355311871363], [-118.444319818298, 34.2355388335848], [-118.444314786416, 34.2355473181581], [-118.444311587132, 34.2355563899793], [-118.444310315043, 34.2355657808076], [-118.444311007764, 34.2355752129696], [-118.444313644811, 34.2355844075698], [-118.444318148211, 34.2355930927373], [-118.444571597533, 34.2359869250134], [-118.445033607081, 34.2357818550928], [-118.444839264225, 34.2355154189244], [-118.444377040422, 34.2355122257117]]]}}, {"type": "Feature", "properties": {"zone_id": "02042JBK6LP48DN0KZKX9H", "tract_id": "06037119341", "city": "PANORAMA CITY, CA", "zone_code": "RA-1", "zone_category": "Other", "ev_permitted": false}, "geometry": {"type": "Polygon", "coordinates": [[[-118.444275528995, 34.2357600465973], [-118.443823222112, 34.2359608187954], [-118.444002606775, 34.2362394846505], [-118.444454881798, 34.2360387393824], [-118.444275528995, 34.2357600465973]]]}}, {"type": "Feature", "properties": {"zone_id": "0205FBZU2PA0BZS2SXQ9MC", "tract_id": "06037119341", "city": "PANORAMA CITY, CA", "zone_code": "RA-1", "zone_category": "Other", "ev_permitted": false}, "geometry": {"type": "Polygon", "coordinates": [[[-118.443530843668, 34.2355064265742], [-118.443823222112, 34.2359608187954], [-118.444275528995, 34.2357600465973], [-118.444142683099, 34.2355535899973], [-118.44413454657, 34.2355429746507], [-118.444124544636, 34.2355335110635], [-118.444112911927, 34.2355254212373], [-118.444099921329, 34.2355188949476], [-118.444085877581, 34.2355140852915], [-118.444071110128, 34.2355111050965], [-118.444055965392, 34.2355100242736], [-118.443530843668, 34.2355064265742]]]}}, {"type": "Feature", "properties": {"zone_id": "02024EMSJIXQ1BMGPEUXS0", "tract_id": "06037119341", "city": "ARLETA, CA", "zone_code": "RD3-1", "zone_category": "Residential", "ev_permitted": false}, "geometry": {"type": "Polygon", "coordinates": [[[-118.443621343275, 34.2376875685031], [-118.442555090433, 34.2381607030435], [-118.442714356755, 34.2384015508584], [-118.443780248847, 34.2379286085994], [-118.44367422435, 34.2377639310935], [-118.443671319507, 34.2377652057752], [-118.443621343275, 34.2376875685031]]]}}, {"type": "Feature", "properties": {"zone_id": "0205LJ14XG7V9NA4TT2KTH", "tract_id": "06037119341", "city": "ARLETA, CA", "zone_code": "RD3-1", "zone_category": "Residential", "ev_permitted": false}, "geometry": {"type": "Polygon", "coordinates": [[[-118.443936248417, 34.2381709231822], [-118.442912773188, 34.2386250808429], [-118.443068740522, 34.2388673966558], [-118.444088291896, 34.2384149832581], [-118.444088316271, 34.2384071258984], [-118.443936248417, 34.2381709231822]]]}}, {"type": "Feature", "properties": {"zone_id": "0201BOTQFAQWM5RG0TOGFX", "tract_id": "06037119341", "city": "ARLETA, CA", "zone_code": "RD3-1", "zone_category": "Residential", "ev_permitted": false}, "geometry": {"type": "Polygon", "coordinates": [[[-118.443780248847, 34.2379286085994], [-118.442756773527, 34.238382737471], [-118.442912773188, 34.2386250808429], [-118.443936248417, 34.2381709231822], [-118.443780248847, 34.2379286085994]]]}}, {"type": "Feature", "properties": {"zone_id": "02067SYRIG2OZN6V7KKRFR", "tract_id": "06037119341", "city": "ARLETA, CA", "zone_code": "RD3-1", "zone_category": "Residential", "ev_permitted": false}, "geometry": {"type": "Polygon", "coordinates": [[[-118.444088291896, 34.2384149832581], [-118.443068740522, 34.2388673966558], [-118.443224741848, 34.2391097121462], [-118.444087799764, 34.238726754679], [-118.444088291896, 34.2384149832581]]]}}, {"type": "Feature", "properties": {"zone_id": "0204E8BCYX8B1KC6261UTF", "tract_id": "06037119341", "city": "ARLETA, CA", "zone_code": "RD3-1", "zone_category": "Residential", "ev_permitted": false}, "geometry": {"type": "Polygon", "coordinates": [[[-118.443465376395, 34.2374452259215], [-118.442444777213, 34.2378981050794], [-118.442600774917, 34.238140421376], [-118.443621343275, 34.2376875685031], [-118.443465376395, 34.2374452259215]]]}}, {"type": "Feature", "properties": {"zone_id": "02006Y81UNIXI247MH9PHW", "tract_id": "06037119341", "city": "ARLETA, CA", "zone_code": "RD3-1", "zone_category": "Residential", "ev_permitted": false}, "geometry": {"type": "Polygon", "coordinates": [[[-118.442919842787, 34.2373757782506], [-118.442288780415, 34.2376557885813], [-118.442444777213, 34.2378981050794], [-118.443465376395, 34.2374452259215], [-118.44342327461, 34.2373799527345], [-118.442919842787, 34.2373757782506]]]}}, {"type": "Feature", "properties": {"zone_id": "0203N70KOJKR1GUWUSAESW", "tract_id": "06037119341", "city": "ARLETA, CA", "zone_code": "RD3-1", "zone_category": "Residential", "ev_permitted": false}, "geometry": {"type": "Polygon", "coordinates": [[[-118.442628245967, 34.2371936152147], [-118.442132784523, 34.2374134718817], [-118.442288780415, 34.2376557885813], [-118.442784176861, 34.2374359589967], [-118.442628245967, 34.2371936152147]]]}}, {"type": "Feature", "properties": {"zone_id": "0204Z2TDTDZNL94CK2606I", "tract_id": "06037119341", "city": "PANORAMA CITY, CA", "zone_code": "RA-1", "zone_category": "Other", "ev_permitted": false}, "geometry": {"type": "Polygon", "coordinates": [[[-118.44349659513, 34.2368133973109], [-118.443243651958, 34.2369256962275], [-118.443440719306, 34.2372319969627], [-118.443444898923, 34.2372374365401], [-118.443456071922, 34.2372463676784], [-118.443470042689, 34.2372519967472], [-118.443485435736, 34.2372537695387], [-118.443500735544, 34.2372515115134], [-118.443507875267, 34.2372489252509], [-118.443717116023, 34.2371560487782], [-118.44349659513, 34.2368133973109]]]}}, {"type": "Feature", "properties": {"zone_id": "02055Z50PC9OIX2U3WEE1Z", "tract_id": "06037119341", "city": "PANORAMA CITY, CA", "zone_code": "RE11-1", "zone_category": "Residential", "ev_permitted": false}, "geometry": {"type": "Polygon", "coordinates": [[[-118.443104972389, 34.2370599716963], [-118.442667251479, 34.2372542251395], [-118.442784176861, 34.2374359589967], [-118.443221904783, 34.2372417291518], [-118.443104972389, 34.2370599716963]]]}}, {"type": "Feature", "properties": {"zone_id": "0204QQWPYDWD6MD2ZLB33Q", "tract_id": "06037119341", "city": "ARLETA, CA", "zone_code": "RE11-1", "zone_category": "Residential", "ev_permitted": false}, "geometry": {"type": "Polygon", "coordinates": [[[-118.443309344541, 34.2372029383376], [-118.442919842787, 34.2373757782506], [-118.44342327461, 34.2373799527345], [-118.443309344541, 34.2372029383376]]]}}, {"type": "Feature", "properties": {"zone_id": "0201XO2N8EMFOXSOY65UI8", "tract_id": "06037119341", "city": "PANORAMA CITY, CA", "zone_code": "RE11-1", "zone_category": "Residential", "ev_permitted": false}, "geometry": {"type": "Polygon", "coordinates": [[[-118.442988007274, 34.2368781867702], [-118.442550313799, 34.2370724156487], [-118.442667251479, 34.2372542251395], [-118.443104972389, 34.2370599716963], [-118.442988007274, 34.2368781867702]]]}}, {"type": "Feature", "properties": {"zone_id": "0201SOMLXB6UWM38M4ZIWY", "tract_id": "06037119341", "city": "PANORAMA CITY, CA", "zone_code": "RE11-1", "zone_category": "Residential", "ev_permitted": false}, "geometry": {"type": "Polygon", "coordinates": [[[-118.442873089449, 34.2366955423929], [-118.442433350019, 34.2368906576651], [-118.442550313799, 34.2370724156487], [-118.442988007274, 34.2368781867702], [-118.442901334457, 34.2367434448068], [-118.442873089449, 34.2366955423929]]]}}, {"type": "Feature", "properties": {"zone_id": "02053ORU6TZPDHNI8P3ZFT", "tract_id": "06037119341", "city": "ARLETA, CA", "zone_code": "RD3-1", "zone_category": "Residential", "ev_permitted": false}, "geometry": {"type": "Polygon", "coordinates": [[[-118.442472315687, 34.2369512162743], [-118.44197678939, 34.237171127502], [-118.442132784523, 34.2374134718817], [-118.442628245967, 34.2371936152147], [-118.442472315687, 34.2369512162743]]]}}, {"type": "Feature", "properties": {"zone_id": "0204UT9GMBZ5N065QYAWGR", "tract_id": "06037119341", "city": "ARLETA, CA", "zone_code": "RE11-1", "zone_category": "Residential", "ev_permitted": false}, "geometry": {"type": "Polygon", "coordinates": [[[-118.442316386749, 34.2367088995681], [-118.441820795454, 34.2369288378777], [-118.44197678939, 34.237171127502], [-118.442472315687, 34.2369512162743], [-118.442316386749, 34.2367088995681]]]}}, {"type": "Feature", "properties": {"zone_id": "0205G70GVVMKC45C1UUMNJ", "tract_id": "06037119341", "city": "PANORAMA CITY, CA", "zone_code": "RA-1", "zone_category": "Other", "ev_permitted": false}, "geometry": {"type": "Polygon", "coordinates": [[[-118.443056388623, 34.2362308278337], [-118.443040555773, 34.2362320324516], [-118.443025997812, 34.2362373175478], [-118.443014211215, 34.2362461398441], [-118.443006407575, 34.2362575924581], [-118.443004268622, 34.2362639446303], [-118.442994174954, 34.2363203187568], [-118.442990523665, 34.2363772270998], [-118.442993346969, 34.2364341675873], [-118.443002619959, 34.2364906378648], [-118.443018260822, 34.2365461397273], [-118.443040131569, 34.2366001835144], [-118.443354535611, 34.2364606480547], [-118.443369889255, 34.236392443945], [-118.443346416178, 34.2363870786541], [-118.44332430001, 34.2363786485733], [-118.44330412187, 34.2363673752078], [-118.443286411951, 34.2363535547715], [-118.443271635593, 34.2363375504045], [-118.443251817621, 34.2363069154421], [-118.443244246734, 34.2362992902253], [-118.443235425549, 34.2362926467184], [-118.443225538268, 34.2362871236492], [-118.443071868835, 34.236233827522], [-118.443056388623, 34.2362308278337]]]}}, {"type": "Feature", "properties": {"zone_id": "0200DAND35GVZUIB3GX1HV", "tract_id": "06037119341", "city": "PANORAMA CITY, CA", "zone_code": "RA-1", "zone_category": "Other", "ev_permitted": false}, "geometry": {"type": "Polygon", "coordinates": [[[-118.443167053441, 34.235503912168], [-118.443163198169, 34.2359014886975], [-118.443173421415, 34.2358698847872], [-118.443177012616, 34.2355039856156], [-118.443167053441, 34.235503912168]]]}}, {"type": "Feature", "properties": {"zone_id": "0203VX1Y8THM0ICAXWRS60", "tract_id": "06037119341", "city": "PANORAMA CITY, CA", "zone_code": "RA-1", "zone_category": "Other", "ev_permitted": false}, "geometry": {"type": "Polygon", "coordinates": [[[-118.442212232479, 34.2354973199199], [-118.442443020773, 34.2358561487607], [-118.442773163009, 34.2358584312268], [-118.442776727594, 34.2355012189624], [-118.442212232479, 34.2354973199199]]]}}, {"type": "Feature", "properties": {"zone_id": "0202V2ARNEFL7KEAY8D44G", "tract_id": "06037119341", "city": "PANORAMA CITY, CA", "zone_code": "RA-1", "zone_category": "Other", "ev_permitted": false}, "geometry": {"type": "Polygon", "coordinates": [[[-118.442443020773, 34.2358561487607], [-118.442792308431, 34.2363990100554], [-118.442793653027, 34.2363352976546], [-118.442801350949, 34.2362718941013], [-118.442815349714, 34.2362092316673], [-118.442835553881, 34.2361477375729], [-118.442861825704, 34.2360878310737], [-118.442951718313, 34.235906662957], [-118.442972280587, 34.2358597910003], [-118.442443020773, 34.2358561487607]]]}}, {"type": "Feature", "properties": {"zone_id": "02043OHN6VN0LQXYOYU6W9", "tract_id": "06037119341", "city": "PANORAMA CITY, CA", "zone_code": "RA-1", "zone_category": "Other", "ev_permitted": false}, "geometry": {"type": "Polygon", "coordinates": [[[-118.443354535611, 34.2364606480547], [-118.443040131569, 34.2366001835144], [-118.443057080289, 34.2366333984518], [-118.443076377843, 34.2366657255801], [-118.443243651958, 34.2369256962275], [-118.443625030596, 34.236756402346], [-118.443354535611, 34.2364606480547]]]}}, {"type": "Feature", "properties": {"zone_id": "0207C3XGUN1Z2UDQKB5FNX", "tract_id": "06037119341", "city": "PANORAMA CITY, CA", "zone_code": "RE11-1", "zone_category": "Residential", "ev_permitted": false}, "geometry": {"type": "Polygon", "coordinates": [[[-118.442802007104, 34.2364934198153], [-118.442316386749, 34.2367088995681], [-118.442433350019, 34.2368906576651], [-118.442873089449, 34.2366955423929], [-118.442849065925, 34.236646643878], [-118.442829151907, 34.2365964993304], [-118.442813441014, 34.2365453444822], [-118.442802007104, 34.2364934198153]]]}}, {"type": "Feature", "properties": {"zone_id": "0200Q1POKQPBCSLDV6SP8B", "tract_id": "06037119341", "city": "PANORAMA CITY, CA", "zone_code": "RA-1", "zone_category": "Other", "ev_permitted": false}, "geometry": {"type": "Polygon", "coordinates": [[[-118.443173421415, 34.2358698847872], [-118.443163198169, 34.2359014886975], [-118.443150204949, 34.2359357413147], [-118.443135247746, 34.2359694417876], [-118.443095866998, 34.2360488611044], [-118.443093286698, 34.2360557101247], [-118.443092177321, 34.2360628247896], [-118.443092572269, 34.2360699908906], [-118.443094459649, 34.2360769926705], [-118.443097782637, 34.2360836193196], [-118.443102441184, 34.2360896713227], [-118.44310829503, 34.2360949664661], [-118.443115167928, 34.2360993453234], [-118.443122852948, 34.2361026760562], [-118.443278905042, 34.2361561007861], [-118.443290135189, 34.2361591760627], [-118.443301781869, 34.2361608920296], [-118.443313605667, 34.2361612134132], [-118.443325363531, 34.2361601336068], [-118.443363089836, 34.236150428542], [-118.443386219423, 34.2361475318002], [-118.44340961237, 34.236147662241], [-118.443432692588, 34.2361508166519], [-118.443454891689, 34.2361569173502], [-118.443475662983, 34.2361658140952], [-118.443494494942, 34.2361772877892], [-118.443510923798, 34.2361910558724], [-118.443828125664, 34.2359683300534], [-118.443820919804, 34.2359571725342], [-118.443172645168, 34.2359527058331], [-118.443173421415, 34.2358698847872]]]}}, {"type": "Feature", "properties": {"zone_id": "02031WG4LH2A1D4NOFHMSC", "tract_id": "06037119341", "city": "PANORAMA CITY, CA", "zone_code": "RA-1", "zone_category": "Other", "ev_permitted": false}, "geometry": {"type": "Polygon", "coordinates": [[[-118.443177012616, 34.2355039856156], [-118.443172645168, 34.2359527058331], [-118.443820919804, 34.2359571725342], [-118.443530843668, 34.2355064265742], [-118.443177012616, 34.2355039856156]]]}}, {"type": "Feature", "properties": {"zone_id": "0203UE7IPMZUTIQ2Y4PR4R", "tract_id": "06037119341", "city": "PANORAMA CITY, CA", "zone_code": "RA-1", "zone_category": "Other", "ev_permitted": false}, "geometry": {"type": "Polygon", "coordinates": [[[-118.442776727594, 34.2355012189624], [-118.442773163009, 34.2358584312268], [-118.442972280587, 34.2358597910003], [-118.442986869676, 34.2358160861274], [-118.442997477661, 34.235771603778], [-118.443004045521, 34.2357265914454], [-118.443006536713, 34.2356812995721], [-118.443007766978, 34.2355577495864], [-118.443007057326, 34.2355491663538], [-118.443004731951, 34.2355407806368], [-118.443000848136, 34.2355327990072], [-118.442995501554, 34.2355254180823], [-118.44298882391, 34.2355188196821], [-118.4429809797, 34.2355131663498], [-118.442972162157, 34.2355085973483], [-118.442962588489, 34.2355052252294], [-118.442952494531, 34.2355031330611], [-118.442942128936, 34.2355023723812], [-118.442776727594, 34.2355012189624]]]}}, {"type": "Feature", "properties": {"zone_id": "02013QXZNI9NA584X5QYBI", "tract_id": "06037119341", "city": "ARLETA, CA", "zone_code": "RD3-1", "zone_category": "Residential", "ev_permitted": false}, "geometry": {"type": "Polygon", "coordinates": [[[-118.442685786737, 34.2362334267087], [-118.44159033525, 34.2367196571557], [-118.441749562518, 34.2369604239284], [-118.442802007104, 34.2364934198153], [-118.442795385812, 34.2364463393622], [-118.442792308431, 34.2363990100554], [-118.442685786737, 34.2362334267087]]]}}, {"type": "Feature", "properties": {"zone_id": "0207O0R5LHYAD60NQ9MK6L", "tract_id": "06037119341", "city": "PANORAMA CITY, CA", "zone_code": "RD3-1", "zone_category": "Residential", "ev_permitted": false}, "geometry": {"type": "Polygon", "coordinates": [[[-118.441458910756, 34.235492128674], [-118.441657237618, 34.2358007359201], [-118.441130358071, 34.2360345800371], [-118.441200775878, 34.2361305822016], [-118.44159033525, 34.2367196571557], [-118.442685786737, 34.2362334267087], [-118.442212232479, 34.2354973199199], [-118.441458910756, 34.235492128674]]]}}, {"type": "Feature", "properties": {"zone_id": "02035EIWQT78H5WOSRTSVL", "tract_id": "06037119341", "city": "ARLETA, CA", "zone_code": "R3-1", "zone_category": "Residential", "ev_permitted": false}, "geometry": {"type": "Polygon", "coordinates": [[[-118.440983124436, 34.235833860585], [-118.441130358071, 34.2360345800371], [-118.441573396558, 34.2358379461121], [-118.440983124436, 34.235833860585]]]}}, {"type": "Feature", "properties": {"zone_id": "020385YPFSZHF2BM17YMSB", "tract_id": "06037119341", "city": "ARLETA, CA", "zone_code": "C2-1VL", "zone_category": "Commercial", "ev_permitted": true}, "geometry": {"type": "Polygon", "coordinates": [[[-118.440847730483, 34.2354879538848], [-118.440836922515, 34.2354886350769], [-118.440826392557, 34.2354907607727], [-118.440816421145, 34.2354942743402], [-118.440807273935, 34.235499082172], [-118.440799194622, 34.2355050561793], [-118.440792398453, 34.2355120372047], [-118.440787066488, 34.2355198392619], [-118.440783340781, 34.2355282544911], [-118.440781320589, 34.2355370586967], [-118.440781059735, 34.2355460173202], [-118.440782565168, 34.2355548916892], [-118.44078579678, 34.2355634453759], [-118.440790668477, 34.2355714504964], [-118.440983124436, 34.235833860585], [-118.441573396558, 34.2358379461121], [-118.441305321678, 34.2354910950311], [-118.440847730483, 34.2354879538848]]]}}, {"type": "Feature", "properties": {"zone_id": "0207FRQK1K8TR2KX6CM1HH", "tract_id": "06037119341", "city": "PANORAMA CITY, CA", "zone_code": "R3-1", "zone_category": "Residential", "ev_permitted": false}, "geometry": {"type": "Polygon", "coordinates": [[[-118.441305321678, 34.2354910950311], [-118.441573396558, 34.2358379461121], [-118.441657237618, 34.2358007359201], [-118.441458910756, 34.235492128674], [-118.441305321678, 34.2354910950311]]]}}]}