{"type": "FeatureCollection", "features": [{"type": "Feature", "properties": {"zone_id": "020095ZC7JA04NPMT4WJ02", "tract_id": "36005042901", "city": "BRONX, NY", "zone_code": "R7D", "zone_category": "Residential", "ev_permitted": false}, "geometry": {"type": "Polygon", "coordinates": [[[-73.8759799250878, 40.8703971398145], [-73.8758030059715, 40.8705587540319], [-73.8757088202946, 40.8706553537843], [-73.8756101532825, 40.8707633974829], [-73.8755516435321, 40.8708322284832], [-73.875488328426, 40.8709106186361], [-73.8744188866327, 40.8723642265062], [-73.8727038975327, 40.8747322670754], [-73.8724996963463, 40.8750383914065], [-73.8724399473005, 40.8751160249221], [-73.872399248933, 40.8751631581147], [-73.8723440548234, 40.8752191650834], [-73.8722900979856, 40.8752709793253], [-73.8722783993556, 40.8752809979962], [-73.8722555590873, 40.875305989576], [-73.8722455170523, 40.8753147572669], [-73.8722182359403, 40.875332196847], [-73.872186056656, 40.8753613735462], [-73.8721524357821, 40.8753839480219], [-73.8721339224857, 40.8753991108982], [-73.8721081479776, 40.8754152901767], [-73.8720050927908, 40.8754759579552], [-73.8719244623096, 40.8755140121136], [-73.8719075267477, 40.8755231768459], [-73.8718800377072, 40.8755417846082], [-73.8718527616048, 40.8755699752293], [-73.8718363888073, 40.8755849191023], [-73.8718203637143, 40.8755947614768], [-73.8717952242122, 40.8756070304859], [-73.8717620470456, 40.8756201962637], [-73.8716901436993, 40.8756428861523], [-73.8716701551588, 40.8756506028236], [-73.8716201128225, 40.8756728483139], [-73.8715652378341, 40.875686249873], [-73.8705436662232, 40.8780572639288], [-73.8706568989664, 40.8780844453975], [-73.8705680955888, 40.8782905444161], [-73.8711632130425, 40.8784334045651], [-73.8720294117803, 40.8764873203962], [-73.8722153589304, 40.8760816545841], [-73.8725681758324, 40.8754164623611], [-73.8728151985536, 40.8750525443542], [-73.8733152011145, 40.8743659028047], [-73.8754540042528, 40.871474062098], [-73.8755155227082, 40.87139301264], [-73.875564242655, 40.8713310696504], [-73.8757074895299, 40.8711593162615], [-73.8758602688828, 40.8709909322785], [-73.8759124814162, 40.8709320240943], [-73.8760803044609, 40.8707643256082], [-73.8762110923258, 40.8706405037057], [-73.8759799250878, 40.8703971398145]]]}}, {"type": "Feature", "properties": {"zone_id": "0207GRK62RQ3N938EPIZ1W", "tract_id": "36005042901", "city": "BRONX, NY", "zone_code": "R7B", "zone_category": "Residential", "ev_permitted": false}, "geometry": {"type": "Polygon", "coordinates": [[[-73.8734184955881, 40.8760281646169], [-73.8733262731178, 40.8761515365496], [-73.8736334476586, 40.8762811144143], [-73.8737251181218, 40.8761581772733], [-73.8734184955881, 40.8760281646169]]]}}, {"type": "Feature", "properties": {"zone_id": "0205M3MKE3NWBQXTC1RTOU", "tract_id": "36005042901", "city": "BRONX, NY", "zone_code": "C8-2", "zone_category": "Commercial", "ev_permitted": true}, "geometry": {"type": "Polygon", "coordinates": [[[-73.8722153589304, 40.8760816545841], [-73.8720294117803, 40.8764873203962], [-73.8721214100301, 40.8765157163497], [-73.8723697754385, 40.8761371367165], [-73.8722153589304, 40.8760816545841]]]}}, {"type": "Feature", "properties": {"zone_id": "0203K6YX3UQKG7ZI9KTDQ8", "tract_id": "36005042901", "city": "BRONX, NY", "zone_code": "R7B", "zone_category": "Residential", "ev_permitted": false}, "geometry": {"type": "Polygon", "coordinates": [[[-73.8764704005309, 40.8750780486904], [-73.8762656802511, 40.8753520212859], [-73.8764417266501, 40.875401789013], [-73.8766313548815, 40.8751472975832], [-73.8764704005309, 40.8750780486904]]]}}, {"type": "Feature", "properties": {"zone_id": "0207EIFMD1RNDBURKX42LG", "tract_id": "36005042901", "city": "BRONX, NY", "zone_code": "R7B", "zone_category": "Residential", "ev_permitted": false}, "geometry": {"type": "Polygon", "coordinates": [[[-73.8763919181221, 40.8750442821137], [-73.8761801760076, 40.875327849341], [-73.8762656802511, 40.8753520212859], [-73.8764704005309, 40.8750780486904], [-73.8763919181221, 40.8750442821137]]]}}, {"type": "Feature", "properties": {"zone_id": "0201JOX8Y0IKB5H7UQJBL6", "tract_id": "36005042901", "city": "BRONX, NY", "zone_code": "R7B", "zone_category": "Residential", "ev_permitted": false}, "geometry": {"type": "Polygon", "coordinates": [[[-73.8763140296056, 40.8750107711788], [-73.8760952019648, 40.8753038275645], [-73.8761801760076, 40.875327849341], [-73.8763919181221, 40.8750442821137], [-73.8763140296056, 40.8750107711788]]]}}, {"type": "Feature", "properties": {"zone_id": "02046AUB8J99EWF1ST99G1", "tract_id": "36005042901", "city": "BRONX, NY", "zone_code": "R7B", "zone_category": "Residential", "ev_permitted": false}, "geometry": {"type": "Polygon", "coordinates": [[[-73.8761130261455, 40.8750032080483], [-73.8759245694165, 40.8752555905635], [-73.8760952019648, 40.8753038275645], [-73.8762694292223, 40.8750704999199], [-73.8761130261455, 40.8750032080483]]]}}, {"type": "Feature", "properties": {"zone_id": "02043HZOVTRRXUQNY9WUO8", "tract_id": "36005042901", "city": "BRONX, NY", "zone_code": "R7B", "zone_category": "Residential", "ev_permitted": false}, "geometry": {"type": "Polygon", "coordinates": [[[-73.8762180861269, 40.8745713014341], [-73.8759930530528, 40.8748726709744], [-73.8763140296056, 40.8750107711788], [-73.8765390635448, 40.8747094003195], [-73.8762180861269, 40.8745713014341]]]}}, {"type": "Feature", "properties": {"zone_id": "02031TKRX48ER6QGUO0XE9", "tract_id": "36005042901", "city": "BRONX, NY", "zone_code": "R7B", "zone_category": "Residential", "ev_permitted": false}, "geometry": {"type": "Polygon", "coordinates": [[[-73.8766282038771, 40.8745900191277], [-73.8764034324378, 40.874891040532], [-73.876720613033, 40.8750275054096], [-73.8769450246198, 40.8747263291337], [-73.8766282038771, 40.8745900191277]]]}}, {"type": "Feature", "properties": {"zone_id": "0201B3IDPEDHKYKFPPNTF9", "tract_id": "36005042901", "city": "BRONX, NY", "zone_code": "R7B", "zone_category": "Residential", "ev_permitted": false}, "geometry": {"type": "Polygon", "coordinates": [[[-73.8764034324378, 40.874891040532], [-73.8763140296056, 40.8750107711788], [-73.8766313548815, 40.8751472975832], [-73.876720613033, 40.8750275054096], [-73.8764034324378, 40.874891040532]]]}}, {"type": "Feature", "properties": {"zone_id": "0204UC049BYBWDOY67D9T6", "tract_id": "36005042901", "city": "BRONX, NY", "zone_code": "R5B", "zone_category": "Residential", "ev_permitted": false}, "geometry": {"type": "Polygon", "coordinates": [[[-73.8766716352844, 40.8745318565883], [-73.8766282038771, 40.8745900191277], [-73.8769450246198, 40.8747263291337], [-73.8769883864705, 40.8746681354863], [-73.8766716352844, 40.8745318565883]]]}}, {"type": "Feature", "properties": {"zone_id": "0200O4D6G7WXTJLQF29YYI", "tract_id": "36005042901", "city": "BRONX, NY", "zone_code": "R5B", "zone_category": "Residential", "ev_permitted": false}, "geometry": {"type": "Polygon", "coordinates": [[[-73.8768960971413, 40.874231243252], [-73.8768501151187, 40.8742928257256], [-73.8771665806492, 40.8744289822794], [-73.8772124894032, 40.8743673679845], [-73.8768960971413, 40.874231243252]]]}}, {"type": "Feature", "properties": {"zone_id": "02035UH823DPWQ6AEDLA8L", "tract_id": "36005042901", "city": "BRONX, NY", "zone_code": "R5B", "zone_category": "Residential", "ev_permitted": false}, "geometry": {"type": "Polygon", "coordinates": [[[-73.8768501151187, 40.8742928257256], [-73.8768070366498, 40.8743505186437], [-73.877123570812, 40.874486704898], [-73.8771665806492, 40.8744289822794], [-73.8768501151187, 40.8742928257256]]]}}, {"type": "Feature", "properties": {"zone_id": "020747KXMLJ9SPOD9WRKW1", "tract_id": "36005042901", "city": "BRONX, NY", "zone_code": "R5B", "zone_category": "Residential", "ev_permitted": false}, "geometry": {"type": "Polygon", "coordinates": [[[-73.8768070366498, 40.8743505186437], [-73.8767621411243, 40.8744106456643], [-73.8770787476276, 40.8745468623307], [-73.877123570812, 40.874486704898], [-73.8768070366498, 40.8743505186437]]]}}, {"type": "Feature", "properties": {"zone_id": "0200K1WDOIDXV1T8FIP5LY", "tract_id": "36005042901", "city": "BRONX, NY", "zone_code": "R5B", "zone_category": "Residential", "ev_permitted": false}, "geometry": {"type": "Polygon", "coordinates": [[[-73.8767621411243, 40.8744106456643], [-73.8767170144531, 40.8744710808797], [-73.8770336932959, 40.8746073293641], [-73.8770787476276, 40.8745468623307], [-73.8767621411243, 40.8744106456643]]]}}, {"type": "Feature", "properties": {"zone_id": "0201UWWENZUSZKWJB94ESX", "tract_id": "36005042901", "city": "BRONX, NY", "zone_code": "R5B", "zone_category": "Residential", "ev_permitted": false}, "geometry": {"type": "Polygon", "coordinates": [[[-73.8769399233994, 40.8741725491295], [-73.8768960971413, 40.874231243252], [-73.8772124894032, 40.8743673679845], [-73.8772562451766, 40.874308643455], [-73.8769399233994, 40.8741725491295]]]}}, {"type": "Feature", "properties": {"zone_id": "0204WI2LF4AXEVPVGDZXH3", "tract_id": "36005042901", "city": "BRONX, NY", "zone_code": "R5B", "zone_category": "Residential", "ev_permitted": false}, "geometry": {"type": "Polygon", "coordinates": [[[-73.8770289221669, 40.8740533564779], [-73.8769860602232, 40.8741107609099], [-73.8773023078069, 40.8742468227103], [-73.8773362705668, 40.8742012411936], [-73.8770289221669, 40.8740533564779]]]}}, {"type": "Feature", "properties": {"zone_id": "0205CK4AZFO075IQL3HEFU", "tract_id": "36005042901", "city": "BRONX, NY", "zone_code": "R5B", "zone_category": "Residential", "ev_permitted": false}, "geometry": {"type": "Polygon", "coordinates": [[[-73.8769860602232, 40.8741107609099], [-73.8769399233994, 40.8741725491295], [-73.8772562451766, 40.874308643455], [-73.8773023078069, 40.8742468227103], [-73.8769860602232, 40.8741107609099]]]}}, {"type": "Feature", "properties": {"zone_id": "0205R4OQHBID1TRF2VXXFF", "tract_id": "36005042901", "city": "BRONX, NY", "zone_code": "R5B", "zone_category": "Residential", "ev_permitted": false}, "geometry": {"type": "Polygon", "coordinates": [[[-73.8767170144531, 40.8744710808797], [-73.8766716352844, 40.8745318565883], [-73.8769883864705, 40.8746681354863], [-73.8770336932959, 40.8746073293641], [-73.8767170144531, 40.8744710808797]]]}}, {"type": "Feature", "properties": {"zone_id": "02002JTD3FJRZOU0G4WO2I", "tract_id": "36005042901", "city": "BRONX, NY", "zone_code": "R7B", "zone_category": "Residential", "ev_permitted": false}, "geometry": {"type": "Polygon", "coordinates": [[[-73.8764411656109, 40.8742725473928], [-73.8763506584481, 40.8743937580672], [-73.8766716352844, 40.8745318565883], [-73.8767621411243, 40.8744106456643], [-73.8764411656109, 40.8742725473928]]]}}, {"type": "Feature", "properties": {"zone_id": "02025OAEMONHUD9V0EBA4N", "tract_id": "36005042901", "city": "BRONX, NY", "zone_code": "R7B", "zone_category": "Residential", "ev_permitted": false}, "geometry": {"type": "Polygon", "coordinates": [[[-73.8763072287002, 40.8744519211919], [-73.8762180861269, 40.8745713014341], [-73.8765390635448, 40.8747094003195], [-73.8766282038771, 40.8745900191277], [-73.8763072287002, 40.8744519211919]]]}}, {"type": "Feature", "properties": {"zone_id": "0207OC2LUX7LMM8ZD83HRW", "tract_id": "36005042901", "city": "BRONX, NY", "zone_code": "R7B", "zone_category": "Residential", "ev_permitted": false}, "geometry": {"type": "Polygon", "coordinates": [[[-73.8763506584481, 40.8743937580672], [-73.8763072287002, 40.8744519211919], [-73.8766282038771, 40.8745900191277], [-73.8766716352844, 40.8745318565883], [-73.8763506584481, 40.8743937580672]]]}}, {"type": "Feature", "properties": {"zone_id": "0202LGAA7RNVX04SCMR1CO", "tract_id": "36005042901", "city": "BRONX, NY", "zone_code": "R7B", "zone_category": "Residential", "ev_permitted": false}, "geometry": {"type": "Polygon", "coordinates": [[[-73.8766189495905, 40.8740344520502], [-73.8764411656109, 40.8742725473928], [-73.8767621411243, 40.8744106456643], [-73.8769399233994, 40.8741725491295], [-73.8766189495905, 40.8740344520502]]]}}, {"type": "Feature", "properties": {"zone_id": "0200M9HX03DJY53IL9GC67", "tract_id": "36005042901", "city": "BRONX, NY", "zone_code": "R5B", "zone_category": "Residential", "ev_permitted": false}, "geometry": {"type": "Polygon", "coordinates": [[[-73.876665086618, 40.8739726632547], [-73.8766189495905, 40.8740344520502], [-73.8769399233994, 40.8741725491295], [-73.8769860602232, 40.8741107609099], [-73.876665086618, 40.8739726632547]]]}}, {"type": "Feature", "properties": {"zone_id": "0202OH1GBX0TSGZP3RAGHD", "tract_id": "36005042901", "city": "BRONX, NY", "zone_code": "R7B", "zone_category": "Residential", "ev_permitted": false}, "geometry": {"type": "Polygon", "coordinates": [[[-73.8759930530528, 40.8748726709744], [-73.8759484524713, 40.8749324009982], [-73.8762694292223, 40.8750704999199], [-73.8763140296056, 40.8750107711788], [-73.8759930530528, 40.8748726709744]]]}}, {"type": "Feature", "properties": {"zone_id": "0207C5SB9RQUBMY09Z7JPS", "tract_id": "36005042901", "city": "BRONX, NY", "zone_code": "R7B", "zone_category": "Residential", "ev_permitted": false}, "geometry": {"type": "Polygon", "coordinates": [[[-73.8759484524713, 40.8749324009982], [-73.8757450237716, 40.875204833174], [-73.8759245694165, 40.8752555905635], [-73.8761130261455, 40.8750032080483], [-73.8759484524713, 40.8749324009982]]]}}, {"type": "Feature", "properties": {"zone_id": "0204CS2QB5M8A31SX407LB", "tract_id": "36005042901", "city": "BRONX, NY", "zone_code": "R5A", "zone_category": "Other", "ev_permitted": false}, "geometry": {"type": "Polygon", "coordinates": [[[-73.8756298052055, 40.8744785258846], [-73.8754963482362, 40.8746582505769], [-73.8758168796072, 40.874798677436], [-73.8759506957874, 40.8746191094535], [-73.8756298052055, 40.8744785258846]]]}}, {"type": "Feature", "properties": {"zone_id": "0205G4S3GXS08N91D3JJIJ", "tract_id": "36005042901", "city": "BRONX, NY", "zone_code": "R5A", "zone_category": "Other", "ev_permitted": false}, "geometry": {"type": "Polygon", "coordinates": [[[-73.8754963482362, 40.8746582505769], [-73.875451070199, 40.8747192261669], [-73.8757714796824, 40.87485959751], [-73.8758168796072, 40.874798677436], [-73.8754963482362, 40.8746582505769]]]}}, {"type": "Feature", "properties": {"zone_id": "0200Q81X6X2YJU71H3VBN1", "tract_id": "36005042901", "city": "BRONX, NY", "zone_code": "R5A", "zone_category": "Other", "ev_permitted": false}, "geometry": {"type": "Polygon", "coordinates": [[[-73.875451070199, 40.8747192261669], [-73.8754090995464, 40.8747757477493], [-73.8757293963713, 40.8749160706037], [-73.8757714796824, 40.87485959751], [-73.875451070199, 40.8747192261669]]]}}, {"type": "Feature", "properties": {"zone_id": "0206815T622VKT3TUM99KZ", "tract_id": "36005042901", "city": "BRONX, NY", "zone_code": "R7B", "zone_category": "Residential", "ev_permitted": false}, "geometry": {"type": "Polygon", "coordinates": [[[-73.8754090995464, 40.8747757477493], [-73.875202386596, 40.875054122593], [-73.8755525766598, 40.8751533392768], [-73.8757293963713, 40.8749160706037], [-73.8754090995464, 40.8747757477493]]]}}, {"type": "Feature", "properties": {"zone_id": "0201DB7S3H4E0IAZ8WXPA9", "tract_id": "36005042901", "city": "BRONX, NY", "zone_code": "R7B", "zone_category": "Residential", "ev_permitted": false}, "geometry": {"type": "Polygon", "coordinates": [[[-73.8752074039704, 40.8747709268121], [-73.8750327908216, 40.8750060722938], [-73.875202386596, 40.875054122593], [-73.8753622910398, 40.8748387839049], [-73.8752074039704, 40.8747709268121]]]}}, {"type": "Feature", "properties": {"zone_id": "0205PEY7DY43XAKZJESPAO", "tract_id": "36005042901", "city": "BRONX, NY", "zone_code": "R7B", "zone_category": "Residential", "ev_permitted": false}, "geometry": {"type": "Polygon", "coordinates": [[[-73.8750428379613, 40.8746988291263], [-73.8748525981837, 40.8749550184045], [-73.8750327908216, 40.8750060722938], [-73.8752074039704, 40.8747709268121], [-73.8750428379613, 40.8746988291263]]]}}, {"type": "Feature", "properties": {"zone_id": "0204ERQPRB16P6OG5XLG46", "tract_id": "36005042901", "city": "BRONX, NY", "zone_code": "R7B", "zone_category": "Residential", "ev_permitted": false}, "geometry": {"type": "Polygon", "coordinates": [[[-73.8751316184337, 40.874579271632], [-73.8750428379613, 40.8746988291263], [-73.8753622910398, 40.8748387839049], [-73.875451070199, 40.8747192261669], [-73.8751316184337, 40.874579271632]]]}}, {"type": "Feature", "properties": {"zone_id": "0200O3RQ4UR9GQA06FIB8D", "tract_id": "36005042901", "city": "BRONX, NY", "zone_code": "R7B", "zone_category": "Residential", "ev_permitted": false}, "geometry": {"type": "Polygon", "coordinates": [[[-73.8751768966672, 40.8745182968684], [-73.8751316184337, 40.874579271632], [-73.875451070199, 40.8747192261669], [-73.8754963482362, 40.8746582505769], [-73.8751768966672, 40.8745182968684]]]}}, {"type": "Feature", "properties": {"zone_id": "0202L9VXVWU2AEG29M2CAB", "tract_id": "36005042901", "city": "BRONX, NY", "zone_code": "R7B", "zone_category": "Residential", "ev_permitted": false}, "geometry": {"type": "Polygon", "coordinates": [[[-73.8756210783335, 40.8739201191964], [-73.8753520332841, 40.8742824427496], [-73.8756714850142, 40.8744223959802], [-73.8759405288879, 40.8740600723941], [-73.8756210783335, 40.8739201191964]]]}}, {"type": "Feature", "properties": {"zone_id": "0203BP4DJ7C5FWL975EKDK", "tract_id": "36005042901", "city": "BRONX, NY", "zone_code": "R5A", "zone_category": "Other", "ev_permitted": false}, "geometry": {"type": "Polygon", "coordinates": [[[-73.8757629728436, 40.8742991892825], [-73.8757194612997, 40.8743577856295], [-73.8760405947442, 40.8744984746097], [-73.8760842226377, 40.8744399288585], [-73.8757629728436, 40.8742991892825]]]}}, {"type": "Feature", "properties": {"zone_id": "0207LMCUE680CDXD3YOFM0", "tract_id": "36005042901", "city": "BRONX, NY", "zone_code": "R5A", "zone_category": "Other", "ev_permitted": false}, "geometry": {"type": "Polygon", "coordinates": [[[-73.8757194612997, 40.8743577856295], [-73.8756714850142, 40.8744223959802], [-73.8759924882539, 40.8745630287408], [-73.8760405947442, 40.8744984746097], [-73.8757194612997, 40.8743577856295]]]}}, {"type": "Feature", "properties": {"zone_id": "02030LC01IJ9S39DNRFODL", "tract_id": "36005042901", "city": "BRONX, NY", "zone_code": "R5A", "zone_category": "Other", "ev_permitted": false}, "geometry": {"type": "Polygon", "coordinates": [[[-73.8758102807865, 40.8742354789602], [-73.8757629728436, 40.8742991892825], [-73.8760842226377, 40.8744399288585], [-73.8761316580096, 40.8743762754571], [-73.8758102807865, 40.8742354789602]]]}}, {"type": "Feature", "properties": {"zone_id": "02004PEX55AIM9D8RWC5KT", "tract_id": "36005042901", "city": "BRONX, NY", "zone_code": "R5A", "zone_category": "Other", "ev_permitted": false}, "geometry": {"type": "Polygon", "coordinates": [[[-73.8756714850142, 40.8744223959802], [-73.8756298052055, 40.8744785258846], [-73.8759506957874, 40.8746191094535], [-73.8759924882539, 40.8745630287408], [-73.8756714850142, 40.8744223959802]]]}}, {"type": "Feature", "properties": {"zone_id": "0200OIVE3UX7OAP0SY4NL6", "tract_id": "36005042901", "city": "BRONX, NY", "zone_code": "R5A", "zone_category": "Other", "ev_permitted": false}, "geometry": {"type": "Polygon", "coordinates": [[[-73.8759849170042, 40.8740002936539], [-73.8759405288879, 40.8740600723941], [-73.876262257007, 40.8742010227882], [-73.876306766094, 40.8741412960512], [-73.8759849170042, 40.8740002936539]]]}}, {"type": "Feature", "properties": {"zone_id": "0205XXN39DLFNY1WDAACQ8", "tract_id": "36005042901", "city": "BRONX, NY", "zone_code": "R5A", "zone_category": "Other", "ev_permitted": false}, "geometry": {"type": "Polygon", "coordinates": [[[-73.8759405288879, 40.8740600723941], [-73.8758937668608, 40.8741230476925], [-73.8762153693964, 40.8742639432744], [-73.876262257007, 40.8742010227882], [-73.8759405288879, 40.8740600723941]]]}}, {"type": "Feature", "properties": {"zone_id": "0204D9TFIVS66CRZMDC6YE", "tract_id": "36005042901", "city": "BRONX, NY", "zone_code": "R5A", "zone_category": "Other", "ev_permitted": false}, "geometry": {"type": "Polygon", "coordinates": [[[-73.8758937668608, 40.8741230476925], [-73.8758521681653, 40.874179068155], [-73.8761736589703, 40.8743199138437], [-73.8762153693964, 40.8742639432744], [-73.8758937668608, 40.8741230476925]]]}}, {"type": "Feature", "properties": {"zone_id": "0202V9UYMNSZT3KVRG6S2M", "tract_id": "36005042901", "city": "BRONX, NY", "zone_code": "R5A", "zone_category": "Other", "ev_permitted": false}, "geometry": {"type": "Polygon", "coordinates": [[[-73.8758521681653, 40.874179068155], [-73.8758102807865, 40.8742354789602], [-73.8761316580096, 40.8743762754571], [-73.8761736589703, 40.8743199138437], [-73.8758521681653, 40.874179068155]]]}}, {"type": "Feature", "properties": {"zone_id": "0202Z8Q0H0JYBTOTZG209K", "tract_id": "36005042901", "city": "BRONX, NY", "zone_code": "R7B", "zone_category": "Residential", "ev_permitted": false}, "geometry": {"type": "Polygon", "coordinates": [[[-73.8748687294702, 40.8740669892662], [-73.8746440713539, 40.8743679497852], [-73.8749531287002, 40.8745078079896], [-73.8751777858902, 40.8742068468766], [-73.8748687294702, 40.8740669892662]]]}}, {"type": "Feature", "properties": {"zone_id": "0202SLUFB4CCOPP90MJIDI", "tract_id": "36005042901", "city": "BRONX, NY", "zone_code": "R7B", "zone_category": "Residential", "ev_permitted": false}, "geometry": {"type": "Polygon", "coordinates": [[[-73.8752659634191, 40.8743983510161], [-73.8752207957823, 40.8744591776779], [-73.8755402675074, 40.8745991404226], [-73.8755854155237, 40.8745383051847], [-73.8752659634191, 40.8743983510161]]]}}, {"type": "Feature", "properties": {"zone_id": "0202WQSN7PB8DAXP5GUVGF", "tract_id": "36005042901", "city": "BRONX, NY", "zone_code": "R7B", "zone_category": "Residential", "ev_permitted": false}, "geometry": {"type": "Polygon", "coordinates": [[[-73.8753103532947, 40.8743385718374], [-73.8752659634191, 40.8743983510161], [-73.8755854155237, 40.8745383051847], [-73.8756298052055, 40.8744785258846], [-73.8753103532947, 40.8743385718374]]]}}, {"type": "Feature", "properties": {"zone_id": "020456I9R94MJ2FC08SMHP", "tract_id": "36005042901", "city": "BRONX, NY", "zone_code": "R7B", "zone_category": "Residential", "ev_permitted": false}, "geometry": {"type": "Polygon", "coordinates": [[[-73.8752207957823, 40.8744591776779], [-73.8751768966672, 40.8745182968684], [-73.8754963482362, 40.8746582505769], [-73.8755402675074, 40.8745991404226], [-73.8752207957823, 40.8744591776779]]]}}, {"type": "Feature", "properties": {"zone_id": "0200B8S4AGPWVCPJG3WN8B", "tract_id": "36005042901", "city": "BRONX, NY", "zone_code": "R7B", "zone_category": "Residential", "ev_permitted": false}, "geometry": {"type": "Polygon", "coordinates": [[[-73.8753520332841, 40.8742824427496], [-73.8753103532947, 40.8743385718374], [-73.8756298052055, 40.8744785258846], [-73.8756714850142, 40.8744223959802], [-73.8753520332841, 40.8742824427496]]]}}, {"type": "Feature", "properties": {"zone_id": "0200FQM28XCG3GH8ZAVFAE", "tract_id": "36005042901", "city": "BRONX, NY", "zone_code": "R7B", "zone_category": "Residential", "ev_permitted": false}, "geometry": {"type": "Polygon", "coordinates": [[[-73.8736557987946, 40.8747455440403], [-73.8733593590835, 40.8751276860594], [-73.8732439890973, 40.8752904015636], [-73.872124375871, 40.8769951727933], [-73.8737715515214, 40.87477904901], [-73.8736557987946, 40.8747455440403]]]}}, {"type": "Feature", "properties": {"zone_id": "0206O0WMLC57LOJZ0DI6K4", "tract_id": "36005042901", "city": "BRONX, NY", "zone_code": "R7B", "zone_category": "Residential", "ev_permitted": false}, "geometry": {"type": "Polygon", "coordinates": [[[-73.8735742841464, 40.8757846121515], [-73.8735262907055, 40.8758488168566], [-73.8738530233533, 40.8759866463226], [-73.8739009268592, 40.8759224027399], [-73.8735742841464, 40.8757846121515]]]}}, {"type": "Feature", "properties": {"zone_id": "0202FKB9MMAZC6OCUF4019", "tract_id": "36005042901", "city": "BRONX, NY", "zone_code": "R7B", "zone_category": "Residential", "ev_permitted": false}, "geometry": {"type": "Polygon", "coordinates": [[[-73.8735262907055, 40.8758488168566], [-73.8734858404264, 40.8759029293355], [-73.8738126491033, 40.8760407906165], [-73.8738530233533, 40.8759866463226], [-73.8735262907055, 40.8758488168566]]]}}, {"type": "Feature", "properties": {"zone_id": "0201AH0I6O7QF2ILXKCOC9", "tract_id": "36005042901", "city": "BRONX, NY", "zone_code": "R7B", "zone_category": "Residential", "ev_permitted": false}, "geometry": {"type": "Polygon", "coordinates": [[[-73.8734858404264, 40.8759029293355], [-73.8734411497779, 40.8759627151975], [-73.8737680437546, 40.8761006111261], [-73.8738126491033, 40.8760407906165], [-73.8734858404264, 40.8759029293355]]]}}, {"type": "Feature", "properties": {"zone_id": "0203P6YNKDU0W08ZZEGJUN", "tract_id": "36005042901", "city": "BRONX, NY", "zone_code": "R7B", "zone_category": "Residential", "ev_permitted": false}, "geometry": {"type": "Polygon", "coordinates": [[[-73.8734411497779, 40.8759627151975], [-73.87339854719, 40.8760197054129], [-73.8737251181218, 40.8761581772733], [-73.8737680437546, 40.8761006111261], [-73.8734411497779, 40.8759627151975]]]}}, {"type": "Feature", "properties": {"zone_id": "020331989QHCR2SSR4ZHSY", "tract_id": "36005042901", "city": "BRONX, NY", "zone_code": "R7B", "zone_category": "Residential", "ev_permitted": false}, "geometry": {"type": "Polygon", "coordinates": [[[-73.8737552113601, 40.8755425723538], [-73.8736604556817, 40.875669334849], [-73.8739869352141, 40.8758070568624], [-73.8740815128736, 40.8756802201311], [-73.8737552113601, 40.8755425723538]]]}}, {"type": "Feature", "properties": {"zone_id": "0206RFV17OGAPSNP873GZ7", "tract_id": "36005042901", "city": "BRONX, NY", "zone_code": "R7B", "zone_category": "Residential", "ev_permitted": false}, "geometry": {"type": "Polygon", "coordinates": [[[-73.8736604556817, 40.875669334849], [-73.8736154433111, 40.8757295525532], [-73.8739420072174, 40.8758673099165], [-73.8739869352141, 40.8758070568624], [-73.8736604556817, 40.875669334849]]]}}, {"type": "Feature", "properties": {"zone_id": "02029ZTF9IO8GMV1GZ4UEN", "tract_id": "36005042901", "city": "BRONX, NY", "zone_code": "R7B", "zone_category": "Residential", "ev_permitted": false}, "geometry": {"type": "Polygon", "coordinates": [[[-73.8736154433111, 40.8757295525532], [-73.8735742841464, 40.8757846121515], [-73.8739009268592, 40.8759224027399], [-73.8739420072174, 40.8758673099165], [-73.8736154433111, 40.8757295525532]]]}}, {"type": "Feature", "properties": {"zone_id": "02070WZJ8NHNFITIJM558F", "tract_id": "36005042901", "city": "BRONX, NY", "zone_code": "R5B", "zone_category": "Residential", "ev_permitted": false}, "geometry": {"type": "Polygon", "coordinates": [[[-73.8743779414455, 40.8749870567935], [-73.8741817137818, 40.8752495727539], [-73.8743497649396, 40.8753204626948], [-73.8745597217449, 40.8750388846504], [-73.8743779414455, 40.8749870567935]]]}}, {"type": "Feature", "properties": {"zone_id": "0201818X2EN4GENRZ1HPL8", "tract_id": "36005042901", "city": "BRONX, NY", "zone_code": "R7B", "zone_category": "Residential", "ev_permitted": false}, "geometry": {"type": "Polygon", "coordinates": [[[-73.8740239696545, 40.8751830298214], [-73.8739769505951, 40.875245932383], [-73.874302834888, 40.8753834020217], [-73.8743497649396, 40.8753204626948], [-73.8740239696545, 40.8751830298214]]]}}, {"type": "Feature", "properties": {"zone_id": "0207LZS5IKSPBK0SSAYMW9", "tract_id": "36005042901", "city": "BRONX, NY", "zone_code": "R7B", "zone_category": "Residential", "ev_permitted": false}, "geometry": {"type": "Polygon", "coordinates": [[[-73.8738879236429, 40.8753650312886], [-73.8737960778934, 40.8754879023351], [-73.8741223024549, 40.8756255161877], [-73.8742139757507, 40.875502572325], [-73.8738879236429, 40.8753650312886]]]}}, {"type": "Feature", "properties": {"zone_id": "0202T6LQ8S5X03OL35YMDQ", "tract_id": "36005042901", "city": "BRONX, NY", "zone_code": "R5B", "zone_category": "Residential", "ev_permitted": false}, "geometry": {"type": "Polygon", "coordinates": [[[-73.8739532234524, 40.8753054841732], [-73.8739037282243, 40.8753716983607], [-73.8742139757507, 40.875502572325], [-73.8742633773473, 40.8754363185564], [-73.8739532234524, 40.8753054841732]]]}}, {"type": "Feature", "properties": {"zone_id": "0200ZO5MGV56M10J203MCW", "tract_id": "36005042901", "city": "BRONX, NY", "zone_code": "R5B", "zone_category": "Residential", "ev_permitted": false}, "geometry": {"type": "Polygon", "coordinates": [[[-73.8738078053192, 40.8754928498127], [-73.8737669443426, 40.8755475219496], [-73.8740815128736, 40.8756802201311], [-73.8741223024549, 40.8756255161877], [-73.8738078053192, 40.8754928498127]]]}}, {"type": "Feature", "properties": {"zone_id": "0200ZXZ73EMY2MYH57DPAW", "tract_id": "36005042901", "city": "BRONX, NY", "zone_code": "R7B", "zone_category": "Residential", "ev_permitted": false}, "geometry": {"type": "Polygon", "coordinates": [[[-73.8734670330997, 40.8754203793084], [-73.8732857487953, 40.8756628953621], [-73.8735742841464, 40.8757846121515], [-73.8737552113601, 40.8755425723538], [-73.8734670330997, 40.8754203793084]]]}}, {"type": "Feature", "properties": {"zone_id": "0205SFI5NUBA3BUB1RHRO1", "tract_id": "36005042901", "city": "BRONX, NY", "zone_code": "R7B", "zone_category": "Residential", "ev_permitted": false}, "geometry": {"type": "Polygon", "coordinates": [[[-73.8735075434252, 40.875366185391], [-73.8734670330997, 40.8754203793084], [-73.8737669443426, 40.8755475219496], [-73.8738078053192, 40.8754928498127], [-73.8735075434252, 40.875366185391]]]}}, {"type": "Feature", "properties": {"zone_id": "02037PQMCR18IMANQDIPYS", "tract_id": "36005042901", "city": "BRONX, NY", "zone_code": "R7B", "zone_category": "Residential", "ev_permitted": false}, "geometry": {"type": "Polygon", "coordinates": [[[-73.8735993895385, 40.8752433152741], [-73.8735075434252, 40.875366185391], [-73.8737960778934, 40.8754879023351], [-73.8738879236429, 40.8753650312886], [-73.8735993895385, 40.8752433152741]]]}}, {"type": "Feature", "properties": {"zone_id": "0202KPZNZCAXPA3RHGYXQH", "tract_id": "36005042901", "city": "BRONX, NY", "zone_code": "R7B", "zone_category": "Residential", "ev_permitted": false}, "geometry": {"type": "Polygon", "coordinates": [[[-73.8739769505951, 40.875245932383], [-73.8739374188818, 40.8752988171078], [-73.8742633773473, 40.8754363185564], [-73.874302834888, 40.8753834020217], [-73.8739769505951, 40.875245932383]]]}}, {"type": "Feature", "properties": {"zone_id": "0205PA9653IR4HIPUEURPL", "tract_id": "36005042901", "city": "BRONX, NY", "zone_code": "R7B", "zone_category": "Residential", "ev_permitted": false}, "geometry": {"type": "Polygon", "coordinates": [[[-73.8736884168445, 40.8751242165885], [-73.8736454966819, 40.8751816351669], [-73.8739340296775, 40.8753033510664], [-73.8739769505951, 40.875245932383], [-73.8736884168445, 40.8751242165885]]]}}, {"type": "Feature", "properties": {"zone_id": "0206WYWP3D7TZMQ7DV4PV7", "tract_id": "36005042901", "city": "BRONX, NY", "zone_code": "R7B", "zone_category": "Residential", "ev_permitted": false}, "geometry": {"type": "Polygon", "coordinates": [[[-73.8739374188818, 40.8752988171078], [-73.8738879236429, 40.8753650312886], [-73.8739037282243, 40.8753716983607], [-73.8739532234524, 40.8753054841732], [-73.8739374188818, 40.8752988171078]]]}}, {"type": "Feature", "properties": {"zone_id": "020607JI6G50WXNJUWXP25", "tract_id": "36005042901", "city": "", "zone_code": "R7B", "zone_category": "Residential", "ev_permitted": false}, "geometry": {"type": "Polygon", "coordinates": [[[-73.8737281897117, 40.8750710089958], [-73.8736884168445, 40.8751242165885], [-73.8738871475943, 40.8752080490142], [-73.8739269203529, 40.8751548411782], [-73.8737281897117, 40.8750710089958]]]}}, {"type": "Feature", "properties": {"zone_id": "0203GVFJY6RV1IFA1F49AF", "tract_id": "36005042901", "city": "BRONX, NY", "zone_code": "R7B", "zone_category": "Residential", "ev_permitted": false}, "geometry": {"type": "Polygon", "coordinates": [[[-73.8736454966819, 40.8751816351669], [-73.8735993895385, 40.8752433152741], [-73.8738879236429, 40.8753650312886], [-73.8739340296775, 40.8753033510664], [-73.8736454966819, 40.8751816351669]]]}}, {"type": "Feature", "properties": {"zone_id": "0205JNCW39FLW9CQE5Y5HP", "tract_id": "36005042901", "city": "BRONX, NY", "zone_code": "R7B", "zone_category": "Residential", "ev_permitted": false}, "geometry": {"type": "Polygon", "coordinates": [[[-73.8731103684413, 40.8758975121911], [-73.87301776322, 40.8760213935777], [-73.8733262731178, 40.8761515365496], [-73.8734184955881, 40.8760281646169], [-73.8731103684413, 40.8758975121911]]]}}, {"type": "Feature", "properties": {"zone_id": "0203ZL54C1TOC5A0ONFCPY", "tract_id": "36005042901", "city": "BRONX, NY", "zone_code": "R7B", "zone_category": "Residential", "ev_permitted": false}, "geometry": {"type": "Polygon", "coordinates": [[[-73.8731535076235, 40.87583980176], [-73.8731103684413, 40.8758975121911], [-73.87339854719, 40.8760197054129], [-73.8734420435002, 40.875961518876], [-73.8731535076235, 40.87583980176]]]}}, {"type": "Feature", "properties": {"zone_id": "0207BRSF61MKHEXKT0HYRN", "tract_id": "36005042901", "city": "BRONX, NY", "zone_code": "R7B", "zone_category": "Residential", "ev_permitted": false}, "geometry": {"type": "Polygon", "coordinates": [[[-73.8732377551637, 40.8757270999486], [-73.8731973047238, 40.8757812123276], [-73.8734858404264, 40.8759029293355], [-73.8735262907055, 40.8758488168566], [-73.8732377551637, 40.8757270999486]]]}}, {"type": "Feature", "properties": {"zone_id": "0202IH3AOTLY17WL70GNSN", "tract_id": "36005042901", "city": "BRONX, NY", "zone_code": "R7B", "zone_category": "Residential", "ev_permitted": false}, "geometry": {"type": "Polygon", "coordinates": [[[-73.8731973047238, 40.8757812123276], [-73.8731535076235, 40.87583980176], [-73.8734420435002, 40.875961518876], [-73.8734858404264, 40.8759029293355], [-73.8731973047238, 40.8757812123276]]]}}, {"type": "Feature", "properties": {"zone_id": "0207DFWEIRMDRLNKXJ62H0", "tract_id": "36005042901", "city": "BRONX, NY", "zone_code": "R7B", "zone_category": "Residential", "ev_permitted": false}, "geometry": {"type": "Polygon", "coordinates": [[[-73.8732857487953, 40.8756628953621], [-73.8732377551637, 40.8757270999486], [-73.8735262907055, 40.8758488168566], [-73.8735742841464, 40.8757846121515], [-73.8732857487953, 40.8756628953621]]]}}, {"type": "Feature", "properties": {"zone_id": "0204BBD0GNE9EHP1HDHD60", "tract_id": "36005042901", "city": "BRONX, NY", "zone_code": "C8-2", "zone_category": "Commercial", "ev_permitted": true}, "geometry": {"type": "Polygon", "coordinates": [[[-73.8725681758324, 40.8754164623611], [-73.8722153589304, 40.8760816545841], [-73.8723697754385, 40.8761371367165], [-73.8727880047178, 40.8754996257607], [-73.8725681758324, 40.8754164623611]]]}}, {"type": "Feature", "properties": {"zone_id": "0203GS9HFPEX7S0HPDB271", "tract_id": "36005042901", "city": "BRONX, NY", "zone_code": "C8-2", "zone_category": "Commercial", "ev_permitted": true}, "geometry": {"type": "Polygon", "coordinates": [[[-73.8728151985536, 40.8750525443542], [-73.8725681758324, 40.8754164623611], [-73.8727880047178, 40.8754996257607], [-73.8730269022746, 40.8751354650733], [-73.8728151985536, 40.8750525443542]]]}}, {"type": "Feature", "properties": {"zone_id": "0206ZP9IN2Z4HZ16KK9QFO", "tract_id": "36005042901", "city": "BRONX, NY", "zone_code": "R7B", "zone_category": "Residential", "ev_permitted": false}, "geometry": {"type": "Polygon", "coordinates": [[[-73.8742069083499, 40.8749382933436], [-73.8740239696545, 40.8751830298214], [-73.8741817137818, 40.8752495727539], [-73.8743779414455, 40.8749870567935], [-73.8742069083499, 40.8749382933436]]]}}, {"type": "Feature", "properties": {"zone_id": "0204UF5QNT027QRCMXPX0K", "tract_id": "36005042901", "city": "BRONX, NY", "zone_code": "R7B", "zone_category": "Residential", "ev_permitted": false}, "geometry": {"type": "Polygon", "coordinates": [[[-73.8745563280649, 40.8744854935626], [-73.8745130200781, 40.8745435099958], [-73.8748220779647, 40.8746833685467], [-73.874865385773, 40.8746253519991], [-73.8745563280649, 40.8744854935626]]]}}, {"type": "Feature", "properties": {"zone_id": "0206IZ12IMM2JD8BHE4FFJ", "tract_id": "36005042901", "city": "BRONX, NY", "zone_code": "R7B", "zone_category": "Residential", "ev_permitted": false}, "geometry": {"type": "Polygon", "coordinates": [[[-73.8747367744653, 40.8746447662916], [-73.8745678780199, 40.8748710225382], [-73.8746620053695, 40.8748978055243], [-73.8748220779647, 40.8746833685467], [-73.8747367744653, 40.8746447662916]]]}}, {"type": "Feature", "properties": {"zone_id": "0203BXO67EKHWPYZ6X4928", "tract_id": "36005042901", "city": "BRONX, NY", "zone_code": "R7B", "zone_category": "Residential", "ev_permitted": false}, "geometry": {"type": "Polygon", "coordinates": [[[-73.8746641253849, 40.8746118901962], [-73.8744877145406, 40.8748482126448], [-73.8745678780199, 40.8748710225382], [-73.8747367744653, 40.8746447662916], [-73.8746641253849, 40.8746118901962]]]}}, {"type": "Feature", "properties": {"zone_id": "0206KY6CV6A3NLNOWZ7Q1L", "tract_id": "36005042901", "city": "BRONX, NY", "zone_code": "R7B", "zone_category": "Residential", "ev_permitted": false}, "geometry": {"type": "Polygon", "coordinates": [[[-73.8745916789243, 40.8745791070236], [-73.8744077750083, 40.8748254675822], [-73.8744877145406, 40.8748482126448], [-73.8746641253849, 40.8746118901962], [-73.8745916789243, 40.8745791070236]]]}}, {"type": "Feature", "properties": {"zone_id": "0206AOLFCL07LCCXZM9DCS", "tract_id": "36005042901", "city": "BRONX, NY", "zone_code": "R7B", "zone_category": "Residential", "ev_permitted": false}, "geometry": {"type": "Polygon", "coordinates": [[[-73.8745130200781, 40.8745435099958], [-73.8743209790064, 40.8748007707872], [-73.8744077750083, 40.8748254675822], [-73.8745916789243, 40.8745791070236], [-73.8745130200781, 40.8745435099958]]]}}, {"type": "Feature", "properties": {"zone_id": "02012SSS4G73B4W19BSZ86", "tract_id": "36005042901", "city": "BRONX, NY", "zone_code": "R7B", "zone_category": "Residential", "ev_permitted": false}, "geometry": {"type": "Polygon", "coordinates": [[[-73.8741095403151, 40.8749105325896], [-73.8738871475943, 40.8752080490142], [-73.8739769505951, 40.875245932383], [-73.8742069083499, 40.8749382933436], [-73.8741095403151, 40.8749105325896]]]}}, {"type": "Feature", "properties": {"zone_id": "0207LBING4MSF8XF9M9LHR", "tract_id": "36005042901", "city": "", "zone_code": "R7B", "zone_category": "Residential", "ev_permitted": false}, "geometry": {"type": "Polygon", "coordinates": [[[-73.8738940684254, 40.8748490979304], [-73.8738480255439, 40.8749106937178], [-73.8740467558566, 40.8749945258719], [-73.8741095403151, 40.8749105325896], [-73.8738940684254, 40.8748490979304]]]}}, {"type": "Feature", "properties": {"zone_id": "0203X7P4S2AVW9X0E83YYG", "tract_id": "36005042901", "city": "", "zone_code": "R7B", "zone_category": "Residential", "ev_permitted": false}, "geometry": {"type": "Polygon", "coordinates": [[[-73.8738480255439, 40.8749106937178], [-73.8738071250698, 40.8749654100974], [-73.8740058554946, 40.8750492423211], [-73.8740467558566, 40.8749945258719], [-73.8738480255439, 40.8749106937178]]]}}, {"type": "Feature", "properties": {"zone_id": "02042KWQ5TYA1J6CQ1AAFI", "tract_id": "36005042901", "city": "", "zone_code": "R7B", "zone_category": "Residential", "ev_permitted": false}, "geometry": {"type": "Polygon", "coordinates": [[[-73.8737665625669, 40.8750196743304], [-73.8737281897117, 40.8750710089958], [-73.8739269203529, 40.8751548411782], [-73.8739652928713, 40.8751035066229], [-73.8737665625669, 40.8750196743304]]]}}, {"type": "Feature", "properties": {"zone_id": "02024OT77UP6PPXOX7FE8L", "tract_id": "36005042901", "city": "", "zone_code": "R7B", "zone_category": "Residential", "ev_permitted": false}, "geometry": {"type": "Polygon", "coordinates": [[[-73.8738071250698, 40.8749654100974], [-73.8737665625669, 40.8750196743304], [-73.8739652928713, 40.8751035066229], [-73.8740058554946, 40.8750492423211], [-73.8738071250698, 40.8749654100974]]]}}, {"type": "Feature", "properties": {"zone_id": "0200PACZXM28AR2I5IB5KR", "tract_id": "36005042901", "city": "BRONX, NY", "zone_code": "R7B", "zone_category": "Residential", "ev_permitted": false}, "geometry": {"type": "Polygon", "coordinates": [[[-73.8737810816855, 40.8745809123087], [-73.8736747077287, 40.8747152893062], [-73.8737967286543, 40.874750010359], [-73.8738862512309, 40.8746108375734], [-73.8737810816855, 40.8745809123087]]]}}, {"type": "Feature", "properties": {"zone_id": "0204JERDRWFPIOJBLWVS8F", "tract_id": "36005042901", "city": "BRONX, NY", "zone_code": "R7B", "zone_category": "Residential", "ev_permitted": false}, "geometry": {"type": "Polygon", "coordinates": [[[-73.8742403582859, 40.8743072034892], [-73.8739846906258, 40.8747050471273], [-73.8743209790064, 40.8748007707872], [-73.874576045717, 40.8744590787946], [-73.8742403582859, 40.8743072034892]]]}}, {"type": "Feature", "properties": {"zone_id": "02019P30521POS48RW7HKJ", "tract_id": "36005042901", "city": "BRONX, NY", "zone_code": "R7B", "zone_category": "Residential", "ev_permitted": false}, "geometry": {"type": "Polygon", "coordinates": [[[-73.8744219563931, 40.8740246152562], [-73.8742403582859, 40.8743072034892], [-73.874576045717, 40.8744590787946], [-73.8747795801079, 40.8741864182879], [-73.8744219563931, 40.8740246152562]]]}}, {"type": "Feature", "properties": {"zone_id": "0200DSY0QCTZLN75GY6JRL", "tract_id": "36005042901", "city": "BRONX, NY", "zone_code": "R7B", "zone_category": "Residential", "ev_permitted": false}, "geometry": {"type": "Polygon", "coordinates": [[[-73.8746440713539, 40.8743679497852], [-73.8746003876713, 40.874426470341], [-73.874909445199, 40.8745663279583], [-73.8749531287002, 40.8745078079896], [-73.8746440713539, 40.8743679497852]]]}}, {"type": "Feature", "properties": {"zone_id": "0202E4U3VLT01MLCCZNOOG", "tract_id": "36005042901", "city": "BRONX, NY", "zone_code": "R7B", "zone_category": "Residential", "ev_permitted": false}, "geometry": {"type": "Polygon", "coordinates": [[[-73.8746003876713, 40.874426470341], [-73.8745563280649, 40.8744854935626], [-73.874865385773, 40.8746253519991], [-73.874909445199, 40.8745663279583], [-73.8746003876713, 40.874426470341]]]}}, {"type": "Feature", "properties": {"zone_id": "0207NAYEXGNJ0QZZQGCGYF", "tract_id": "36005042901", "city": "BRONX, NY", "zone_code": "R7B", "zone_category": "Residential", "ev_permitted": false}, "geometry": {"type": "Polygon", "coordinates": [[[-73.8741752904153, 40.8740829230261], [-73.8738817551348, 40.8744537352762], [-73.8739709781824, 40.8744791236434], [-73.874218013925, 40.8740950796349], [-73.8741752904153, 40.8740829230261]]]}}, {"type": "Feature", "properties": {"zone_id": "0207MZBJEH12YMX3TWAEWK", "tract_id": "36005042901", "city": "BRONX, NY", "zone_code": "R7B", "zone_category": "Residential", "ev_permitted": false}, "geometry": {"type": "Polygon", "coordinates": [[[-73.8738817551348, 40.8744537352762], [-73.8737810816855, 40.8745809123087], [-73.8738862512309, 40.8746108375734], [-73.8739709781824, 40.8744791236434], [-73.8738817551348, 40.8744537352762]]]}}, {"type": "Feature", "properties": {"zone_id": "02023LHQV05QWW7CT1O8O6", "tract_id": "36005042901", "city": "BRONX, NY", "zone_code": "C8-2", "zone_category": "Commercial", "ev_permitted": true}, "geometry": {"type": "Polygon", "coordinates": [[[-73.8733152011145, 40.8743659028047], [-73.8728151985536, 40.8750525443542], [-73.8730269022746, 40.8751354650733], [-73.8731842330642, 40.8749187233908], [-73.8735667872432, 40.8744325783773], [-73.8733152011145, 40.8743659028047]]]}}, {"type": "Feature", "properties": {"zone_id": "0203GPCK1QQHUNIMORVRFH", "tract_id": "36005042901", "city": "BRONX, NY", "zone_code": "C4-4", "zone_category": "Commercial", "ev_permitted": true}, "geometry": {"type": "Polygon", "coordinates": [[[-73.8712837424866, 40.8781626166641], [-73.8711632130425, 40.8784334045651], [-73.8714448811266, 40.878501020469], [-73.871505340107, 40.8782158111496], [-73.8712837424866, 40.8781626166641]]]}}, {"type": "Feature", "properties": {"zone_id": "0202M22QMCL7J6OQYYIE3R", "tract_id": "36005042901", "city": "BRONX, NY", "zone_code": "C4-4", "zone_category": "Commercial", "ev_permitted": true}, "geometry": {"type": "Polygon", "coordinates": [[[-73.8713149985513, 40.8780923950997], [-73.8712837424866, 40.8781626166641], [-73.871505340107, 40.8782158111496], [-73.8715210176599, 40.8781418495898], [-73.8713149985513, 40.8780923950997]]]}}, {"type": "Feature", "properties": {"zone_id": "0205M22J17R43WAH67OUPM", "tract_id": "36005042901", "city": "BRONX, NY", "zone_code": "C4-4", "zone_category": "Commercial", "ev_permitted": true}, "geometry": {"type": "Polygon", "coordinates": [[[-73.8713589895548, 40.8779935642148], [-73.8713149985513, 40.8780923950997], [-73.8715210176599, 40.8781418495898], [-73.8715430835024, 40.8780377567358], [-73.8713589895548, 40.8779935642148]]]}}, {"type": "Feature", "properties": {"zone_id": "02019RQ5SJN0P8HQ5AYJI6", "tract_id": "36005042901", "city": "BRONX, NY", "zone_code": "C4-4", "zone_category": "Commercial", "ev_permitted": true}, "geometry": {"type": "Polygon", "coordinates": [[[-73.8714886411256, 40.8777022747356], [-73.8713589895548, 40.8779935642148], [-73.8715430835024, 40.8780377567358], [-73.8716081175167, 40.8777309553386], [-73.8714886411256, 40.8777022747356]]]}}, {"type": "Feature", "properties": {"zone_id": "0205W1XM63XM7W3IJLD7P4", "tract_id": "36005042901", "city": "BRONX, NY", "zone_code": "C4-4", "zone_category": "Commercial", "ev_permitted": true}, "geometry": {"type": "Polygon", "coordinates": [[[-73.8715569409664, 40.8775488278061], [-73.8714886411256, 40.8777022747356], [-73.8716081175167, 40.8777309553386], [-73.871642375703, 40.8775693367044], [-73.8715569409664, 40.8775488278061]]]}}, {"type": "Feature", "properties": {"zone_id": "0204BG9NN8K0IQTVDK33OP", "tract_id": "36005042901", "city": "BRONX, NY", "zone_code": "R5B", "zone_category": "Residential", "ev_permitted": false}, "geometry": {"type": "Polygon", "coordinates": [[[-73.8767169268757, 40.8739032350858], [-73.876665086618, 40.8739726632547], [-73.8769860602232, 40.8741107609099], [-73.8770289221669, 40.8740533564779], [-73.8767169268757, 40.8739032350858]]]}}, {"type": "Feature", "properties": {"zone_id": "0206PDTOHOUP459RG82XXX", "tract_id": "36005042901", "city": "BRONX, NY", "zone_code": "R7B", "zone_category": "Residential", "ev_permitted": false}, "geometry": {"type": "Polygon", "coordinates": [[[-73.8762325719353, 40.8736667701558], [-73.8761207460727, 40.8738173689849], [-73.8764429608299, 40.8739585323052], [-73.8765482049081, 40.8738173021822], [-73.8762325719353, 40.8736667701558]]]}}, {"type": "Feature", "properties": {"zone_id": "0207DYIAAM7VII9PC68EWH", "tract_id": "36005042901", "city": "BRONX, NY", "zone_code": "R7B", "zone_category": "Residential", "ev_permitted": false}, "geometry": {"type": "Polygon", "coordinates": [[[-73.8761207460727, 40.8738173689849], [-73.8760284178756, 40.873941709137], [-73.8763503842373, 40.8740827635358], [-73.8764429608299, 40.8739585323052], [-73.8761207460727, 40.8738173689849]]]}}, {"type": "Feature", "properties": {"zone_id": "0201SWOPUM61B6MEK8GRH5", "tract_id": "36005042901", "city": "BRONX, NY", "zone_code": "R7B", "zone_category": "Residential", "ev_permitted": false}, "geometry": {"type": "Polygon", "coordinates": [[[-73.8758012972306, 40.873677416281], [-73.8756210783335, 40.8739201191964], [-73.8759405288879, 40.8740600723941], [-73.8761207460727, 40.8738173689849], [-73.8758012972306, 40.873677416281]]]}}, {"type": "Feature", "properties": {"zone_id": "0203M6MWFG6DZCR7N7BW1R", "tract_id": "36005042901", "city": "BRONX, NY", "zone_code": "R5A", "zone_category": "Other", "ev_permitted": false}, "geometry": {"type": "Polygon", "coordinates": [[[-73.8760284178756, 40.873941709137], [-73.8759849170042, 40.8740002936539], [-73.876306766094, 40.8741412960512], [-73.8763503842373, 40.8740827635358], [-73.8760284178756, 40.873941709137]]]}}, {"type": "Feature", "properties": {"zone_id": "0201X6Z7HB9A0AWR6GUZWI", "tract_id": "36005042901", "city": "BRONX, NY", "zone_code": "R7B", "zone_category": "Residential", "ev_permitted": false}, "geometry": {"type": "Polygon", "coordinates": [[[-73.8759199229967, 40.873517659806], [-73.8758012972306, 40.873677416281], [-73.8761207460727, 40.8738173689849], [-73.8762325719353, 40.8736667701558], [-73.8759199229967, 40.873517659806]]]}}, {"type": "Feature", "properties": {"zone_id": "0200FDUBIKX2TRAZZT6IMD", "tract_id": "36005042901", "city": "", "zone_code": "R7B", "zone_category": "Residential", "ev_permitted": false}, "geometry": {"type": "Polygon", "coordinates": [[[-73.8748138646583, 40.8734147514992], [-73.8745014985562, 40.8739008379476], [-73.8748687294702, 40.8740669892662], [-73.8752188286661, 40.8735979775001], [-73.8748138646583, 40.8734147514992]]]}}, {"type": "Feature", "properties": {"zone_id": "0202E6V523YW1WQTM64Y8T", "tract_id": "36005042901", "city": "BRONX, NY", "zone_code": "R7B", "zone_category": "Residential", "ev_permitted": false}, "geometry": {"type": "Polygon", "coordinates": [[[-73.8750911912923, 40.8737682301063], [-73.8748687294702, 40.8740669892662], [-73.8751777858902, 40.8742068468766], [-73.8754006583651, 40.8739082730704], [-73.8750911912923, 40.8737682301063]]]}}, {"type": "Feature", "properties": {"zone_id": "0201W7NB6P32FUUGQI4E9D", "tract_id": "36005042901", "city": "BRONX, NY", "zone_code": "R7B", "zone_category": "Residential", "ev_permitted": false}, "geometry": {"type": "Polygon", "coordinates": [[[-73.8753113524866, 40.8734740260568], [-73.8752695250407, 40.8735300608242], [-73.875578579808, 40.8736699173749], [-73.8756204070814, 40.8736138824968], [-73.8753113524866, 40.8734740260568]]]}}, {"type": "Feature", "properties": {"zone_id": "0207KZ84T2J53855TWLKBJ", "tract_id": "36005042901", "city": "BRONX, NY", "zone_code": "R7B", "zone_category": "Residential", "ev_permitted": false}, "geometry": {"type": "Polygon", "coordinates": [[[-73.8752695250407, 40.8735300608242], [-73.8750911912923, 40.8737682301063], [-73.8754006583651, 40.8739082730704], [-73.875578579808, 40.8736699173749], [-73.8752695250407, 40.8735300608242]]]}}, {"type": "Feature", "properties": {"zone_id": "0207A2MVX1X3MB4ERAGQP0", "tract_id": "36005042901", "city": "BRONX, NY", "zone_code": "R7B", "zone_category": "Residential", "ev_permitted": false}, "geometry": {"type": "Polygon", "coordinates": [[[-73.8754441998425, 40.8732960532732], [-73.8753592359323, 40.8734098773805], [-73.8756682912554, 40.873549733695], [-73.8757489860912, 40.8734416270838], [-73.8754441998425, 40.8732960532732]]]}}, {"type": "Feature", "properties": {"zone_id": "0206P1KKBGW2T9SF1G5SS8", "tract_id": "36005042901", "city": "BRONX, NY", "zone_code": "R7D", "zone_category": "Residential", "ev_permitted": false}, "geometry": {"type": "Polygon", "coordinates": [[[-73.8750202379961, 40.8730936007569], [-73.8748138646583, 40.8734147514992], [-73.8752188286661, 40.8735979775001], [-73.8754441998425, 40.8732960532732], [-73.8750202379961, 40.8730936007569]]]}}, {"type": "Feature", "properties": {"zone_id": "0204XFQ312D4GK3DBF81VU", "tract_id": "36005042901", "city": "BRONX, NY", "zone_code": "R7B", "zone_category": "Residential", "ev_permitted": false}, "geometry": {"type": "Polygon", "coordinates": [[[-73.8753592359323, 40.8734098773805], [-73.8753113524866, 40.8734740260568], [-73.8756204070814, 40.8736138824968], [-73.8756682912554, 40.873549733695], [-73.8753592359323, 40.8734098773805]]]}}, {"type": "Feature", "properties": {"zone_id": "0206841WHEO84276JVX4N4", "tract_id": "36005042901", "city": "BRONX, NY", "zone_code": "C8-2", "zone_category": "Commercial", "ev_permitted": true}, "geometry": {"type": "Polygon", "coordinates": [[[-73.8738935667275, 40.8735839954468], [-73.8733152011145, 40.8743659028047], [-73.8735667872432, 40.8744325783773], [-73.8741439909787, 40.8737028087578], [-73.8738935667275, 40.8735839954468]]]}}, {"type": "Feature", "properties": {"zone_id": "02019UL6Q46Q6JUN05ABR3", "tract_id": "36005042901", "city": "BRONX, NY", "zone_code": "R7B", "zone_category": "Residential", "ev_permitted": false}, "geometry": {"type": "Polygon", "coordinates": [[[-73.8745014985562, 40.8739008379476], [-73.8744219563931, 40.8740246152562], [-73.8747795801079, 40.8741864182879], [-73.8748687294702, 40.8740669892662], [-73.8745014985562, 40.8739008379476]]]}}, {"type": "Feature", "properties": {"zone_id": "0206WI6F9SOCLFIXRY0XIF", "tract_id": "36005042901", "city": "BRONX, NY", "zone_code": "R7B", "zone_category": "Residential", "ev_permitted": false}, "geometry": {"type": "Polygon", "coordinates": [[[-73.8744449945159, 40.8737422105615], [-73.8741752904153, 40.8740829230261], [-73.874218013925, 40.8740950796349], [-73.8744449945159, 40.8737422105615]]]}}, {"type": "Feature", "properties": {"zone_id": "020757QIG9F6WPPUFMHPSI", "tract_id": "36005042901", "city": "BRONX, NY", "zone_code": "R7D", "zone_category": "Residential", "ev_permitted": false}, "geometry": {"type": "Polygon", "coordinates": [[[-73.8739398685799, 40.8735213956593], [-73.8738935667275, 40.8735839954468], [-73.8741439909787, 40.8737028087578], [-73.8741926260301, 40.8736413173735], [-73.8739398685799, 40.8735213956593]]]}}, {"type": "Feature", "properties": {"zone_id": "0207B5S9SVRP2OM1TXUCTZ", "tract_id": "36005042901", "city": "BRONX, NY", "zone_code": "R7D", "zone_category": "Residential", "ev_permitted": false}, "geometry": {"type": "Polygon", "coordinates": [[[-73.8739835133633, 40.8734623911811], [-73.8739398685799, 40.8735213956593], [-73.8741926260301, 40.8736413173735], [-73.8742384699228, 40.873583355108], [-73.8739835133633, 40.8734623911811]]]}}, {"type": "Feature", "properties": {"zone_id": "0200EYML7A6NK96M2GKQ0S", "tract_id": "36005042901", "city": "BRONX, NY", "zone_code": "R7D", "zone_category": "Residential", "ev_permitted": false}, "geometry": {"type": "Polygon", "coordinates": [[[-73.8741605519437, 40.8732230431484], [-73.8741145261373, 40.8732852681177], [-73.874377256539, 40.8734078808913], [-73.8744244288258, 40.8733482392761], [-73.8741605519437, 40.8732230431484]]]}}, {"type": "Feature", "properties": {"zone_id": "0203Z6TGYC8PAV2N7V3BW3", "tract_id": "36005042901", "city": "BRONX, NY", "zone_code": "R7D", "zone_category": "Residential", "ev_permitted": false}, "geometry": {"type": "Polygon", "coordinates": [[[-73.8741145261373, 40.8732852681177], [-73.8740723785059, 40.873342249969], [-73.8743318128021, 40.8734653384497], [-73.874377256539, 40.8734078808913], [-73.8741145261373, 40.8732852681177]]]}}, {"type": "Feature", "properties": {"zone_id": "02052NSB29GZFSSR863R1P", "tract_id": "36005042901", "city": "BRONX, NY", "zone_code": "R7D", "zone_category": "Residential", "ev_permitted": false}, "geometry": {"type": "Polygon", "coordinates": [[[-73.8740723785059, 40.873342249969], [-73.874025231465, 40.8734059906821], [-73.8742822900272, 40.8735279524519], [-73.8743318128021, 40.8734653384497], [-73.8740723785059, 40.873342249969]]]}}, {"type": "Feature", "properties": {"zone_id": "0200UPA2WA4OEYX78OB3UU", "tract_id": "36005042901", "city": "BRONX, NY", "zone_code": "R7D", "zone_category": "Residential", "ev_permitted": false}, "geometry": {"type": "Polygon", "coordinates": [[[-73.874025231465, 40.8734059906821], [-73.8739835133633, 40.8734623911811], [-73.8742384699228, 40.873583355108], [-73.8742822900272, 40.8735279524519], [-73.874025231465, 40.8734059906821]]]}}, {"type": "Feature", "properties": {"zone_id": "02076WIXQLGF6O5Q0SNL5S", "tract_id": "36005042901", "city": "BRONX, NY", "zone_code": "R7D", "zone_category": "Residential", "ev_permitted": false}, "geometry": {"type": "Polygon", "coordinates": [[[-73.8742052691419, 40.8731625866892], [-73.8741605519437, 40.8732230431484], [-73.8744244288258, 40.8733482392761], [-73.8744713987546, 40.8732888517772], [-73.8742052691419, 40.8731625866892]]]}}, {"type": "Feature", "properties": {"zone_id": "0201O12S9GQI31ZRC7CM1Y", "tract_id": "36005042901", "city": "BRONX, NY", "zone_code": "R7D", "zone_category": "Residential", "ev_permitted": false}, "geometry": {"type": "Polygon", "coordinates": [[[-73.8743905117132, 40.8729121440843], [-73.8742052691419, 40.8731625866892], [-73.8744713987546, 40.8732888517772], [-73.8746659758925, 40.8730428371037], [-73.8743905117132, 40.8729121440843]]]}}, {"type": "Feature", "properties": {"zone_id": "0204U353QBNDTKE70FKIS6", "tract_id": "36005042901", "city": "BRONX, NY", "zone_code": "R7D", "zone_category": "Residential", "ev_permitted": false}, "geometry": {"type": "Polygon", "coordinates": [[[-73.8747538414277, 40.8724209255702], [-73.8743905117132, 40.8729121440843], [-73.8746659758925, 40.8730428371037], [-73.8747822707303, 40.8728957970689], [-73.8750744557576, 40.8726081759144], [-73.8747538414277, 40.8724209255702]]]}}]}