{"type": "FeatureCollection", "features": [{"type": "Feature", "properties": {"zone_id": "0202671JPX2WM1T6VA7S4U", "tract_id": "36047050700", "city": "BROOKLYN, NY", "zone_code": "R7A", "zone_category": "Residential", "ev_permitted": false}, "geometry": {"type": "Polygon", "coordinates": [[[-73.9490862588968, 40.7020444881331], [-73.948812340518, 40.702221947823], [-73.9488708412081, 40.7022741624978], [-73.9491449268415, 40.7020965952368], [-73.9490862588968, 40.7020444881331]]]}}, {"type": "Feature", "properties": {"zone_id": "0206LFQXMW3HYBWS4OTFJZ", "tract_id": "36047050700", "city": "BROOKLYN, NY", "zone_code": "R7A", "zone_category": "Residential", "ev_permitted": false}, "geometry": {"type": "Polygon", "coordinates": [[[-73.9491449268415, 40.7020965952368], [-73.9488708412081, 40.7022741624978], [-73.9489316836848, 40.7023284657847], [-73.9492059402721, 40.7021507860298], [-73.9491449268415, 40.7020965952368]]]}}, {"type": "Feature", "properties": {"zone_id": "02038WP05SR9SGFXIBVXR5", "tract_id": "36047050700", "city": "", "zone_code": "R7D", "zone_category": "Residential", "ev_permitted": false}, "geometry": {"type": "Polygon", "coordinates": [[[-73.9496567743168, 40.7011372301305], [-73.9491976019751, 40.7014340187704], [-73.9496643966483, 40.7018503504384], [-73.9501222579887, 40.7015545524182], [-73.9496567743168, 40.7011372301305]]]}}, {"type": "Feature", "properties": {"zone_id": "0203P8Q0CHLIIBK9JWZWXW", "tract_id": "36047050700", "city": "", "zone_code": "R7A", "zone_category": "Residential", "ev_permitted": false}, "geometry": {"type": "Polygon", "coordinates": [[[-73.9491976019751, 40.7014340187704], [-73.9489227082566, 40.7016116957785], [-73.9493894461755, 40.7020279779356], [-73.9496643966483, 40.7018503504384], [-73.9491976019751, 40.7014340187704]]]}}, {"type": "Feature", "properties": {"zone_id": "0205HATY67VM0PU664H9KJ", "tract_id": "36047050700", "city": "", "zone_code": "R7A", "zone_category": "Residential", "ev_permitted": false}, "geometry": {"type": "Polygon", "coordinates": [[[-73.9505202061513, 40.7009524488429], [-73.950432214994, 40.7010099792306], [-73.9504272007559, 40.7013563688684], [-73.9507408483775, 40.7011519092606], [-73.9505202061513, 40.7009524488429]]]}}, {"type": "Feature", "properties": {"zone_id": "0201MRDJ7VDXS64XI5RART", "tract_id": "36047050700", "city": "", "zone_code": "R7A", "zone_category": "Residential", "ev_permitted": false}, "geometry": {"type": "Polygon", "coordinates": [[[-73.9507062278149, 40.7008308229941], [-73.9505202061513, 40.7009524488429], [-73.9507408483775, 40.7011519092606], [-73.9509271054748, 40.7010304911461], [-73.9507062278149, 40.7008308229941]]]}}, {"type": "Feature", "properties": {"zone_id": "0205CSXU1ZAMRGYGZWOP1F", "tract_id": "36047050700", "city": "", "zone_code": "R7A", "zone_category": "Residential", "ev_permitted": false}, "geometry": {"type": "Polygon", "coordinates": [[[-73.9507160152793, 40.7005498874645], [-73.9505107435593, 40.7005706901777], [-73.950437845233, 40.7006210451707], [-73.950432214994, 40.7010099792306], [-73.9508922487997, 40.7007091968427], [-73.9507160152793, 40.7005498874645]]]}}, {"type": "Feature", "properties": {"zone_id": "02001BFOLQS1K4QOGWDWGY", "tract_id": "36047050700", "city": "", "zone_code": "R7A", "zone_category": "Residential", "ev_permitted": false}, "geometry": {"type": "Polygon", "coordinates": [[[-73.9508922487997, 40.7007091968427], [-73.9507062278149, 40.7008308229941], [-73.9509271054748, 40.7010304911461], [-73.9511133618932, 40.7009090734309], [-73.9508922487997, 40.7007091968427]]]}}, {"type": "Feature", "properties": {"zone_id": "0201VHY8J30BPCTP9HWL79", "tract_id": "36047050700", "city": "BROOKLYN, NY", "zone_code": "R8A", "zone_category": "Residential", "ev_permitted": false}, "geometry": {"type": "Polygon", "coordinates": [[[-73.9501529489308, 40.7008165188572], [-73.94966067772, 40.7011347071797], [-73.9498575558688, 40.7011376325669], [-73.9498553736738, 40.7012227040906], [-73.9500066742784, 40.7012249520185], [-73.9500088562806, 40.7011398803163], [-73.9501446037385, 40.7011418971582], [-73.9501529489308, 40.7008165188572]]]}}, {"type": "Feature", "properties": {"zone_id": "0206ZES1ADHXMLQCOBQ3MF", "tract_id": "36047050700", "city": "BROOKLYN, NY", "zone_code": "R8A", "zone_category": "Residential", "ev_permitted": false}, "geometry": {"type": "Polygon", "coordinates": [[[-73.94966067772, 40.7011347071797], [-73.9496567743168, 40.7011372301305], [-73.9501222579887, 40.7015545524182], [-73.9501342180814, 40.7015468255281], [-73.9501446037385, 40.7011418971582], [-73.9500088562806, 40.7011398803163], [-73.9500066742784, 40.7012249520185], [-73.9498553736738, 40.7012227040906], [-73.9498575558688, 40.7011376325669], [-73.94966067772, 40.7011347071797]]]}}, {"type": "Feature", "properties": {"zone_id": "0201R7K9V17MATFD8ESFJV", "tract_id": "36047050700", "city": "BROOKLYN, NY", "zone_code": "R8A", "zone_category": "Residential", "ev_permitted": false}, "geometry": {"type": "Polygon", "coordinates": [[[-73.9495772433995, 40.7002060775774], [-73.9492996356515, 40.7003849144142], [-73.9497717297379, 40.700808732777], [-73.9500486416218, 40.7006292696685], [-73.9495772433995, 40.7002060775774]]]}}, {"type": "Feature", "properties": {"zone_id": "02004ES8DWBF2DJ5NOZEYA", "tract_id": "36047050700", "city": "BROOKLYN, NY", "zone_code": "R7D", "zone_category": "Residential", "ev_permitted": false}, "geometry": {"type": "Polygon", "coordinates": [[[-73.9492996356515, 40.7003849144142], [-73.9490211435737, 40.7005643193411], [-73.949493935597, 40.7009887659158], [-73.9497717297379, 40.700808732777], [-73.9492996356515, 40.7003849144142]]]}}, {"type": "Feature", "properties": {"zone_id": "02035VIVF33FE4O12J10E2", "tract_id": "36047050700", "city": "BROOKLYN, NY", "zone_code": "R7D", "zone_category": "Residential", "ev_permitted": false}, "geometry": {"type": "Polygon", "coordinates": [[[-73.9490211435737, 40.7005643193411], [-73.9485641660315, 40.7008587012414], [-73.9490381033784, 40.7012841785279], [-73.949493935597, 40.7009887659158], [-73.9490211435737, 40.7005643193411]]]}}, {"type": "Feature", "properties": {"zone_id": "0203I0R3MG70X2W7NKTPOF", "tract_id": "36047050700", "city": "BROOKLYN, NY", "zone_code": "R8A", "zone_category": "Residential", "ev_permitted": false}, "geometry": {"type": "Polygon", "coordinates": [[[-73.9500025432772, 40.6999320931459], [-73.9495772433995, 40.7002060775774], [-73.9500486416218, 40.7006292696685], [-73.9501326286509, 40.7005748385004], [-73.9500025432772, 40.6999320931459]]]}}, {"type": "Feature", "properties": {"zone_id": "0202DKFQH7OY7NI2POG2QX", "tract_id": "36047050700", "city": "BROOKLYN, NY", "zone_code": "R7A", "zone_category": "Residential", "ev_permitted": false}, "geometry": {"type": "Polygon", "coordinates": [[[-73.9484162887154, 40.7022941597559], [-73.9480034969862, 40.7025615842204], [-73.9482425292478, 40.702774933121], [-73.9486553213391, 40.7025075078066], [-73.9484162887154, 40.7022941597559]]]}}, {"type": "Feature", "properties": {"zone_id": "0207O43Y0RLJ7GCTJFHEM6", "tract_id": "36047050700", "city": "BROOKLYN, NY", "zone_code": "R7A", "zone_category": "Residential", "ev_permitted": false}, "geometry": {"type": "Polygon", "coordinates": [[[-73.9478687099987, 40.7026489039505], [-73.9478000526717, 40.7026933828359], [-73.9480390847547, 40.7029067321554], [-73.9481077421426, 40.702862252426], [-73.9478687099987, 40.7026489039505]]]}}, {"type": "Feature", "properties": {"zone_id": "0206QU6AKJ2ZTWFAE9Q572", "tract_id": "36047050700", "city": "BROOKLYN, NY", "zone_code": "R7A", "zone_category": "Residential", "ev_permitted": false}, "geometry": {"type": "Polygon", "coordinates": [[[-73.9478000526717, 40.7026933828359], [-73.9477313943297, 40.7027378616796], [-73.9479704263524, 40.7029512111405], [-73.9480390847547, 40.7029067321554], [-73.9478000526717, 40.7026933828359]]]}}, {"type": "Feature", "properties": {"zone_id": "0200BS6IWCJ5JF4VJWNVLJ", "tract_id": "36047050700", "city": "BROOKLYN, NY", "zone_code": "R7A", "zone_category": "Residential", "ev_permitted": false}, "geometry": {"type": "Polygon", "coordinates": [[[-73.9477313943297, 40.7027378616796], [-73.9476596329852, 40.7027843507869], [-73.947898664945, 40.7029977003955], [-73.9479704263524, 40.7029512111405], [-73.9477313943297, 40.7027378616796]]]}}, {"type": "Feature", "properties": {"zone_id": "0203489JGUED6NR0SCXBAZ", "tract_id": "36047050700", "city": "", "zone_code": "R7A", "zone_category": "Residential", "ev_permitted": false}, "geometry": {"type": "Polygon", "coordinates": [[[-73.9476596329852, 40.7027843507869], [-73.947593318962, 40.7028273114628], [-73.9478323508641, 40.7030406605053], [-73.947898664945, 40.7029977003955], [-73.9476596329852, 40.7027843507869]]]}}, {"type": "Feature", "properties": {"zone_id": "0202RMCV10RX72MJRHIO80", "tract_id": "36047050700", "city": "BROOKLYN, NY", "zone_code": "R7A", "zone_category": "Residential", "ev_permitted": false}, "geometry": {"type": "Polygon", "coordinates": [[[-73.9480034969862, 40.7025615842204], [-73.9479368776437, 40.7026047424048], [-73.9481759098469, 40.7028180914427], [-73.9482425292478, 40.702774933121], [-73.9480034969862, 40.7025615842204]]]}}, {"type": "Feature", "properties": {"zone_id": "0201ZGZAXHFZB7A719CLK5", "tract_id": "36047050700", "city": "BROOKLYN, NY", "zone_code": "R7A", "zone_category": "Residential", "ev_permitted": false}, "geometry": {"type": "Polygon", "coordinates": [[[-73.9479368776437, 40.7026047424048], [-73.9478687099987, 40.7026489039505], [-73.9481077421426, 40.702862252426], [-73.9481759098469, 40.7028180914427], [-73.9479368776437, 40.7026047424048]]]}}, {"type": "Feature", "properties": {"zone_id": "0204V2S5QORLGJMVYVY7P5", "tract_id": "36047050700", "city": "BROOKLYN, NY", "zone_code": "R7A", "zone_category": "Residential", "ev_permitted": false}, "geometry": {"type": "Polygon", "coordinates": [[[-73.9476274335356, 40.7024360879725], [-73.9474916810841, 40.7025239029013], [-73.9477313943297, 40.7027378616796], [-73.9478670629406, 40.7026499712478], [-73.9476274335356, 40.7024360879725]]]}}, {"type": "Feature", "properties": {"zone_id": "0204WVU771VVKW7S6TOGOX", "tract_id": "36047050700", "city": "BROOKLYN, NY", "zone_code": "R7A", "zone_category": "Residential", "ev_permitted": false}, "geometry": {"type": "Polygon", "coordinates": [[[-73.9476972915408, 40.7023908986423], [-73.9476274335356, 40.7024360879725], [-73.9478670629406, 40.7026499712478], [-73.9479368776437, 40.7026047424048], [-73.9476972915408, 40.7023908986423]]]}}, {"type": "Feature", "properties": {"zone_id": "0205Y0J0DY38W7RWGI5F6V", "tract_id": "36047050700", "city": "", "zone_code": "C2-3", "zone_category": "Commercial", "ev_permitted": true}, "geometry": {"type": "Polygon", "coordinates": [[[-73.9472708459678, 40.7032542290099], [-73.9469397315857, 40.7034743593549], [-73.9470600843627, 40.7035410107781], [-73.9473677951663, 40.7033416231555], [-73.9472708459678, 40.7032542290099]]]}}, {"type": "Feature", "properties": {"zone_id": "0200BDIEEK85EKMXRQV392", "tract_id": "36047050700", "city": "", "zone_code": "R6", "zone_category": "Residential", "ev_permitted": false}, "geometry": {"type": "Polygon", "coordinates": [[[-73.9471738970234, 40.7031668347816], [-73.9468099590974, 40.7034024918234], [-73.9469397315857, 40.7034743593549], [-73.9472708459678, 40.7032542290099], [-73.9471738970234, 40.7031668347816]]]}}, {"type": "Feature", "properties": {"zone_id": "0203ZYLVXO60YPRQ7PVHKT", "tract_id": "36047050700", "city": "", "zone_code": "R7A", "zone_category": "Residential", "ev_permitted": false}, "geometry": {"type": "Polygon", "coordinates": [[[-73.9476224523694, 40.7028533147136], [-73.9473463439104, 40.7030321850602], [-73.9475562421918, 40.7032195320537], [-73.9478323508641, 40.7030406605053], [-73.9476224523694, 40.7028533147136]]]}}, {"type": "Feature", "properties": {"zone_id": "0206YL85JVZ0Y218OGZSMV", "tract_id": "36047050700", "city": "BROOKLYN, NY", "zone_code": "C2-3", "zone_category": "Commercial", "ev_permitted": true}, "geometry": {"type": "Polygon", "coordinates": [[[-73.9469549421476, 40.7029694573621], [-73.9467996108775, 40.7030691409129], [-73.9468687183129, 40.7032130754988], [-73.9470769492553, 40.7030794418763], [-73.9469549421476, 40.7029694573621]]]}}, {"type": "Feature", "properties": {"zone_id": "0204IG2DE7ORT8EAQ6I2T0", "tract_id": "36047050700", "city": "", "zone_code": "R6", "zone_category": "Residential", "ev_permitted": false}, "geometry": {"type": "Polygon", "coordinates": [[[-73.9470769492553, 40.7030794418763], [-73.9468687183129, 40.7032130754988], [-73.9468334147034, 40.7031395455004], [-73.946656788883, 40.7033176660904], [-73.9468099590974, 40.7034024918234], [-73.9471738970234, 40.7031668347816], [-73.9470769492553, 40.7030794418763]]]}}, {"type": "Feature", "properties": {"zone_id": "0203QX1ZI1E28M7RSXJ8YP", "tract_id": "36047050700", "city": "", "zone_code": "R6", "zone_category": "Residential", "ev_permitted": false}, "geometry": {"type": "Polygon", "coordinates": [[[-73.9467477479666, 40.7030039360773], [-73.9464432004775, 40.7031993794923], [-73.946656788883, 40.7033176660904], [-73.9468334147034, 40.7031395455004], [-73.9467996108775, 40.7030691409129], [-73.9468115681226, 40.7030614670674], [-73.9467477479666, 40.7030039360773]]]}}, {"type": "Feature", "properties": {"zone_id": "0204UIEO01N2KTHMMZQDIA", "tract_id": "36047050700", "city": "BROOKLYN, NY", "zone_code": "R7A", "zone_category": "Residential", "ev_permitted": false}, "geometry": {"type": "Polygon", "coordinates": [[[-73.9475353834441, 40.702775600207], [-73.94725927415, 40.7029544703461], [-73.9473463439104, 40.7030321850602], [-73.9476224523694, 40.7028533147136], [-73.9475353834441, 40.702775600207]]]}}, {"type": "Feature", "properties": {"zone_id": "0206PU0I4JN8C6BKEJYAYG", "tract_id": "36047050700", "city": "BROOKLYN, NY", "zone_code": "R7A", "zone_category": "Residential", "ev_permitted": false}, "geometry": {"type": "Polygon", "coordinates": [[[-73.9474773705141, 40.7027238200257], [-73.9472012622021, 40.7029026900272], [-73.94725927415, 40.7029544703461], [-73.9475353834441, 40.702775600207], [-73.9474773705141, 40.7027238200257]]]}}, {"type": "Feature", "properties": {"zone_id": "0204UU2OM2TET29EI19GLO", "tract_id": "36047050700", "city": "BROOKLYN, NY", "zone_code": "R7A", "zone_category": "Residential", "ev_permitted": false}, "geometry": {"type": "Polygon", "coordinates": [[[-73.9474916810841, 40.7025239029013], [-73.9473535209559, 40.7026132757707], [-73.947593318962, 40.7028273114628], [-73.9477313943297, 40.7027378616796], [-73.9474916810841, 40.7025239029013]]]}}, {"type": "Feature", "properties": {"zone_id": "0204I7LWLD7NIS850CTWJI", "tract_id": "36047050700", "city": "BROOKLYN, NY", "zone_code": "R7A", "zone_category": "Residential", "ev_permitted": false}, "geometry": {"type": "Polygon", "coordinates": [[[-73.9473535209559, 40.7026132757707], [-73.947077241158, 40.7027919936242], [-73.9472012622021, 40.7029026900272], [-73.9474773705141, 40.7027238200257], [-73.9473535209559, 40.7026132757707]]]}}, {"type": "Feature", "properties": {"zone_id": "02057YC1HW0XXYW1UWV1HL", "tract_id": "36047050700", "city": "", "zone_code": "R7A", "zone_category": "Residential", "ev_permitted": false}, "geometry": {"type": "Polygon", "coordinates": [[[-73.9471406196428, 40.702419796479], [-73.9468592430039, 40.7026014863599], [-73.9469181470224, 40.7026541252128], [-73.9471993796164, 40.7024725284012], [-73.9471406196428, 40.702419796479]]]}}, {"type": "Feature", "properties": {"zone_id": "0206D7A4ZAW06SHT90CDZ2", "tract_id": "36047050700", "city": "", "zone_code": "R6", "zone_category": "Residential", "ev_permitted": false}, "geometry": {"type": "Polygon", "coordinates": [[[-73.9468911210325, 40.7029119264504], [-73.9467477479666, 40.7030039360773], [-73.9468115681226, 40.7030614670674], [-73.9469549421476, 40.7029694573621], [-73.9468911210325, 40.7029119264504]]]}}, {"type": "Feature", "properties": {"zone_id": "0204FLUU5SFG34HEMB3Z58", "tract_id": "36047050700", "city": "BROOKLYN, NY", "zone_code": "C2-3", "zone_category": "Commercial", "ev_permitted": true}, "geometry": {"type": "Polygon", "coordinates": [[[-73.9463983781532, 40.7029019521465], [-73.9461761325701, 40.7030459752527], [-73.9462508211029, 40.7030877193511], [-73.9464576932793, 40.7029547417937], [-73.9463983781532, 40.7029019521465]]]}}, {"type": "Feature", "properties": {"zone_id": "0201S07DTMYP2EIQNU7R2T", "tract_id": "36047050700", "city": "", "zone_code": "R6", "zone_category": "Residential", "ev_permitted": false}, "geometry": {"type": "Polygon", "coordinates": [[[-73.9466500156243, 40.7026945882965], [-73.9464015176615, 40.7028556251233], [-73.9464897397651, 40.7029341420559], [-73.9467390866307, 40.7027738607927], [-73.9466500156243, 40.7026945882965]]]}}, {"type": "Feature", "properties": {"zone_id": "0204UNB7K501FHMNASN1Q7", "tract_id": "36047050700", "city": "BROOKLYN, NY", "zone_code": "C2-3", "zone_category": "Commercial", "ev_permitted": true}, "geometry": {"type": "Polygon", "coordinates": [[[-73.9463124257264, 40.7027763340877], [-73.9462804881318, 40.7027970307945], [-73.9464576932793, 40.7029547417937], [-73.9464897397651, 40.7029341420559], [-73.9463124257264, 40.7027763340877]]]}}, {"type": "Feature", "properties": {"zone_id": "0200SZFZ1AYYS3CMQA369A", "tract_id": "36047050700", "city": "", "zone_code": "R6", "zone_category": "Residential", "ev_permitted": false}, "geometry": {"type": "Polygon", "coordinates": [[[-73.9465609236088, 40.7026152974516], [-73.9463124257264, 40.7027763340877], [-73.9464015176615, 40.7028556251233], [-73.9466500156243, 40.7026945882965], [-73.9465609236088, 40.7026152974516]]]}}, {"type": "Feature", "properties": {"zone_id": "02040KTZ5YXBKANSLI7V5P", "tract_id": "36047050700", "city": "", "zone_code": "C2-3", "zone_category": "Commercial", "ev_permitted": true}, "geometry": {"type": "Polygon", "coordinates": [[[-73.946408019238, 40.7024792138535], [-73.9461275829933, 40.7026609468265], [-73.9462804881318, 40.7027970307945], [-73.9465609236088, 40.7026152974516], [-73.946408019238, 40.7024792138535]]]}}, {"type": "Feature", "properties": {"zone_id": "0204W0ETCLDMO1MVBJHC9L", "tract_id": "36047050700", "city": "", "zone_code": "R7A", "zone_category": "Residential", "ev_permitted": false}, "geometry": {"type": "Polygon", "coordinates": [[[-73.9487265988884, 40.7017250446344], [-73.9482474329597, 40.7020350166894], [-73.9484866800138, 40.7022485570209], [-73.9486926508181, 40.7021151190056], [-73.9486356155685, 40.7020642125434], [-73.9489090312572, 40.7018870783791], [-73.9487265988884, 40.7017250446344]]]}}, {"type": "Feature", "properties": {"zone_id": "0206UIDJ7XMCT8J3DUB0YO", "tract_id": "36047050700", "city": "BROOKLYN, NY", "zone_code": "R7A", "zone_category": "Residential", "ev_permitted": false}, "geometry": {"type": "Polygon", "coordinates": [[[-73.9486926508181, 40.7021151190056], [-73.9484866800138, 40.7022485570209], [-73.9487257126992, 40.7024619049267], [-73.9489316836848, 40.7023284657847], [-73.9486926508181, 40.7021151190056]]]}}, {"type": "Feature", "properties": {"zone_id": "02077J7UAAURACX983IB0K", "tract_id": "36047050700", "city": "BROOKLYN, NY", "zone_code": "R7A", "zone_category": "Residential", "ev_permitted": false}, "geometry": {"type": "Polygon", "coordinates": [[[-73.9484866800138, 40.7022485570209], [-73.9484162887154, 40.7022941597559], [-73.9486553213391, 40.7025075078066], [-73.9487257126992, 40.7024619049267], [-73.9484866800138, 40.7022485570209]]]}}, {"type": "Feature", "properties": {"zone_id": "0205TO5OOEDZOBFBQEHY1J", "tract_id": "36047050700", "city": "BROOKLYN, NY", "zone_code": "R7A", "zone_category": "Residential", "ev_permitted": false}, "geometry": {"type": "Polygon", "coordinates": [[[-73.9489090312572, 40.7018870783791], [-73.9486356155685, 40.7020642125434], [-73.9487515000828, 40.7021676437704], [-73.9490252447374, 40.7019902972754], [-73.9489090312572, 40.7018870783791]]]}}, {"type": "Feature", "properties": {"zone_id": "0207C25SPMF4Z45L2PESV2", "tract_id": "36047050700", "city": "BROOKLYN, NY", "zone_code": "R7A", "zone_category": "Residential", "ev_permitted": false}, "geometry": {"type": "Polygon", "coordinates": [[[-73.9490252447374, 40.7019902972754], [-73.9487515000828, 40.7021676437704], [-73.948812340518, 40.702221947823], [-73.9490862588968, 40.7020444881331], [-73.9490252447374, 40.7019902972754]]]}}, {"type": "Feature", "properties": {"zone_id": "020048LPUNYI62HYP37TSH", "tract_id": "36047050700", "city": "BROOKLYN, NY", "zone_code": "R7A", "zone_category": "Residential", "ev_permitted": false}, "geometry": {"type": "Polygon", "coordinates": [[[-73.9482474329597, 40.7020350166894], [-73.9481769974357, 40.7020805806131], [-73.9484162887154, 40.7022941597559], [-73.9484866800138, 40.7022485570209], [-73.9482474329597, 40.7020350166894]]]}}, {"type": "Feature", "properties": {"zone_id": "02000YMBS3TVE4RAM7X217", "tract_id": "36047050700", "city": "BROOKLYN, NY", "zone_code": "R7A", "zone_category": "Residential", "ev_permitted": false}, "geometry": {"type": "Polygon", "coordinates": [[[-73.9480412815338, 40.7021683744275], [-73.9478676670274, 40.7022806844751], [-73.9481071483296, 40.7024944345606], [-73.948280655731, 40.7023820290719], [-73.9480412815338, 40.7021683744275]]]}}, {"type": "Feature", "properties": {"zone_id": "0200M5WTC2QF89IWUTAAB2", "tract_id": "36047050700", "city": "BROOKLYN, NY", "zone_code": "R7A", "zone_category": "Residential", "ev_permitted": false}, "geometry": {"type": "Polygon", "coordinates": [[[-73.9478676670274, 40.7022806844751], [-73.9477852272866, 40.7023340139652], [-73.9480247594923, 40.7025478095653], [-73.9481071483296, 40.7024944345606], [-73.9478676670274, 40.7022806844751]]]}}, {"type": "Feature", "properties": {"zone_id": "0202GOTWE127NDGLOJTU2Z", "tract_id": "36047050700", "city": "BROOKLYN, NY", "zone_code": "R7A", "zone_category": "Residential", "ev_permitted": false}, "geometry": {"type": "Polygon", "coordinates": [[[-73.9477027876447, 40.7023873433959], [-73.9476972915408, 40.7023908986423], [-73.9479368776437, 40.7026047424048], [-73.9479423702925, 40.7026011841592], [-73.9477027876447, 40.7023873433959]]]}}, {"type": "Feature", "properties": {"zone_id": "0202CZBYGI8TC3QH9NZQ1U", "tract_id": "36047050700", "city": "BROOKLYN, NY", "zone_code": "R7A", "zone_category": "Residential", "ev_permitted": false}, "geometry": {"type": "Polygon", "coordinates": [[[-73.9477852272866, 40.7023340139652], [-73.9477027876447, 40.7023873433959], [-73.9479423702925, 40.7026011841592], [-73.9480247594923, 40.7025478095653], [-73.9477852272866, 40.7023340139652]]]}}, {"type": "Feature", "properties": {"zone_id": "0204TYW81429Y5ZQ9SKT2D", "tract_id": "36047050700", "city": "BROOKLYN, NY", "zone_code": "R7A", "zone_category": "Residential", "ev_permitted": false}, "geometry": {"type": "Polygon", "coordinates": [[[-73.9481769974357, 40.7020805806131], [-73.9480412815338, 40.7021683744275], [-73.948280655731, 40.7023820290719], [-73.9484162887154, 40.7022941597559], [-73.9481769974357, 40.7020805806131]]]}}, {"type": "Feature", "properties": {"zone_id": "02068MRPSC7D7NRVLNPUPT", "tract_id": "36047050700", "city": "BROOKLYN, NY", "zone_code": "R7A", "zone_category": "Residential", "ev_permitted": false}, "geometry": {"type": "Polygon", "coordinates": [[[-73.9475800011651, 40.7018621473029], [-73.9475112985544, 40.7019065855967], [-73.9477475230294, 40.7021185760227], [-73.9478162741391, 40.7020741813517], [-73.9475800011651, 40.7018621473029]]]}}, {"type": "Feature", "properties": {"zone_id": "0205HO75CK4P95QMDTOMYR", "tract_id": "36047050700", "city": "BROOKLYN, NY", "zone_code": "R7A", "zone_category": "Residential", "ev_permitted": false}, "geometry": {"type": "Polygon", "coordinates": [[[-73.9481022773436, 40.7011624940479], [-73.9476950230489, 40.7014259203974], [-73.9480865395327, 40.7017772726163], [-73.9482169951513, 40.7016930316627], [-73.9481746756511, 40.7016550542116], [-73.9482221049831, 40.7016244269268], [-73.948343735668, 40.7017335779986], [-73.94857339492, 40.7015852755017], [-73.9481022773436, 40.7011624940479]]]}}, {"type": "Feature", "properties": {"zone_id": "0203EZ81HAMAHSU8QKEIHZ", "tract_id": "36047050700", "city": "BROOKLYN, NY", "zone_code": "R7A", "zone_category": "Residential", "ev_permitted": false}, "geometry": {"type": "Polygon", "coordinates": [[[-73.9479293264114, 40.7016361936948], [-73.9478553540846, 40.7016840408746], [-73.9480918224404, 40.7018962492378], [-73.9481658520422, 40.701848445498], [-73.9479293264114, 40.7016361936948]]]}}, {"type": "Feature", "properties": {"zone_id": "0207FXALZDGCDABXRIVMXT", "tract_id": "36047050700", "city": "BROOKLYN, NY", "zone_code": "R7A", "zone_category": "Residential", "ev_permitted": false}, "geometry": {"type": "Polygon", "coordinates": [[[-73.9482169951513, 40.7016930316627], [-73.9480865395327, 40.7017772726163], [-73.9481658520422, 40.701848445498], [-73.9482963063142, 40.701764205333], [-73.9482169951513, 40.7016930316627]]]}}, {"type": "Feature", "properties": {"zone_id": "0205E7M0JU5GYN3CHHDR4S", "tract_id": "36047050700", "city": "BROOKLYN, NY", "zone_code": "R7A", "zone_category": "Residential", "ev_permitted": false}, "geometry": {"type": "Polygon", "coordinates": [[[-73.9478553540846, 40.7016840408746], [-73.9477861075244, 40.7017288321736], [-73.9480225269193, 40.7019409963881], [-73.9480918224404, 40.7018962492378], [-73.9478553540846, 40.7016840408746]]]}}, {"type": "Feature", "properties": {"zone_id": "02004A2US3XDXZL6W8A11D", "tract_id": "36047050700", "city": "", "zone_code": "R7A", "zone_category": "Residential", "ev_permitted": false}, "geometry": {"type": "Polygon", "coordinates": [[[-73.9477861075244, 40.7017288321736], [-73.9477174049574, 40.7017732709424], [-73.9479510263256, 40.7019871674941], [-73.9480225269193, 40.7019409963881], [-73.9477861075244, 40.7017288321736]]]}}, {"type": "Feature", "properties": {"zone_id": "02015FEOEGZRDO216DY3FA", "tract_id": "36047050700", "city": "", "zone_code": "R7A", "zone_category": "Residential", "ev_permitted": false}, "geometry": {"type": "Polygon", "coordinates": [[[-73.9476487025298, 40.7018177093187], [-73.9475800011651, 40.7018621473029], [-73.9478162741391, 40.7020741813517], [-73.9478822751645, 40.702031562246], [-73.9476487025298, 40.7018177093187]]]}}, {"type": "Feature", "properties": {"zone_id": "0202SP8BE77KSJUWDCU5KT", "tract_id": "36047050700", "city": "", "zone_code": "R7A", "zone_category": "Residential", "ev_permitted": false}, "geometry": {"type": "Polygon", "coordinates": [[[-73.9477174049574, 40.7017732709424], [-73.9476487025298, 40.7018177093187], [-73.9478822751645, 40.702031562246], [-73.9479510263256, 40.7019871674941], [-73.9477174049574, 40.7017732709424]]]}}, {"type": "Feature", "properties": {"zone_id": "02061CYWRBWGZOK4ST5A8F", "tract_id": "36047050700", "city": "BROOKLYN, NY", "zone_code": "R7A", "zone_category": "Residential", "ev_permitted": false}, "geometry": {"type": "Polygon", "coordinates": [[[-73.9482221049831, 40.7016244269268], [-73.9481746756511, 40.7016550542116], [-73.9482963063142, 40.701764205333], [-73.948343735668, 40.7017335779986], [-73.9482221049831, 40.7016244269268]]]}}, {"type": "Feature", "properties": {"zone_id": "0200JGYDKYGGWXH387KQ5E", "tract_id": "36047050700", "city": "BROOKLYN, NY", "zone_code": "R7A", "zone_category": "Residential", "ev_permitted": false}, "geometry": {"type": "Polygon", "coordinates": [[[-73.9476950230489, 40.7014259203974], [-73.9475301385843, 40.7015325727556], [-73.947764441571, 40.70174284621], [-73.9479293264114, 40.7016361936948], [-73.9476950230489, 40.7014259203974]]]}}, {"type": "Feature", "properties": {"zone_id": "0205MTJ2WN13Q4M6WN8NQI", "tract_id": "36047050700", "city": "", "zone_code": "R7A", "zone_category": "Residential", "ev_permitted": false}, "geometry": {"type": "Polygon", "coordinates": [[[-73.9470308352039, 40.7022173586451], [-73.9469635422091, 40.7022608848547], [-73.9471993796164, 40.7024725284012], [-73.9472667197246, 40.7024290449386], [-73.9470308352039, 40.7022173586451]]]}}, {"type": "Feature", "properties": {"zone_id": "0203DRG2AN9UNY88YD6VCJ", "tract_id": "36047050700", "city": "", "zone_code": "R7A", "zone_category": "Residential", "ev_permitted": false}, "geometry": {"type": "Polygon", "coordinates": [[[-73.9470818198584, 40.7023670288481], [-73.9468004417208, 40.7025489395725], [-73.9468592430039, 40.7026014863599], [-73.9471406196428, 40.702419796479], [-73.9470818198584, 40.7023670288481]]]}}, {"type": "Feature", "properties": {"zone_id": "0207CMF3JHBF626CCV2FRF", "tract_id": "36047050700", "city": "", "zone_code": "R7A", "zone_category": "Residential", "ev_permitted": false}, "geometry": {"type": "Polygon", "coordinates": [[[-73.9471739370249, 40.7021247990525], [-73.9471009483383, 40.702172008181], [-73.9473368827435, 40.7023837386225], [-73.9474099231628, 40.7023365750421], [-73.9471739370249, 40.7021247990525]]]}}, {"type": "Feature", "properties": {"zone_id": "0201QLORAMX94FLKJHXUOD", "tract_id": "36047050700", "city": "", "zone_code": "R7A", "zone_category": "Residential", "ev_permitted": false}, "geometry": {"type": "Polygon", "coordinates": [[[-73.9471009483383, 40.702172008181], [-73.9470308352039, 40.7022173586451], [-73.9472667197246, 40.7024290449386], [-73.9473368827435, 40.7023837386225], [-73.9471009483383, 40.702172008181]]]}}, {"type": "Feature", "properties": {"zone_id": "0205JI2I9RKID23OIBLSQ7", "tract_id": "36047050700", "city": "", "zone_code": "R7A", "zone_category": "Residential", "ev_permitted": false}, "geometry": {"type": "Polygon", "coordinates": [[[-73.947310153724, 40.7020366909946], [-73.9472401581915, 40.7020819650507], [-73.9474761916728, 40.7022937834384], [-73.9475462359355, 40.702248553881], [-73.947310153724, 40.7020366909946]]]}}, {"type": "Feature", "properties": {"zone_id": "0206JZJUMJ2JVXSPX4S5RO", "tract_id": "36047050700", "city": "", "zone_code": "R7A", "zone_category": "Residential", "ev_permitted": false}, "geometry": {"type": "Polygon", "coordinates": [[[-73.9472401581915, 40.7020819650507], [-73.9471739370249, 40.7021247990525], [-73.9474099231628, 40.7023365750421], [-73.9474761916728, 40.7022937834384], [-73.9472401581915, 40.7020819650507]]]}}, {"type": "Feature", "properties": {"zone_id": "0202LE9VDUO93K1WECVYJG", "tract_id": "36047050700", "city": "BROOKLYN, NY", "zone_code": "R7A", "zone_category": "Residential", "ev_permitted": false}, "geometry": {"type": "Polygon", "coordinates": [[[-73.9475112985544, 40.7019065855967], [-73.9474425956209, 40.7019510242004], [-73.9476787720585, 40.7021629711795], [-73.9477475230294, 40.7021185760227], [-73.9475112985544, 40.7019065855967]]]}}, {"type": "Feature", "properties": {"zone_id": "0203DRDT3SBH6WCCN0E2R1", "tract_id": "36047050700", "city": "", "zone_code": "R7A", "zone_category": "Residential", "ev_permitted": false}, "geometry": {"type": "Polygon", "coordinates": [[[-73.9473738925959, 40.7019954627629], [-73.947310153724, 40.7020366909946], [-73.9475462359355, 40.702248553881], [-73.947610020996, 40.702207366295], [-73.9473738925959, 40.7019954627629]]]}}, {"type": "Feature", "properties": {"zone_id": "02012ZV7285U92WHQ7P0LX", "tract_id": "36047050700", "city": "BROOKLYN, NY", "zone_code": "R7A", "zone_category": "Residential", "ev_permitted": false}, "geometry": {"type": "Polygon", "coordinates": [[[-73.9474425956209, 40.7019510242004], [-73.9473738925959, 40.7019954627629], [-73.947610020996, 40.702207366295], [-73.9476787720585, 40.7021629711795], [-73.9474425956209, 40.7019510242004]]]}}, {"type": "Feature", "properties": {"zone_id": "0206C4WO4EVAA7OGH2G309", "tract_id": "36047050700", "city": "BROOKLYN, NY", "zone_code": "R7A", "zone_category": "Residential", "ev_permitted": false}, "geometry": {"type": "Polygon", "coordinates": [[[-73.946939630633, 40.7019145263369], [-73.9468666420095, 40.7019617367234], [-73.9471009483383, 40.702172008181], [-73.9471739370249, 40.7021247990525], [-73.946939630633, 40.7019145263369]]]}}, {"type": "Feature", "properties": {"zone_id": "0204I1ACXKOAN3MPZB9BSX", "tract_id": "36047050700", "city": "BROOKLYN, NY", "zone_code": "R7A", "zone_category": "Residential", "ev_permitted": false}, "geometry": {"type": "Polygon", "coordinates": [[[-73.9468666420095, 40.7019617367234], [-73.9467965280135, 40.7020070870456], [-73.9470308352039, 40.7022173586451], [-73.9471009483383, 40.702172008181], [-73.9468666420095, 40.7019617367234]]]}}, {"type": "Feature", "properties": {"zone_id": "02027XKMAHD5XJZ98N20TL", "tract_id": "36047050700", "city": "BROOKLYN, NY", "zone_code": "R7A", "zone_category": "Residential", "ev_permitted": false}, "geometry": {"type": "Polygon", "coordinates": [[[-73.9470058508168, 40.7018716938737], [-73.946939630633, 40.7019145263369], [-73.9471739370249, 40.7021247990525], [-73.9472401581915, 40.7020819650507], [-73.9470058508168, 40.7018716938737]]]}}, {"type": "Feature", "properties": {"zone_id": "0200R4913H0Y5GFD8CW5GJ", "tract_id": "36047050700", "city": "BROOKLYN, NY", "zone_code": "R7A", "zone_category": "Residential", "ev_permitted": false}, "geometry": {"type": "Polygon", "coordinates": [[[-73.9469635422091, 40.7022608848547], [-73.9466819382664, 40.7024430289979], [-73.9467414080283, 40.7024961846596], [-73.9470228743923, 40.7023141302494], [-73.9469635422091, 40.7022608848547]]]}}, {"type": "Feature", "properties": {"zone_id": "0206GMI5V0OPD0MM6YKIQS", "tract_id": "36047050700", "city": "BROOKLYN, NY", "zone_code": "R7A", "zone_category": "Residential", "ev_permitted": false}, "geometry": {"type": "Polygon", "coordinates": [[[-73.9469043595854, 40.7022077737061], [-73.9466226042086, 40.7023900153052], [-73.9466819382664, 40.7024430289979], [-73.9469635422091, 40.7022608848547], [-73.9469043595854, 40.7022077737061]]]}}, {"type": "Feature", "properties": {"zone_id": "020442VFU1BFJEG7DIWUEE", "tract_id": "36047050700", "city": "", "zone_code": "R7A", "zone_category": "Residential", "ev_permitted": false}, "geometry": {"type": "Polygon", "coordinates": [[[-73.9468500514982, 40.702159035148], [-73.9465681620023, 40.7023413633315], [-73.9466226042086, 40.7023900153052], [-73.9469043595854, 40.7022077737061], [-73.9468500514982, 40.702159035148]]]}}, {"type": "Feature", "properties": {"zone_id": "0203SUMN37I4KLQMXJ69VK", "tract_id": "36047050700", "city": "", "zone_code": "R7A", "zone_category": "Residential", "ev_permitted": false}, "geometry": {"type": "Polygon", "coordinates": [[[-73.9470228743923, 40.7023141302494], [-73.9467414080283, 40.7024961846596], [-73.9468004417208, 40.7025489395725], [-73.9470818198584, 40.7023670288481], [-73.9470228743923, 40.7023141302494]]]}}, {"type": "Feature", "properties": {"zone_id": "0202AV3CULDDB5DZE1H44G", "tract_id": "36047050700", "city": "BROOKLYN, NY", "zone_code": "R7A", "zone_category": "Residential", "ev_permitted": false}, "geometry": {"type": "Polygon", "coordinates": [[[-73.9467965280135, 40.7020070870456], [-73.9467292360018, 40.7020506124172], [-73.9469635422091, 40.7022608848547], [-73.9470308352039, 40.7022173586451], [-73.9467965280135, 40.7020070870456]]]}}, {"type": "Feature", "properties": {"zone_id": "0202T4FB7UC49H6V85XD08", "tract_id": "36047050700", "city": "", "zone_code": "R7A", "zone_category": "Residential", "ev_permitted": false}, "geometry": {"type": "Polygon", "coordinates": [[[-73.9467917360892, 40.7021067002536], [-73.946509702779, 40.7022891213311], [-73.9465681620023, 40.7023413633315], [-73.9468500514982, 40.702159035148], [-73.9467917360892, 40.7021067002536]]]}}, {"type": "Feature", "properties": {"zone_id": "0206NZ5RNUTMNZV2B4MAU7", "tract_id": "36047050700", "city": "", "zone_code": "R7A", "zone_category": "Residential", "ev_permitted": false}, "geometry": {"type": "Polygon", "coordinates": [[[-73.9467292360018, 40.7020506124172], [-73.9464470503367, 40.7022331323471], [-73.946509702779, 40.7022891213311], [-73.9467917360892, 40.7021067002536], [-73.9467292360018, 40.7020506124172]]]}}, {"type": "Feature", "properties": {"zone_id": "0204S9RXBSOGJ1XW9VV2BN", "tract_id": "36047050700", "city": "BROOKLYN, NY", "zone_code": "R7A", "zone_category": "Residential", "ev_permitted": false}, "geometry": {"type": "Polygon", "coordinates": [[[-73.9473927343455, 40.7016214495976], [-73.9473332106697, 40.7016599509897], [-73.9475675134832, 40.7018702244903], [-73.9476270372113, 40.7018317231537], [-73.9473927343455, 40.7016214495976]]]}}, {"type": "Feature", "properties": {"zone_id": "0203UECOONTPZ9Q0E58A1L", "tract_id": "36047050700", "city": "", "zone_code": "R7A", "zone_category": "Residential", "ev_permitted": false}, "geometry": {"type": "Polygon", "coordinates": [[[-73.9473332106697, 40.7016599509897], [-73.9472736594437, 40.7016984700805], [-73.9475079622047, 40.7019087437011], [-73.9475675134832, 40.7018702244903], [-73.9473332106697, 40.7016599509897]]]}}, {"type": "Feature", "properties": {"zone_id": "0205URTEQO2UNO0BAJYILY", "tract_id": "36047050700", "city": "BROOKLYN, NY", "zone_code": "R7A", "zone_category": "Residential", "ev_permitted": false}, "geometry": {"type": "Polygon", "coordinates": [[[-73.9472141083795, 40.7017369893159], [-73.9471395860267, 40.7017851918562], [-73.9473738925959, 40.7019954627629], [-73.9474484108575, 40.701947262881], [-73.9472141083795, 40.7017369893159]]]}}, {"type": "Feature", "properties": {"zone_id": "020285NXFKH4DDVT4HIH2H", "tract_id": "36047050700", "city": "BROOKLYN, NY", "zone_code": "R7A", "zone_category": "Residential", "ev_permitted": false}, "geometry": {"type": "Polygon", "coordinates": [[[-73.9472736594437, 40.7016984700805], [-73.9472141083795, 40.7017369893159], [-73.9474484108575, 40.701947262881], [-73.9475079622047, 40.7019087437011], [-73.9472736594437, 40.7016984700805]]]}}, {"type": "Feature", "properties": {"zone_id": "0205DKKIYQ2A4C7DJV9OXD", "tract_id": "36047050700", "city": "BROOKLYN, NY", "zone_code": "R7A", "zone_category": "Residential", "ev_permitted": false}, "geometry": {"type": "Polygon", "coordinates": [[[-73.9471395860267, 40.7017851918562], [-73.9470058508168, 40.7018716938737], [-73.9472401581915, 40.7020819650507], [-73.9473738925959, 40.7019954627629], [-73.9471395860267, 40.7017851918562]]]}}, {"type": "Feature", "properties": {"zone_id": "0207CR28JOI6M1T54XJ0TW", "tract_id": "36047050700", "city": "BROOKLYN, NY", "zone_code": "R7A", "zone_category": "Residential", "ev_permitted": false}, "geometry": {"type": "Polygon", "coordinates": [[[-73.9475301385843, 40.7015325727556], [-73.9473927343455, 40.7016214495976], [-73.9476270372113, 40.7018317231537], [-73.947764441571, 40.70174284621], [-73.9475301385843, 40.7015325727556]]]}}, {"type": "Feature", "properties": {"zone_id": "0204PVXYVUM9E9DP9CHGKK", "tract_id": "36047050700", "city": "BROOKLYN, NY", "zone_code": "R7A", "zone_category": "Residential", "ev_permitted": false}, "geometry": {"type": "Polygon", "coordinates": [[[-73.9468806383705, 40.7013401875723], [-73.9468148083541, 40.701382895073], [-73.9470512430534, 40.7015936046865], [-73.947117179228, 40.701550991257], [-73.9468806383705, 40.7013401875723]]]}}, {"type": "Feature", "properties": {"zone_id": "0207A1BTJGOV54L029PX6E", "tract_id": "36047050700", "city": "BROOKLYN, NY", "zone_code": "R7A", "zone_category": "Residential", "ev_permitted": false}, "geometry": {"type": "Polygon", "coordinates": [[[-73.9462295285309, 40.7013998741494], [-73.9458277629769, 40.7016605146206], [-73.9462985389464, 40.7020800743715], [-73.946635321008, 40.7018624155013], [-73.9463995472611, 40.7016522941775], [-73.946465067428, 40.7016097877323], [-73.9462295285309, 40.7013998741494]]]}}, {"type": "Feature", "properties": {"zone_id": "0200FS3MWWN8P38SJM7UKT", "tract_id": "36047050700", "city": "BROOKLYN, NY", "zone_code": "R7A", "zone_category": "Residential", "ev_permitted": false}, "geometry": {"type": "Polygon", "coordinates": [[[-73.9463679298826, 40.7013100867533], [-73.9463020108866, 40.7013528522403], [-73.9467735442176, 40.7017730828638], [-73.9468395685055, 40.7017304106114], [-73.9463679298826, 40.7013100867533]]]}}, {"type": "Feature", "properties": {"zone_id": "0200OYOUY59U6N3AR3514Q", "tract_id": "36047050700", "city": "BROOKLYN, NY", "zone_code": "R7A", "zone_category": "Residential", "ev_permitted": false}, "geometry": {"type": "Polygon", "coordinates": [[[-73.946465067428, 40.7016097877323], [-73.9463995472611, 40.7016522941775], [-73.946635321008, 40.7018624155013], [-73.9467009454868, 40.7018200024251], [-73.946465067428, 40.7016097877323]]]}}, {"type": "Feature", "properties": {"zone_id": "0205U9LSZ8CT7V1XXVCD2T", "tract_id": "36047050700", "city": "BROOKLYN, NY", "zone_code": "R7A", "zone_category": "Residential", "ev_permitted": false}, "geometry": {"type": "Polygon", "coordinates": [[[-73.9468148083541, 40.701382895073], [-73.9466034698215, 40.7015200000558], [-73.9468395685055, 40.7017304106114], [-73.9470512430534, 40.7015936046865], [-73.9468148083541, 40.701382895073]]]}}, {"type": "Feature", "properties": {"zone_id": "0200N0O88F8EXW07JXDPHS", "tract_id": "36047050700", "city": "BROOKLYN, NY", "zone_code": "R7A", "zone_category": "Residential", "ev_permitted": false}, "geometry": {"type": "Polygon", "coordinates": [[[-73.9463020108866, 40.7013528522403], [-73.9462295285309, 40.7013998741494], [-73.946465067428, 40.7016097877323], [-73.9465375498458, 40.7015627656761], [-73.9463020108866, 40.7013528522403]]]}}, {"type": "Feature", "properties": {"zone_id": "02014SXUDD2N4CMUNF45FW", "tract_id": "36047050700", "city": "", "zone_code": "R6", "zone_category": "Residential", "ev_permitted": false}, "geometry": {"type": "Polygon", "coordinates": [[[-73.9462612712287, 40.7023486080516], [-73.945644049848, 40.7027485892474], [-73.9458334506342, 40.7028544478455], [-73.9460842843398, 40.7026918998088], [-73.9460824040303, 40.7026902258944], [-73.946408019238, 40.7024792138535], [-73.9462612712287, 40.7023486080516]]]}}, {"type": "Feature", "properties": {"zone_id": "0200X9XUGX7NDU2OW2ZEPQ", "tract_id": "36047050700", "city": "BROOKLYN, NY", "zone_code": "R6", "zone_category": "Residential", "ev_permitted": false}, "geometry": {"type": "Polygon", "coordinates": [[[-73.946227333671, 40.7027497232761], [-73.9461768818058, 40.7027824014947], [-73.9461798120711, 40.702785009031], [-73.9459618878381, 40.7029262308353], [-73.9460259021247, 40.7029620108087], [-73.9462804881318, 40.7027970307945], [-73.946227333671, 40.7027497232761]]]}}, {"type": "Feature", "properties": {"zone_id": "0201RPHPUJ8QKR9XZ7PVE0", "tract_id": "36047050700", "city": "BROOKLYN, NY", "zone_code": "R6", "zone_category": "Residential", "ev_permitted": false}, "geometry": {"type": "Polygon", "coordinates": [[[-73.9462804881318, 40.7027970307945], [-73.9460259021247, 40.7029620108087], [-73.9461761325701, 40.7030459752527], [-73.9463983781532, 40.7029019521465], [-73.9462804881318, 40.7027970307945]]]}}, {"type": "Feature", "properties": {"zone_id": "0204T74XKJMAUCO837OFNP", "tract_id": "36047050700", "city": "BROOKLYN, NY", "zone_code": "R6", "zone_category": "Residential", "ev_permitted": false}, "geometry": {"type": "Polygon", "coordinates": [[[-73.9461275829933, 40.7026609468265], [-73.9460824040303, 40.7026902258944], [-73.9460842843398, 40.7026918998088], [-73.9458334506342, 40.7028544478455], [-73.9459618878381, 40.7029262308353], [-73.9461798120711, 40.702785009031], [-73.9461768818058, 40.7027824014947], [-73.946227333671, 40.7027497232761], [-73.9461275829933, 40.7026609468265]]]}}, {"type": "Feature", "properties": {"zone_id": "0200V1KGS82A9VTCO8T6O9", "tract_id": "36047050700", "city": "BROOKLYN, NY", "zone_code": "R6", "zone_category": "Residential", "ev_permitted": false}, "geometry": {"type": "Polygon", "coordinates": [[[-73.9455525584408, 40.7024194214278], [-73.94532080302, 40.7025699028654], [-73.9454519017458, 40.7026429883156], [-73.9456546598155, 40.7025113347582], [-73.9455525584408, 40.7024194214278]]]}}, {"type": "Feature", "properties": {"zone_id": "0206LL0XQKO4Z5GF9JQXM3", "tract_id": "36047050700", "city": "BROOKLYN, NY", "zone_code": "C2-3", "zone_category": "Commercial", "ev_permitted": true}, "geometry": {"type": "Polygon", "coordinates": [[[-73.9454664838534, 40.7022641307395], [-73.9454162748691, 40.7022967321518], [-73.9456546598155, 40.7025113347582], [-73.9457048688449, 40.7024787332429], [-73.9454664838534, 40.7022641307395]]]}}, {"type": "Feature", "properties": {"zone_id": "02057CMXP1H1N0YC9S9J1N", "tract_id": "36047050700", "city": "", "zone_code": "C2-3", "zone_category": "Commercial", "ev_permitted": true}, "geometry": {"type": "Polygon", "coordinates": [[[-73.9454146757531, 40.7019257338735], [-73.9448394253924, 40.702301538086], [-73.945193297982, 40.7024988199767], [-73.9454529619785, 40.7023297747445], [-73.9454162748691, 40.7022967321518], [-73.9456547680312, 40.7021418747207], [-73.9454146757531, 40.7019257338735]]]}}, {"type": "Feature", "properties": {"zone_id": "0204Y7FHM2U72O803B3VYY", "tract_id": "36047050700", "city": "BROOKLYN, NY", "zone_code": "R6", "zone_category": "Residential", "ev_permitted": false}, "geometry": {"type": "Polygon", "coordinates": [[[-73.9454529619785, 40.7023297747445], [-73.945193297982, 40.7024988199767], [-73.94532080302, 40.7025699028654], [-73.9455525584408, 40.7024194214278], [-73.9454529619785, 40.7023297747445]]]}}, {"type": "Feature", "properties": {"zone_id": "0205G077RG59EL3GG41UIR", "tract_id": "36047050700", "city": "BROOKLYN, NY", "zone_code": "R7A", "zone_category": "Residential", "ev_permitted": false}, "geometry": {"type": "Polygon", "coordinates": [[[-73.9465375498458, 40.7015627656761], [-73.946465067428, 40.7016097877323], [-73.9467009454868, 40.7018200024251], [-73.9467735442176, 40.7017730828638], [-73.9465375498458, 40.7015627656761]]]}}, {"type": "Feature", "properties": {"zone_id": "0205R81NQ65FKT8FM5INIJ", "tract_id": "36047050700", "city": "BROOKLYN, NY", "zone_code": "R6", "zone_category": "Residential", "ev_permitted": false}, "geometry": {"type": "Polygon", "coordinates": [[[-73.9456334782388, 40.7017827905802], [-73.9454146757531, 40.7019257338735], [-73.9456547680312, 40.7021418747207], [-73.9454664838534, 40.7022641307395], [-73.9457048688449, 40.7024787332429], [-73.9461125179345, 40.7022140395235], [-73.9456334782388, 40.7017827905802]]]}}, {"type": "Feature", "properties": {"zone_id": "0207ANC8YNR136FN28TZ5O", "tract_id": "36047050700", "city": "BROOKLYN, NY", "zone_code": "R6", "zone_category": "Residential", "ev_permitted": false}, "geometry": {"type": "Polygon", "coordinates": [[[-73.9449709019299, 40.7016046949605], [-73.9449049873099, 40.7016474308394], [-73.9451448836626, 40.7018628222244], [-73.9452108204831, 40.7018201072996], [-73.9449709019299, 40.7016046949605]]]}}, {"type": "Feature", "properties": {"zone_id": "0202L15ITG0LE0A4MYTUBO", "tract_id": "36047050700", "city": "BROOKLYN, NY", "zone_code": "R6", "zone_category": "Residential", "ev_permitted": false}, "geometry": {"type": "Polygon", "coordinates": [[[-73.9449049873099, 40.7016474308394], [-73.9448308621296, 40.7016954896119], [-73.9450707316596, 40.7019108579495], [-73.9451448836626, 40.7018628222244], [-73.9449049873099, 40.7016474308394]]]}}, {"type": "Feature", "properties": {"zone_id": "02061UJOIZ580XCDUBI0DZ", "tract_id": "36047050700", "city": "BROOKLYN, NY", "zone_code": "R6", "zone_category": "Residential", "ev_permitted": false}, "geometry": {"type": "Polygon", "coordinates": [[[-73.9452368523459, 40.7014322653271], [-73.9449709019299, 40.7016046949605], [-73.9452108204831, 40.7018201072996], [-73.9454768652445, 40.7016477593725], [-73.9452368523459, 40.7014322653271]]]}}, {"type": "Feature", "properties": {"zone_id": "0203XHY7OD0IX9YE3TEIYX", "tract_id": "36047050700", "city": "BROOKLYN, NY", "zone_code": "R6", "zone_category": "Residential", "ev_permitted": false}, "geometry": {"type": "Polygon", "coordinates": [[[-73.9450013967261, 40.7012208603268], [-73.9444357939086, 40.7015875684172], [-73.944670342125, 40.7017981597455], [-73.9446548245694, 40.7018082199998], [-73.9448955399565, 40.702024347979], [-73.9450707316596, 40.7019108579495], [-73.9448308621296, 40.7016954896119], [-73.9452368523459, 40.7014322653271], [-73.9450013967261, 40.7012208603268]]]}}, {"type": "Feature", "properties": {"zone_id": "0205HB5LYD7KIZ134ZR3KS", "tract_id": "36047050700", "city": "BROOKLYN, NY", "zone_code": "R6", "zone_category": "Residential", "ev_permitted": false}, "geometry": {"type": "Polygon", "coordinates": [[[-73.944831433482, 40.701966789782], [-73.9445606384775, 40.7021422115751], [-73.9446427779819, 40.7021880884395], [-73.9448955399565, 40.702024347979], [-73.944831433482, 40.701966789782]]]}}, {"type": "Feature", "properties": {"zone_id": "02062GN5XZ78WE8EBSCHET", "tract_id": "36047050700", "city": "BROOKLYN, NY", "zone_code": "C2-3", "zone_category": "Commercial", "ev_permitted": true}, "geometry": {"type": "Polygon", "coordinates": [[[-73.9447706770503, 40.7019122391363], [-73.9444829204701, 40.7020988024188], [-73.9445606384775, 40.7021422115751], [-73.944831433482, 40.701966789782], [-73.9447706770503, 40.7019122391363]]]}}, {"type": "Feature", "properties": {"zone_id": "0203WU4ZLVVIHF4SV4DFZ4", "tract_id": "36047050700", "city": "BROOKLYN, NY", "zone_code": "C2-3", "zone_category": "Commercial", "ev_permitted": true}, "geometry": {"type": "Polygon", "coordinates": [[[-73.944713315851, 40.7018607375262], [-73.9444094319861, 40.702057757596], [-73.9444829204701, 40.7020988024188], [-73.9447706770503, 40.7019122391363], [-73.944713315851, 40.7018607375262]]]}}, {"type": "Feature", "properties": {"zone_id": "02015N56R02HU581P6DVYY", "tract_id": "36047050700", "city": "BROOKLYN, NY", "zone_code": "R6", "zone_category": "Residential", "ev_permitted": false}, "geometry": {"type": "Polygon", "coordinates": [[[-73.9446548245694, 40.7018082199998], [-73.9443344947198, 40.7020159025608], [-73.9444094319861, 40.702057757596], [-73.944713315851, 40.7018607375262], [-73.9446548245694, 40.7018082199998]]]}}, {"type": "Feature", "properties": {"zone_id": "0200ZT4E1MF5P8FFTNAUP6", "tract_id": "36047050700", "city": "BROOKLYN, NY", "zone_code": "C2-3", "zone_category": "Commercial", "ev_permitted": true}, "geometry": {"type": "Polygon", "coordinates": [[[-73.9445017180598, 40.7018397751195], [-73.9442783910378, 40.7019845669861], [-73.9443344947198, 40.7020159025608], [-73.9445455087143, 40.7018790939002], [-73.9445017180598, 40.7018397751195]]]}}, {"type": "Feature", "properties": {"zone_id": "0201V84GXNW1I3N0BFHPAR", "tract_id": "36047050700", "city": "BROOKLYN, NY", "zone_code": "C2-3", "zone_category": "Commercial", "ev_permitted": true}, "geometry": {"type": "Polygon", "coordinates": [[[-73.9444528661451, 40.7017959139922], [-73.9442158044045, 40.7019496095424], [-73.9442783910378, 40.7019845669861], [-73.9445017180598, 40.7018397751195], [-73.9444528661451, 40.7017959139922]]]}}, {"type": "Feature", "properties": {"zone_id": "0203TIEBY1OMLVTLUV7SRK", "tract_id": "36047050700", "city": "BROOKLYN, NY", "zone_code": "C2-3", "zone_category": "Commercial", "ev_permitted": true}, "geometry": {"type": "Polygon", "coordinates": [[[-73.9444053289794, 40.7017532325427], [-73.9441549020311, 40.7019155937435], [-73.9442158044045, 40.7019496095424], [-73.9444528661451, 40.7017959139922], [-73.9444053289794, 40.7017532325427]]]}}, {"type": "Feature", "properties": {"zone_id": "0203YGJ0W149MP3NR33G0F", "tract_id": "36047050700", "city": "BROOKLYN, NY", "zone_code": "R6", "zone_category": "Residential", "ev_permitted": false}, "geometry": {"type": "Polygon", "coordinates": [[[-73.9443607367635, 40.7017131952017], [-73.9440977732368, 40.7018836849149], [-73.9441549020311, 40.7019155937435], [-73.9444053289794, 40.7017532325427], [-73.9443607367635, 40.7017131952017]]]}}, {"type": "Feature", "properties": {"zone_id": "020680MLNVE30KTHDKNMPV", "tract_id": "36047050700", "city": "BROOKLYN, NY", "zone_code": "C2-3", "zone_category": "Commercial", "ev_permitted": true}, "geometry": {"type": "Polygon", "coordinates": [[[-73.9443109615307, 40.7016685023201], [-73.9440340009368, 40.7018480655927], [-73.9440977732368, 40.7018836849149], [-73.9443607367635, 40.7017131952017], [-73.9443109615307, 40.7016685023201]]]}}, {"type": "Feature", "properties": {"zone_id": "0206B9KESSE2B4U820BPZD", "tract_id": "36047050700", "city": "BROOKLYN, NY", "zone_code": "R6", "zone_category": "Residential", "ev_permitted": false}, "geometry": {"type": "Polygon", "coordinates": [[[-73.9443636869036, 40.701634318105], [-73.9443109615307, 40.7016685023201], [-73.9445455087143, 40.7018790939002], [-73.9445982341335, 40.7018449095786], [-73.9443636869036, 40.701634318105]]]}}, {"type": "Feature", "properties": {"zone_id": "0203A8AB1ZTHDF37PRA7LY", "tract_id": "36047050700", "city": "BROOKLYN, NY", "zone_code": "C2-3", "zone_category": "Commercial", "ev_permitted": true}, "geometry": {"type": "Polygon", "coordinates": [[[-73.9444357939086, 40.7015875684172], [-73.9443636869036, 40.701634318105], [-73.9445982341335, 40.7018449095786], [-73.944670342125, 40.7017981597455], [-73.9444357939086, 40.7015875684172]]]}}, {"type": "Feature", "properties": {"zone_id": "0202F2QE9MXRK41M5GX5JC", "tract_id": "36047050700", "city": "BROOKLYN, NY", "zone_code": "C4-3", "zone_category": "Commercial", "ev_permitted": true}, "geometry": {"type": "Polygon", "coordinates": [[[-73.9435120594975, 40.7012212232374], [-73.9432342371984, 40.7014018683777], [-73.94383992786, 40.7017397361029], [-73.9440396893442, 40.7016103731797], [-73.9438492219645, 40.7014399956414], [-73.9438523119948, 40.7014379938645], [-73.9438055715171, 40.7013961838523], [-73.9438028242092, 40.7013979623493], [-73.9437560837912, 40.7013561516141], [-73.943702029969, 40.7013911570148], [-73.9435120594975, 40.7012212232374]]]}}, {"type": "Feature", "properties": {"zone_id": "02013939O4M14U6DPN23ZZ", "tract_id": "36047050700", "city": "BROOKLYN, NY", "zone_code": "C4-3", "zone_category": "Commercial", "ev_permitted": true}, "geometry": {"type": "Polygon", "coordinates": [[[-73.9438640030553, 40.7013583446017], [-73.9438055715171, 40.7013961838523], [-73.9438523119948, 40.7014379938645], [-73.9438492219645, 40.7014399956414], [-73.9440396893442, 40.7016103731797], [-73.9441012118888, 40.7015705327308], [-73.9438640030553, 40.7013583446017]]]}}, {"type": "Feature", "properties": {"zone_id": "0202ONPHRH36LL96WEE5JH", "tract_id": "36047050700", "city": "BROOKLYN, NY", "zone_code": "R7A", "zone_category": "Residential", "ev_permitted": false}, "geometry": {"type": "Polygon", "coordinates": [[[-73.9485641660315, 40.7008587012414], [-73.9482854596162, 40.7010382400724], [-73.948760095357, 40.701464345932], [-73.9490381033784, 40.7012841785279], [-73.9485641660315, 40.7008587012414]]]}}, {"type": "Feature", "properties": {"zone_id": "0203XYTW0SQA22JFYQDQO5", "tract_id": "36047050700", "city": "", "zone_code": "R7A", "zone_category": "Residential", "ev_permitted": false}, "geometry": {"type": "Polygon", "coordinates": [[[-73.9477046964559, 40.7008055706912], [-73.9474302352092, 40.7009836325661], [-73.9476669909456, 40.701195640642], [-73.947941888371, 40.7010179687324], [-73.9477046964559, 40.7008055706912]]]}}, {"type": "Feature", "properties": {"zone_id": "0200UBCBIVEQI5R6ILDZ80", "tract_id": "36047050700", "city": "BROOKLYN, NY", "zone_code": "M3-1", "zone_category": "Industrial", "ev_permitted": true}, "geometry": {"type": "Polygon", "coordinates": [[[-73.9478969473355, 40.7003199806937], [-73.947656984763, 40.7004739594164], [-73.9481317376608, 40.700898173583], [-73.948389431315, 40.7007312525053], [-73.9480102789187, 40.7003924635676], [-73.947991609293, 40.7004045660097], [-73.9478969473355, 40.7003199806937]]]}}, {"type": "Feature", "properties": {"zone_id": "0206YF0AQPGSF6F015C6N9", "tract_id": "36047050700", "city": "BROOKLYN, NY", "zone_code": "R7A", "zone_category": "Residential", "ev_permitted": false}, "geometry": {"type": "Polygon", "coordinates": [[[-73.9472892076933, 40.7010751260987], [-73.9471519756822, 40.7011641562685], [-73.9473889476373, 40.7013753439523], [-73.9475257393404, 40.7012869337506], [-73.9472892076933, 40.7010751260987]]]}}, {"type": "Feature", "properties": {"zone_id": "0202PF9DIR5Z8RU9HX1869", "tract_id": "36047050700", "city": "BROOKLYN, NY", "zone_code": "R7A", "zone_category": "Residential", "ev_permitted": false}, "geometry": {"type": "Polygon", "coordinates": [[[-73.9471519756822, 40.7011641562685], [-73.9470537623007, 40.701227873329], [-73.9472905773255, 40.7014389213121], [-73.9473889476373, 40.7013753439523], [-73.9471519756822, 40.7011641562685]]]}}, {"type": "Feature", "properties": {"zone_id": "0201NJ22S9AM3JWIBF4O8E", "tract_id": "36047050700", "city": "BROOKLYN, NY", "zone_code": "R7A", "zone_category": "Residential", "ev_permitted": false}, "geometry": {"type": "Polygon", "coordinates": [[[-73.9470537623007, 40.701227873329], [-73.9469505632709, 40.7012948244604], [-73.9471872158272, 40.7015057257236], [-73.9472905773255, 40.7014389213121], [-73.9470537623007, 40.701227873329]]]}}, {"type": "Feature", "properties": {"zone_id": "0200W19AUPUPA3WX3AWA4O", "tract_id": "36047050700", "city": "BROOKLYN, NY", "zone_code": "R7A", "zone_category": "Residential", "ev_permitted": false}, "geometry": {"type": "Polygon", "coordinates": [[[-73.9469505632709, 40.7012948244604], [-73.9468806383705, 40.7013401875723], [-73.947117179228, 40.701550991257], [-73.9471872158272, 40.7015057257236], [-73.9469505632709, 40.7012948244604]]]}}, {"type": "Feature", "properties": {"zone_id": "02077QU3TE7UGEVSWE8D54", "tract_id": "36047050700", "city": "BROOKLYN, NY", "zone_code": "R7A", "zone_category": "Residential", "ev_permitted": false}, "geometry": {"type": "Polygon", "coordinates": [[[-73.9474302352092, 40.7009836325661], [-73.9472892076933, 40.7010751260987], [-73.9475257393404, 40.7012869337506], [-73.9476669909456, 40.701195640642], [-73.9474302352092, 40.7009836325661]]]}}, {"type": "Feature", "properties": {"zone_id": "0200L73UP96DBC4FMY2AAG", "tract_id": "36047050700", "city": "BROOKLYN, NY", "zone_code": "R7A", "zone_category": "Residential", "ev_permitted": false}, "geometry": {"type": "Polygon", "coordinates": [[[-73.94685225639, 40.7009958815101], [-73.9467836406822, 40.7010403956531], [-73.9470191791302, 40.701250308814], [-73.9470877967438, 40.70120579383], [-73.94685225639, 40.7009958815101]]]}}, {"type": "Feature", "properties": {"zone_id": "0201M3D991D9SMIOTDIAXZ", "tract_id": "36047050700", "city": "BROOKLYN, NY", "zone_code": "R7A", "zone_category": "Residential", "ev_permitted": false}, "geometry": {"type": "Polygon", "coordinates": [[[-73.9469164361972, 40.7009542433766], [-73.94685225639, 40.7009958815101], [-73.9470877967438, 40.70120579383], [-73.9471519756822, 40.7011641562685], [-73.9469164361972, 40.7009542433766]]]}}, {"type": "Feature", "properties": {"zone_id": "02041Q06YB5G66O0TAKFML", "tract_id": "36047050700", "city": "BROOKLYN, NY", "zone_code": "R7A", "zone_category": "Residential", "ev_permitted": false}, "geometry": {"type": "Polygon", "coordinates": [[[-73.9469850526514, 40.7009097284517], [-73.9469164361972, 40.7009542433766], [-73.9471519756822, 40.7011641562685], [-73.9472205931185, 40.7011196412048], [-73.9469850526514, 40.7009097284517]]]}}, {"type": "Feature", "properties": {"zone_id": "0200IVFCB9XNS86TRYXKIC", "tract_id": "36047050700", "city": "BROOKLYN, NY", "zone_code": "R7A", "zone_category": "Residential", "ev_permitted": false}, "geometry": {"type": "Polygon", "coordinates": [[[-73.9470536680908, 40.7008652134853], [-73.9469850526514, 40.7009097284517], [-73.9472205931185, 40.7011196412048], [-73.9472892076933, 40.7010751260987], [-73.9470536680908, 40.7008652134853]]]}}, {"type": "Feature", "properties": {"zone_id": "0201ZJOCK7YSAQZIATJ00H", "tract_id": "36047050700", "city": "BROOKLYN, NY", "zone_code": "R7A", "zone_category": "Residential", "ev_permitted": false}, "geometry": {"type": "Polygon", "coordinates": [[[-73.9471222834385, 40.7008206984777], [-73.9470536680908, 40.7008652134853], [-73.9472892076933, 40.7010751260987], [-73.9473578230999, 40.7010306109519], [-73.9471222834385, 40.7008206984777]]]}}, {"type": "Feature", "properties": {"zone_id": "02006AM1ECUSDI9OVUH3GP", "tract_id": "36047050700", "city": "BROOKLYN, NY", "zone_code": "R7A", "zone_category": "Residential", "ev_permitted": false}, "geometry": {"type": "Polygon", "coordinates": [[[-73.946509070702, 40.7012185227327], [-73.9464365479926, 40.7012655721579], [-73.9466720861438, 40.7014754853203], [-73.9467446098386, 40.7014284357484], [-73.946509070702, 40.7012185227327]]]}}, {"type": "Feature", "properties": {"zone_id": "0200TUSIKCSFWPIBQ6BFG4", "tract_id": "36047050700", "city": "BROOKLYN, NY", "zone_code": "R7A", "zone_category": "Residential", "ev_permitted": false}, "geometry": {"type": "Polygon", "coordinates": [[[-73.9466450991173, 40.7011302748326], [-73.946509070702, 40.7012185227327], [-73.9467446098386, 40.7014284357484], [-73.9468806383705, 40.7013401875723], [-73.9466450991173, 40.7011302748326]]]}}, {"type": "Feature", "properties": {"zone_id": "02076VS5RRTGP1HB65OS3Q", "tract_id": "36047050700", "city": "BROOKLYN, NY", "zone_code": "R7A", "zone_category": "Residential", "ev_permitted": false}, "geometry": {"type": "Polygon", "coordinates": [[[-73.9464365479926, 40.7012655721579], [-73.9463679298826, 40.7013100867533], [-73.9466034698215, 40.7015200000558], [-73.9466720861438, 40.7014754853203], [-73.9464365479926, 40.7012655721579]]]}}, {"type": "Feature", "properties": {"zone_id": "02005CL0T1CJ4IQWN1RK0G", "tract_id": "36047050700", "city": "BROOKLYN, NY", "zone_code": "R7A", "zone_category": "Residential", "ev_permitted": false}, "geometry": {"type": "Polygon", "coordinates": [[[-73.9467836406822, 40.7010403956531], [-73.9466450991173, 40.7011302748326], [-73.9468806383705, 40.7013401875723], [-73.9470191791302, 40.701250308814], [-73.9467836406822, 40.7010403956531]]]}}, {"type": "Feature", "properties": {"zone_id": "0201XLHXZ8KUVGMHJC0M7E", "tract_id": "36047050700", "city": "", "zone_code": "R7A", "zone_category": "Residential", "ev_permitted": false}, "geometry": {"type": "Polygon", "coordinates": [[[-73.9474698102684, 40.700595235515], [-73.9472631192003, 40.7007293301324], [-73.9474986589828, 40.7009392416182], [-73.9477046964559, 40.7008055706912], [-73.9474698102684, 40.700595235515]]]}}, {"type": "Feature", "properties": {"zone_id": "02064UTAT1PJE32PD91BRT", "tract_id": "36047050700", "city": "BROOKLYN, NY", "zone_code": "R7A", "zone_category": "Residential", "ev_permitted": false}, "geometry": {"type": "Polygon", "coordinates": [[[-73.9472631192003, 40.7007293301324], [-73.9471222834385, 40.7008206984777], [-73.9473578230999, 40.7010306109519], [-73.9474986589828, 40.7009392416182], [-73.9472631192003, 40.7007293301324]]]}}, {"type": "Feature", "properties": {"zone_id": "0201PR69JN4DGJY90N9GYJ", "tract_id": "36047050700", "city": "BROOKLYN, NY", "zone_code": "R7A", "zone_category": "Residential", "ev_permitted": false}, "geometry": {"type": "Polygon", "coordinates": [[[-73.9471974805598, 40.7003461393993], [-73.9469318513728, 40.700517710864], [-73.9469375241983, 40.7005439859465], [-73.9470439150787, 40.7006381267751], [-73.9473238327095, 40.700457325828], [-73.9471974805598, 40.7003461393993]]]}}, {"type": "Feature", "properties": {"zone_id": "0203HC8H6KKGSBQS632M3W", "tract_id": "36047050700", "city": "", "zone_code": "R7A", "zone_category": "Residential", "ev_permitted": false}, "geometry": {"type": "Polygon", "coordinates": [[[-73.9463507629748, 40.700342457285], [-73.9460740968956, 40.7005219377968], [-73.9463193299814, 40.7007389355468], [-73.9465965083475, 40.7005599072013], [-73.9463507629748, 40.700342457285]]]}}, {"type": "Feature", "properties": {"zone_id": "02059CRR6YC3SLYH2NYN3I", "tract_id": "36047050700", "city": "BROOKLYN, NY", "zone_code": "R7A", "zone_category": "Residential", "ev_permitted": false}, "geometry": {"type": "Polygon", "coordinates": [[[-73.9465965083475, 40.7005599072013], [-73.9464568196377, 40.7006501320386], [-73.9466967023745, 40.7008623919664], [-73.9468363902805, 40.7007721675427], [-73.9465965083475, 40.7005599072013]]]}}, {"type": "Feature", "properties": {"zone_id": "0203ZI6NIW2PL8K97PTF04", "tract_id": "36047050700", "city": "BROOKLYN, NY", "zone_code": "R7A", "zone_category": "Residential", "ev_permitted": false}, "geometry": {"type": "Polygon", "coordinates": [[[-73.9464568196377, 40.7006501320386], [-73.9463193299814, 40.7007389355468], [-73.9465592107534, 40.7009511957578], [-73.9466967023745, 40.7008623919664], [-73.9464568196377, 40.7006501320386]]]}}, {"type": "Feature", "properties": {"zone_id": "0205BYKLTQSCE17LFQWJ9F", "tract_id": "36047050700", "city": "BROOKLYN, NY", "zone_code": "R7A", "zone_category": "Residential", "ev_permitted": false}, "geometry": {"type": "Polygon", "coordinates": [[[-73.9469200191294, 40.7004629028258], [-73.946736315809, 40.7004846678841], [-73.9467481515815, 40.7005394970225], [-73.9466870138305, 40.7005469738343], [-73.9466262476309, 40.7005862222721], [-73.9468363902805, 40.7007721675427], [-73.9470439150787, 40.7006381267751], [-73.9469375241983, 40.7005439859465], [-73.9469200191294, 40.7004629028258]]]}}, {"type": "Feature", "properties": {"zone_id": "0206J5ARCH46PHAA55556C", "tract_id": "36047050700", "city": "BROOKLYN, NY", "zone_code": "M3-1", "zone_category": "Industrial", "ev_permitted": true}, "geometry": {"type": "Polygon", "coordinates": [[[-73.9496325402931, 40.6999260083979], [-73.9482629625297, 40.7000851141924], [-73.9478969473355, 40.7003199806937], [-73.947991609293, 40.7004045660097], [-73.9480102789187, 40.7003924635676], [-73.948389431315, 40.7007312525053], [-73.9496325402931, 40.6999260083979]]]}}, {"type": "Feature", "properties": {"zone_id": "0200QNB8ISFCJFVSXN4NWN", "tract_id": "36047050700", "city": "BROOKLYN, NY", "zone_code": "M3-1", "zone_category": "Industrial", "ev_permitted": true}, "geometry": {"type": "Polygon", "coordinates": [[[-73.9478155554638, 40.7001352669552], [-73.9473452506325, 40.7001894084535], [-73.9475060643613, 40.7003332040443], [-73.9478155554638, 40.7001352669552]]]}}, {"type": "Feature", "properties": {"zone_id": "02032NVRESO30F4OZB9884", "tract_id": "36047050700", "city": "BROOKLYN, NY", "zone_code": "R7A", "zone_category": "Residential", "ev_permitted": false}, "geometry": {"type": "Polygon", "coordinates": [[[-73.9469600601069, 40.7002328934975], [-73.9468724806219, 40.7002426994839], [-73.9469318513728, 40.700517710864], [-73.947010572847, 40.7004668646926], [-73.9469600601069, 40.7002328934975]]]}}, {"type": "Feature", "properties": {"zone_id": "0203GDR8A7L9TW3PNW315L", "tract_id": "36047050700", "city": "BROOKLYN, NY", "zone_code": "R7A", "zone_category": "Residential", "ev_permitted": false}, "geometry": {"type": "Polygon", "coordinates": [[[-73.9471503202698, 40.700304639718], [-73.9469969375981, 40.7004037110386], [-73.947010572847, 40.7004668646926], [-73.9471974805598, 40.7003461393993], [-73.9471503202698, 40.700304639718]]]}}, {"type": "Feature", "properties": {"zone_id": "0205D59MC1DH5HEGHY7IWC", "tract_id": "36047050700", "city": "BROOKLYN, NY", "zone_code": "R7A", "zone_category": "Residential", "ev_permitted": false}, "geometry": {"type": "Polygon", "coordinates": [[[-73.9471073819091, 40.7002668541117], [-73.9469845239652, 40.7003462094417], [-73.9469969375981, 40.7004037110386], [-73.9471503202698, 40.700304639718], [-73.9471073819091, 40.7002668541117]]]}}, {"type": "Feature", "properties": {"zone_id": "0200S88DUSHCHYKCLM5MTP", "tract_id": "36047050700", "city": "BROOKLYN, NY", "zone_code": "R7A", "zone_category": "Residential", "ev_permitted": false}, "geometry": {"type": "Polygon", "coordinates": [[[-73.947056516528, 40.700222094453], [-73.9469600601069, 40.7002328934975], [-73.9469845239652, 40.7003462094417], [-73.9471073819091, 40.7002668541117], [-73.947056516528, 40.700222094453]]]}}, {"type": "Feature", "properties": {"zone_id": "02003QV13XNCO82HJLTMPG", "tract_id": "36047050700", "city": "", "zone_code": "R7A", "zone_category": "Residential", "ev_permitted": false}, "geometry": {"type": "Polygon", "coordinates": [[[-73.9468724806219, 40.7002426994839], [-73.946780834732, 40.7002529595501], [-73.9468284989652, 40.7004737461958], [-73.9469200191294, 40.7004629028258], [-73.9468724806219, 40.7002426994839]]]}}, {"type": "Feature", "properties": {"zone_id": "0202IQ7OR5WPE092J410TA", "tract_id": "36047050700", "city": "BROOKLYN, NY", "zone_code": "R7A", "zone_category": "Residential", "ev_permitted": false}, "geometry": {"type": "Polygon", "coordinates": [[[-73.946780834732, 40.7002529595501], [-73.9464277935014, 40.7002924855349], [-73.9463507629748, 40.700342457285], [-73.9466262476309, 40.7005862222721], [-73.9466870138305, 40.7005469738343], [-73.9467481515815, 40.7005394970225], [-73.946736315809, 40.7004846678841], [-73.9468284989652, 40.7004737461958], [-73.946780834732, 40.7002529595501]]]}}, {"type": "Feature", "properties": {"zone_id": "0206JMJMBCY1WRQC0IWVD4", "tract_id": "36047050700", "city": "BROOKLYN, NY", "zone_code": "R7A", "zone_category": "Residential", "ev_permitted": false}, "geometry": {"type": "Polygon", "coordinates": [[[-73.9460740968956, 40.7005219377968], [-73.9455297022036, 40.7008750963686], [-73.9460138094842, 40.7013034644572], [-73.9465592107534, 40.7009511957578], [-73.9460740968956, 40.7005219377968]]]}}, {"type": "Feature", "properties": {"zone_id": "0201WZ32E3DJYD9KQPJPX6", "tract_id": "36047050700", "city": "BROOKLYN, NY", "zone_code": "R7A", "zone_category": "Residential", "ev_permitted": false}, "geometry": {"type": "Polygon", "coordinates": [[[-73.9455297022036, 40.7008750963686], [-73.9451820602037, 40.7011006152482], [-73.9456655219833, 40.7015284167328], [-73.9460138094842, 40.7013034644572], [-73.9455297022036, 40.7008750963686]]]}}, {"type": "Feature", "properties": {"zone_id": "02046KCQ6OKV4Q2OSM0DTG", "tract_id": "36047050700", "city": "BROOKLYN, NY", "zone_code": "C4-3", "zone_category": "Commercial", "ev_permitted": true}, "geometry": {"type": "Polygon", "coordinates": [[[-73.9459842173103, 40.7003468369784], [-73.945542279763, 40.7003970797356], [-73.9455823751053, 40.7006061836949], [-73.9459842173103, 40.7003468369784]]]}}, {"type": "Feature", "properties": {"zone_id": "0200HC9G6AZ1S3HU4NFAT3", "tract_id": "36047050700", "city": "BROOKLYN, NY", "zone_code": "C4-3", "zone_category": "Commercial", "ev_permitted": true}, "geometry": {"type": "Polygon", "coordinates": [[[-73.9453682082924, 40.7004168691788], [-73.9451487229522, 40.7004418209527], [-73.9451811803909, 40.7006368211275], [-73.9451881907359, 40.7006322972261], [-73.9452856023978, 40.7007185810672], [-73.9451741988151, 40.700790478357], [-73.9452258833099, 40.7008362580918], [-73.9454527640118, 40.7006898330699], [-73.9453682082924, 40.7004168691788]]]}}, {"type": "Feature", "properties": {"zone_id": "0205GC1AZILWOVEZL6RDR1", "tract_id": "36047050700", "city": "BROOKLYN, NY", "zone_code": "C4-3", "zone_category": "Commercial", "ev_permitted": true}, "geometry": {"type": "Polygon", "coordinates": [[[-73.9451881907359, 40.7006322972261], [-73.9448787369821, 40.7008320127201], [-73.9449290189698, 40.700876551721], [-73.945238473703, 40.7006768360934], [-73.9451881907359, 40.7006322972261]]]}}, {"type": "Feature", "properties": {"zone_id": "0205KUCIVMBOGPDQIW484A", "tract_id": "36047050700", "city": "BROOKLYN, NY", "zone_code": "C4-3", "zone_category": "Commercial", "ev_permitted": true}, "geometry": {"type": "Polygon", "coordinates": [[[-73.945238473703, 40.7006768360934], [-73.9449290189698, 40.700876551721], [-73.944976148536, 40.7009182961183], [-73.9452856023978, 40.7007185810672], [-73.945238473703, 40.7006768360934]]]}}, {"type": "Feature", "properties": {"zone_id": "0201BUC87SPG1SFP9LHXQ8", "tract_id": "36047050700", "city": "BROOKLYN, NY", "zone_code": "C4-3", "zone_category": "Commercial", "ev_permitted": true}, "geometry": {"type": "Polygon", "coordinates": [[[-73.9451741988151, 40.700790478357], [-73.944976148536, 40.7009182961183], [-73.9450278329938, 40.7009640759412], [-73.9452258833099, 40.7008362580918], [-73.9451741988151, 40.700790478357]]]}}, {"type": "Feature", "properties": {"zone_id": "0203GLYBVOTJ2K8HCHHD3X", "tract_id": "36047050700", "city": "BROOKLYN, NY", "zone_code": "C4-3", "zone_category": "Commercial", "ev_permitted": true}, "geometry": {"type": "Polygon", "coordinates": [[[-73.9450361124336, 40.7006610864736], [-73.9448334370278, 40.7007918880886], [-73.9448787369821, 40.7008320127201], [-73.9450814124216, 40.7007012103233], [-73.9450361124336, 40.7006610864736]]]}}, {"type": "Feature", "properties": {"zone_id": "02014CVTZ8MVQ1N25XUS03", "tract_id": "36047050700", "city": "BROOKLYN, NY", "zone_code": "C4-3", "zone_category": "Commercial", "ev_permitted": true}, "geometry": {"type": "Polygon", "coordinates": [[[-73.9449672668263, 40.7006396870834], [-73.9447904426692, 40.7007538057731], [-73.9448334370278, 40.7007918880886], [-73.9450361124336, 40.7006610864736], [-73.9449672668263, 40.7006396870834]]]}}, {"type": "Feature", "properties": {"zone_id": "02035235NAR20ZDTJX2D73", "tract_id": "36047050700", "city": "BROOKLYN, NY", "zone_code": "C4-3", "zone_category": "Commercial", "ev_permitted": true}, "geometry": {"type": "Polygon", "coordinates": [[[-73.945542279763, 40.7003970797356], [-73.9454534938431, 40.7004071735675], [-73.9455176241003, 40.7006479732935], [-73.9455823751053, 40.7006061836949], [-73.945542279763, 40.7003970797356]]]}}, {"type": "Feature", "properties": {"zone_id": "0205RMQU8ZYWRZU9F0D49B", "tract_id": "36047050700", "city": "BROOKLYN, NY", "zone_code": "C4-3", "zone_category": "Commercial", "ev_permitted": true}, "geometry": {"type": "Polygon", "coordinates": [[[-73.9454534938431, 40.7004071735675], [-73.9453682082924, 40.7004168691788], [-73.9454527640118, 40.7006898330699], [-73.9455176241003, 40.7006479732935], [-73.9454534938431, 40.7004071735675]]]}}, {"type": "Feature", "properties": {"zone_id": "020168LM0JW9LH6K1HIVUP", "tract_id": "36047050700", "city": "BROOKLYN, NY", "zone_code": "C4-3", "zone_category": "Commercial", "ev_permitted": true}, "geometry": {"type": "Polygon", "coordinates": [[[-73.9450737815419, 40.7004503415084], [-73.9449383139298, 40.7004657402266], [-73.9449672668263, 40.7006396870834], [-73.9450361124336, 40.7006610864736], [-73.9450814124216, 40.7007012103233], [-73.9451122278797, 40.7006813221709], [-73.9450737815419, 40.7004503415084]]]}}, {"type": "Feature", "properties": {"zone_id": "0207H3LRTHL0JCNC4Y9XU3", "tract_id": "36047050700", "city": "BROOKLYN, NY", "zone_code": "C4-3", "zone_category": "Commercial", "ev_permitted": true}, "geometry": {"type": "Polygon", "coordinates": [[[-73.9451487229522, 40.7004418209527], [-73.9450737815419, 40.7004503415084], [-73.9451122278797, 40.7006813221709], [-73.9451811803909, 40.7006368211275], [-73.9451487229522, 40.7004418209527]]]}}, {"type": "Feature", "properties": {"zone_id": "0202DSRJBANH7VE4DDIEV9", "tract_id": "36047050700", "city": "BROOKLYN, NY", "zone_code": "C4-3", "zone_category": "Commercial", "ev_permitted": true}, "geometry": {"type": "Polygon", "coordinates": [[[-73.9449619998972, 40.700608042368], [-73.9448865273528, 40.7006166215711], [-73.9448872154596, 40.7006207528403], [-73.944744333715, 40.7007129640045], [-73.9447904426692, 40.7007538057731], [-73.9449672668263, 40.7006396870834], [-73.9449619998972, 40.700608042368]]]}}, {"type": "Feature", "properties": {"zone_id": "0202MRV2GD1ZB7TWSMH6WF", "tract_id": "36047050700", "city": "BROOKLYN, NY", "zone_code": "C4-3", "zone_category": "Commercial", "ev_permitted": true}, "geometry": {"type": "Polygon", "coordinates": [[[-73.9449383139298, 40.7004657402266], [-73.9448628424661, 40.7004743201174], [-73.9448865273528, 40.7006166215711], [-73.9449619998972, 40.700608042368], [-73.9449383139298, 40.7004657402266]]]}}, {"type": "Feature", "properties": {"zone_id": "0206TZZ4ILURJIGZAYRPBB", "tract_id": "36047050700", "city": "BROOKLYN, NY", "zone_code": "C4-3", "zone_category": "Commercial", "ev_permitted": true}, "geometry": {"type": "Polygon", "coordinates": [[[-73.9444085476607, 40.7010057013172], [-73.9439710748695, 40.7012890055641], [-73.9442082837971, 40.7015011934744], [-73.9446457569727, 40.7012178883337], [-73.9444085476607, 40.7010057013172]]]}}, {"type": "Feature", "properties": {"zone_id": "020735K79UIIAI33QGON39", "tract_id": "36047050700", "city": "BROOKLYN, NY", "zone_code": "C4-3", "zone_category": "Commercial", "ev_permitted": true}, "geometry": {"type": "Polygon", "coordinates": [[[-73.9438399736922, 40.7010080054668], [-73.9435120594975, 40.7012212232374], [-73.943702029969, 40.7013911570148], [-73.9437560837912, 40.7013561516141], [-73.9438028242092, 40.7013979623493], [-73.9440772448599, 40.7012202513041], [-73.9438399736922, 40.7010080054668]]]}}, {"type": "Feature", "properties": {"zone_id": "0204PIPZ59JERKIRRYUJUX", "tract_id": "36047050700", "city": "BROOKLYN, NY", "zone_code": "C4-3", "zone_category": "Commercial", "ev_permitted": true}, "geometry": {"type": "Polygon", "coordinates": [[[-73.9439710748695, 40.7012890055641], [-73.9439161408584, 40.7013245811971], [-73.9441533497383, 40.7015367685171], [-73.9442082837971, 40.7015011934744], [-73.9439710748695, 40.7012890055641]]]}}, {"type": "Feature", "properties": {"zone_id": "0203C9SVP1MZO0BZDVI1D4", "tract_id": "36047050700", "city": "BROOKLYN, NY", "zone_code": "C4-3", "zone_category": "Commercial", "ev_permitted": true}, "geometry": {"type": "Polygon", "coordinates": [[[-73.9439161408584, 40.7013245811971], [-73.9438640030553, 40.7013583446017], [-73.9441012118888, 40.7015705327308], [-73.9441533497383, 40.7015367685171], [-73.9439161408584, 40.7013245811971]]]}}, {"type": "Feature", "properties": {"zone_id": "020508SBN581RFJFHY5E2A", "tract_id": "36047050700", "city": "BROOKLYN, NY", "zone_code": "C4-3", "zone_category": "Commercial", "ev_permitted": true}, "geometry": {"type": "Polygon", "coordinates": [[[-73.944375441724, 40.7006598247066], [-73.9438399736922, 40.7010080054668], [-73.9440772448599, 40.7012202513041], [-73.9444085476607, 40.7010057013172], [-73.9446457569727, 40.7012178883337], [-73.9448508398922, 40.7010850764929], [-73.944375441724, 40.7006598247066]]]}}, {"type": "Feature", "properties": {"zone_id": "0200KE40R11RDWQJEXTCK8", "tract_id": "36047050700", "city": "BROOKLYN, NY", "zone_code": "C4-3", "zone_category": "Commercial", "ev_permitted": true}, "geometry": {"type": "Polygon", "coordinates": [[[-73.9448628424661, 40.7004743201174], [-73.9445929679066, 40.7005049993615], [-73.9445479206095, 40.7005389871273], [-73.944744333715, 40.7007129640045], [-73.9448872154596, 40.7006207528403], [-73.9448628424661, 40.7004743201174]]]}}, {"type": "Feature", "properties": {"zone_id": "0203XNR5FOJJJN51N4J456", "tract_id": "36047050700", "city": "BROOKLYN, NY", "zone_code": "C4-3", "zone_category": "Commercial", "ev_permitted": true}, "geometry": {"type": "Polygon", "coordinates": [[[-73.9438619733694, 40.7005890550234], [-73.9437551096667, 40.700601144119], [-73.9437789409752, 40.7007345733799], [-73.9437958596396, 40.7007358028662], [-73.9438749364613, 40.700803385373], [-73.9439530210336, 40.7007522437576], [-73.9439238217606, 40.700726113059], [-73.9438851890105, 40.7007236538914], [-73.9438619733694, 40.7005890550234]]]}}, {"type": "Feature", "properties": {"zone_id": "0205H2M7G0YRB84O5IFWEE", "tract_id": "36047050700", "city": "", "zone_code": "C4-3", "zone_category": "Commercial", "ev_permitted": true}, "geometry": {"type": "Polygon", "coordinates": [[[-73.9437551096667, 40.700601144119], [-73.9435783216434, 40.700621143839], [-73.9436040887026, 40.7007698337576], [-73.943740169901, 40.7008916502957], [-73.9438749364613, 40.700803385373], [-73.9437958596396, 40.7007358028662], [-73.9437789409752, 40.7007345733799], [-73.9437551096667, 40.700601144119]]]}}, {"type": "Feature", "properties": {"zone_id": "0202US743PCTL1IKXA7MJ6", "tract_id": "36047050700", "city": "BROOKLYN, NY", "zone_code": "C4-3", "zone_category": "Commercial", "ev_permitted": true}, "geometry": {"type": "Polygon", "coordinates": [[[-73.9435052791944, 40.7006294078332], [-73.9434393400554, 40.70063686651], [-73.9434702500647, 40.7008152414628], [-73.9435337491194, 40.7007936981519], [-73.9435052791944, 40.7006294078332]]]}}, {"type": "Feature", "properties": {"zone_id": "02016E8CG6JI0VDSGQQTVH", "tract_id": "36047050700", "city": "BROOKLYN, NY", "zone_code": "C4-3", "zone_category": "Commercial", "ev_permitted": true}, "geometry": {"type": "Polygon", "coordinates": [[[-73.9435783216434, 40.700621143839], [-73.9435052791944, 40.7006294078332], [-73.9435337491194, 40.7007936981519], [-73.9436040887026, 40.7007698337576], [-73.9435783216434, 40.700621143839]]]}}, {"type": "Feature", "properties": {"zone_id": "0201OA3WVTDYUK5LRMVCMG", "tract_id": "36047050700", "city": "BROOKLYN, NY", "zone_code": "C4-3", "zone_category": "Commercial", "ev_permitted": true}, "geometry": {"type": "Polygon", "coordinates": [[[-73.9442468578152, 40.7005455120413], [-73.9439534734514, 40.7005787030539], [-73.9439749896872, 40.7006625999225], [-73.9440280542748, 40.7007031010789], [-73.9442560631968, 40.7005537657317], [-73.9442468578152, 40.7005455120413]]]}}, {"type": "Feature", "properties": {"zone_id": "0206TNFKG7QTXMNVZ9APTD", "tract_id": "36047050700", "city": "BROOKLYN, NY", "zone_code": "C4-3", "zone_category": "Commercial", "ev_permitted": true}, "geometry": {"type": "Polygon", "coordinates": [[[-73.9439534734514, 40.7005787030539], [-73.9438619733694, 40.7005890550234], [-73.9438851890105, 40.7007236538914], [-73.9439238217606, 40.700726113059], [-73.9439530210336, 40.7007522437576], [-73.9440280542748, 40.7007031010789], [-73.9439749896872, 40.7006625999225], [-73.9439534734514, 40.7005787030539]]]}}, {"type": "Feature", "properties": {"zone_id": "0201Y7I0V4W5M3VV2WASQ1", "tract_id": "36047050700", "city": "BROOKLYN, NY", "zone_code": "C4-3", "zone_category": "Commercial", "ev_permitted": true}, "geometry": {"type": "Polygon", "coordinates": [[[-73.9432134011772, 40.7011152886713], [-73.9430356825768, 40.7012814432345], [-73.9430915529763, 40.7013164528106], [-73.9432911135853, 40.7011857546203], [-73.9432134011772, 40.7011152886713]]]}}, {"type": "Feature", "properties": {"zone_id": "0201C4Z30PLC921BB99MHP", "tract_id": "36047050700", "city": "BROOKLYN, NY", "zone_code": "C4-3", "zone_category": "Commercial", "ev_permitted": true}, "geometry": {"type": "Polygon", "coordinates": [[[-73.9431520218128, 40.701059632275], [-73.9429632936518, 40.701236080883], [-73.9430356825768, 40.7012814432345], [-73.9432134011772, 40.7011152886713], [-73.9431520218128, 40.701059632275]]]}}, {"type": "Feature", "properties": {"zone_id": "0201KIF53C9TB5ROJHG5JS", "tract_id": "36047050700", "city": "BROOKLYN, NY", "zone_code": "C4-3", "zone_category": "Commercial", "ev_permitted": true}, "geometry": {"type": "Polygon", "coordinates": [[[-73.9430435060161, 40.7009446817332], [-73.9428235110603, 40.7011484874699], [-73.9429632936518, 40.701236080883], [-73.9431520218128, 40.701059632275], [-73.9430475345026, 40.7009648866139], [-73.9430435060161, 40.7009446817332]]]}}, {"type": "Feature", "properties": {"zone_id": "0207LUWP1MVB65T8ISA7CE", "tract_id": "36047050700", "city": "BROOKLYN, NY", "zone_code": "C4-3", "zone_category": "Commercial", "ev_permitted": true}, "geometry": {"type": "Polygon", "coordinates": [[[-73.9429474130507, 40.7009247305876], [-73.9427544037959, 40.7011051818973], [-73.9428235110603, 40.7011484874699], [-73.9430435060161, 40.7009446817332], [-73.9429474130507, 40.7009247305876]]]}}, {"type": "Feature", "properties": {"zone_id": "020508E9XXTJWJUM5J156H", "tract_id": "36047050700", "city": "BROOKLYN, NY", "zone_code": "C4-3", "zone_category": "Commercial", "ev_permitted": true}, "geometry": {"type": "Polygon", "coordinates": [[[-73.9428694036754, 40.7009085342209], [-73.9426973267681, 40.7010694154934], [-73.9427544037959, 40.7011051818973], [-73.9429474130507, 40.7009247305876], [-73.9428694036754, 40.7009085342209]]]}}, {"type": "Feature", "properties": {"zone_id": "0200TV3SH8SMD7JBQ96N11", "tract_id": "36047050700", "city": "BROOKLYN, NY", "zone_code": "C4-3", "zone_category": "Commercial", "ev_permitted": true}, "geometry": {"type": "Polygon", "coordinates": [[[-73.9427591643113, 40.7008856465047], [-73.9426166684533, 40.7010188709018], [-73.9426973267681, 40.7010694154934], [-73.9428694036754, 40.7009085342209], [-73.9427591643113, 40.7008856465047]]]}}, {"type": "Feature", "properties": {"zone_id": "0204TKUSMKXADGZQFS5EIH", "tract_id": "36047050700", "city": "BROOKLYN, NY", "zone_code": "C4-3", "zone_category": "Commercial", "ev_permitted": true}, "geometry": {"type": "Polygon", "coordinates": [[[-73.9434393400554, 40.70063686651], [-73.943185958111, 40.7006655311129], [-73.9432353701512, 40.700950674647], [-73.9431786038243, 40.7009878531993], [-73.9433538374869, 40.7011446749654], [-73.943740169901, 40.7008916502957], [-73.9436040887026, 40.7007698337576], [-73.9434702500647, 40.7008152414628], [-73.9434393400554, 40.70063686651]]]}}, {"type": "Feature", "properties": {"zone_id": "0201LD2C05MM503DPTL4NR", "tract_id": "36047050700", "city": "BROOKLYN, NY", "zone_code": "C4-3", "zone_category": "Commercial", "ev_permitted": true}, "geometry": {"type": "Polygon", "coordinates": [[[-73.943185958111, 40.7006655311129], [-73.9429922290307, 40.7006874461557], [-73.9430475345026, 40.7009648866139], [-73.9432911135853, 40.7011857546203], [-73.9433538374869, 40.7011446749654], [-73.9431786038243, 40.7009878531993], [-73.9432353701512, 40.700950674647], [-73.943185958111, 40.7006655311129]]]}}, {"type": "Feature", "properties": {"zone_id": "02005XVC7L0JR38HIGMRGY", "tract_id": "36047050700", "city": "BROOKLYN, NY", "zone_code": "C4-3", "zone_category": "Commercial", "ev_permitted": true}, "geometry": {"type": "Polygon", "coordinates": [[[-73.9428323785056, 40.7007055285313], [-73.9427487967385, 40.7007149834407], [-73.9427950248892, 40.7008930921548], [-73.9428747835037, 40.7009096513102], [-73.9428323785056, 40.7007055285313]]]}}, {"type": "Feature", "properties": {"zone_id": "0206YCFUPK155UU5DERFJT", "tract_id": "36047050700", "city": "BROOKLYN, NY", "zone_code": "C4-3", "zone_category": "Commercial", "ev_permitted": true}, "geometry": {"type": "Polygon", "coordinates": [[[-73.9429091025211, 40.7006968494101], [-73.9428323785056, 40.7007055285313], [-73.9428747835037, 40.7009096513102], [-73.9429568508325, 40.7009266900661], [-73.9429091025211, 40.7006968494101]]]}}, {"type": "Feature", "properties": {"zone_id": "0207A1TURR91MTE9BAS72B", "tract_id": "36047050700", "city": "BROOKLYN, NY", "zone_code": "C4-3", "zone_category": "Commercial", "ev_permitted": true}, "geometry": {"type": "Polygon", "coordinates": [[[-73.9429922290307, 40.7006874461557], [-73.9429091025211, 40.7006968494101], [-73.9429568508325, 40.7009266900661], [-73.9430435060161, 40.7009446817332], [-73.9429922290307, 40.7006874461557]]]}}, {"type": "Feature", "properties": {"zone_id": "02060IO03DT5ZSWWESZHJC", "tract_id": "36047050700", "city": "BROOKLYN, NY", "zone_code": "C4-3", "zone_category": "Commercial", "ev_permitted": true}, "geometry": {"type": "Polygon", "coordinates": [[[-73.9426500387374, 40.7007261550569], [-73.9425633119816, 40.7007359652159], [-73.9425734971506, 40.7007984311741], [-73.9424500942721, 40.7009144876586], [-73.9425287084057, 40.7009637518027], [-73.9426675708317, 40.7008278281911], [-73.9426500387374, 40.7007261550569]]]}}, {"type": "Feature", "properties": {"zone_id": "02032G4XEART3MS1UFKXM2", "tract_id": "36047050700", "city": "BROOKLYN, NY", "zone_code": "C4-3", "zone_category": "Commercial", "ev_permitted": true}, "geometry": {"type": "Polygon", "coordinates": [[[-73.9426675708317, 40.7008278281911], [-73.9425287084057, 40.7009637518027], [-73.9426166684533, 40.7010188709018], [-73.9427591643113, 40.7008856465047], [-73.9426675708317, 40.7008278281911]]]}}, {"type": "Feature", "properties": {"zone_id": "0206CPZ5NJAUMF6VP16AR8", "tract_id": "36047050700", "city": "BROOKLYN, NY", "zone_code": "C4-3", "zone_category": "Commercial", "ev_permitted": true}, "geometry": {"type": "Polygon", "coordinates": [[[-73.9425633119816, 40.7007359652159], [-73.9424655557563, 40.7007470226401], [-73.9424748809903, 40.7007745118573], [-73.942374363891, 40.7008670321464], [-73.9424500942721, 40.7009144876586], [-73.9425734971506, 40.7007984311741], [-73.9425633119816, 40.7007359652159]]]}}, {"type": "Feature", "properties": {"zone_id": "0203XV3FGPOJUCTBNLLW0Y", "tract_id": "36047050700", "city": "BROOKLYN, NY", "zone_code": "C4-3", "zone_category": "Commercial", "ev_permitted": true}, "geometry": {"type": "Polygon", "coordinates": [[[-73.9427487967385, 40.7007149834407], [-73.9426500387374, 40.7007261550569], [-73.9426675708317, 40.7008278281911], [-73.9427591643113, 40.7008856465047], [-73.9427950248892, 40.7008930921548], [-73.9427487967385, 40.7007149834407]]]}}, {"type": "Feature", "properties": {"zone_id": "02012TA3HVHOK65SCRW50O", "tract_id": "36047050700", "city": "BROOKLYN, NY", "zone_code": "C4-3", "zone_category": "Commercial", "ev_permitted": true}, "geometry": {"type": "Polygon", "coordinates": [[[-73.9424655557563, 40.7007470226401], [-73.9422260842132, 40.7007741117995], [-73.942374363891, 40.7008670321464], [-73.9424748809903, 40.7007745118573], [-73.9424655557563, 40.7007470226401]]]}}]}