{"type": "FeatureCollection", "features": [{"type": "Feature", "properties": {"zone_id": "0201BPW6XZ7FTOAQKTJV14", "tract_id": "36061015001", "city": "NEW YORK, NY", "zone_code": "R10", "zone_category": "Residential", "ev_permitted": false}, "geometry": {"type": "Polygon", "coordinates": [[[-73.9602002846953, 40.7809980467192], [-73.9601197176317, 40.7811082895959], [-73.960466127189, 40.7812539331515], [-73.9605466947801, 40.7811436893327], [-73.9602002846953, 40.7809980467192]]]}}, {"type": "Feature", "properties": {"zone_id": "0206OMIDXEQ79LOBRBI83Q", "tract_id": "36061015001", "city": "NEW YORK, NY", "zone_code": "R10", "zone_category": "Residential", "ev_permitted": false}, "geometry": {"type": "Polygon", "coordinates": [[[-73.9601197176317, 40.7811082895959], [-73.9600291070052, 40.7812322742142], [-73.9603755179336, 40.7813779180397], [-73.960466127189, 40.7812539331515], [-73.9601197176317, 40.7811082895959]]]}}, {"type": "Feature", "properties": {"zone_id": "0203ANCY594SLISOHVGY44", "tract_id": "36061015001", "city": "NEW YORK, NY", "zone_code": "R10", "zone_category": "Residential", "ev_permitted": false}, "geometry": {"type": "Polygon", "coordinates": [[[-73.9604061598199, 40.7807163407292], [-73.9602002846953, 40.7809980467192], [-73.9605466947801, 40.7811436893327], [-73.960752567965, 40.7808619827298], [-73.9604061598199, 40.7807163407292]]]}}, {"type": "Feature", "properties": {"zone_id": "0203DLW8KX5KKBVPV6LCG1", "tract_id": "36061015001", "city": "NEW YORK, NY", "zone_code": "R10", "zone_category": "Residential", "ev_permitted": false}, "geometry": {"type": "Polygon", "coordinates": [[[-73.9598987028237, 40.7808398587597], [-73.9597099754628, 40.7810980977371], [-73.9600291070052, 40.7812322742142], [-73.96021784276, 40.7809740220749], [-73.9598987028237, 40.7808398587597]]]}}, {"type": "Feature", "properties": {"zone_id": "0202PY0W4S1TJHWBYFF1WM", "tract_id": "36061015001", "city": "NEW YORK, NY", "zone_code": "R8B", "zone_category": "Residential", "ev_permitted": false}, "geometry": {"type": "Polygon", "coordinates": [[[-73.9602459695649, 40.7806489904619], [-73.9600576483747, 40.7809066771684], [-73.96021784276, 40.7809740220749], [-73.9604061598199, 40.7807163407292], [-73.9602459695649, 40.7806489904619]]]}}, {"type": "Feature", "properties": {"zone_id": "020462HZC0PIA1U25LBHI4", "tract_id": "36061015001", "city": "NEW YORK, NY", "zone_code": "R8B", "zone_category": "Residential", "ev_permitted": false}, "geometry": {"type": "Polygon", "coordinates": [[[-73.9600870290661, 40.7805821652854], [-73.9598987028237, 40.7808398587597], [-73.9600576483747, 40.7809066771684], [-73.9602459695649, 40.7806489904619], [-73.9600870290661, 40.7805821652854]]]}}, {"type": "Feature", "properties": {"zone_id": "0204DA3WA3J2DGWJK83UCG", "tract_id": "36061015001", "city": "NEW YORK, NY", "zone_code": "R8B", "zone_category": "Residential", "ev_permitted": false}, "geometry": {"type": "Polygon", "coordinates": [[[-73.9593851571908, 40.7802870646566], [-73.9590086579965, 40.7808032297195], [-73.9597099754628, 40.7810980977371], [-73.9600870290661, 40.7805821652854], [-73.9593851571908, 40.7802870646566]]]}}, {"type": "Feature", "properties": {"zone_id": "020320QDPWSR6KQQT5D340", "tract_id": "36061015001", "city": "NEW YORK, NY", "zone_code": "R8B", "zone_category": "Residential", "ev_permitted": false}, "geometry": {"type": "Polygon", "coordinates": [[[-73.9604791788151, 40.7802550780692], [-73.9603004577918, 40.7804996309891], [-73.9608488726764, 40.7807302049492], [-73.9610619702458, 40.7804386061836], [-73.9606380390149, 40.7802584953351], [-73.960602276898, 40.7803074305779], [-73.9604791788151, 40.7802550780692]]]}}, {"type": "Feature", "properties": {"zone_id": "02004FFMSFLHWMI9EQKKK9", "tract_id": "36061015001", "city": "NEW YORK, NY", "zone_code": "R8B", "zone_category": "Residential", "ev_permitted": false}, "geometry": {"type": "Polygon", "coordinates": [[[-73.9607857587507, 40.7800563588922], [-73.9606733977308, 40.7802101115253], [-73.961097328749, 40.7803902229477], [-73.9612096900187, 40.7802364692032], [-73.9607857587507, 40.7800563588922]]]}}, {"type": "Feature", "properties": {"zone_id": "0206LJK2SNU8XJBP03Q5W2", "tract_id": "36061015001", "city": "NEW YORK, NY", "zone_code": "LH-1A", "zone_category": "Other", "ev_permitted": false}, "geometry": {"type": "Polygon", "coordinates": [[[-73.9606733977308, 40.7802101115253], [-73.9606380390149, 40.7802584953351], [-73.9610619702458, 40.7804386061836], [-73.961097328749, 40.7803902229477], [-73.9606733977308, 40.7802101115253]]]}}, {"type": "Feature", "properties": {"zone_id": "02033IXN9KH77KS5GD7AF7", "tract_id": "36061015001", "city": "NEW YORK, NY", "zone_code": "R8B", "zone_category": "Residential", "ev_permitted": false}, "geometry": {"type": "Polygon", "coordinates": [[[-73.9602045393852, 40.7801384465558], [-73.9600251691515, 40.7803838883871], [-73.9603004577918, 40.7804996309891], [-73.9604791788151, 40.7802550780692], [-73.9602045393852, 40.7801384465558]]]}}, {"type": "Feature", "properties": {"zone_id": "0206KPE6EI71WOQB2S6YSK", "tract_id": "36061015001", "city": "NEW YORK, NY", "zone_code": "R8B", "zone_category": "Residential", "ev_permitted": false}, "geometry": {"type": "Polygon", "coordinates": [[[-73.9603849717329, 40.7798860787574], [-73.9602014888378, 40.780137150514], [-73.9602845504544, 40.7801724403729], [-73.9604680340576, 40.7799213691882], [-73.9603849717329, 40.7798860787574]]]}}, {"type": "Feature", "properties": {"zone_id": "0206R8II6RHYFJUMHFZZMD", "tract_id": "36061015001", "city": "NEW YORK, NY", "zone_code": "LH-1A", "zone_category": "Other", "ev_permitted": false}, "geometry": {"type": "Polygon", "coordinates": [[[-73.9604680340576, 40.7799213691882], [-73.9602845504544, 40.7801724403729], [-73.9603632049819, 40.7802058581953], [-73.9605466874566, 40.7799547861838], [-73.9604680340576, 40.7799213691882]]]}}, {"type": "Feature", "properties": {"zone_id": "0203VWQ5REH8HQQ327QLHB", "tract_id": "36061015001", "city": "NEW YORK, NY", "zone_code": "R8B", "zone_category": "Residential", "ev_permitted": false}, "geometry": {"type": "Polygon", "coordinates": [[[-73.9605466874566, 40.7799547861838], [-73.9603632049819, 40.7802058581953], [-73.9604413180479, 40.7802390453081], [-73.9606248012435, 40.7799879738764], [-73.9605466874566, 40.7799547861838]]]}}, {"type": "Feature", "properties": {"zone_id": "0202TALBMBI38LMQNFBCFB", "tract_id": "36061015001", "city": "NEW YORK, NY", "zone_code": "R8B", "zone_category": "Residential", "ev_permitted": false}, "geometry": {"type": "Polygon", "coordinates": [[[-73.9606248012435, 40.7799879738764], [-73.9604413180479, 40.7802390453081], [-73.960602276898, 40.7803074305779], [-73.9607857587507, 40.7800563588922], [-73.9606248012435, 40.7799879738764]]]}}, {"type": "Feature", "properties": {"zone_id": "0202Y37DKK3O6FJVW3TZHJ", "tract_id": "36061015001", "city": "NEW YORK, NY", "zone_code": "R8B", "zone_category": "Residential", "ev_permitted": false}, "geometry": {"type": "Polygon", "coordinates": [[[-73.9599993155183, 40.7801392805182], [-73.9598686470342, 40.7803180797804], [-73.9599419011064, 40.780348878629], [-73.9600723881302, 40.780170327258], [-73.9599993155183, 40.7801392805182]]]}}, {"type": "Feature", "properties": {"zone_id": "0206GHRN0A2SEY4CI3SCEO", "tract_id": "36061015001", "city": "NEW YORK, NY", "zone_code": "R8B", "zone_category": "Residential", "ev_permitted": false}, "geometry": {"type": "Polygon", "coordinates": [[[-73.9600723881302, 40.780170327258], [-73.9599419011064, 40.780348878629], [-73.9600251691515, 40.7803838883871], [-73.9601554515685, 40.7802056172103], [-73.9600723881302, 40.780170327258]]]}}, {"type": "Feature", "properties": {"zone_id": "0205JVC70AYJD9FRFY2Y3L", "tract_id": "36061015001", "city": "NEW YORK, NY", "zone_code": "R8B", "zone_category": "Residential", "ev_permitted": false}, "geometry": {"type": "Polygon", "coordinates": [[[-73.9600734587652, 40.7797537271511], [-73.9598899547301, 40.7800047885727], [-73.9600484043679, 40.7800721099299], [-73.9602318876607, 40.7798210391171], [-73.9600734587652, 40.7797537271511]]]}}, {"type": "Feature", "properties": {"zone_id": "0202AP1NT3Q8VO76N0QWIM", "tract_id": "36061015001", "city": "NEW YORK, NY", "zone_code": "R8B", "zone_category": "Residential", "ev_permitted": false}, "geometry": {"type": "Polygon", "coordinates": [[[-73.9602318876607, 40.7798210391171], [-73.9599993155183, 40.7801392805182], [-73.9601554515685, 40.7802056172103], [-73.9602045393852, 40.7801384465558], [-73.9602014888378, 40.780137150514], [-73.9603849717329, 40.7798860787574], [-73.9602318876607, 40.7798210391171]]]}}, {"type": "Feature", "properties": {"zone_id": "0204ZC6D4EZ7J35TPDJ9CC", "tract_id": "36061015001", "city": "NEW YORK, NY", "zone_code": "R8B", "zone_category": "Residential", "ev_permitted": false}, "geometry": {"type": "Polygon", "coordinates": [[[-73.9597323721963, 40.7798110390582], [-73.9594813205369, 40.7801552282314], [-73.9598686470342, 40.7803180797804], [-73.9600484043679, 40.7800721099299], [-73.9598899547301, 40.7800047885727], [-73.9599606636776, 40.779908033339], [-73.9597323721963, 40.7798110390582]]]}}, {"type": "Feature", "properties": {"zone_id": "0204EYXL2BW8JACBR3UIGA", "tract_id": "36061015001", "city": "NEW YORK, NY", "zone_code": "R8B", "zone_category": "Residential", "ev_permitted": false}, "geometry": {"type": "Polygon", "coordinates": [[[-73.9586210844344, 40.7799658043726], [-73.9584353184791, 40.7802204841297], [-73.9585977459524, 40.7802887701428], [-73.9584070219815, 40.7805502673013], [-73.9585672138351, 40.7806176222351], [-73.9587579401473, 40.7803561177886], [-73.9589566892633, 40.7804396736798], [-73.9591424418063, 40.780185014166], [-73.9586210844344, 40.7799658043726]]]}}, {"type": "Feature", "properties": {"zone_id": "0206W2XYVCZ5V3VQCNJDOO", "tract_id": "36061015001", "city": "", "zone_code": "C5-1", "zone_category": "Commercial", "ev_permitted": true}, "geometry": {"type": "Polygon", "coordinates": [[[-73.9587579401473, 40.7803561177886], [-73.9585672138351, 40.7806176222351], [-73.9587659413074, 40.7807011784439], [-73.9589566892633, 40.7804396736798], [-73.9587579401473, 40.7803561177886]]]}}, {"type": "Feature", "properties": {"zone_id": "0203LOD4JUQE6X6AOAQGFJ", "tract_id": "36061015001", "city": "NEW YORK, NY", "zone_code": "R8B", "zone_category": "Residential", "ev_permitted": false}, "geometry": {"type": "Polygon", "coordinates": [[[-73.9592055936252, 40.7793849909127], [-73.9590362147684, 40.7796172045279], [-73.9594335081924, 40.7797859704034], [-73.9596028657405, 40.7795537836066], [-73.9592055936252, 40.7793849909127]]]}}, {"type": "Feature", "properties": {"zone_id": "0206GSD99BDKGFBJRGKOUN", "tract_id": "36061015001", "city": "NEW YORK, NY", "zone_code": "MP", "zone_category": "Other", "ev_permitted": false}, "geometry": {"type": "Polygon", "coordinates": [[[-73.9597662252869, 40.7797646273425], [-73.9597323721963, 40.7798110390582], [-73.9599606636776, 40.779908033339], [-73.9599945665607, 40.7798616433564], [-73.9597662252869, 40.7797646273425]]]}}, {"type": "Feature", "properties": {"zone_id": "0207H5V25KJHZ9N3MC2W85", "tract_id": "36061015001", "city": "NEW YORK, NY", "zone_code": "MP", "zone_category": "Other", "ev_permitted": false}, "geometry": {"type": "Polygon", "coordinates": [[[-73.9598026973532, 40.779714624571], [-73.9597662252869, 40.7797646273425], [-73.9599945665607, 40.7798616433564], [-73.9600310921079, 40.7798116630169], [-73.9598026973532, 40.779714624571]]]}}, {"type": "Feature", "properties": {"zone_id": "0201690ADC5M9H8LH282JS", "tract_id": "36061015001", "city": "NEW YORK, NY", "zone_code": "C5-1", "zone_category": "Commercial", "ev_permitted": true}, "geometry": {"type": "Polygon", "coordinates": [[[-73.959844980977, 40.7796566529241], [-73.9598026973532, 40.779714624571], [-73.9600310921079, 40.7798116630169], [-73.9600734587652, 40.7797537271511], [-73.959844980977, 40.7796566529241]]]}}, {"type": "Feature", "properties": {"zone_id": "02078FVBHAEURQXBBYG43W", "tract_id": "36061015001", "city": "NEW YORK, NY", "zone_code": "R8B", "zone_category": "Residential", "ev_permitted": false}, "geometry": {"type": "Polygon", "coordinates": [[[-73.958812021802, 40.7792177671897], [-73.9586252806975, 40.7794739351504], [-73.9585728568893, 40.7794516654219], [-73.9583933064526, 40.7796977623581], [-73.9589226407541, 40.7799203276876], [-73.959118306651, 40.779652076105], [-73.9590362147684, 40.7796172045279], [-73.9592055936252, 40.7793849909127], [-73.958812021802, 40.7792177671897]]]}}, {"type": "Feature", "properties": {"zone_id": "02036XTQSWO0MJ68U32H8I", "tract_id": "36061015001", "city": "NEW YORK, NY", "zone_code": "C5-1", "zone_category": "Commercial", "ev_permitted": true}, "geometry": {"type": "Polygon", "coordinates": [[[-73.959118306651, 40.779652076105], [-73.9589226407541, 40.7799203276876], [-73.9592386054855, 40.7800531779413], [-73.9594335081924, 40.7797859704034], [-73.959118306651, 40.779652076105]]]}}, {"type": "Feature", "properties": {"zone_id": "0200L7T71YP58SRV8H0E5R", "tract_id": "36061015001", "city": "NEW YORK, NY", "zone_code": "R8B", "zone_category": "Residential", "ev_permitted": false}, "geometry": {"type": "Polygon", "coordinates": [[[-73.9584353184791, 40.7802204841297], [-73.9582445959191, 40.7804819739963], [-73.9584070219815, 40.7805502673013], [-73.9585977459524, 40.7802887701428], [-73.9584353184791, 40.7802204841297]]]}}, {"type": "Feature", "properties": {"zone_id": "0206FLX9JPX84KWDZLPY66", "tract_id": "36061015001", "city": "NEW YORK, NY", "zone_code": "R8B", "zone_category": "Residential", "ev_permitted": false}, "geometry": {"type": "Polygon", "coordinates": [[[-73.9582302709513, 40.7801342781618], [-73.9580395062536, 40.7803957402739], [-73.9582445959191, 40.7804819739963], [-73.9584353184791, 40.7802204841297], [-73.9582302709513, 40.7801342781618]]]}}, {"type": "Feature", "properties": {"zone_id": "02055JWJ5ZOZGJCR9EMQH9", "tract_id": "36061015001", "city": "NEW YORK, NY", "zone_code": "R8B", "zone_category": "Residential", "ev_permitted": false}, "geometry": {"type": "Polygon", "coordinates": [[[-73.9580316068288, 40.7800507561768], [-73.9578408462171, 40.7803122102359], [-73.9580395062536, 40.7803957402739], [-73.9582302709513, 40.7801342781618], [-73.9580316068288, 40.7800507561768]]]}}, {"type": "Feature", "properties": {"zone_id": "0206G7T8NU554XWI902KYV", "tract_id": "36061015001", "city": "NEW YORK, NY", "zone_code": "R10", "zone_category": "Residential", "ev_permitted": false}, "geometry": {"type": "Polygon", "coordinates": [[[-73.9579708775871, 40.7800252249523], [-73.9577801195851, 40.7802866761023], [-73.9578408462171, 40.7803122102359], [-73.9580316068288, 40.7800507561768], [-73.9579708775871, 40.7800252249523]]]}}, {"type": "Feature", "properties": {"zone_id": "0202XLAFS4C4AEFB6OXS51", "tract_id": "36061015001", "city": "NEW YORK, NY", "zone_code": "R10", "zone_category": "Residential", "ev_permitted": false}, "geometry": {"type": "Polygon", "coordinates": [[[-73.957653867908, 40.7799553601094], [-73.9574985226499, 40.7801682726348], [-73.9577801195851, 40.7802866761023], [-73.9579708775871, 40.7800252249523], [-73.9579112296078, 40.7800001473014], [-73.9578758624235, 40.7800486918729], [-73.957653867908, 40.7799553601094]]]}}, {"type": "Feature", "properties": {"zone_id": "02051O1J82MI39DM4M9Q31", "tract_id": "36061015001", "city": "NEW YORK, NY", "zone_code": "R8B", "zone_category": "Residential", "ev_permitted": false}, "geometry": {"type": "Polygon", "coordinates": [[[-73.9580970477948, 40.7797454648858], [-73.9579112296078, 40.7800001473014], [-73.9584353184791, 40.7802204841297], [-73.9586210844344, 40.7799658043726], [-73.9580970477948, 40.7797454648858]]]}}, {"type": "Feature", "properties": {"zone_id": "0206OKDGEFJBO9IKALL9P6", "tract_id": "36061015001", "city": "NEW YORK, NY", "zone_code": "R10", "zone_category": "Residential", "ev_permitted": false}, "geometry": {"type": "Polygon", "coordinates": [[[-73.9578751001926, 40.7796521419928], [-73.957653867908, 40.7799553601094], [-73.9578758624235, 40.7800486918729], [-73.9580970477948, 40.7797454648858], [-73.9578751001926, 40.7796521419928]]]}}, {"type": "Feature", "properties": {"zone_id": "0203I7BKUJS3SF2USVTJIG", "tract_id": "36061015001", "city": "NEW YORK, NY", "zone_code": "R8B", "zone_category": "Residential", "ev_permitted": false}, "geometry": {"type": "Polygon", "coordinates": [[[-73.9583387379751, 40.7790166728812], [-73.958143296581, 40.7792845501396], [-73.9584010546435, 40.7793940703504], [-73.9584096242583, 40.7793823243924], [-73.9586252806975, 40.7794739351504], [-73.958812021802, 40.7792177671897], [-73.9583387379751, 40.7790166728812]]]}}, {"type": "Feature", "properties": {"zone_id": "02031AJ2ZM53Y89HS22OND", "tract_id": "36061015001", "city": "", "zone_code": "R8B", "zone_category": "Residential", "ev_permitted": false}, "geometry": {"type": "Polygon", "coordinates": [[[-73.958143296581, 40.7792845501396], [-73.9579712822454, 40.7795203138476], [-73.9583933064526, 40.7796977623581], [-73.9585728568893, 40.7794516654219], [-73.9584096242583, 40.7793823243924], [-73.9584010546435, 40.7793940703504], [-73.958143296581, 40.7792845501396]]]}}]}