{"type": "FeatureCollection", "features": [{"type": "Feature", "properties": {"zone_id": "0205Z7UU3O1OSU8N2ZS1AE", "tract_id": "36081086500", "city": "FLUSHING, NY", "zone_code": "C1-2", "zone_category": "Commercial", "ev_permitted": true}, "geometry": {"type": "Polygon", "coordinates": [[[-73.8255868446508, 40.7639183428367], [-73.8252702416321, 40.7639564599595], [-73.8253003696944, 40.7641043703366], [-73.8253110018031, 40.764103016983], [-73.8253488424624, 40.7642962153378], [-73.8257371039473, 40.7642497464395], [-73.8255868446508, 40.7639183428367]]]}}, {"type": "Feature", "properties": {"zone_id": "020612IAI704X5LRL86GMB", "tract_id": "36081086500", "city": "FLUSHING, NY", "zone_code": "C1-2", "zone_category": "Commercial", "ev_permitted": true}, "geometry": {"type": "Polygon", "coordinates": [[[-73.8247710034001, 40.7638325346565], [-73.8244418362368, 40.76392094333], [-73.8246633620112, 40.7643782518988], [-73.8250099370098, 40.7643367747947], [-73.8247710034001, 40.7638325346565]]]}}, {"type": "Feature", "properties": {"zone_id": "0206T23Y800OWKDVBUX4GG", "tract_id": "36081086500", "city": "FLUSHING, NY", "zone_code": "C1-2", "zone_category": "Commercial", "ev_permitted": true}, "geometry": {"type": "Polygon", "coordinates": [[[-73.8252702416321, 40.7639564599595], [-73.8248534980915, 40.7640066305464], [-73.8250099370098, 40.7643367747947], [-73.8253488424624, 40.7642962153378], [-73.8253110018031, 40.764103016983], [-73.8253003696944, 40.7641043703366], [-73.8252702416321, 40.7639564599595]]]}}, {"type": "Feature", "properties": {"zone_id": "02003QKIMSOEALWJDR1G9F", "tract_id": "36081086500", "city": "FLUSHING, NY", "zone_code": "C1-2", "zone_category": "Commercial", "ev_permitted": true}, "geometry": {"type": "Polygon", "coordinates": [[[-73.8244071323652, 40.7638415929697], [-73.8237202056701, 40.7640254997213], [-73.823929648159, 40.7644660567722], [-73.8246633620112, 40.7643782518988], [-73.8244418362368, 40.76392094333], [-73.8244071323652, 40.7638415929697]]]}}, {"type": "Feature", "properties": {"zone_id": "0200VMXJA7JZIF22O9V6BP", "tract_id": "36081086500", "city": "FLUSHING, NY", "zone_code": "C1-2", "zone_category": "Commercial", "ev_permitted": true}, "geometry": {"type": "Polygon", "coordinates": [[[-73.8237202056701, 40.7640254997213], [-73.8233827867735, 40.7641158327753], [-73.8235697570946, 40.7645091235332], [-73.823929648159, 40.7644660567722], [-73.8237202056701, 40.7640254997213]]]}}, {"type": "Feature", "properties": {"zone_id": "02051Q4JCM3DR7HD1A53SX", "tract_id": "36081086500", "city": "FLUSHING, NY", "zone_code": "R6", "zone_category": "Residential", "ev_permitted": false}, "geometry": {"type": "Polygon", "coordinates": [[[-73.8237205200603, 40.7637991720855], [-73.8232873748163, 40.7639151324549], [-73.8233827867735, 40.7641158327753], [-73.8238120712112, 40.764000905372], [-73.8237205200603, 40.7637991720855]]]}}, {"type": "Feature", "properties": {"zone_id": "02039537XW7YFMAGPNCFZ2", "tract_id": "36081086500", "city": "FLUSHING, NY", "zone_code": "C1-2", "zone_category": "Commercial", "ev_permitted": true}, "geometry": {"type": "Polygon", "coordinates": [[[-73.8274488443498, 40.7634257732101], [-73.827296531079, 40.7634630274334], [-73.8273688166695, 40.7636092529588], [-73.8276309472155, 40.7635544230559], [-73.8277727798611, 40.7638413291003], [-73.8280392216931, 40.7637859362663], [-73.8278865335785, 40.7634795507781], [-73.8276736887897, 40.7635396419958], [-73.8276629014544, 40.7635178231659], [-73.8275149919443, 40.7635595812595], [-73.8274488443498, 40.7634257732101]]]}}, {"type": "Feature", "properties": {"zone_id": "0201IYDJ2BFUOFS2HC2KUP", "tract_id": "36081086500", "city": "", "zone_code": "C1-2", "zone_category": "Commercial", "ev_permitted": true}, "geometry": {"type": "Polygon", "coordinates": [[[-73.8276309472155, 40.7635544230559], [-73.8273688166695, 40.7636092529588], [-73.8275104975306, 40.7638958555508], [-73.8277727798611, 40.7638413291003], [-73.8276309472155, 40.7635544230559]]]}}, {"type": "Feature", "properties": {"zone_id": "02078N0FSA32XXZN1NJAEZ", "tract_id": "36081086500", "city": "FLUSHING, NY", "zone_code": "C1-2", "zone_category": "Commercial", "ev_permitted": true}, "geometry": {"type": "Polygon", "coordinates": [[[-73.827202909622, 40.7632736408706], [-73.8265743176512, 40.763427386638], [-73.8268715600301, 40.7640286848528], [-73.8275104975306, 40.7638958555508], [-73.827202909622, 40.7632736408706]]]}}, {"type": "Feature", "properties": {"zone_id": "0206NA923CG6MLF5F3VJ5J", "tract_id": "36081086500", "city": "", "zone_code": "C1-2", "zone_category": "Commercial", "ev_permitted": true}, "geometry": {"type": "Polygon", "coordinates": [[[-73.8276611177878, 40.7630235635483], [-73.8271420489283, 40.7631505251461], [-73.827296531079, 40.7634630274334], [-73.8274488443498, 40.7634257732101], [-73.8275149919443, 40.7635595812595], [-73.8276629014544, 40.7635178231659], [-73.8276736887897, 40.7635396419958], [-73.8278865335785, 40.7634795507781], [-73.8276611177878, 40.7630235635483]]]}}, {"type": "Feature", "properties": {"zone_id": "0206233HYFJIN6GIQL1TGI", "tract_id": "36081086500", "city": "", "zone_code": "R6", "zone_category": "Residential", "ev_permitted": false}, "geometry": {"type": "Polygon", "coordinates": [[[-73.8275137733645, 40.7627255014474], [-73.8269947056229, 40.7628524623855], [-73.8271420489283, 40.7631505251461], [-73.8276611177878, 40.7630235635483], [-73.8275137733645, 40.7627255014474]]]}}, {"type": "Feature", "properties": {"zone_id": "0207J2H2UC4XAPFF7NPOQ2", "tract_id": "36081086500", "city": "FLUSHING, NY", "zone_code": "R6", "zone_category": "Residential", "ev_permitted": false}, "geometry": {"type": "Polygon", "coordinates": [[[-73.8268928952739, 40.7626510302784], [-73.8267222455211, 40.7626927693472], [-73.8269033078607, 40.7630590477377], [-73.8265610536033, 40.7631427589011], [-73.8264729917797, 40.7631642968911], [-73.8262919315204, 40.7627980178299], [-73.826202253663, 40.7628199515825], [-73.8263833144128, 40.7631862307848], [-73.8262910718155, 40.7632087917255], [-73.8265105428382, 40.7636762456419], [-73.8258790773364, 40.7638057999975], [-73.8260635791738, 40.764196649679], [-73.8268715600301, 40.7640286848528], [-73.8265743176512, 40.763427386638], [-73.827202909622, 40.7632736408706], [-73.8269835168979, 40.7628298278062], [-73.8269815213692, 40.7628303159655], [-73.8268928952739, 40.7626510302784]]]}}, {"type": "Feature", "properties": {"zone_id": "0203ZLSARDZZECO24NTHHQ", "tract_id": "36081086500", "city": "FLUSHING, NY", "zone_code": "R6", "zone_category": "Residential", "ev_permitted": false}, "geometry": {"type": "Polygon", "coordinates": [[[-73.8263095956856, 40.7632482456507], [-73.8256944729181, 40.7634126001598], [-73.8258790773364, 40.7638057999975], [-73.8265105428382, 40.7636762456419], [-73.8263095956856, 40.7632482456507]]]}}, {"type": "Feature", "properties": {"zone_id": "0205J1LHXRYH5TBMWXZRZR", "tract_id": "36081086500", "city": "", "zone_code": "R6", "zone_category": "Residential", "ev_permitted": false}, "geometry": {"type": "Polygon", "coordinates": [[[-73.8267222455211, 40.7626927693472], [-73.8264648464356, 40.762755724902], [-73.826645907529, 40.7631220043963], [-73.8269033078607, 40.7630590477377], [-73.8267222455211, 40.7626927693472]]]}}, {"type": "Feature", "properties": {"zone_id": "0200WUEVGWFYQZRY615MTB", "tract_id": "36081086500", "city": "FLUSHING, NY", "zone_code": "R6", "zone_category": "Residential", "ev_permitted": false}, "geometry": {"type": "Polygon", "coordinates": [[[-73.8263799929184, 40.7627764799772], [-73.8262919315204, 40.7627980178299], [-73.8264729917797, 40.7631642968911], [-73.8265610536033, 40.7631427589011], [-73.8263799929184, 40.7627764799772]]]}}, {"type": "Feature", "properties": {"zone_id": "0202CDT1UM9XMIRCYJI7O9", "tract_id": "36081086500", "city": "", "zone_code": "R6", "zone_category": "Residential", "ev_permitted": false}, "geometry": {"type": "Polygon", "coordinates": [[[-73.8264648464356, 40.762755724902], [-73.8263799929184, 40.7627764799772], [-73.8265610536033, 40.7631427589011], [-73.826645907529, 40.7631220043963], [-73.8264648464356, 40.762755724902]]]}}, {"type": "Feature", "properties": {"zone_id": "02006J2CSQM7QTRMCHZ5NQ", "tract_id": "36081086500", "city": "FLUSHING, NY", "zone_code": "R6", "zone_category": "Residential", "ev_permitted": false}, "geometry": {"type": "Polygon", "coordinates": [[[-73.826202253663, 40.7628199515825], [-73.8254967345163, 40.7629914193379], [-73.8256944729181, 40.7634126001598], [-73.8263095956856, 40.7632482456507], [-73.8262910718155, 40.7632087917255], [-73.8263833144128, 40.7631862307848], [-73.826202253663, 40.7628199515825]]]}}, {"type": "Feature", "properties": {"zone_id": "02054H7JJYS053W8DL8OHN", "tract_id": "36081086500", "city": "FLUSHING, NY", "zone_code": "R6", "zone_category": "Residential", "ev_permitted": false}, "geometry": {"type": "Polygon", "coordinates": [[[-73.8274139553078, 40.7625235816257], [-73.8273258760799, 40.7625451265657], [-73.8274256929795, 40.7627470457591], [-73.8275137733645, 40.7627255014474], [-73.8274139553078, 40.7625235816257]]]}}, {"type": "Feature", "properties": {"zone_id": "0207L1IHSVONPTKWYQ6OC4", "tract_id": "36081086500", "city": "FLUSHING, NY", "zone_code": "R6", "zone_category": "Residential", "ev_permitted": false}, "geometry": {"type": "Polygon", "coordinates": [[[-73.8273258760799, 40.7625451265657], [-73.8272428567974, 40.7625654325154], [-73.8273426725498, 40.7627673524813], [-73.8274256929795, 40.7627470457591], [-73.8273258760799, 40.7625451265657]]]}}, {"type": "Feature", "properties": {"zone_id": "0205JBLWNMGBJP8KOLHFUB", "tract_id": "36081086500", "city": "FLUSHING, NY", "zone_code": "R6", "zone_category": "Residential", "ev_permitted": false}, "geometry": {"type": "Polygon", "coordinates": [[[-73.8272428567974, 40.7625654325154], [-73.8271532627897, 40.7625873467567], [-73.8272530783034, 40.7627892667997], [-73.8273426725498, 40.7627673524813], [-73.8272428567974, 40.7625654325154]]]}}, {"type": "Feature", "properties": {"zone_id": "0201M37FQCWFA1ODZ5RWJH", "tract_id": "36081086500", "city": "FLUSHING, NY", "zone_code": "R6", "zone_category": "Residential", "ev_permitted": false}, "geometry": {"type": "Polygon", "coordinates": [[[-73.8271532627897, 40.7625873467567], [-73.8270725052407, 40.7626070987712], [-73.8271723214633, 40.7628090188849], [-73.8272530783034, 40.7627892667997], [-73.8271532627897, 40.7625873467567]]]}}, {"type": "Feature", "properties": {"zone_id": "0201TTTUISTPV6Y8LXKQE7", "tract_id": "36081086500", "city": "FLUSHING, NY", "zone_code": "R6", "zone_category": "Residential", "ev_permitted": false}, "geometry": {"type": "Polygon", "coordinates": [[[-73.8270725052407, 40.7626070987712], [-73.8269829934185, 40.7626289933292], [-73.8270828094025, 40.7628309135198], [-73.8271723214633, 40.7628090188849], [-73.8270725052407, 40.7626070987712]]]}}, {"type": "Feature", "properties": {"zone_id": "0201QABANNPXALMATNAXRO", "tract_id": "36081086500", "city": "FLUSHING, NY", "zone_code": "R6", "zone_category": "Residential", "ev_permitted": false}, "geometry": {"type": "Polygon", "coordinates": [[[-73.8269829934185, 40.7626289933292], [-73.8268928952739, 40.7626510302784], [-73.8269815213692, 40.7628303159655], [-73.8269835168979, 40.7628298278062], [-73.8269947056229, 40.7628524623855], [-73.8270828094025, 40.7628309135198], [-73.8269829934185, 40.7626289933292]]]}}, {"type": "Feature", "properties": {"zone_id": "0207HW7BBKRVCGSVX6CEZY", "tract_id": "36081086500", "city": "FLUSHING, NY", "zone_code": "C2-2", "zone_category": "Other", "ev_permitted": false}, "geometry": {"type": "Polygon", "coordinates": [[[-73.8269300958044, 40.7617644192078], [-73.8268396388977, 40.7617841354088], [-73.8269494778848, 40.7620785599519], [-73.8267982182122, 40.7621125849946], [-73.8268161761166, 40.7621607235189], [-73.8269840482396, 40.7621229620874], [-73.8269282543833, 40.7619734065838], [-73.8269875902826, 40.7619600588261], [-73.8269300958044, 40.7617644192078]]]}}, {"type": "Feature", "properties": {"zone_id": "0206BQME0Z8E6GEH0CMPU3", "tract_id": "36081086500", "city": "FLUSHING, NY", "zone_code": "R6", "zone_category": "Residential", "ev_permitted": false}, "geometry": {"type": "Polygon", "coordinates": [[[-73.8271979522117, 40.7620748448683], [-73.8264703478985, 40.7622385154955], [-73.8266281893885, 40.7625876307351], [-73.8273600343502, 40.7624092884009], [-73.8271979522117, 40.7620748448683]]]}}, {"type": "Feature", "properties": {"zone_id": "02008SML5D115G7PX6LLYP", "tract_id": "36081086500", "city": "FLUSHING, NY", "zone_code": "R6", "zone_category": "Residential", "ev_permitted": false}, "geometry": {"type": "Polygon", "coordinates": [[[-73.8270362926824, 40.7617412716108], [-73.8269300958044, 40.7617644192078], [-73.8269875902826, 40.7619600588261], [-73.8271271129061, 40.761928674069], [-73.8270362926824, 40.7617412716108]]]}}, {"type": "Feature", "properties": {"zone_id": "02021BZBY5D8P2814GNU93", "tract_id": "36081086500", "city": "FLUSHING, NY", "zone_code": "C2-2", "zone_category": "Other", "ev_permitted": false}, "geometry": {"type": "Polygon", "coordinates": [[[-73.8268396388977, 40.7617841354088], [-73.8267601934098, 40.7618014509625], [-73.8268702220355, 40.7620963873994], [-73.8269494778848, 40.7620785599519], [-73.8268396388977, 40.7617841354088]]]}}, {"type": "Feature", "properties": {"zone_id": "0201VG9EIEKKWGZJYDCDSN", "tract_id": "36081086500", "city": "FLUSHING, NY", "zone_code": "C2-2", "zone_category": "Other", "ev_permitted": false}, "geometry": {"type": "Polygon", "coordinates": [[[-73.8267601934098, 40.7618014509625], [-73.8266880145827, 40.7618171837707], [-73.8267982182122, 40.7621125849946], [-73.8268702220355, 40.7620963873994], [-73.8267601934098, 40.7618014509625]]]}}, {"type": "Feature", "properties": {"zone_id": "0206VYHIPWFVKOCRIBVHT3", "tract_id": "36081086500", "city": "FLUSHING, NY", "zone_code": "C2-2", "zone_category": "Other", "ev_permitted": false}, "geometry": {"type": "Polygon", "coordinates": [[[-73.8271594527705, 40.7619954046045], [-73.8269537257402, 40.7620416825376], [-73.8269840482396, 40.7621229620874], [-73.8271979522117, 40.7620748448683], [-73.8271594527705, 40.7619954046045]]]}}, {"type": "Feature", "properties": {"zone_id": "0203AADD35V2TNZT9JVIFH", "tract_id": "36081086500", "city": "FLUSHING, NY", "zone_code": "C2-2", "zone_category": "Other", "ev_permitted": false}, "geometry": {"type": "Polygon", "coordinates": [[[-73.8271271129061, 40.761928674069], [-73.8269282543833, 40.7619734065838], [-73.8269537257402, 40.7620416825376], [-73.8271594527705, 40.7619954046045], [-73.8271271129061, 40.761928674069]]]}}, {"type": "Feature", "properties": {"zone_id": "0201RVFKY5JJ1FHUP08TTV", "tract_id": "36081086500", "city": "", "zone_code": "R6", "zone_category": "Residential", "ev_permitted": false}, "geometry": {"type": "Polygon", "coordinates": [[[-73.8262971084683, 40.762277484383], [-73.8261125167811, 40.7623190061899], [-73.8262730891697, 40.7626741625496], [-73.8264562722582, 40.7626295241952], [-73.8262971084683, 40.762277484383]]]}}, {"type": "Feature", "properties": {"zone_id": "0207K2PXXLLQA9JXCH1T9N", "tract_id": "36081086500", "city": "FLUSHING, NY", "zone_code": "R6", "zone_category": "Residential", "ev_permitted": false}, "geometry": {"type": "Polygon", "coordinates": [[[-73.8264703478985, 40.7622385154955], [-73.8263837277476, 40.7622579996198], [-73.8265422313125, 40.762608577498], [-73.8266281893885, 40.7625876307351], [-73.8264703478985, 40.7622385154955]]]}}, {"type": "Feature", "properties": {"zone_id": "02047W3GB1U4FXDVJ0XELK", "tract_id": "36081086500", "city": "", "zone_code": "R6", "zone_category": "Residential", "ev_permitted": false}, "geometry": {"type": "Polygon", "coordinates": [[[-73.8263837277476, 40.7622579996198], [-73.8262971084683, 40.762277484383], [-73.8264562722582, 40.7626295241952], [-73.8265422313125, 40.762608577498], [-73.8263837277476, 40.7622579996198]]]}}, {"type": "Feature", "properties": {"zone_id": "0202A3KX0K2I6ZPXXJV1P7", "tract_id": "36081086500", "city": "", "zone_code": "R6", "zone_category": "Residential", "ev_permitted": false}, "geometry": {"type": "Polygon", "coordinates": [[[-73.8256213669288, 40.762049668815], [-73.8254483146688, 40.7620873859836], [-73.8257691221866, 40.7627969690744], [-73.8262730891697, 40.7626741625496], [-73.8261125167811, 40.7623190061899], [-73.8257826299538, 40.7623932085135], [-73.8256213669288, 40.762049668815]]]}}, {"type": "Feature", "properties": {"zone_id": "0205XOLC18U29LW8UH41D5", "tract_id": "36081086500", "city": "FLUSHING, NY", "zone_code": "R6", "zone_category": "Residential", "ev_permitted": false}, "geometry": {"type": "Polygon", "coordinates": [[[-73.8256967745144, 40.7626369471917], [-73.8253744752221, 40.7627218170017], [-73.8254440851058, 40.7628757864793], [-73.8257691221866, 40.7627969690744], [-73.8256967745144, 40.7626369471917]]]}}, {"type": "Feature", "properties": {"zone_id": "0200KOUIB8H0J0MGT0B3D9", "tract_id": "36081086500", "city": "FLUSHING, NY", "zone_code": "R6", "zone_category": "Residential", "ev_permitted": false}, "geometry": {"type": "Polygon", "coordinates": [[[-73.8256050874037, 40.7624341478286], [-73.8252827889759, 40.7625190173847], [-73.8253744752221, 40.7627218170017], [-73.8256967745144, 40.7626369471917], [-73.8256050874037, 40.7624341478286]]]}}, {"type": "Feature", "properties": {"zone_id": "0204BHID359VI7RTTNTIMF", "tract_id": "36081086500", "city": "FLUSHING, NY", "zone_code": "R6", "zone_category": "Residential", "ev_permitted": false}, "geometry": {"type": "Polygon", "coordinates": [[[-73.8255116652534, 40.7622275092585], [-73.8251893658602, 40.7623123778503], [-73.8252827889759, 40.7625190173847], [-73.8256050874037, 40.7624341478286], [-73.8255116652534, 40.7622275092585]]]}}, {"type": "Feature", "properties": {"zone_id": "0204KETQCGQWZHEEH4LQJS", "tract_id": "36081086500", "city": "", "zone_code": "R6", "zone_category": "Residential", "ev_permitted": false}, "geometry": {"type": "Polygon", "coordinates": [[[-73.8263377541902, 40.7618935275365], [-73.8261665649632, 40.7619308396464], [-73.8262959776109, 40.7622777384446], [-73.826466755601, 40.7622393237597], [-73.8263377541902, 40.7618935275365]]]}}, {"type": "Feature", "properties": {"zone_id": "02054C7HZKOQTU30QOHK0K", "tract_id": "36081086500", "city": "FLUSHING, NY", "zone_code": "R6", "zone_category": "Residential", "ev_permitted": false}, "geometry": {"type": "Polygon", "coordinates": [[[-73.8261665649632, 40.7619308396464], [-73.8259826645298, 40.7619709225477], [-73.8261125167811, 40.7623190061899], [-73.8262959776109, 40.7622777384446], [-73.8261665649632, 40.7619308396464]]]}}, {"type": "Feature", "properties": {"zone_id": "0201QVY6NQAUYBKRHTPNVV", "tract_id": "36081086500", "city": "FLUSHING, NY", "zone_code": "R6", "zone_category": "Residential", "ev_permitted": false}, "geometry": {"type": "Polygon", "coordinates": [[[-73.8264083631489, 40.7618781375861], [-73.8263377541902, 40.7618935275365], [-73.826466755601, 40.7622393237597], [-73.8265371960437, 40.7622234788586], [-73.8264083631489, 40.7618781375861]]]}}, {"type": "Feature", "properties": {"zone_id": "020323LP38VPJYDLMJM81W", "tract_id": "36081086500", "city": "FLUSHING, NY", "zone_code": "R6", "zone_category": "Residential", "ev_permitted": false}, "geometry": {"type": "Polygon", "coordinates": [[[-73.8266880145827, 40.7618171837707], [-73.826615329946, 40.7618330267921], [-73.8267436664236, 40.7621770348525], [-73.8268161761166, 40.7621607235189], [-73.8266880145827, 40.7618171837707]]]}}, {"type": "Feature", "properties": {"zone_id": "0200DM361JTELZV7NLHBPP", "tract_id": "36081086500", "city": "FLUSHING, NY", "zone_code": "R6", "zone_category": "Residential", "ev_permitted": false}, "geometry": {"type": "Polygon", "coordinates": [[[-73.826615329946, 40.7618330267921], [-73.8265464649465, 40.7618480365477], [-73.8266749662837, 40.7621924883083], [-73.8267436664236, 40.7621770348525], [-73.826615329946, 40.7618330267921]]]}}, {"type": "Feature", "properties": {"zone_id": "0202R2I7BW1S2XKE30RA0A", "tract_id": "36081086500", "city": "FLUSHING, NY", "zone_code": "R6", "zone_category": "Residential", "ev_permitted": false}, "geometry": {"type": "Polygon", "coordinates": [[[-73.8265464649465, 40.7618480365477], [-73.8264733170011, 40.7618639799643], [-73.8266019932705, 40.7622089028487], [-73.8266749662837, 40.7621924883083], [-73.8265464649465, 40.7618480365477]]]}}, {"type": "Feature", "properties": {"zone_id": "0203BRQI26SYPAQ6DPHE2S", "tract_id": "36081086500", "city": "FLUSHING, NY", "zone_code": "R6", "zone_category": "Residential", "ev_permitted": false}, "geometry": {"type": "Polygon", "coordinates": [[[-73.8264733170011, 40.7618639799643], [-73.8264083631489, 40.7618781375861], [-73.8265371960437, 40.7622234788586], [-73.8266019932705, 40.7622089028487], [-73.8264733170011, 40.7618639799643]]]}}, {"type": "Feature", "properties": {"zone_id": "0200BPHD5UPQ3UIVJJDRR8", "tract_id": "36081086500", "city": "FLUSHING, NY", "zone_code": "R6", "zone_category": "Residential", "ev_permitted": false}, "geometry": {"type": "Polygon", "coordinates": [[[-73.8259826645298, 40.7619709225477], [-73.8259169060332, 40.7619852550436], [-73.8260469167376, 40.7623337612948], [-73.8261125167811, 40.7623190061899], [-73.8259826645298, 40.7619709225477]]]}}, {"type": "Feature", "properties": {"zone_id": "0200XNW5EXW9QDRII3I9LM", "tract_id": "36081086500", "city": "FLUSHING, NY", "zone_code": "R6", "zone_category": "Residential", "ev_permitted": false}, "geometry": {"type": "Polygon", "coordinates": [[[-73.8259169060332, 40.7619852550436], [-73.8258162747114, 40.762007188106], [-73.8259465262811, 40.7623563426827], [-73.8260469167376, 40.7623337612948], [-73.8259169060332, 40.7619852550436]]]}}, {"type": "Feature", "properties": {"zone_id": "0201IG2TWQ8XUPN0BQDOLD", "tract_id": "36081086500", "city": "FLUSHING, NY", "zone_code": "R6", "zone_category": "Residential", "ev_permitted": false}, "geometry": {"type": "Polygon", "coordinates": [[[-73.8258162747114, 40.762007188106], [-73.8257399327071, 40.7620238274781], [-73.8258514649556, 40.7623228004016], [-73.8259276218875, 40.76230566952], [-73.8258162747114, 40.762007188106]]]}}, {"type": "Feature", "properties": {"zone_id": "0201SG8JQILKZ23EYS3E8X", "tract_id": "36081086500", "city": "FLUSHING, NY", "zone_code": "R6", "zone_category": "Residential", "ev_permitted": false}, "geometry": {"type": "Polygon", "coordinates": [[[-73.8257399327071, 40.7620238274781], [-73.8256213669288, 40.762049668815], [-73.8257826299538, 40.7623932085135], [-73.8259465262811, 40.7623563426827], [-73.8259276218875, 40.76230566952], [-73.8258514649556, 40.7623228004016], [-73.8257399327071, 40.7620238274781]]]}}, {"type": "Feature", "properties": {"zone_id": "0202NWVGZHRGELCGNCBKYE", "tract_id": "36081086500", "city": "FLUSHING, NY", "zone_code": "PARK", "zone_category": "Other", "ev_permitted": false}, "geometry": {"type": "Polygon", "coordinates": [[[-73.8251709287968, 40.7630010098929], [-73.8246489473674, 40.7631412100356], [-73.8246659205945, 40.7631788658794], [-73.8246755215162, 40.7632037376303], [-73.8246789142073, 40.7632313922858], [-73.8246735768996, 40.7632617571483], [-73.8246588464311, 40.7632911788043], [-73.8246397662409, 40.7633135131786], [-73.8246127406179, 40.7633339930916], [-73.8245850650626, 40.7633479014775], [-73.8245573599605, 40.763356884197], [-73.8242290454855, 40.7634447834362], [-73.8244071323652, 40.7638415929697], [-73.8244418362368, 40.76392094333], [-73.8247710034001, 40.7638325346565], [-73.8247423322764, 40.7637720254397], [-73.8254360272875, 40.7635857043108], [-73.8251709287968, 40.7630010098929]]]}}, {"type": "Feature", "properties": {"zone_id": "0205ZL56I47SBH4R5EHABN", "tract_id": "36081086500", "city": "FLUSHING, NY", "zone_code": "R6", "zone_category": "Residential", "ev_permitted": false}, "geometry": {"type": "Polygon", "coordinates": [[[-73.8254360272875, 40.7635857043108], [-73.8247423322764, 40.7637720254397], [-73.8248534980915, 40.7640066305464], [-73.8255868446508, 40.7639183428367], [-73.8254360272875, 40.7635857043108]]]}}, {"type": "Feature", "properties": {"zone_id": "02061VPCG9ZCL8PBG58M34", "tract_id": "36081086500", "city": "FLUSHING, NY", "zone_code": "PARK", "zone_category": "Other", "ev_permitted": false}, "geometry": {"type": "Polygon", "coordinates": [[[-73.8242290454855, 40.7634447834362], [-73.8236322063045, 40.7636045714123], [-73.8238120712112, 40.764000905372], [-73.8244071323652, 40.7638415929697], [-73.8242290454855, 40.7634447834362]]]}}, {"type": "Feature", "properties": {"zone_id": "0205PDH4COMKXZQSD9FWQK", "tract_id": "36081086500", "city": "FLUSHING, NY", "zone_code": "PARK", "zone_category": "Other", "ev_permitted": false}, "geometry": {"type": "Polygon", "coordinates": [[[-73.8251562223739, 40.7629685726721], [-73.8248902104848, 40.7630400229044], [-73.8249054587185, 40.7630723134248], [-73.8251709287968, 40.7630010098929], [-73.8251562223739, 40.7629685726721]]]}}, {"type": "Feature", "properties": {"zone_id": "0207L4E08XJLD5VJB7D47G", "tract_id": "36081086500", "city": "FLUSHING, NY", "zone_code": "PARK", "zone_category": "Other", "ev_permitted": false}, "geometry": {"type": "Polygon", "coordinates": [[[-73.8248902104848, 40.7630400229044], [-73.8246343160737, 40.7631087531885], [-73.8246489473674, 40.7631412100356], [-73.8249054587185, 40.7630723134248], [-73.8248902104848, 40.7630400229044]]]}}, {"type": "Feature", "properties": {"zone_id": "0203QYGBXVQU19IH7RC66F", "tract_id": "36081086500", "city": "FLUSHING, NY", "zone_code": "R6", "zone_category": "Residential", "ev_permitted": false}, "geometry": {"type": "Polygon", "coordinates": [[[-73.8244803415788, 40.7627671651568], [-73.823948640492, 40.7629122883957], [-73.8240870508558, 40.763219354392], [-73.8246196857202, 40.7630762956381], [-73.8244803415788, 40.7627671651568]]]}}, {"type": "Feature", "properties": {"zone_id": "02048ZS7K5CQ1P5O2CC5XL", "tract_id": "36081086500", "city": "FLUSHING, NY", "zone_code": "R6", "zone_category": "Residential", "ev_permitted": false}, "geometry": {"type": "Polygon", "coordinates": [[[-73.8239346497695, 40.7624803411487], [-73.8232829325158, 40.762659495761], [-73.8234078077668, 40.7629245616743], [-73.8228877231886, 40.7630665077685], [-73.8230150282504, 40.7633367325089], [-73.8235310557282, 40.7631958933373], [-73.823463182304, 40.7630518236738], [-73.8237395574593, 40.7629763916695], [-73.8239072932684, 40.7633324272372], [-73.8239998712616, 40.7633074649321], [-73.8240593683097, 40.763226789779], [-73.8240870508558, 40.763219354392], [-73.823948640492, 40.7629122883957], [-73.8241191240831, 40.762865756853], [-73.8239346497695, 40.7624803411487]]]}}, {"type": "Feature", "properties": {"zone_id": "02009PN1PXTGWIOP7C5AR1", "tract_id": "36081086500", "city": "FLUSHING, NY", "zone_code": "R6", "zone_category": "Residential", "ev_permitted": false}, "geometry": {"type": "Polygon", "coordinates": [[[-73.8236322063045, 40.7636045714123], [-73.82352300695, 40.7636338061055], [-73.823615045497, 40.7638274091728], [-73.8237205200603, 40.7637991720855], [-73.8236322063045, 40.7636045714123]]]}}, {"type": "Feature", "properties": {"zone_id": "020392Y6CFQTLSD0XF51LG", "tract_id": "36081086500", "city": "FLUSHING, NY", "zone_code": "R6", "zone_category": "Residential", "ev_permitted": false}, "geometry": {"type": "Polygon", "coordinates": [[[-73.82352300695, 40.7636338061055], [-73.8234438484548, 40.7636549984699], [-73.8235358867991, 40.7638486023025], [-73.823615045497, 40.7638274091728], [-73.82352300695, 40.7636338061055]]]}}, {"type": "Feature", "properties": {"zone_id": "0204XB3EFHOA9C61G3J2S9", "tract_id": "36081086500", "city": "FLUSHING, NY", "zone_code": "R6", "zone_category": "Residential", "ev_permitted": false}, "geometry": {"type": "Polygon", "coordinates": [[[-73.8234438484548, 40.7636549984699], [-73.8233604108939, 40.7636773358715], [-73.8234524508748, 40.763870939773], [-73.8235358867991, 40.7638486023025], [-73.8234438484548, 40.7636549984699]]]}}, {"type": "Feature", "properties": {"zone_id": "0204ZCD14LSLMHDLF0TIRW", "tract_id": "36081086500", "city": "FLUSHING, NY", "zone_code": "R6", "zone_category": "Residential", "ev_permitted": false}, "geometry": {"type": "Polygon", "coordinates": [[[-73.8233604108939, 40.7636773358715], [-73.8232823648212, 40.7636982304994], [-73.8233744018336, 40.7638918337557], [-73.8234524508748, 40.763870939773], [-73.8233604108939, 40.7636773358715]]]}}, {"type": "Feature", "properties": {"zone_id": "02008NDEYMBAF51BADKF4F", "tract_id": "36081086500", "city": "FLUSHING, NY", "zone_code": "R6", "zone_category": "Residential", "ev_permitted": false}, "geometry": {"type": "Polygon", "coordinates": [[[-73.8232823648212, 40.7636982304994], [-73.8231953371006, 40.7637215291283], [-73.8232873748163, 40.7639151324549], [-73.8233744018336, 40.7638918337557], [-73.8232823648212, 40.7636982304994]]]}}, {"type": "Feature", "properties": {"zone_id": "02025MHU4ZHRTZONWIY9SA", "tract_id": "36081086500", "city": "", "zone_code": "R6", "zone_category": "Residential", "ev_permitted": false}, "geometry": {"type": "Polygon", "coordinates": [[[-73.8237395574593, 40.7629763916695], [-73.8235659308645, 40.7630237799955], [-73.8237334260173, 40.7633793053188], [-73.8239072932684, 40.7633324272372], [-73.8237395574593, 40.7629763916695]]]}}, {"type": "Feature", "properties": {"zone_id": "0206RDAYY29NZNVM1OM8QC", "tract_id": "36081086500", "city": "FLUSHING, NY", "zone_code": "R6", "zone_category": "Residential", "ev_permitted": false}, "geometry": {"type": "Polygon", "coordinates": [[[-73.8235659308645, 40.7630237799955], [-73.8234900957328, 40.763044477894], [-73.8236574848459, 40.7633997811255], [-73.8237334260173, 40.7633793053188], [-73.8235659308645, 40.7630237799955]]]}}, {"type": "Feature", "properties": {"zone_id": "02069YW0BZ99XY2JCCML99", "tract_id": "36081086500", "city": "FLUSHING, NY", "zone_code": "R6", "zone_category": "Residential", "ev_permitted": false}, "geometry": {"type": "Polygon", "coordinates": [[[-73.8234900957328, 40.763044477894], [-73.823463182304, 40.7630518236738], [-73.8235310557282, 40.7631958933373], [-73.8234600459906, 40.7632152741013], [-73.8235594262725, 40.7634262201758], [-73.8236574848459, 40.7633997811255], [-73.8234900957328, 40.763044477894]]]}}, {"type": "Feature", "properties": {"zone_id": "0201SO3LDPE8EDVNT07VKU", "tract_id": "36081086500", "city": "FLUSHING, NY", "zone_code": "R6", "zone_category": "Residential", "ev_permitted": false}, "geometry": {"type": "Polygon", "coordinates": [[[-73.8234600459906, 40.7632152741013], [-73.8230150282504, 40.7633367325089], [-73.8231137916056, 40.7635463717816], [-73.8235594262725, 40.7634262201758], [-73.8234600459906, 40.7632152741013]]]}}, {"type": "Feature", "properties": {"zone_id": "0207B56OGKOAIWPN5K04TL", "tract_id": "36081086500", "city": "FLUSHING, NY", "zone_code": "R6", "zone_category": "Residential", "ev_permitted": false}, "geometry": {"type": "Polygon", "coordinates": [[[-73.823207152771, 40.7629184745886], [-73.8228623218478, 40.7630125890908], [-73.8228877231886, 40.7630665077685], [-73.8232325543551, 40.762972393191], [-73.823207152771, 40.7629184745886]]]}}, {"type": "Feature", "properties": {"zone_id": "02020Z52G4DS790K76ZDIZ", "tract_id": "36081086500", "city": "FLUSHING, NY", "zone_code": "R6", "zone_category": "Residential", "ev_permitted": false}, "geometry": {"type": "Polygon", "coordinates": [[[-73.8231826922305, 40.762866552966], [-73.8228378615416, 40.7629606673957], [-73.8228623218478, 40.7630125890908], [-73.823207152771, 40.7629184745886], [-73.8231826922305, 40.762866552966]]]}}, {"type": "Feature", "properties": {"zone_id": "0202GVQU6GRU4MTMTDPY5J", "tract_id": "36081086500", "city": "FLUSHING, NY", "zone_code": "R6", "zone_category": "Residential", "ev_permitted": false}, "geometry": {"type": "Polygon", "coordinates": [[[-73.8231583061604, 40.7628147902522], [-73.822813475705, 40.7629089046097], [-73.8228378615416, 40.7629606673957], [-73.8231826922305, 40.762866552966], [-73.8231583061604, 40.7628147902522]]]}}, {"type": "Feature", "properties": {"zone_id": "0202ZR7C1LH4J1AZH7QNC9", "tract_id": "36081086500", "city": "FLUSHING, NY", "zone_code": "PARK", "zone_category": "Other", "ev_permitted": false}, "geometry": {"type": "Polygon", "coordinates": [[[-73.8249837707224, 40.7625882100302], [-73.8244627557535, 40.7627281501165], [-73.8246343160737, 40.7631087531885], [-73.8251562223739, 40.7629685726721], [-73.8249837707224, 40.7625882100302]]]}}, {"type": "Feature", "properties": {"zone_id": "02076KDZJVGXXY5QDNU4L6", "tract_id": "36081086500", "city": "FLUSHING, NY", "zone_code": "R6", "zone_category": "Residential", "ev_permitted": false}, "geometry": {"type": "Polygon", "coordinates": [[[-73.8248245111381, 40.7622369374318], [-73.8245492123854, 40.7623112705105], [-73.8246475933981, 40.7625171585428], [-73.8244705619176, 40.7625647074715], [-73.8244892093431, 40.7626069458044], [-73.8244530183716, 40.7626176651835], [-73.824499407464, 40.7627183055397], [-73.8249837707224, 40.7625882100302], [-73.8248245111381, 40.7622369374318]]]}}, {"type": "Feature", "properties": {"zone_id": "0206QNSW4S9EK5HOGKUX2H", "tract_id": "36081086500", "city": "FLUSHING, NY", "zone_code": "R6", "zone_category": "Residential", "ev_permitted": false}, "geometry": {"type": "Polygon", "coordinates": [[[-73.8241757672343, 40.7624142311459], [-73.8239346497695, 40.7624803411487], [-73.8241191240831, 40.762865756853], [-73.8244803415788, 40.7627671651568], [-73.8244627557535, 40.7627281501165], [-73.824499407464, 40.7627183055397], [-73.8244530183716, 40.7626176651835], [-73.8244892093431, 40.7626069458044], [-73.8244705619176, 40.7625647074715], [-73.8242731675233, 40.7626177254574], [-73.8241757672343, 40.7624142311459]]]}}, {"type": "Feature", "properties": {"zone_id": "0202W4SDJ97RRVF5ZLK5IS", "tract_id": "36081086500", "city": "FLUSHING, NY", "zone_code": "R6", "zone_category": "Residential", "ev_permitted": false}, "geometry": {"type": "Polygon", "coordinates": [[[-73.8245492123854, 40.7623112705105], [-73.8244756969592, 40.7623315392281], [-73.8245714352228, 40.762537613894], [-73.8246475933981, 40.7625171585428], [-73.8245492123854, 40.7623112705105]]]}}, {"type": "Feature", "properties": {"zone_id": "020335IEH39OUU8TQ343M6", "tract_id": "36081086500", "city": "FLUSHING, NY", "zone_code": "R6", "zone_category": "Residential", "ev_permitted": false}, "geometry": {"type": "Polygon", "coordinates": [[[-73.8244756969592, 40.7623315392281], [-73.8244018832432, 40.7623518901818], [-73.8244974044459, 40.7625574978391], [-73.8245714352228, 40.762537613894], [-73.8244756969592, 40.7623315392281]]]}}, {"type": "Feature", "properties": {"zone_id": "0206CVJ8XKNA6SJS0LQ7UT", "tract_id": "36081086500", "city": "FLUSHING, NY", "zone_code": "R6", "zone_category": "Residential", "ev_permitted": false}, "geometry": {"type": "Polygon", "coordinates": [[[-73.8244018832432, 40.7623518901818], [-73.8243258381936, 40.7623728561983], [-73.8244233736248, 40.7625773817366], [-73.8244974044459, 40.7625574978391], [-73.8244018832432, 40.7623518901818]]]}}, {"type": "Feature", "properties": {"zone_id": "02047T8PF0Z2H41ANRH16W", "tract_id": "36081086500", "city": "FLUSHING, NY", "zone_code": "R6", "zone_category": "Residential", "ev_permitted": false}, "geometry": {"type": "Polygon", "coordinates": [[[-73.8243258381936, 40.7623728561983], [-73.8242520297038, 40.7623932054831], [-73.8243493427595, 40.7625972655865], [-73.8244233736248, 40.7625773817366], [-73.8243258381936, 40.7623728561983]]]}}, {"type": "Feature", "properties": {"zone_id": "0205F85BA68CFL5W772QJF", "tract_id": "36081086500", "city": "FLUSHING, NY", "zone_code": "R6", "zone_category": "Residential", "ev_permitted": false}, "geometry": {"type": "Polygon", "coordinates": [[[-73.8242520297038, 40.7623932054831], [-73.8241757672343, 40.7624142311459], [-73.8242731675233, 40.7626177254574], [-73.8243493427595, 40.7625972655865], [-73.8242520297038, 40.7623932054831]]]}}, {"type": "Feature", "properties": {"zone_id": "0201DIC4GPRQAC1IBLS2G2", "tract_id": "36081086500", "city": "FLUSHING, NY", "zone_code": "R6", "zone_category": "Residential", "ev_permitted": false}, "geometry": {"type": "Polygon", "coordinates": [[[-73.8254483146688, 40.7620873859836], [-73.8251196101523, 40.7621580819507], [-73.8251893658602, 40.7623123778503], [-73.8255116652534, 40.7622275092585], [-73.8254483146688, 40.7620873859836]]]}}, {"type": "Feature", "properties": {"zone_id": "0203Z2X9PA2032BLWCV4I9", "tract_id": "36081086500", "city": "FLUSHING, NY", "zone_code": "R6", "zone_category": "Residential", "ev_permitted": false}, "geometry": {"type": "Polygon", "coordinates": [[[-73.8241868971863, 40.7619574130948], [-73.824110397437, 40.7619780127193], [-73.8242252559562, 40.7622267721099], [-73.8243017403365, 40.762206137956], [-73.8241868971863, 40.7619574130948]]]}}, {"type": "Feature", "properties": {"zone_id": "0202V25XO9M6VRKUBG3R0E", "tract_id": "36081086500", "city": "FLUSHING, NY", "zone_code": "R6", "zone_category": "Residential", "ev_permitted": false}, "geometry": {"type": "Polygon", "coordinates": [[[-73.8246292683137, 40.7618382915889], [-73.8245482837172, 40.7618600995685], [-73.8246630545422, 40.7621086637556], [-73.8247440219394, 40.7620868198342], [-73.8246292683137, 40.7618382915889]]]}}, {"type": "Feature", "properties": {"zone_id": "0204M41G9RKP3ESRVRNA9X", "tract_id": "36081086500", "city": "FLUSHING, NY", "zone_code": "R6", "zone_category": "Residential", "ev_permitted": false}, "geometry": {"type": "Polygon", "coordinates": [[[-73.8245482837172, 40.7618600995685], [-73.8244759031074, 40.7618795898917], [-73.8245906893205, 40.7621281864961], [-73.8246630545422, 40.7621086637556], [-73.8245482837172, 40.7618600995685]]]}}, {"type": "Feature", "properties": {"zone_id": "0201UZ1VGVXJT7XA79HNVL", "tract_id": "36081086500", "city": "FLUSHING, NY", "zone_code": "R6", "zone_category": "Residential", "ev_permitted": false}, "geometry": {"type": "Polygon", "coordinates": [[[-73.8244759031074, 40.7618795898917], [-73.8244033236293, 40.7618991339708], [-73.8245181233817, 40.76214776299], [-73.8245906893205, 40.7621281864961], [-73.8244759031074, 40.7618795898917]]]}}, {"type": "Feature", "properties": {"zone_id": "0205KCAFZQXTZRJWH8CITK", "tract_id": "36081086500", "city": "FLUSHING, NY", "zone_code": "R6", "zone_category": "Residential", "ev_permitted": false}, "geometry": {"type": "Polygon", "coordinates": [[[-73.8244033236293, 40.7618991339708], [-73.8243335045413, 40.7619179352904], [-73.8244483187717, 40.762166594615], [-73.8245181233817, 40.76214776299], [-73.8244033236293, 40.7618991339708]]]}}, {"type": "Feature", "properties": {"zone_id": "0201HVSJ0IZUAQ3UATQ8LG", "tract_id": "36081086500", "city": "FLUSHING, NY", "zone_code": "R6", "zone_category": "Residential", "ev_permitted": false}, "geometry": {"type": "Polygon", "coordinates": [[[-73.8243335045413, 40.7619179352904], [-73.8242594777155, 40.7619378691537], [-73.8243743054784, 40.7621865615972], [-73.8244483187717, 40.762166594615], [-73.8243335045413, 40.7619179352904]]]}}, {"type": "Feature", "properties": {"zone_id": "0206MY2KSYQ88KBGZ6E7QG", "tract_id": "36081086500", "city": "FLUSHING, NY", "zone_code": "R6", "zone_category": "Residential", "ev_permitted": false}, "geometry": {"type": "Polygon", "coordinates": [[[-73.8242594777155, 40.7619378691537], [-73.8241868971863, 40.7619574130948], [-73.8243017403365, 40.762206137956], [-73.8243743054784, 40.7621865615972], [-73.8242594777155, 40.7619378691537]]]}}, {"type": "Feature", "properties": {"zone_id": "0203T8HXAFFO74SYNXS3AJ", "tract_id": "36081086500", "city": "", "zone_code": "R6", "zone_category": "Residential", "ev_permitted": false}, "geometry": {"type": "Polygon", "coordinates": [[[-73.8231372217984, 40.7614364848729], [-73.8227564172006, 40.7615390227803], [-73.8232014708201, 40.7625029561375], [-73.8235481813526, 40.7624094259982], [-73.8233255997409, 40.7619273498195], [-73.8233596267432, 40.7619181866687], [-73.8231372217984, 40.7614364848729]]]}}, {"type": "Feature", "properties": {"zone_id": "02069RN2DTUT90VN3GM6VC", "tract_id": "36081086500", "city": "FLUSHING, NY", "zone_code": "R6", "zone_category": "Residential", "ev_permitted": false}, "geometry": {"type": "Polygon", "coordinates": [[[-73.8228520739788, 40.7617462066958], [-73.822345636474, 40.7618825711737], [-73.8226981644789, 40.7626387283003], [-73.8232014708201, 40.7625029561375], [-73.8228520739788, 40.7617462066958]]]}}, {"type": "Feature", "properties": {"zone_id": "0204AOWINSO7MYM80Q9KIK", "tract_id": "36081086500", "city": "FLUSHING, NY", "zone_code": "R6", "zone_category": "Residential", "ev_permitted": false}, "geometry": {"type": "Polygon", "coordinates": [[[-73.8232829325158, 40.762659495761], [-73.8231940771469, 40.7626839017828], [-73.8233188877669, 40.7629488299723], [-73.8234078077668, 40.7629245616743], [-73.8232829325158, 40.762659495761]]]}}, {"type": "Feature", "properties": {"zone_id": "0204DRCRPHX0Y22Q5KAWGC", "tract_id": "36081086500", "city": "FLUSHING, NY", "zone_code": "R6", "zone_category": "Residential", "ev_permitted": false}, "geometry": {"type": "Polygon", "coordinates": [[[-73.8231940771469, 40.7626839017828], [-73.8231078065255, 40.7627075964014], [-73.8232325543551, 40.762972393191], [-73.8233188877669, 40.7629488299723], [-73.8231940771469, 40.7626839017828]]]}}, {"type": "Feature", "properties": {"zone_id": "0205BRU6S5S7OCVO9CHQLS", "tract_id": "36081086500", "city": "FLUSHING, NY", "zone_code": "R6", "zone_category": "Residential", "ev_permitted": false}, "geometry": {"type": "Polygon", "coordinates": [[[-73.823133858561, 40.7627628960418], [-73.8227890274156, 40.7628570103254], [-73.822813475705, 40.7629089046097], [-73.8231583061604, 40.7628147902522], [-73.823133858561, 40.7627628960418]]]}}, {"type": "Feature", "properties": {"zone_id": "0206EHI54NYT9WVD6BX220", "tract_id": "36081086500", "city": "FLUSHING, NY", "zone_code": "R6", "zone_category": "Residential", "ev_permitted": false}, "geometry": {"type": "Polygon", "coordinates": [[[-73.8231078065255, 40.7627075964014], [-73.8227632274232, 40.7628022429054], [-73.8227890274156, 40.7628570103254], [-73.823133858561, 40.7627628960418], [-73.8231078065255, 40.7627075964014]]]}}, {"type": "Feature", "properties": {"zone_id": "0206P4TELBHQSGJ5PLDJPN", "tract_id": "36081086500", "city": "FLUSHING, NY", "zone_code": "R6", "zone_category": "Residential", "ev_permitted": false}, "geometry": {"type": "Polygon", "coordinates": [[[-73.8240028078811, 40.7617449960656], [-73.8233255997409, 40.7619273498195], [-73.8235481813526, 40.7624094259982], [-73.8242252559562, 40.7622267721099], [-73.8240028078811, 40.7617449960656]]]}}, {"type": "Feature", "properties": {"zone_id": "0202XLI7LCU8MUG3SG0TT0", "tract_id": "36081086500", "city": "FLUSHING, NY", "zone_code": "C2-2", "zone_category": "Other", "ev_permitted": false}, "geometry": {"type": "Polygon", "coordinates": [[[-73.8268427025422, 40.7613510996921], [-73.8266662712592, 40.7613977851184], [-73.8266682470549, 40.7614016681554], [-73.826670322927, 40.761401185041], [-73.8266992730503, 40.7614580987289], [-73.8268755852163, 40.7614185408119], [-73.8268427025422, 40.7613510996921]]]}}, {"type": "Feature", "properties": {"zone_id": "0207II0SR58CY9CYO83HKW", "tract_id": "36081086500", "city": "FLUSHING, NY", "zone_code": "R6", "zone_category": "Residential", "ev_permitted": false}, "geometry": {"type": "Polygon", "coordinates": [[[-73.8264600162579, 40.7605662224154], [-73.8250693401112, 40.7609125169066], [-73.8252585435586, 40.7613331080761], [-73.8254250528151, 40.7612916459589], [-73.8254674302295, 40.7613858470525], [-73.8267089122017, 40.7610767026172], [-73.8264600162579, 40.7605662224154]]]}}, {"type": "Feature", "properties": {"zone_id": "020533OYZXTNNWW7P5GC04", "tract_id": "36081086500", "city": "", "zone_code": "C2-2", "zone_category": "Other", "ev_permitted": false}, "geometry": {"type": "Polygon", "coordinates": [[[-73.8262110245464, 40.7612006852321], [-73.8260733501208, 40.7612349673157], [-73.8262724638874, 40.7617705796072], [-73.8266722573072, 40.7616834102773], [-73.8266115019636, 40.7615246648408], [-73.8265991885443, 40.7615273901779], [-73.8264926020882, 40.7612758869729], [-73.8262591447183, 40.761331987888], [-73.8262110245464, 40.7612006852321]]]}}, {"type": "Feature", "properties": {"zone_id": "0206PLVL1A2O6UWU7DG210", "tract_id": "36081086500", "city": "FLUSHING, NY", "zone_code": "C2-2", "zone_category": "Other", "ev_permitted": false}, "geometry": {"type": "Polygon", "coordinates": [[[-73.8268150125003, 40.7612943087905], [-73.8265321307048, 40.7613691614981], [-73.8265570761025, 40.7614280211694], [-73.8266682470549, 40.7614016681554], [-73.8266662712592, 40.7613977851184], [-73.8268427025422, 40.7613510996921], [-73.8268150125003, 40.7612943087905]]]}}, {"type": "Feature", "properties": {"zone_id": "0204ZNFMA9YARY9BX1VIBZ", "tract_id": "36081086500", "city": "", "zone_code": "C2-2", "zone_category": "Other", "ev_permitted": false}, "geometry": {"type": "Polygon", "coordinates": [[[-73.8258117697052, 40.7613001038769], [-73.825644275856, 40.7613418116945], [-73.8258377347456, 40.761865363524], [-73.8260070044743, 40.7618284579489], [-73.8258117697052, 40.7613001038769]]]}}, {"type": "Feature", "properties": {"zone_id": "0204Q9PAXOXMXA3R51N7WV", "tract_id": "36081086500", "city": "FLUSHING, NY", "zone_code": "C2-2", "zone_category": "Other", "ev_permitted": false}, "geometry": {"type": "Polygon", "coordinates": [[[-73.825644275856, 40.7613418116945], [-73.8254674302295, 40.7613858470525], [-73.8256969548106, 40.7618960576212], [-73.8258377347456, 40.761865363524], [-73.825644275856, 40.7613418116945]]]}}, {"type": "Feature", "properties": {"zone_id": "0202RVSURT0MSDIDJCHJAV", "tract_id": "36081086500", "city": "FLUSHING, NY", "zone_code": "R6", "zone_category": "Residential", "ev_permitted": false}, "geometry": {"type": "Polygon", "coordinates": [[[-73.8267089122017, 40.7610767026172], [-73.8262110245464, 40.7612006852321], [-73.8262591447183, 40.761331987888], [-73.8264926020882, 40.7612758869729], [-73.8264948164864, 40.7612811131473], [-73.8267727237821, 40.7612075768542], [-73.8267089122017, 40.7610767026172]]]}}, {"type": "Feature", "properties": {"zone_id": "0203O2A0EWRZQ6K5ZJCHF1", "tract_id": "36081086500", "city": "FLUSHING, NY", "zone_code": "R6", "zone_category": "Residential", "ev_permitted": false}, "geometry": {"type": "Polygon", "coordinates": [[[-73.8267727237821, 40.7612075768542], [-73.8264948164864, 40.7612811131473], [-73.8265321307048, 40.7613691614981], [-73.8268150125003, 40.7612943087905], [-73.8267727237821, 40.7612075768542]]]}}, {"type": "Feature", "properties": {"zone_id": "0203C9SUS4GWP57QILEUM6", "tract_id": "36081086500", "city": "FLUSHING, NY", "zone_code": "C2-2", "zone_category": "Other", "ev_permitted": false}, "geometry": {"type": "Polygon", "coordinates": [[[-73.8250693401112, 40.7609125169066], [-73.8245777497309, 40.7610349231632], [-73.824766951346, 40.7614555151338], [-73.8252585435586, 40.7613331080761], [-73.8250693401112, 40.7609125169066]]]}}, {"type": "Feature", "properties": {"zone_id": "0203WAQVE29W93KTVU7XQ2", "tract_id": "36081086500", "city": "FLUSHING, NY", "zone_code": "R6", "zone_category": "Residential", "ev_permitted": false}, "geometry": {"type": "Polygon", "coordinates": [[[-73.824299263942, 40.7611235751364], [-73.8234774937566, 40.7613448590894], [-73.8236999017785, 40.7618265609387], [-73.8245216771682, 40.761605275415], [-73.824299263942, 40.7611235751364]]]}}, {"type": "Feature", "properties": {"zone_id": "0204LZ8P1RUTRT9TQATVAI", "tract_id": "36081086500", "city": "FLUSHING, NY", "zone_code": "R6", "zone_category": "Residential", "ev_permitted": false}, "geometry": {"type": "Polygon", "coordinates": [[[-73.826670322927, 40.761401185041], [-73.8265570761025, 40.7614280211694], [-73.8265991885443, 40.7615273901779], [-73.8266115019636, 40.7615246648408], [-73.8266722573072, 40.7616834102773], [-73.8269727822101, 40.7616178854818], [-73.8268755852163, 40.7614185408119], [-73.8266992730503, 40.7614580987289], [-73.826670322927, 40.761401185041]]]}}, {"type": "Feature", "properties": {"zone_id": "0203BK6N9ZAQUARRJ8K5HE", "tract_id": "36081086500", "city": "FLUSHING, NY", "zone_code": "C2-2", "zone_category": "Other", "ev_permitted": false}, "geometry": {"type": "Polygon", "coordinates": [[[-73.8260733501208, 40.7612349673157], [-73.8258117697052, 40.7613001038769], [-73.8260070044743, 40.7618284579489], [-73.8262724638874, 40.7617705796072], [-73.8260733501208, 40.7612349673157]]]}}, {"type": "Feature", "properties": {"zone_id": "02022O689A72QJM7P300PY", "tract_id": "36081086500", "city": "FLUSHING, NY", "zone_code": "R6", "zone_category": "Residential", "ev_permitted": false}, "geometry": {"type": "Polygon", "coordinates": [[[-73.8254250528151, 40.7612916459589], [-73.824766951346, 40.7614555151338], [-73.8250304947707, 40.7620413613251], [-73.8256969548106, 40.7618960576212], [-73.8254250528151, 40.7612916459589]]]}}, {"type": "Feature", "properties": {"zone_id": "0202FDCYUHVR0TZG0KVN8B", "tract_id": "36081086500", "city": "FLUSHING, NY", "zone_code": "R6", "zone_category": "Residential", "ev_permitted": false}, "geometry": {"type": "Polygon", "coordinates": [[[-73.8245216771682, 40.761605275415], [-73.8240028078811, 40.7617449960656], [-73.824110397437, 40.7619780127193], [-73.8246292683137, 40.7618382915889], [-73.8245216771682, 40.761605275415]]]}}, {"type": "Feature", "properties": {"zone_id": "0204GDX2LLWMNWCSCZM87N", "tract_id": "36081086500", "city": "", "zone_code": "R6", "zone_category": "Residential", "ev_permitted": false}, "geometry": {"type": "Polygon", "coordinates": [[[-73.8234774937566, 40.7613448590894], [-73.8231372217984, 40.7614364848729], [-73.8233596267432, 40.7619181866687], [-73.8236999017785, 40.7618265609387], [-73.8234774937566, 40.7613448590894]]]}}, {"type": "Feature", "properties": {"zone_id": "0207ED3TVEQFWAS1W7RZV7", "tract_id": "36081086500", "city": "", "zone_code": "R6", "zone_category": "Residential", "ev_permitted": false}, "geometry": {"type": "Polygon", "coordinates": [[[-73.8227564172006, 40.7615390227803], [-73.8222491515534, 40.7616756104118], [-73.822345636474, 40.7618825711737], [-73.8228520739788, 40.7617462066958], [-73.8227564172006, 40.7615390227803]]]}}]}