{"type": "FeatureCollection", "features": [{"type": "Feature", "properties": {"zone_id": "02053SJDOPLFZ67XOQ12QL", "tract_id": "06037209820", "city": "LOS ANGELES, CA", "zone_code": "C1-1", "zone_category": "Commercial", "ev_permitted": true}, "geometry": {"type": "Polygon", "coordinates": [[[-118.278645682242, 34.0488408961341], [-118.278454876551, 34.0491389856433], [-118.278599950327, 34.0492044900228], [-118.278790723097, 34.048906537752], [-118.278645682242, 34.0488408961341]]]}}, {"type": "Feature", "properties": {"zone_id": "02006T3PE0RAR53NVFDEGN", "tract_id": "06037209820", "city": "LOS ANGELES, CA", "zone_code": "C1-1", "zone_category": "Commercial", "ev_permitted": true}, "geometry": {"type": "Polygon", "coordinates": [[[-118.278790723097, 34.048906537752], [-118.278599950327, 34.0492044900228], [-118.278817561418, 34.0493027462656], [-118.27900826798, 34.0490049037162], [-118.278790723097, 34.048906537752]]]}}, {"type": "Feature", "properties": {"zone_id": "0206XZAD9TYX38YU06NAOM", "tract_id": "06037209820", "city": "LOS ANGELES, CA", "zone_code": "C1-1", "zone_category": "Commercial", "ev_permitted": true}, "geometry": {"type": "Polygon", "coordinates": [[[-118.278500674809, 34.048775309223], [-118.278309769899, 34.0490734536874], [-118.278454876551, 34.0491389856433], [-118.278645682242, 34.0488408961341], [-118.278500674809, 34.048775309223]]]}}, {"type": "Feature", "properties": {"zone_id": "0207C018QHAZITUUANWRET", "tract_id": "06037209820", "city": "LOS ANGELES, CA", "zone_code": "C1-1", "zone_category": "Commercial", "ev_permitted": true}, "geometry": {"type": "Polygon", "coordinates": [[[-118.2783556345, 34.0487096947356], [-118.278164696577, 34.0490079489598], [-118.278309769899, 34.0490734536874], [-118.278500674809, 34.048775309223], [-118.2783556345, 34.0487096947356]]]}}, {"type": "Feature", "properties": {"zone_id": "0200Q0KFZWLY3R7KPAX5QB", "tract_id": "06037209820", "city": "LOS ANGELES, CA", "zone_code": "C1-1", "zone_category": "Commercial", "ev_permitted": true}, "geometry": {"type": "Polygon", "coordinates": [[[-118.27821059451, 34.0486441075527], [-118.278019590471, 34.048942444134], [-118.278164696577, 34.0490079489598], [-118.2783556345, 34.0487096947356], [-118.27821059451, 34.0486441075527]]]}}, {"type": "Feature", "properties": {"zone_id": "0206JOBG74JLL3R4XH1OKI", "tract_id": "06037209820", "city": "LOS ANGELES, CA", "zone_code": "C1-1", "zone_category": "Commercial", "ev_permitted": true}, "geometry": {"type": "Polygon", "coordinates": [[[-118.277790733479, 34.0485088896479], [-118.277651857734, 34.0487270104329], [-118.277648644082, 34.0487353507402], [-118.277647620773, 34.0487440707133], [-118.277648833938, 34.048752771805], [-118.277652230698, 34.048761062565], [-118.277659872316, 34.0487708377197], [-118.277666835157, 34.0487762676464], [-118.277673523893, 34.0487799241088], [-118.278022739413, 34.0489376126534], [-118.27821059451, 34.0486441075527], [-118.278079142849, 34.0485846441368], [-118.278052082435, 34.0486271060956], [-118.277790733479, 34.0485088896479]]]}}, {"type": "Feature", "properties": {"zone_id": "0201IP9MURQG1GNKSG7D1M", "tract_id": "06037209820", "city": "LOS ANGELES, CA", "zone_code": "RD1.5-1", "zone_category": "Residential", "ev_permitted": false}, "geometry": {"type": "Polygon", "coordinates": [[[-118.278545815736, 34.0484126235406], [-118.2783556345, 34.0487096947356], [-118.278500674809, 34.048775309223], [-118.278690855588, 34.0484782103201], [-118.278545815736, 34.0484126235406]]]}}, {"type": "Feature", "properties": {"zone_id": "0204H30KHXXYLFT4IYIWHT", "tract_id": "06037209820", "city": "LOS ANGELES, CA", "zone_code": "RD1.5-1", "zone_category": "Residential", "ev_permitted": false}, "geometry": {"type": "Polygon", "coordinates": [[[-118.278690855588, 34.0484782103201], [-118.278500674809, 34.048775309223], [-118.278645682242, 34.0488408961341], [-118.278835862747, 34.0485438244804], [-118.278690855588, 34.0484782103201]]]}}, {"type": "Feature", "properties": {"zone_id": "0202XQHYVYBXFGEZEZJDOT", "tract_id": "06037209820", "city": "LOS ANGELES, CA", "zone_code": "RD1.5-1", "zone_category": "Residential", "ev_permitted": false}, "geometry": {"type": "Polygon", "coordinates": [[[-118.278400809124, 34.0483470365109], [-118.27821059451, 34.0486441075527], [-118.2783556345, 34.0487096947356], [-118.278545815736, 34.0484126235406], [-118.278400809124, 34.0483470365109]]]}}, {"type": "Feature", "properties": {"zone_id": "0200PSDXY2MU7EPRY1QA51", "tract_id": "06037209820", "city": "LOS ANGELES, CA", "zone_code": "RD1.5-1", "zone_category": "Residential", "ev_permitted": false}, "geometry": {"type": "Polygon", "coordinates": [[[-118.278832263282, 34.0479651981619], [-118.278638184122, 34.0482683206815], [-118.278783291521, 34.0483337989958], [-118.278977368243, 34.0480306762468], [-118.278832263282, 34.0479651981619]]]}}, {"type": "Feature", "properties": {"zone_id": "0205IM3ZGV9R4C4095PNBH", "tract_id": "06037209820", "city": "LOS ANGELES, CA", "zone_code": "RD1.5-1", "zone_category": "Residential", "ev_permitted": false}, "geometry": {"type": "Polygon", "coordinates": [[[-118.278007381376, 34.048169056508], [-118.277933096641, 34.0482855723538], [-118.278326260232, 34.0484634158159], [-118.278400809124, 34.0483470365109], [-118.278007381376, 34.048169056508]]]}}, {"type": "Feature", "properties": {"zone_id": "0204F6BJRF553AVEN6KY69", "tract_id": "06037209820", "city": "LOS ANGELES, CA", "zone_code": "RD1.5-1", "zone_category": "Residential", "ev_permitted": false}, "geometry": {"type": "Polygon", "coordinates": [[[-118.277933096641, 34.0482855723538], [-118.277863475204, 34.0483948230449], [-118.278256407715, 34.0485725573532], [-118.278326260232, 34.0484634158159], [-118.277933096641, 34.0482855723538]]]}}, {"type": "Feature", "properties": {"zone_id": "0200WI1B9K1TL9HMP8PULX", "tract_id": "06037209820", "city": "LOS ANGELES, CA", "zone_code": "RD1.5-1", "zone_category": "Residential", "ev_permitted": false}, "geometry": {"type": "Polygon", "coordinates": [[[-118.277863475204, 34.0483948230449], [-118.277790733479, 34.0485088896479], [-118.278052082435, 34.0486271060956], [-118.278079142849, 34.0485846441368], [-118.27821059451, 34.0486441075527], [-118.278256407715, 34.0485725573532], [-118.277863475204, 34.0483948230449]]]}}, {"type": "Feature", "properties": {"zone_id": "0201NQAJRLTRUWDEA6D2PF", "tract_id": "06037209820", "city": "LOS ANGELES, CA", "zone_code": "C1-1", "zone_category": "Commercial", "ev_permitted": true}, "geometry": {"type": "Polygon", "coordinates": [[[-118.277481273121, 34.0483166456445], [-118.277292873666, 34.0486145354231], [-118.277452923087, 34.048687041335], [-118.277642512363, 34.0483896981432], [-118.277481273121, 34.0483166456445]]]}}, {"type": "Feature", "properties": {"zone_id": "02020N4K9SCD1LCEFX0ZCT", "tract_id": "06037209820", "city": "LOS ANGELES, CA", "zone_code": "RD1.5-1", "zone_category": "Residential", "ev_permitted": false}, "geometry": {"type": "Polygon", "coordinates": [[[-118.277502613352, 34.0479428861813], [-118.277315604016, 34.0482415971587], [-118.277481273121, 34.0483166456445], [-118.277669802823, 34.0480186178802], [-118.277502613352, 34.0479428861813]]]}}, {"type": "Feature", "properties": {"zone_id": "0205KFOBCWO75KEYCIV82O", "tract_id": "06037209820", "city": "LOS ANGELES, CA", "zone_code": "RD1.5-1", "zone_category": "Residential", "ev_permitted": false}, "geometry": {"type": "Polygon", "coordinates": [[[-118.277669802823, 34.0480186178802], [-118.277481273121, 34.0483166456445], [-118.277642512363, 34.0483896981432], [-118.277832165675, 34.0480921621568], [-118.277669802823, 34.0480186178802]]]}}, {"type": "Feature", "properties": {"zone_id": "02048P7RCZKQKFC1TFKYMT", "tract_id": "06037209820", "city": "LOS ANGELES, CA", "zone_code": "C1-1", "zone_category": "Commercial", "ev_permitted": true}, "geometry": {"type": "Polygon", "coordinates": [[[-118.276848783058, 34.0480301204954], [-118.276658960334, 34.0483273530511], [-118.277012713481, 34.0484876222593], [-118.277202535312, 34.0481903891451], [-118.276848783058, 34.0480301204954]]]}}, {"type": "Feature", "properties": {"zone_id": "0203ANR6JZNO5P44F7PGUD", "tract_id": "06037209820", "city": "LOS ANGELES, CA", "zone_code": "C1-1", "zone_category": "Commercial", "ev_permitted": true}, "geometry": {"type": "Polygon", "coordinates": [[[-118.277315604016, 34.0482415971587], [-118.277131745863, 34.0485352994913], [-118.2772959276, 34.0486096646791], [-118.277481273121, 34.0483166456445], [-118.277315604016, 34.0482415971587]]]}}, {"type": "Feature", "properties": {"zone_id": "020074776CVEDUX4QL7D5S", "tract_id": "06037209820", "city": "LOS ANGELES, CA", "zone_code": "C1-1", "zone_category": "Commercial", "ev_permitted": true}, "geometry": {"type": "Polygon", "coordinates": [[[-118.277202535312, 34.0481903891451], [-118.277012713481, 34.0484876222593], [-118.277128691923, 34.0485401702312], [-118.277315604016, 34.0482415971587], [-118.277202535312, 34.0481903891451]]]}}, {"type": "Feature", "properties": {"zone_id": "0206LBPXP7W8MA9TDX2Y2C", "tract_id": "06037209820", "city": "LOS ANGELES, CA", "zone_code": "C1-1", "zone_category": "Commercial", "ev_permitted": true}, "geometry": {"type": "Polygon", "coordinates": [[[-118.276703811177, 34.047964448918], [-118.276513988087, 34.0482616812449], [-118.276658960334, 34.0483273530511], [-118.276848783058, 34.0480301204954], [-118.276703811177, 34.047964448918]]]}}, {"type": "Feature", "properties": {"zone_id": "0206LILMVOXUE1YSPXK2GF", "tract_id": "06037209820", "city": "LOS ANGELES, CA", "zone_code": "RD1.5-1", "zone_category": "Residential", "ev_permitted": false}, "geometry": {"type": "Polygon", "coordinates": [[[-118.278687162633, 34.0478997078715], [-118.278493076951, 34.048202842193], [-118.278638184122, 34.0482683206815], [-118.278832263282, 34.0479651981619], [-118.278687162633, 34.0478997078715]]]}}, {"type": "Feature", "properties": {"zone_id": "0206KQGNK6V766OP15RIT6", "tract_id": "06037209820", "city": "LOS ANGELES, CA", "zone_code": "RD1.5-1", "zone_category": "Residential", "ev_permitted": false}, "geometry": {"type": "Polygon", "coordinates": [[[-118.278512594695, 34.0478209478962], [-118.278318514718, 34.0481240716172], [-118.278493076951, 34.048202842193], [-118.278687162633, 34.0478997078715], [-118.278512594695, 34.0478209478962]]]}}, {"type": "Feature", "properties": {"zone_id": "02029UJ478RUJ1MD0DX6JR", "tract_id": "06037209820", "city": "LOS ANGELES, CA", "zone_code": "RD1.5-1", "zone_category": "Residential", "ev_permitted": false}, "geometry": {"type": "Polygon", "coordinates": [[[-118.278294944627, 34.0477227324286], [-118.278100866158, 34.048025857511], [-118.278318514718, 34.0481240716172], [-118.278512594695, 34.0478209478962], [-118.278294944627, 34.0477227324286]]]}}, {"type": "Feature", "properties": {"zone_id": "0201RXND7GUM87OQR93POG", "tract_id": "06037209820", "city": "LOS ANGELES, CA", "zone_code": "RD1.5-1", "zone_category": "Residential", "ev_permitted": false}, "geometry": {"type": "Polygon", "coordinates": [[[-118.27875053234, 34.0475375382159], [-118.278556416945, 34.04784072251], [-118.278687162633, 34.0478997078715], [-118.27888126949, 34.047596538842], [-118.27875053234, 34.0475375382159]]]}}, {"type": "Feature", "properties": {"zone_id": "0204S0ADG8JYA35JGO4FBL", "tract_id": "06037209820", "city": "LOS ANGELES, CA", "zone_code": "RD1.5-1", "zone_category": "Residential", "ev_permitted": false}, "geometry": {"type": "Polygon", "coordinates": [[[-118.278426961514, 34.0475165370241], [-118.27835709542, 34.0476256614736], [-118.278618561361, 34.0477436600212], [-118.278688429282, 34.0476345371323], [-118.278426961514, 34.0475165370241]]]}}, {"type": "Feature", "properties": {"zone_id": "0205R625T3OBXIPV2R23FD", "tract_id": "06037209820", "city": "LOS ANGELES, CA", "zone_code": "RD1.5-1", "zone_category": "Residential", "ev_permitted": false}, "geometry": {"type": "Polygon", "coordinates": [[[-118.27835709542, 34.0476256614736], [-118.278294944627, 34.0477227324286], [-118.278556416945, 34.04784072251], [-118.278618561361, 34.0477436600212], [-118.27835709542, 34.0476256614736]]]}}, {"type": "Feature", "properties": {"zone_id": "020791DEQOEQO23JQEUTH7", "tract_id": "06037209820", "city": "LOS ANGELES, CA", "zone_code": "RD1.5-1", "zone_category": "Residential", "ev_permitted": false}, "geometry": {"type": "Polygon", "coordinates": [[[-118.277952169625, 34.0475677846072], [-118.277758741181, 34.047871209905], [-118.277925038074, 34.0479465311228], [-118.278118466088, 34.0476431055575], [-118.277952169625, 34.0475677846072]]]}}, {"type": "Feature", "properties": {"zone_id": "02002BUFLLZ6HHMHV00YWV", "tract_id": "06037209820", "city": "LOS ANGELES, CA", "zone_code": "RD1.5-1", "zone_category": "Residential", "ev_permitted": false}, "geometry": {"type": "Polygon", "coordinates": [[[-118.277786336343, 34.047492682193], [-118.277595585373, 34.0477973101312], [-118.277758741181, 34.047871209905], [-118.277952169625, 34.0475677846072], [-118.277786336343, 34.047492682193]]]}}, {"type": "Feature", "properties": {"zone_id": "0202I4LZ3ZVO8DB4YDDSRZ", "tract_id": "06037209820", "city": "LOS ANGELES, CA", "zone_code": "RD1.5-1", "zone_category": "Residential", "ev_permitted": false}, "geometry": {"type": "Polygon", "coordinates": [[[-118.277641331646, 34.0474270118188], [-118.277450580299, 34.047731639527], [-118.277595585373, 34.0477973101312], [-118.277786336343, 34.047492682193], [-118.277641331646, 34.0474270118188]]]}}, {"type": "Feature", "properties": {"zone_id": "0202VMRQFWD1VDEZRFG1MA", "tract_id": "06037209820", "city": "LOS ANGELES, CA", "zone_code": "RD1.5-1", "zone_category": "Residential", "ev_permitted": false}, "geometry": {"type": "Polygon", "coordinates": [[[-118.277470275195, 34.0473495028552], [-118.27727661425, 34.0476528729513], [-118.277450580299, 34.047731639527], [-118.277641331646, 34.0474270118188], [-118.277470275195, 34.0473495028552]]]}}, {"type": "Feature", "properties": {"zone_id": "020046X8II4NUR3VXGZYYD", "tract_id": "06037209820", "city": "LOS ANGELES, CA", "zone_code": "RD1.5-1", "zone_category": "Residential", "ev_permitted": false}, "geometry": {"type": "Polygon", "coordinates": [[[-118.278489064788, 34.0474195382427], [-118.278426961514, 34.0475165370241], [-118.278688429282, 34.0476345371323], [-118.27875053234, 34.0475375382159], [-118.278489064788, 34.0474195382427]]]}}, {"type": "Feature", "properties": {"zone_id": "0205U9BI1UN2545Y11TR2P", "tract_id": "06037209820", "city": "LOS ANGELES, CA", "zone_code": "RD1.5-1", "zone_category": "Residential", "ev_permitted": false}, "geometry": {"type": "Polygon", "coordinates": [[[-118.278145728252, 34.0472642213075], [-118.277952169625, 34.0475677846072], [-118.278118466088, 34.0476431055575], [-118.278312024195, 34.0473395145116], [-118.278145728252, 34.0472642213075]]]}}, {"type": "Feature", "properties": {"zone_id": "0204U2YPCMJ23VJBYPX0WN", "tract_id": "06037209820", "city": "LOS ANGELES, CA", "zone_code": "RD1.5-1", "zone_category": "Residential", "ev_permitted": false}, "geometry": {"type": "Polygon", "coordinates": [[[-118.278819064478, 34.0469898873604], [-118.278627955753, 34.0472946551527], [-118.278762909776, 34.04735556625], [-118.278953952494, 34.0470509083097], [-118.278819064478, 34.0469898873604]]]}}, {"type": "Feature", "properties": {"zone_id": "0201T3ELTA0GZ3G74HZ5KV", "tract_id": "06037209820", "city": "LOS ANGELES, CA", "zone_code": "HPOZ", "zone_category": "Other", "ev_permitted": false}, "geometry": {"type": "Polygon", "coordinates": [[[-118.278674027106, 34.0469243007396], [-118.278482885358, 34.0472291782916], [-118.278627955753, 34.0472946551527], [-118.278819064478, 34.0469898873604], [-118.278674027106, 34.0469243007396]]]}}, {"type": "Feature", "properties": {"zone_id": "0203ZBITKI10ICJS9E51RG", "tract_id": "06037209820", "city": "LOS ANGELES, CA", "zone_code": "RD1.5-1", "zone_category": "Residential", "ev_permitted": false}, "geometry": {"type": "Polygon", "coordinates": [[[-118.27852898987, 34.0468586864665], [-118.278337749168, 34.0471637014085], [-118.278482885358, 34.0472291782916], [-118.278674027106, 34.0469243007396], [-118.27852898987, 34.0468586864665]]]}}, {"type": "Feature", "properties": {"zone_id": "0200QPE2QQEUSVABF1UXHZ", "tract_id": "06037209820", "city": "LOS ANGELES, CA", "zone_code": "RD1.5-1", "zone_category": "Residential", "ev_permitted": false}, "geometry": {"type": "Polygon", "coordinates": [[[-118.278383985963, 34.0467930994217], [-118.278192646216, 34.0470982242752], [-118.278337749168, 34.0471637014085], [-118.27852898987, 34.0468586864665], [-118.278383985963, 34.0467930994217]]]}}, {"type": "Feature", "properties": {"zone_id": "020204RIAGSS637GI6NT7I", "tract_id": "06037209820", "city": "LOS ANGELES, CA", "zone_code": "RD1.5-1", "zone_category": "Residential", "ev_permitted": false}, "geometry": {"type": "Polygon", "coordinates": [[[-118.277977217419, 34.0471878887831], [-118.277786336343, 34.047492682193], [-118.277952169625, 34.0475677846072], [-118.278145728252, 34.0472642213075], [-118.277977217419, 34.0471878887831]]]}}, {"type": "Feature", "properties": {"zone_id": "0205UWO94O126BXP9XUO95", "tract_id": "06037209820", "city": "LOS ANGELES, CA", "zone_code": "RD1.5-1", "zone_category": "Residential", "ev_permitted": false}, "geometry": {"type": "Polygon", "coordinates": [[[-118.27780900472, 34.0471117751683], [-118.277615279805, 34.0474152283915], [-118.277786336343, 34.047492682193], [-118.277977217419, 34.0471878887831], [-118.27780900472, 34.0471117751683]]]}}, {"type": "Feature", "properties": {"zone_id": "0202JT5KPTH77YVXI7G0MJ", "tract_id": "06037209820", "city": "LOS ANGELES, CA", "zone_code": "RD1.5-1", "zone_category": "Residential", "ev_permitted": false}, "geometry": {"type": "Polygon", "coordinates": [[[-118.277664000757, 34.0470461323011], [-118.277470275195, 34.0473495028552], [-118.277615279805, 34.0474152283915], [-118.27780900472, 34.0471117751683], [-118.277664000757, 34.0470461323011]]]}}, {"type": "Feature", "properties": {"zone_id": "0203PSZVLD04NNAC5QH5RH", "tract_id": "06037209820", "city": "LOS ANGELES, CA", "zone_code": "RD1.5-1", "zone_category": "Residential", "ev_permitted": false}, "geometry": {"type": "Polygon", "coordinates": [[[-118.277519030032, 34.0469804891842], [-118.277325304096, 34.0472838595046], [-118.277470275195, 34.0473495028552], [-118.277664000757, 34.0470461323011], [-118.277519030032, 34.0469804891842]]]}}, {"type": "Feature", "properties": {"zone_id": "0206CKE2V2IYGCCW45ZZ3H", "tract_id": "06037209820", "city": "LOS ANGELES, CA", "zone_code": "RD1.5-1", "zone_category": "Residential", "ev_permitted": false}, "geometry": {"type": "Polygon", "coordinates": [[[-118.277328613713, 34.0478640922771], [-118.277138727503, 34.0481614631287], [-118.277315604016, 34.0482415971587], [-118.277502613352, 34.0479428861813], [-118.277328613713, 34.0478640922771]]]}}, {"type": "Feature", "properties": {"zone_id": "0206E5LYO441QHELCPBK5G", "tract_id": "06037209820", "city": "LOS ANGELES, CA", "zone_code": "RD1.5-1", "zone_category": "Residential", "ev_permitted": false}, "geometry": {"type": "Polygon", "coordinates": [[[-118.277183641743, 34.0477984212763], [-118.276993755167, 34.048095791899], [-118.277138727503, 34.0481614631287], [-118.277328613713, 34.0478640922771], [-118.277183641743, 34.0477984212763]]]}}, {"type": "Feature", "properties": {"zone_id": "0206QPQKZMX48OU8S5YMAQ", "tract_id": "06037209820", "city": "LOS ANGELES, CA", "zone_code": "RD1.5-1", "zone_category": "Residential", "ev_permitted": false}, "geometry": {"type": "Polygon", "coordinates": [[[-118.276893665475, 34.047667078829], [-118.276703811177, 34.047964448918], [-118.276848783058, 34.0480301204954], [-118.277038703012, 34.047732750026], [-118.276893665475, 34.047667078829]]]}}, {"type": "Feature", "properties": {"zone_id": "0200XL9RKC7S7CDOCEQIK7", "tract_id": "06037209820", "city": "LOS ANGELES, CA", "zone_code": "RD1.5-1", "zone_category": "Residential", "ev_permitted": false}, "geometry": {"type": "Polygon", "coordinates": [[[-118.277038703012, 34.047732750026], [-118.276848783058, 34.0480301204954], [-118.276993755167, 34.048095791899], [-118.277183641743, 34.0477984212763], [-118.277038703012, 34.047732750026]]]}}, {"type": "Feature", "properties": {"zone_id": "0202LXK4CMSHJWL5GYSQBG", "tract_id": "06037209820", "city": "LOS ANGELES, CA", "zone_code": "C1-1", "zone_category": "Commercial", "ev_permitted": true}, "geometry": {"type": "Polygon", "coordinates": [[[-118.276558839433, 34.0478987496884], [-118.276369016067, 34.0481960092649], [-118.276513988087, 34.0482616812449], [-118.276703811177, 34.047964448918], [-118.276558839433, 34.0478987496884]]]}}, {"type": "Feature", "properties": {"zone_id": "0203F0DZ9UJGTEONY2EDGR", "tract_id": "06037209820", "city": "LOS ANGELES, CA", "zone_code": "C1-1", "zone_category": "Commercial", "ev_permitted": true}, "geometry": {"type": "Polygon", "coordinates": [[[-118.276123892827, 34.0477017334672], [-118.275934068272, 34.0479989648786], [-118.276079072711, 34.0480646647832], [-118.276268863797, 34.0477674057399], [-118.276123892827, 34.0477017334672]]]}}, {"type": "Feature", "properties": {"zone_id": "02078IB696XV9XC10WG0AG", "tract_id": "06037209820", "city": "LOS ANGELES, CA", "zone_code": "C1-1", "zone_category": "Commercial", "ev_permitted": true}, "geometry": {"type": "Polygon", "coordinates": [[[-118.276413834996, 34.0478330778389], [-118.276224044275, 34.0481303371109], [-118.276369016067, 34.0481960092649], [-118.276558839433, 34.0478987496884], [-118.276413834996, 34.0478330778389]]]}}, {"type": "Feature", "properties": {"zone_id": "0204WEZ6FKUEMHWK6Z70C3", "tract_id": "06037209820", "city": "LOS ANGELES, CA", "zone_code": "C1-1", "zone_category": "Commercial", "ev_permitted": true}, "geometry": {"type": "Polygon", "coordinates": [[[-118.276268863797, 34.0477674057399], [-118.276079072711, 34.0480646647832], [-118.276224044275, 34.0481303371109], [-118.276413834996, 34.0478330778389], [-118.276268863797, 34.0477674057399]]]}}, {"type": "Feature", "properties": {"zone_id": "0205E79CFF7DI6SOG472V2", "tract_id": "06037209820", "city": "LOS ANGELES, CA", "zone_code": "RD1.5-1", "zone_category": "Residential", "ev_permitted": false}, "geometry": {"type": "Polygon", "coordinates": [[[-118.276748694278, 34.0476014347851], [-118.276558839433, 34.0478987496884], [-118.276703811177, 34.047964448918], [-118.276893665475, 34.047667078829], [-118.276748694278, 34.0476014347851]]]}}, {"type": "Feature", "properties": {"zone_id": "02079KNKNPEHNNPSB2YXIS", "tract_id": "06037209820", "city": "LOS ANGELES, CA", "zone_code": "RD1.5-1", "zone_category": "Residential", "ev_permitted": false}, "geometry": {"type": "Polygon", "coordinates": [[[-118.276603723219, 34.047535763089], [-118.276413834996, 34.0478330778389], [-118.276558839433, 34.0478987496884], [-118.276748694278, 34.0476014347851], [-118.276603723219, 34.047535763089]]]}}, {"type": "Feature", "properties": {"zone_id": "0202VUMKJSMOUDD3D63481", "tract_id": "06037209820", "city": "LOS ANGELES, CA", "zone_code": "RD1.5-1", "zone_category": "Residential", "ev_permitted": false}, "geometry": {"type": "Polygon", "coordinates": [[[-118.276458719375, 34.0474700912946], [-118.276268863797, 34.0477674057399], [-118.276413834996, 34.0478330778389], [-118.276603723219, 34.047535763089], [-118.276458719375, 34.0474700912946]]]}}, {"type": "Feature", "properties": {"zone_id": "0203XJCRK1R9EY23QK3HJV", "tract_id": "06037209820", "city": "LOS ANGELES, CA", "zone_code": "RD1.5-1", "zone_category": "Residential", "ev_permitted": false}, "geometry": {"type": "Polygon", "coordinates": [[[-118.276313748771, 34.0474044192507], [-118.276123892827, 34.0477017334672], [-118.276268863797, 34.0477674057399], [-118.276458719375, 34.0474700912946], [-118.276313748771, 34.0474044192507]]]}}, {"type": "Feature", "properties": {"zone_id": "02061UHUVLLT6MV5C572QY", "tract_id": "06037209820", "city": "LOS ANGELES, CA", "zone_code": "RD1.5-1", "zone_category": "Residential", "ev_permitted": false}, "geometry": {"type": "Polygon", "coordinates": [[[-118.277325304096, 34.0472838595046], [-118.277131609494, 34.0475871470076], [-118.27727661425, 34.0476528729513], [-118.277470275195, 34.0473495028552], [-118.277325304096, 34.0472838595046]]]}}, {"type": "Feature", "properties": {"zone_id": "0205MEJZXV1D3LRFOY2ZF5", "tract_id": "06037209820", "city": "LOS ANGELES, CA", "zone_code": "RD1.5-1", "zone_category": "Residential", "ev_permitted": false}, "geometry": {"type": "Polygon", "coordinates": [[[-118.277180333134, 34.0472181885018], [-118.276986638249, 34.0475215032497], [-118.277131609494, 34.0475871470076], [-118.277325304096, 34.0472838595046], [-118.277180333134, 34.0472181885018]]]}}, {"type": "Feature", "properties": {"zone_id": "02067URFR1BYJTUSJ4QM1L", "tract_id": "06037209820", "city": "LOS ANGELES, CA", "zone_code": "RD1.5-1", "zone_category": "Residential", "ev_permitted": false}, "geometry": {"type": "Polygon", "coordinates": [[[-118.277035329389, 34.0471525174008], [-118.276841667141, 34.0474558318395], [-118.276986638249, 34.0475215032497], [-118.277180333134, 34.0472181885018], [-118.277035329389, 34.0471525174008]]]}}, {"type": "Feature", "properties": {"zone_id": "0203ST988IY5CPP8KMHVTU", "tract_id": "06037209820", "city": "LOS ANGELES, CA", "zone_code": "RD1.5-1", "zone_category": "Residential", "ev_permitted": false}, "geometry": {"type": "Polygon", "coordinates": [[[-118.276890358882, 34.0470868460502], [-118.27669666325, 34.047390160331], [-118.276841667141, 34.0474558318395], [-118.277035329389, 34.0471525174008], [-118.276890358882, 34.0470868460502]]]}}, {"type": "Feature", "properties": {"zone_id": "0204W35F3OXWXOG5LANMX7", "tract_id": "06037209820", "city": "LOS ANGELES, CA", "zone_code": "RD1.5-1", "zone_category": "Residential", "ev_permitted": false}, "geometry": {"type": "Polygon", "coordinates": [[[-118.277374026524, 34.0469148459692], [-118.277180333134, 34.0472181885018], [-118.277325304096, 34.0472838595046], [-118.277519030032, 34.0469804891842], [-118.277374026524, 34.0469148459692]]]}}, {"type": "Feature", "properties": {"zone_id": "0203PUAJMUIPVYWRMDHLKP", "tract_id": "06037209820", "city": "LOS ANGELES, CA", "zone_code": "RD1.5-1", "zone_category": "Residential", "ev_permitted": false}, "geometry": {"type": "Polygon", "coordinates": [[[-118.277229023243, 34.0468492025803], [-118.277035329389, 34.0471525174008], [-118.277180333134, 34.0472181885018], [-118.277374026524, 34.0469148459692], [-118.277229023243, 34.0468492025803]]]}}, {"type": "Feature", "properties": {"zone_id": "0207969WZD1Y28AMD694RD", "tract_id": "06037209820", "city": "LOS ANGELES, CA", "zone_code": "RD1.5-1", "zone_category": "Residential", "ev_permitted": false}, "geometry": {"type": "Polygon", "coordinates": [[[-118.276168778394, 34.0473387470331], [-118.275978922083, 34.0476360610206], [-118.276123892827, 34.0477017334672], [-118.276313748771, 34.0474044192507], [-118.276168778394, 34.0473387470331]]]}}, {"type": "Feature", "properties": {"zone_id": "0202TP3LMJV5AXVODA6Z3I", "tract_id": "06037209820", "city": "LOS ANGELES, CA", "zone_code": "RD1.5-1", "zone_category": "Residential", "ev_permitted": false}, "geometry": {"type": "Polygon", "coordinates": [[[-118.276745388603, 34.0470211745258], [-118.276551692597, 34.0473244885731], [-118.27669666325, 34.047390160331], [-118.276890358882, 34.0470868460502], [-118.276745388603, 34.0470211745258]]]}}, {"type": "Feature", "properties": {"zone_id": "0202SI2HPQSW65U6QELCMU", "tract_id": "06037209820", "city": "LOS ANGELES, CA", "zone_code": "HPOZ", "zone_category": "Other", "ev_permitted": false}, "geometry": {"type": "Polygon", "coordinates": [[[-118.27660038554, 34.0469555029032], [-118.276406722171, 34.0472588166414], [-118.276551692597, 34.0473244885731], [-118.276745388603, 34.0470211745258], [-118.27660038554, 34.0469555029032]]]}}, {"type": "Feature", "properties": {"zone_id": "0204TAGMRLWCDCKEE5V6N3", "tract_id": "06037209820", "city": "LOS ANGELES, CA", "zone_code": "RD1.5-1", "zone_category": "Residential", "ev_permitted": false}, "geometry": {"type": "Polygon", "coordinates": [[[-118.276455415716, 34.0468898310311], [-118.276261718963, 34.0471931446113], [-118.276406722171, 34.0472588166414], [-118.27660038554, 34.0469555029032], [-118.276455415716, 34.0468898310311]]]}}, {"type": "Feature", "properties": {"zone_id": "02046XOXHSMTA7W5WEYA0K", "tract_id": "06037209820", "city": "LOS ANGELES, CA", "zone_code": "RD1.5-1", "zone_category": "Residential", "ev_permitted": false}, "geometry": {"type": "Polygon", "coordinates": [[[-118.27631044621, 34.0468241864637], [-118.276116748993, 34.0471274723318], [-118.276261718963, 34.0471931446113], [-118.276455415716, 34.0468898310311], [-118.27631044621, 34.0468241864637]]]}}, {"type": "Feature", "properties": {"zone_id": "0204L6UOEGUP6R2XTSWERR", "tract_id": "06037209820", "city": "LOS ANGELES, CA", "zone_code": "RD1.5-1", "zone_category": "Residential", "ev_permitted": false}, "geometry": {"type": "Polygon", "coordinates": [[[-118.27871999966, 34.0465541388939], [-118.27852898987, 34.0468586864665], [-118.278674027106, 34.0469243007396], [-118.278864970497, 34.0466197530892], [-118.27871999966, 34.0465541388939]]]}}, {"type": "Feature", "properties": {"zone_id": "0202VLGMPE6PH8MC7LIOM2", "tract_id": "06037209820", "city": "LOS ANGELES, CA", "zone_code": "RD1.5-1", "zone_category": "Residential", "ev_permitted": false}, "geometry": {"type": "Polygon", "coordinates": [[[-118.278238949182, 34.0467274848005], [-118.278047543491, 34.0470327469677], [-118.278192646216, 34.0470982242752], [-118.278383985963, 34.0467930994217], [-118.278238949182, 34.0467274848005]]]}}, {"type": "Feature", "properties": {"zone_id": "0201L2P0S1WLV8P78X5FJA", "tract_id": "06037209820", "city": "LOS ANGELES, CA", "zone_code": "RD1.5-1", "zone_category": "Residential", "ev_permitted": false}, "geometry": {"type": "Polygon", "coordinates": [[[-118.278574930111, 34.0464885522318], [-118.278383985963, 34.0467930994217], [-118.27852898987, 34.0468586864665], [-118.27871999966, 34.0465541388939], [-118.278574930111, 34.0464885522318]]]}}, {"type": "Feature", "properties": {"zone_id": "0203E4M5KEQA8LJF1UB3OK", "tract_id": "06037209820", "city": "LOS ANGELES, CA", "zone_code": "RD1.5-1", "zone_category": "Residential", "ev_permitted": false}, "geometry": {"type": "Polygon", "coordinates": [[[-118.278429893708, 34.046422937841], [-118.278238949182, 34.0467274848005], [-118.278383985963, 34.0467930994217], [-118.278574930111, 34.0464885522318], [-118.278429893708, 34.046422937841]]]}}, {"type": "Feature", "properties": {"zone_id": "0204KLG04P5B3FMND2RKSX", "tract_id": "06037209820", "city": "LOS ANGELES, CA", "zone_code": "RD1.5-1", "zone_category": "Residential", "ev_permitted": false}, "geometry": {"type": "Polygon", "coordinates": [[[-118.278284890634, 34.0463573506786], [-118.278093912628, 34.0466618700054], [-118.278238949182, 34.0467274848005], [-118.278429893708, 34.046422937841], [-118.278284890634, 34.0463573506786]]]}}, {"type": "Feature", "properties": {"zone_id": "0203KKC5JIFBTF8WUUABE8", "tract_id": "06037209820", "city": "LOS ANGELES, CA", "zone_code": "RD1.5-1", "zone_category": "Residential", "ev_permitted": false}, "geometry": {"type": "Polygon", "coordinates": [[[-118.278093912628, 34.0466618700054], [-118.277902440902, 34.0469672420076], [-118.278047543491, 34.0470327469677], [-118.278238949182, 34.0467274848005], [-118.278093912628, 34.0466618700054]]]}}, {"type": "Feature", "properties": {"zone_id": "02071177WU6XQN0KMKW28E", "tract_id": "06037209820", "city": "LOS ANGELES, CA", "zone_code": "RD1.5-1", "zone_category": "Residential", "ev_permitted": false}, "geometry": {"type": "Polygon", "coordinates": [[[-118.277948909404, 34.0465962824387], [-118.277757371642, 34.0469017642759], [-118.277902440902, 34.0469672420076], [-118.278093912628, 34.0466618700054], [-118.277948909404, 34.0465962824387]]]}}, {"type": "Feature", "properties": {"zone_id": "0206R63JG5DRXWKUS3S1RG", "tract_id": "06037209820", "city": "LOS ANGELES, CA", "zone_code": "RD1.5-1", "zone_category": "Residential", "ev_permitted": false}, "geometry": {"type": "Polygon", "coordinates": [[[-118.277803873397, 34.0465306947742], [-118.277612269599, 34.046836286446], [-118.277757371642, 34.0469017642759], [-118.277948909404, 34.0465962824387], [-118.277803873397, 34.0465306947742]]]}}, {"type": "Feature", "properties": {"zone_id": "02068EU31ZKCTQEUZWB99M", "tract_id": "06037209820", "city": "LOS ANGELES, CA", "zone_code": "RD1.5-1", "zone_category": "Residential", "ev_permitted": false}, "geometry": {"type": "Polygon", "coordinates": [[[-118.278139854686, 34.0462917359399], [-118.277948909404, 34.0465962824387], [-118.278093912628, 34.0466618700054], [-118.278284890634, 34.0463573506786], [-118.278139854686, 34.0462917359399]]]}}, {"type": "Feature", "properties": {"zone_id": "0200AU5STF8H1DJYA9U0NZ", "tract_id": "06037209820", "city": "LOS ANGELES, CA", "zone_code": "RD1.5-1", "zone_category": "Residential", "ev_permitted": false}, "geometry": {"type": "Polygon", "coordinates": [[[-118.277994819056, 34.0462261485056], [-118.277803873397, 34.0465306947742], [-118.277948909404, 34.0465962824387], [-118.278139854686, 34.0462917359399], [-118.277994819056, 34.0462261485056]]]}}, {"type": "Feature", "properties": {"zone_id": "0200AQCXKMCYBYRRDAQ4HI", "tract_id": "06037209820", "city": "LOS ANGELES, CA", "zone_code": "RD1.5-1", "zone_category": "Residential", "ev_permitted": false}, "geometry": {"type": "Polygon", "coordinates": [[[-118.277658837525, 34.0464650794571], [-118.277467167782, 34.046770808442], [-118.277612269599, 34.046836286446], [-118.277803873397, 34.0465306947742], [-118.277658837525, 34.0464650794571]]]}}, {"type": "Feature", "properties": {"zone_id": "0202FG7069C1U0OQP4TDEP", "tract_id": "06037209820", "city": "LOS ANGELES, CA", "zone_code": "RD1.5-1", "zone_category": "Residential", "ev_permitted": false}, "geometry": {"type": "Polygon", "coordinates": [[[-118.277513834983, 34.0463994913687], [-118.277322066102, 34.0467053027854], [-118.277467167782, 34.046770808442], [-118.277658837525, 34.0464650794571], [-118.277513834983, 34.0463994913687]]]}}, {"type": "Feature", "properties": {"zone_id": "0203VW9R1UL5UL69TYUDBN", "tract_id": "06037209820", "city": "LOS ANGELES, CA", "zone_code": "RD1.5-1", "zone_category": "Residential", "ev_permitted": false}, "geometry": {"type": "Polygon", "coordinates": [[[-118.278718301062, 34.0459748367328], [-118.278527358609, 34.0462793841416], [-118.278672394839, 34.0463449984148], [-118.278863336914, 34.0460404507757], [-118.278718301062, 34.0459748367328]]]}}, {"type": "Feature", "properties": {"zone_id": "0201O3XYLPHUY19W49L8Q9", "tract_id": "06037209820", "city": "LOS ANGELES, CA", "zone_code": "RD1.5-1", "zone_category": "Residential", "ev_permitted": false}, "geometry": {"type": "Polygon", "coordinates": [[[-118.278573298538, 34.0459092499182], [-118.278382322697, 34.0462137971728], [-118.278527358609, 34.0462793841416], [-118.278718301062, 34.0459748367328], [-118.278573298538, 34.0459092499182]]]}}, {"type": "Feature", "properties": {"zone_id": "020072QDSVHP8YEDFYQWYK", "tract_id": "06037209820", "city": "LOS ANGELES, CA", "zone_code": "RD1.5-1", "zone_category": "Residential", "ev_permitted": false}, "geometry": {"type": "Polygon", "coordinates": [[[-118.278428230131, 34.0458436356034], [-118.278237319932, 34.0461481824754], [-118.278382322697, 34.0462137971728], [-118.278573298538, 34.0459092499182], [-118.278428230131, 34.0458436356034]]]}}, {"type": "Feature", "properties": {"zone_id": "02022QYK4YAVOE3UDRN539", "tract_id": "06037209820", "city": "LOS ANGELES, CA", "zone_code": "RD1.5-1", "zone_category": "Residential", "ev_permitted": false}, "geometry": {"type": "Polygon", "coordinates": [[[-118.278283228062, 34.0457780484409], [-118.278092284475, 34.0460825951587], [-118.278237319932, 34.0461481824754], [-118.278428230131, 34.0458436356034], [-118.278283228062, 34.0457780484409]]]}}, {"type": "Feature", "properties": {"zone_id": "0206Z5KFIAI0DDQA0JJVFE", "tract_id": "06037209820", "city": "LOS ANGELES, CA", "zone_code": "RD1.5-1", "zone_category": "Residential", "ev_permitted": false}, "geometry": {"type": "Polygon", "coordinates": [[[-118.277849816665, 34.0461605608214], [-118.277658837525, 34.0464650794571], [-118.277803873397, 34.0465306947742], [-118.277994819056, 34.0462261485056], [-118.277849816665, 34.0461605608214]]]}}, {"type": "Feature", "properties": {"zone_id": "0206JRF0NQ1G1ASWM3PSIC", "tract_id": "06037209820", "city": "LOS ANGELES, CA", "zone_code": "RD1.5-1", "zone_category": "Residential", "ev_permitted": false}, "geometry": {"type": "Polygon", "coordinates": [[[-118.278138226221, 34.0457124611046], [-118.277947249154, 34.0460169801895], [-118.278092284475, 34.0460825951587], [-118.278283228062, 34.0457780484409], [-118.278138226221, 34.0457124611046]]]}}, {"type": "Feature", "properties": {"zone_id": "0200TAL4GRUAO9JSDMN4QT", "tract_id": "06037209820", "city": "LOS ANGELES, CA", "zone_code": "RD1.5-1", "zone_category": "Residential", "ev_permitted": false}, "geometry": {"type": "Polygon", "coordinates": [[[-118.276794047686, 34.046652243816], [-118.27660038554, 34.0469555029032], [-118.276745388603, 34.0470211745258], [-118.276939050284, 34.0467178877266], [-118.276794047686, 34.046652243816]]]}}, {"type": "Feature", "properties": {"zone_id": "02000ULMYC0GOLMIN8ATF5", "tract_id": "06037209820", "city": "LOS ANGELES, CA", "zone_code": "RD1.5-1", "zone_category": "Residential", "ev_permitted": false}, "geometry": {"type": "Polygon", "coordinates": [[[-118.27708402019, 34.0467835590175], [-118.276890358882, 34.0470868460502], [-118.277035329389, 34.0471525174008], [-118.277229023243, 34.0468492025803], [-118.27708402019, 34.0467835590175]]]}}, {"type": "Feature", "properties": {"zone_id": "0203OUT782KXBG2QZUSF3M", "tract_id": "06037209820", "city": "LOS ANGELES, CA", "zone_code": "RD1.5-1", "zone_category": "Residential", "ev_permitted": false}, "geometry": {"type": "Polygon", "coordinates": [[[-118.276939050284, 34.0467178877266], [-118.276745388603, 34.0470211745258], [-118.276890358882, 34.0470868460502], [-118.27708402019, 34.0467835590175], [-118.276939050284, 34.0467178877266]]]}}, {"type": "Feature", "properties": {"zone_id": "0203C2BDTTWKQND90ZWWHV", "tract_id": "06037209820", "city": "LOS ANGELES, CA", "zone_code": "RD1.5-1", "zone_category": "Residential", "ev_permitted": false}, "geometry": {"type": "Polygon", "coordinates": [[[-118.277368799657, 34.0463339031822], [-118.27717696474, 34.0466398244331], [-118.277322066102, 34.0467053027854], [-118.277513834983, 34.0463994913687], [-118.277368799657, 34.0463339031822]]]}}, {"type": "Feature", "properties": {"zone_id": "0202067UUDOJ52KCG3XESU", "tract_id": "06037209820", "city": "LOS ANGELES, CA", "zone_code": "RD1.5-1", "zone_category": "Residential", "ev_permitted": false}, "geometry": {"type": "Polygon", "coordinates": [[[-118.277223764468, 34.0462682873432], [-118.277031863605, 34.0465743459066], [-118.27717696474, 34.0466398244331], [-118.277368799657, 34.0463339031822], [-118.277223764468, 34.0462682873432]]]}}, {"type": "Feature", "properties": {"zone_id": "02003S65MO7CWUI9YQ6JZK", "tract_id": "06037209820", "city": "LOS ANGELES, CA", "zone_code": "RD1.5-1", "zone_category": "Residential", "ev_permitted": false}, "geometry": {"type": "Polygon", "coordinates": [[[-118.276649045316, 34.0465865997315], [-118.276455415716, 34.0468898310311], [-118.27660038554, 34.0469555029032], [-118.276794047686, 34.046652243816], [-118.276649045316, 34.0465865997315]]]}}, {"type": "Feature", "properties": {"zone_id": "02020HXSRU6TLRU449EB4W", "tract_id": "06037209820", "city": "LOS ANGELES, CA", "zone_code": "RD1.5-1", "zone_category": "Residential", "ev_permitted": false}, "geometry": {"type": "Polygon", "coordinates": [[[-118.276504043173, 34.0465209554732], [-118.27631044621, 34.0468241864637], [-118.276455415716, 34.0468898310311], [-118.276649045316, 34.0465865997315], [-118.276504043173, 34.0465209554732]]]}}, {"type": "Feature", "properties": {"zone_id": "0202JF7GCR37VC0MWE9AOI", "tract_id": "06037209820", "city": "LOS ANGELES, CA", "zone_code": "HPOZ", "zone_category": "Other", "ev_permitted": false}, "geometry": {"type": "Polygon", "coordinates": [[[-118.276165476841, 34.046758514244], [-118.27597174633, 34.0470618274325], [-118.276116748993, 34.0471274723318], [-118.27631044621, 34.0468241864637], [-118.276165476841, 34.046758514244]]]}}, {"type": "Feature", "properties": {"zone_id": "0207ETRFZPH0V3VF4I50B2", "tract_id": "06037209820", "city": "LOS ANGELES, CA", "zone_code": "RD1.5-1", "zone_category": "Residential", "ev_permitted": false}, "geometry": {"type": "Polygon", "coordinates": [[[-118.276359041258, 34.0464553110408], [-118.276165476841, 34.046758514244], [-118.27631044621, 34.0468241864637], [-118.276504043173, 34.0465209554732], [-118.276359041258, 34.0464553110408]]]}}, {"type": "Feature", "properties": {"zone_id": "0207HMKBZX7KCCMTJJEPG1", "tract_id": "06037209820", "city": "LOS ANGELES, CA", "zone_code": "RD1.5-1", "zone_category": "Residential", "ev_permitted": false}, "geometry": {"type": "Polygon", "coordinates": [[[-118.27621407258, 34.0463896663591], [-118.276020474689, 34.0466928419258], [-118.276165476841, 34.046758514244], [-118.276359041258, 34.0464553110408], [-118.27621407258, 34.0463896663591]]]}}, {"type": "Feature", "properties": {"zone_id": "0205MNCO0VCFM2JCJ9E76D", "tract_id": "06037209820", "city": "LOS ANGELES, CA", "zone_code": "RD1.5-1", "zone_category": "Residential", "ev_permitted": false}, "geometry": {"type": "Polygon", "coordinates": [[[-118.277414744651, 34.0459637419201], [-118.277223764468, 34.0462682873432], [-118.277368799657, 34.0463339031822], [-118.277559746361, 34.0460293301261], [-118.277414744651, 34.0459637419201]]]}}, {"type": "Feature", "properties": {"zone_id": "0203HVQHGC81CU1MLMZYEL", "tract_id": "06037209820", "city": "LOS ANGELES, CA", "zone_code": "RD1.5-1", "zone_category": "Residential", "ev_permitted": false}, "geometry": {"type": "Polygon", "coordinates": [[[-118.276933727874, 34.0461370825461], [-118.276741661925, 34.0464433608528], [-118.276886762697, 34.046508867206], [-118.277078762608, 34.0462026987329], [-118.276933727874, 34.0461370825461]]]}}, {"type": "Feature", "properties": {"zone_id": "0206PBU0QOKJ26IGHMJFT7", "tract_id": "06037209820", "city": "LOS ANGELES, CA", "zone_code": "RD1.5-1", "zone_category": "Residential", "ev_permitted": false}, "geometry": {"type": "Polygon", "coordinates": [[[-118.277269710159, 34.045898153616], [-118.277078762608, 34.0462026987329], [-118.277223764468, 34.0462682873432], [-118.277414744651, 34.0459637419201], [-118.277269710159, 34.045898153616]]]}}, {"type": "Feature", "properties": {"zone_id": "0203BZPJC8DS9PJY4VB3MV", "tract_id": "06037209820", "city": "LOS ANGELES, CA", "zone_code": "RD1.5-1", "zone_category": "Residential", "ev_permitted": false}, "geometry": {"type": "Polygon", "coordinates": [[[-118.277124642793, 34.0458325377352], [-118.276933727874, 34.0461370825461], [-118.277078762608, 34.0462026987329], [-118.277269710159, 34.045898153616], [-118.277124642793, 34.0458325377352]]]}}, {"type": "Feature", "properties": {"zone_id": "0204S6RWTANUDKCFJ8CFU7", "tract_id": "06037209820", "city": "LOS ANGELES, CA", "zone_code": "RD1.5-1", "zone_category": "Residential", "ev_permitted": false}, "geometry": {"type": "Polygon", "coordinates": [[[-118.276979674775, 34.0457669489317], [-118.276788693458, 34.0460714936637], [-118.276933727874, 34.0461370825461], [-118.277124642793, 34.0458325377352], [-118.276979674775, 34.0457669489317]]]}}, {"type": "Feature", "properties": {"zone_id": "0200W0855XTWZT2Q6N56FB", "tract_id": "06037209820", "city": "LOS ANGELES, CA", "zone_code": "RD1.5-1", "zone_category": "Residential", "ev_permitted": false}, "geometry": {"type": "Polygon", "coordinates": [[[-118.276549136143, 34.0455722049077], [-118.276285722076, 34.0459847136563], [-118.276429896408, 34.0460499204084], [-118.276306394256, 34.0462469231082], [-118.276451494255, 34.0463124025053], [-118.276643692189, 34.0460058770531], [-118.276788693458, 34.0460714936637], [-118.276979674775, 34.0457669489317], [-118.276549136143, 34.0455722049077]]]}}, {"type": "Feature", "properties": {"zone_id": "0201FEJNK3BDE3RXKY6BB2", "tract_id": "06037209820", "city": "LOS ANGELES, CA", "zone_code": "RD1.5-1", "zone_category": "Residential", "ev_permitted": false}, "geometry": {"type": "Polygon", "coordinates": [[[-118.276023775233, 34.047273074717], [-118.275833951477, 34.0475703609217], [-118.275978922083, 34.0476360610206], [-118.276168778394, 34.0473387470331], [-118.276023775233, 34.047273074717]]]}}, {"type": "Feature", "properties": {"zone_id": "0207JDG5CYHHY809KN85SC", "tract_id": "06037209820", "city": "LOS ANGELES, CA", "zone_code": "RD1.5-1", "zone_category": "Residential", "ev_permitted": false}, "geometry": {"type": "Polygon", "coordinates": [[[-118.275878805312, 34.0472074021516], [-118.275688981189, 34.0475046881275], [-118.275833951477, 34.0475703609217], [-118.276023775233, 34.047273074717], [-118.275878805312, 34.0472074021516]]]}}, {"type": "Feature", "properties": {"zone_id": "0200GU7FMSX08IJE6ZEM92", "tract_id": "06037209820", "city": "LOS ANGELES, CA", "zone_code": "RD1.5-1", "zone_category": "Residential", "ev_permitted": false}, "geometry": {"type": "Polygon", "coordinates": [[[-118.275733835617, 34.0471417294124], [-118.275543978118, 34.0474390152348], [-118.275688981189, 34.0475046881275], [-118.275878805312, 34.0472074021516], [-118.275733835617, 34.0471417294124]]]}}, {"type": "Feature", "properties": {"zone_id": "0206ZKMF5EY5XJHDNHI2GQ", "tract_id": "06037209820", "city": "LOS ANGELES, CA", "zone_code": "C1-1", "zone_category": "Commercial", "ev_permitted": true}, "geometry": {"type": "Polygon", "coordinates": [[[-118.279660873054, 34.0493001092503], [-118.279470463962, 34.049597567448], [-118.279615572249, 34.0496630430539], [-118.27980591541, 34.0493657221719], [-118.279660873054, 34.0493001092503]]]}}, {"type": "Feature", "properties": {"zone_id": "020428XXDRFWC70YIS996H", "tract_id": "06037209820", "city": "LOS ANGELES, CA", "zone_code": "C1-1", "zone_category": "Commercial", "ev_permitted": true}, "geometry": {"type": "Polygon", "coordinates": [[[-118.279370822128, 34.0491689102872], [-118.279180313727, 34.0494665056472], [-118.279325388731, 34.0495320366347], [-118.279515864029, 34.0492345235567], [-118.279370822128, 34.0491689102872]]]}}, {"type": "Feature", "properties": {"zone_id": "02032PGTN29AY1LHYQAUNJ", "tract_id": "06037209820", "city": "LOS ANGELES, CA", "zone_code": "C1-1", "zone_category": "Commercial", "ev_permitted": true}, "geometry": {"type": "Polygon", "coordinates": [[[-118.279225813558, 34.0491033242458], [-118.279035206031, 34.0494010020404], [-118.279180313727, 34.0494665056472], [-118.279370822128, 34.0491689102872], [-118.279225813558, 34.0491033242458]]]}}, {"type": "Feature", "properties": {"zone_id": "0200M5KNHF1A9W7NEZZ1GE", "tract_id": "06037209820", "city": "LOS ANGELES, CA", "zone_code": "C1-1", "zone_category": "Commercial", "ev_permitted": true}, "geometry": {"type": "Polygon", "coordinates": [[[-118.279515864029, 34.0492345235567], [-118.279325388731, 34.0495320366347], [-118.279470463962, 34.049597567448], [-118.279660873054, 34.0493001092503], [-118.279515864029, 34.0492345235567]]]}}, {"type": "Feature", "properties": {"zone_id": "0202OUJB4P1ER9KJLCR0SA", "tract_id": "06037209820", "city": "LOS ANGELES, CA", "zone_code": "RD1.5-1", "zone_category": "Residential", "ev_permitted": false}, "geometry": {"type": "Polygon", "coordinates": [[[-118.280332298754, 34.0482513697029], [-118.280138224371, 34.048554496355], [-118.280283333446, 34.0486199745851], [-118.28047740334, 34.0483168511433], [-118.280332298754, 34.0482513697029]]]}}, {"type": "Feature", "properties": {"zone_id": "02014U54W9WZI1MNFTUBC0", "tract_id": "06037209820", "city": "LOS ANGELES, CA", "zone_code": "HPOZ", "zone_category": "Other", "ev_permitted": false}, "geometry": {"type": "Polygon", "coordinates": [[[-118.27985108401, 34.0490030359146], [-118.279660873054, 34.0493001092503], [-118.27980591541, 34.0493657221719], [-118.279996092988, 34.0490686486832], [-118.27985108401, 34.0490030359146]]]}}, {"type": "Feature", "properties": {"zone_id": "0200OKZA7G1B1VPQU6A6EO", "tract_id": "06037209820", "city": "LOS ANGELES, CA", "zone_code": "RD1.5-1", "zone_category": "Residential", "ev_permitted": false}, "geometry": {"type": "Polygon", "coordinates": [[[-118.279706042339, 34.0489374505268], [-118.279515864029, 34.0492345235567], [-118.279660873054, 34.0493001092503], [-118.27985108401, 34.0490030359146], [-118.279706042339, 34.0489374505268]]]}}, {"type": "Feature", "properties": {"zone_id": "0200QLL686CB9UTE3O1NDL", "tract_id": "06037209820", "city": "LOS ANGELES, CA", "zone_code": "RD1.5-1", "zone_category": "Residential", "ev_permitted": false}, "geometry": {"type": "Polygon", "coordinates": [[[-118.279561000804, 34.0488718374867], [-118.279370822128, 34.0491689102872], [-118.279515864029, 34.0492345235567], [-118.279706042339, 34.0489374505268], [-118.279561000804, 34.0488718374867]]]}}, {"type": "Feature", "properties": {"zone_id": "0205W36B5FKUEQCS1H7U7T", "tract_id": "06037209820", "city": "LOS ANGELES, CA", "zone_code": "RD1.5-1", "zone_category": "Residential", "ev_permitted": false}, "geometry": {"type": "Polygon", "coordinates": [[[-118.280138224371, 34.048554496355], [-118.27994415064, 34.0488576209775], [-118.280089260082, 34.0489230977244], [-118.280283333446, 34.0486199745851], [-118.280138224371, 34.048554496355]]]}}, {"type": "Feature", "properties": {"zone_id": "0204CYEQ5K43TVGGU590DY", "tract_id": "06037209820", "city": "LOS ANGELES, CA", "zone_code": "RD1.5-1", "zone_category": "Residential", "ev_permitted": false}, "geometry": {"type": "Polygon", "coordinates": [[[-118.279415992508, 34.0488062241961], [-118.279225813558, 34.0491033242458], [-118.279370822128, 34.0491689102872], [-118.279561000804, 34.0488718374867], [-118.279415992508, 34.0488062241961]]]}}, {"type": "Feature", "properties": {"zone_id": "0203D201353TJFT3TQ9CBD", "tract_id": "06037209820", "city": "LOS ANGELES, CA", "zone_code": "C1-1", "zone_category": "Commercial", "ev_permitted": true}, "geometry": {"type": "Polygon", "coordinates": [[[-118.27900826798, 34.0490049037162], [-118.278820681402, 34.0492979028089], [-118.279038326006, 34.049396158578], [-118.279225813558, 34.0491033242458], [-118.27900826798, 34.0490049037162]]]}}, {"type": "Feature", "properties": {"zone_id": "0205W4RYUJJJAE1QG3CC99", "tract_id": "06037209820", "city": "LOS ANGELES, CA", "zone_code": "RD1.5-1", "zone_category": "Residential", "ev_permitted": false}, "geometry": {"type": "Polygon", "coordinates": [[[-118.279270951519, 34.0487406382865], [-118.279080772112, 34.0490377106283], [-118.279225813558, 34.0491033242458], [-118.279415992508, 34.0488062241961], [-118.279270951519, 34.0487406382865]]]}}, {"type": "Feature", "properties": {"zone_id": "0203LFSK27IUTZJP7TA7RN", "tract_id": "06037209820", "city": "LOS ANGELES, CA", "zone_code": "RD1.5-1", "zone_category": "Residential", "ev_permitted": false}, "geometry": {"type": "Polygon", "coordinates": [[[-118.279125943678, 34.048675024648], [-118.278935730893, 34.0489720968368], [-118.279080772112, 34.0490377106283], [-118.279270951519, 34.0487406382865], [-118.279125943678, 34.048675024648]]]}}, {"type": "Feature", "properties": {"zone_id": "0200G2IW9JDVIMGW3AZD6E", "tract_id": "06037209820", "city": "LOS ANGELES, CA", "zone_code": "RD1.5-1", "zone_category": "Residential", "ev_permitted": false}, "geometry": {"type": "Polygon", "coordinates": [[[-118.278980903145, 34.0486094383905], [-118.278790723097, 34.048906537752], [-118.278935730893, 34.0489720968368], [-118.279125943678, 34.048675024648], [-118.278980903145, 34.0486094383905]]]}}, {"type": "Feature", "properties": {"zone_id": "0200L91ETE38WQXXCADP4B", "tract_id": "06037209820", "city": "LOS ANGELES, CA", "zone_code": "RD1.5-1", "zone_category": "Residential", "ev_permitted": false}, "geometry": {"type": "Polygon", "coordinates": [[[-118.278835862747, 34.0485438244804], [-118.278645682242, 34.0488408961341], [-118.278790723097, 34.048906537752], [-118.278980903145, 34.0486094383905], [-118.278835862747, 34.0485438244804]]]}}, {"type": "Feature", "properties": {"zone_id": "0205VAZ9ZKFRRIP976YFPB", "tract_id": "06037209820", "city": "LOS ANGELES, CA", "zone_code": "RD1.5-1", "zone_category": "Residential", "ev_permitted": false}, "geometry": {"type": "Polygon", "coordinates": [[[-118.279993117593, 34.0484890196633], [-118.279799055884, 34.0487921491752], [-118.27994415064, 34.0488576209775], [-118.280138224371, 34.048554496355], [-118.279993117593, 34.0484890196633]]]}}, {"type": "Feature", "properties": {"zone_id": "0206USL0V2SH8UTTT15K6R", "tract_id": "06037209820", "city": "LOS ANGELES, CA", "zone_code": "RD1.5-1", "zone_category": "Residential", "ev_permitted": false}, "geometry": {"type": "Polygon", "coordinates": [[[-118.279848008978, 34.0484235428022], [-118.279653934499, 34.0487266669564], [-118.279799055884, 34.0487921491752], [-118.279993117593, 34.0484890196633], [-118.279848008978, 34.0484235428022]]]}}, {"type": "Feature", "properties": {"zone_id": "0207HHDWQQBM235C9QW6SG", "tract_id": "06037209820", "city": "LOS ANGELES, CA", "zone_code": "RD1.5-1", "zone_category": "Residential", "ev_permitted": false}, "geometry": {"type": "Polygon", "coordinates": [[[-118.279702902654, 34.0483580657623], [-118.2795088278, 34.0486611896823], [-118.279653934499, 34.0487266669564], [-118.279848008978, 34.0484235428022], [-118.279702902654, 34.0483580657623]]]}}, {"type": "Feature", "properties": {"zone_id": "0200SUNPSLFHICREX55F3X", "tract_id": "06037209820", "city": "LOS ANGELES, CA", "zone_code": "RD1.5-1", "zone_category": "Residential", "ev_permitted": false}, "geometry": {"type": "Polygon", "coordinates": [[[-118.279606173496, 34.0483144182937], [-118.279412098394, 34.0486175420575], [-118.2795088278, 34.0486611896823], [-118.279702902654, 34.0483580657623], [-118.279606173496, 34.0483144182937]]]}}, {"type": "Feature", "properties": {"zone_id": "0204T6QJUEBXOVQ45GWA41", "tract_id": "06037209820", "city": "LOS ANGELES, CA", "zone_code": "RD1.5-1", "zone_category": "Residential", "ev_permitted": false}, "geometry": {"type": "Polygon", "coordinates": [[[-118.28018719439, 34.048185886371], [-118.279993117593, 34.0484890196633], [-118.280138224371, 34.048554496355], [-118.280332298754, 34.0482513697029], [-118.28018719439, 34.048185886371]]]}}, {"type": "Feature", "properties": {"zone_id": "02002NWBSG2DL2RH0LT4QM", "tract_id": "06037209820", "city": "LOS ANGELES, CA", "zone_code": "RD1.5-1", "zone_category": "Residential", "ev_permitted": false}, "geometry": {"type": "Polygon", "coordinates": [[[-118.279896988417, 34.0480549226148], [-118.279702902654, 34.0483580657623], [-118.279877030682, 34.0484366378449], [-118.280071111893, 34.0481335012956], [-118.279896988417, 34.0480549226148]]]}}, {"type": "Feature", "properties": {"zone_id": "02000ROJL7DFSKYG2MSWYV", "tract_id": "06037209820", "city": "LOS ANGELES, CA", "zone_code": "RD1.5-1", "zone_category": "Residential", "ev_permitted": false}, "geometry": {"type": "Polygon", "coordinates": [[[-118.280071111893, 34.0481335012956], [-118.279877030682, 34.0484366378449], [-118.279993117593, 34.0484890196633], [-118.28018719439, 34.048185886371], [-118.280071111893, 34.0481335012956]]]}}, {"type": "Feature", "properties": {"zone_id": "0200I9YCNM9YX8CSCJAWDW", "tract_id": "06037209820", "city": "LOS ANGELES, CA", "zone_code": "RD1.5-1", "zone_category": "Residential", "ev_permitted": false}, "geometry": {"type": "Polygon", "coordinates": [[[-118.279751884734, 34.0479894387604], [-118.279557808959, 34.0482925953891], [-118.279702902654, 34.0483580657623], [-118.279896988417, 34.0480549226148], [-118.279751884734, 34.0479894387604]]]}}, {"type": "Feature", "properties": {"zone_id": "0204AWKRNXOZF9O3IECNKL", "tract_id": "06037209820", "city": "LOS ANGELES, CA", "zone_code": "RD1.5-1", "zone_category": "Residential", "ev_permitted": false}, "geometry": {"type": "Polygon", "coordinates": [[[-118.279412686554, 34.048227109452], [-118.279218610959, 34.0485302346209], [-118.279315340158, 34.048573880683], [-118.279509415515, 34.0482707587928], [-118.279412686554, 34.048227109452]]]}}, {"type": "Feature", "properties": {"zone_id": "0205PTNXPDM1SVHKUWIR69", "tract_id": "06037209820", "city": "LOS ANGELES, CA", "zone_code": "RD1.5-1", "zone_category": "Residential", "ev_permitted": false}, "geometry": {"type": "Polygon", "coordinates": [[[-118.279509415515, 34.0482707587928], [-118.279315340158, 34.048573880683], [-118.279412098394, 34.0486175420575], [-118.279606173496, 34.0483144182937], [-118.279509415515, 34.0482707587928]]]}}, {"type": "Feature", "properties": {"zone_id": "02049UBYQZKW6QRVVFVE1Z", "tract_id": "06037209820", "city": "LOS ANGELES, CA", "zone_code": "RD1.5-1", "zone_category": "Residential", "ev_permitted": false}, "geometry": {"type": "Polygon", "coordinates": [[[-118.279267580911, 34.0481616318895], [-118.279073504942, 34.0484647568243], [-118.279218610959, 34.0485302346209], [-118.279412686554, 34.048227109452], [-118.279267580911, 34.0481616318895]]]}}, {"type": "Feature", "properties": {"zone_id": "0203U028UF3PH66ALTCDSH", "tract_id": "06037209820", "city": "LOS ANGELES, CA", "zone_code": "RD1.5-1", "zone_category": "Residential", "ev_permitted": false}, "geometry": {"type": "Polygon", "coordinates": [[[-118.279122473432, 34.0480961541576], [-118.278928397084, 34.0483992771408], [-118.279073504942, 34.0484647568243], [-118.279267580911, 34.0481616318895], [-118.279122473432, 34.0480961541576]]]}}, {"type": "Feature", "properties": {"zone_id": "0202CYGNZZFI5JNL9O1Y0D", "tract_id": "06037209820", "city": "LOS ANGELES, CA", "zone_code": "RD1.5-1", "zone_category": "Residential", "ev_permitted": false}, "geometry": {"type": "Polygon", "coordinates": [[[-118.278977368243, 34.0480306762468], [-118.278783291521, 34.0483337989958], [-118.278928397084, 34.0483992771408], [-118.279122473432, 34.0480961541576], [-118.278977368243, 34.0480306762468]]]}}, {"type": "Feature", "properties": {"zone_id": "0200DGYW02GTK219M3RE3D", "tract_id": "06037209820", "city": "LOS ANGELES, CA", "zone_code": "RD1.5-1", "zone_category": "Residential", "ev_permitted": false}, "geometry": {"type": "Polygon", "coordinates": [[[-118.280149025586, 34.0474188844304], [-118.280095568907, 34.0475041374754], [-118.280217465246, 34.0475591693152], [-118.280209814382, 34.0475713326583], [-118.280585631483, 34.0477409997473], [-118.280646722056, 34.0476435642609], [-118.280149025586, 34.0474188844304]]]}}, {"type": "Feature", "properties": {"zone_id": "0202UUOZSOK9OQ1YZB9RHC", "tract_id": "06037209820", "city": "LOS ANGELES, CA", "zone_code": "RD1.5-1", "zone_category": "Residential", "ev_permitted": false}, "geometry": {"type": "Polygon", "coordinates": [[[-118.280095568907, 34.0475041374754], [-118.280065491351, 34.047552130105], [-118.280187362913, 34.0476071414239], [-118.280139560113, 34.0476833872454], [-118.280515375524, 34.0478530579936], [-118.280585631483, 34.0477409997473], [-118.280209814382, 34.0475713326583], [-118.280217465246, 34.0475591693152], [-118.280095568907, 34.0475041374754]]]}}, {"type": "Feature", "properties": {"zone_id": "0200NX3RW8HL79YECUX68Z", "tract_id": "06037209820", "city": "LOS ANGELES, CA", "zone_code": "RD1.5-1", "zone_category": "Residential", "ev_permitted": false}, "geometry": {"type": "Polygon", "coordinates": [[[-118.280072359398, 34.0477905709782], [-118.279996454921, 34.0479116395816], [-118.280372252515, 34.0480813159724], [-118.280448162775, 34.0479602419652], [-118.280072359398, 34.0477905709782]]]}}, {"type": "Feature", "properties": {"zone_id": "0204Y0NZBXPWPGJ33JZ49H", "tract_id": "06037209820", "city": "LOS ANGELES, CA", "zone_code": "RD1.5-1", "zone_category": "Residential", "ev_permitted": false}, "geometry": {"type": "Polygon", "coordinates": [[[-118.280139560113, 34.0476833872454], [-118.280072359398, 34.0477905709782], [-118.280448162775, 34.0479602419652], [-118.280515375524, 34.0478530579936], [-118.280139560113, 34.0476833872454]]]}}, {"type": "Feature", "properties": {"zone_id": "02047NFVZXM2V1J6B6GWRO", "tract_id": "06037209820", "city": "LOS ANGELES, CA", "zone_code": "RD1.5-1", "zone_category": "Residential", "ev_permitted": false}, "geometry": {"type": "Polygon", "coordinates": [[[-118.280446843979, 34.0469438281903], [-118.280370501826, 34.0470656537077], [-118.280868196755, 34.047290322317], [-118.280944563262, 34.0471685307741], [-118.280446843979, 34.0469438281903]]]}}, {"type": "Feature", "properties": {"zone_id": "0205F3Y396U9R122YKUF79", "tract_id": "06037209820", "city": "LOS ANGELES, CA", "zone_code": "RD1.5-1", "zone_category": "Residential", "ev_permitted": false}, "geometry": {"type": "Polygon", "coordinates": [[[-118.280370501826, 34.0470656537077], [-118.280301777073, 34.047175260949], [-118.280799544848, 34.0473999794797], [-118.280868196755, 34.047290322317], [-118.280370501826, 34.0470656537077]]]}}, {"type": "Feature", "properties": {"zone_id": "0202B86M337KX78J73ZZC8", "tract_id": "06037209820", "city": "LOS ANGELES, CA", "zone_code": "RD1.5-1", "zone_category": "Residential", "ev_permitted": false}, "geometry": {"type": "Polygon", "coordinates": [[[-118.280301777073, 34.047175260949], [-118.280233052232, 34.0472848956303], [-118.28073075436, 34.0475095871204], [-118.280799544848, 34.0473999794797], [-118.280301777073, 34.047175260949]]]}}, {"type": "Feature", "properties": {"zone_id": "02049LE6SY50EZXC36CWO5", "tract_id": "06037209820", "city": "LOS ANGELES, CA", "zone_code": "RD1.5-1", "zone_category": "Residential", "ev_permitted": false}, "geometry": {"type": "Polygon", "coordinates": [[[-118.280233052232, 34.0472848956303], [-118.280149025586, 34.0474188844304], [-118.280646722056, 34.0476435642609], [-118.28073075436, 34.0475095871204], [-118.280233052232, 34.0472848956303]]]}}, {"type": "Feature", "properties": {"zone_id": "02062NUITAO7WQSXAII7BT", "tract_id": "06037209820", "city": "LOS ANGELES, CA", "zone_code": "RD1.5-1", "zone_category": "Residential", "ev_permitted": false}, "geometry": {"type": "Polygon", "coordinates": [[[-118.279606781283, 34.0479239564493], [-118.279412686554, 34.048227109452], [-118.279557808959, 34.0482925953891], [-118.279751884734, 34.0479894387604], [-118.279606781283, 34.0479239564493]]]}}, {"type": "Feature", "properties": {"zone_id": "0205KCZKTS0I2ESWYKIO7J", "tract_id": "06037209820", "city": "LOS ANGELES, CA", "zone_code": "RD1.5-1", "zone_category": "Residential", "ev_permitted": false}, "geometry": {"type": "Polygon", "coordinates": [[[-118.280065491351, 34.047552130105], [-118.279874560363, 34.0478566332741], [-118.279996454921, 34.0479116395816], [-118.280187362913, 34.0476071414239], [-118.280065491351, 34.047552130105]]]}}, {"type": "Feature", "properties": {"zone_id": "02023AG8B99EHYHMPYWQM0", "tract_id": "06037209820", "city": "LOS ANGELES, CA", "zone_code": "RD1.5-1", "zone_category": "Residential", "ev_permitted": false}, "geometry": {"type": "Polygon", "coordinates": [[[-118.279590894372, 34.0475731794284], [-118.279514907459, 34.0476944248116], [-118.279839685256, 34.047840982537], [-118.279915653458, 34.0477197953834], [-118.279590894372, 34.0475731794284]]]}}, {"type": "Feature", "properties": {"zone_id": "0206L68YCMA267HA5TZ97E", "tract_id": "06037209820", "city": "LOS ANGELES, CA", "zone_code": "RD1.5-1", "zone_category": "Residential", "ev_permitted": false}, "geometry": {"type": "Polygon", "coordinates": [[[-118.279667271226, 34.0474513818028], [-118.279590894372, 34.0475731794284], [-118.279915653458, 34.0477197953834], [-118.279992029973, 34.0475979975515], [-118.279667271226, 34.0474513818028]]]}}, {"type": "Feature", "properties": {"zone_id": "0203DJ4NKZUB8IFWQW7ULF", "tract_id": "06037209820", "city": "LOS ANGELES, CA", "zone_code": "RD1.5-1", "zone_category": "Residential", "ev_permitted": false}, "geometry": {"type": "Polygon", "coordinates": [[[-118.27946167806, 34.0478584739641], [-118.279267580911, 34.0481616318895], [-118.279412686554, 34.048227109452], [-118.279606781283, 34.0479239564493], [-118.27946167806, 34.0478584739641]]]}}, {"type": "Feature", "properties": {"zone_id": "0204WFHYRAN2FAE9925RI3", "tract_id": "06037209820", "city": "LOS ANGELES, CA", "zone_code": "RD1.5-1", "zone_category": "Residential", "ev_permitted": false}, "geometry": {"type": "Polygon", "coordinates": [[[-118.279352851302, 34.0478093602672], [-118.279158749763, 34.0481125231788], [-118.279267580911, 34.0481616318895], [-118.27946167806, 34.0478584739641], [-118.279352851302, 34.0478093602672]]]}}, {"type": "Feature", "properties": {"zone_id": "02057QVVWUO27B9EUJRBFP", "tract_id": "06037209820", "city": "LOS ANGELES, CA", "zone_code": "RD1.5-1", "zone_category": "Residential", "ev_permitted": false}, "geometry": {"type": "Polygon", "coordinates": [[[-118.279244024677, 34.0477602481899], [-118.279049920812, 34.0480634160827], [-118.279158749763, 34.0481125231788], [-118.279352851302, 34.0478093602672], [-118.279244024677, 34.0477602481899]]]}}, {"type": "Feature", "properties": {"zone_id": "0201KY0YO5BQ22A20NWHCH", "tract_id": "06037209820", "city": "LOS ANGELES, CA", "zone_code": "RD1.5-1", "zone_category": "Residential", "ev_permitted": false}, "geometry": {"type": "Polygon", "coordinates": [[[-118.27913519818, 34.0477111360146], [-118.278941091983, 34.0480143071713], [-118.279049920812, 34.0480634160827], [-118.279244024677, 34.0477602481899], [-118.27913519818, 34.0477111360146]]]}}, {"type": "Feature", "properties": {"zone_id": "0205PBA9QCYJ1UNUBADTGN", "tract_id": "06037209820", "city": "LOS ANGELES, CA", "zone_code": "RD1.5-1", "zone_category": "Residential", "ev_permitted": false}, "geometry": {"type": "Polygon", "coordinates": [[[-118.279026371811, 34.0476620237413], [-118.278832263282, 34.0479651981619], [-118.278941091983, 34.0480143071713], [-118.27913519818, 34.0477111360146], [-118.279026371811, 34.0476620237413]]]}}, {"type": "Feature", "properties": {"zone_id": "0200N6JNZ65JPEYR0Z24Y7", "tract_id": "06037209820", "city": "LOS ANGELES, CA", "zone_code": "RD1.5-1", "zone_category": "Residential", "ev_permitted": false}, "geometry": {"type": "Polygon", "coordinates": [[[-118.27888126949, 34.047596538842], [-118.278687162633, 34.0478997078715], [-118.278832263282, 34.0479651981619], [-118.279026371811, 34.0476620237413], [-118.27888126949, 34.047596538842]]]}}, {"type": "Feature", "properties": {"zone_id": "0207C2A74LJMQZAWD88F6X", "tract_id": "06037209820", "city": "LOS ANGELES, CA", "zone_code": "RD1.5-1", "zone_category": "Residential", "ev_permitted": false}, "geometry": {"type": "Polygon", "coordinates": [[[-118.279820024267, 34.047207786409], [-118.279743647857, 34.0473295841297], [-118.280068406266, 34.047476199672], [-118.280144782337, 34.0473544017451], [-118.279820024267, 34.047207786409]]]}}, {"type": "Feature", "properties": {"zone_id": "0204Z5Q8WS9ABZMOD7SDOO", "tract_id": "06037209820", "city": "LOS ANGELES, CA", "zone_code": "RD1.5-1", "zone_category": "Residential", "ev_permitted": false}, "geometry": {"type": "Polygon", "coordinates": [[[-118.279743647857, 34.0473295841297], [-118.279667271226, 34.0474513818028], [-118.279992029973, 34.0475979975515], [-118.280068406266, 34.047476199672], [-118.279743647857, 34.0473295841297]]]}}, {"type": "Feature", "properties": {"zone_id": "0205552VDZR5BD2BSI00OK", "tract_id": "06037209820", "city": "LOS ANGELES, CA", "zone_code": "RD1.5-1", "zone_category": "Residential", "ev_permitted": false}, "geometry": {"type": "Polygon", "coordinates": [[[-118.279988044909, 34.0469398092885], [-118.279896400454, 34.0470859886407], [-118.280221158185, 34.0472326037705], [-118.280312802233, 34.0470864241708], [-118.279988044909, 34.0469398092885]]]}}, {"type": "Feature", "properties": {"zone_id": "020222GKIQV8FOUJFNMCUI", "tract_id": "06037209820", "city": "LOS ANGELES, CA", "zone_code": "RD1.5-1", "zone_category": "Residential", "ev_permitted": false}, "geometry": {"type": "Polygon", "coordinates": [[[-118.279896400454, 34.0470859886407], [-118.279820024267, 34.047207786409], [-118.280144782337, 34.0473544017451], [-118.280221158185, 34.0472326037705], [-118.279896400454, 34.0470859886407]]]}}, {"type": "Feature", "properties": {"zone_id": "0205GTL0QGW6F4BPII49M9", "tract_id": "06037209820", "city": "LOS ANGELES, CA", "zone_code": "RD1.5-1", "zone_category": "Residential", "ev_permitted": false}, "geometry": {"type": "Polygon", "coordinates": [[[-118.279424853762, 34.0468729940941], [-118.279348477083, 34.0469947915628], [-118.27967482123, 34.0471423662431], [-118.279751197661, 34.0470205960455], [-118.279424853762, 34.0468729940941]]]}}, {"type": "Feature", "properties": {"zone_id": "02038E073ABAN730EINJ3M", "tract_id": "06037209820", "city": "LOS ANGELES, CA", "zone_code": "RD1.5-1", "zone_category": "Residential", "ev_permitted": false}, "geometry": {"type": "Polygon", "coordinates": [[[-118.278953952494, 34.0470509083097], [-118.278762909776, 34.04735556625], [-118.279043001155, 34.0474819808857], [-118.279233878729, 34.0471775152315], [-118.278953952494, 34.0470509083097]]]}}, {"type": "Feature", "properties": {"zone_id": "0202S9EYYEDBFXZWP6X78X", "tract_id": "06037209820", "city": "LOS ANGELES, CA", "zone_code": "RD1.5-1", "zone_category": "Residential", "ev_permitted": false}, "geometry": {"type": "Polygon", "coordinates": [[[-118.279348034859, 34.0473072804506], [-118.279195378837, 34.0475507376271], [-118.279369510983, 34.0476293361853], [-118.279522067977, 34.0473859889309], [-118.279348034859, 34.0473072804506]]]}}, {"type": "Feature", "properties": {"zone_id": "0201NSUNB7251VVHP3ALY9", "tract_id": "06037209820", "city": "LOS ANGELES, CA", "zone_code": "HPOZ", "zone_category": "Other", "ev_permitted": false}, "geometry": {"type": "Polygon", "coordinates": [[[-118.279195690139, 34.0472384139123], [-118.279043001155, 34.0474819808857], [-118.279195378837, 34.0475507376271], [-118.279348034859, 34.0473072804506], [-118.279195690139, 34.0472384139123]]]}}, {"type": "Feature", "properties": {"zone_id": "02017KC1IXFT9RTNSYGBAX", "tract_id": "06037209820", "city": "LOS ANGELES, CA", "zone_code": "RD1.5-1", "zone_category": "Residential", "ev_permitted": false}, "geometry": {"type": "Polygon", "coordinates": [[[-118.279348477083, 34.0469947915628], [-118.279272100182, 34.047116588984], [-118.279598444853, 34.0472642188285], [-118.27967482123, 34.0471423662431], [-118.279348477083, 34.0469947915628]]]}}, {"type": "Feature", "properties": {"zone_id": "0206Y8U2ZAH9LNO3ELCB2E", "tract_id": "06037209820", "city": "LOS ANGELES, CA", "zone_code": "RD1.5-1", "zone_category": "Residential", "ev_permitted": false}, "geometry": {"type": "Polygon", "coordinates": [[[-118.279272100182, 34.047116588984], [-118.279195690139, 34.0472384139123], [-118.279522067977, 34.0473859889309], [-118.279598444853, 34.0472642188285], [-118.279272100182, 34.047116588984]]]}}, {"type": "Feature", "properties": {"zone_id": "0203EA1FPYQ3ZH4Q0CW5BW", "tract_id": "06037209820", "city": "LOS ANGELES, CA", "zone_code": "RD1.5-1", "zone_category": "Residential", "ev_permitted": false}, "geometry": {"type": "Polygon", "coordinates": [[[-118.280729456736, 34.0464931252264], [-118.280446843979, 34.0469438281903], [-118.280944563262, 34.0471685307741], [-118.28120424704, 34.0467543511491], [-118.281183632745, 34.0466981571053], [-118.280729456736, 34.0464931252264]]]}}, {"type": "Feature", "properties": {"zone_id": "02057TP742N56DV1MM4QSW", "tract_id": "06037209820", "city": "LOS ANGELES, CA", "zone_code": "RD1.5-1", "zone_category": "Residential", "ev_permitted": false}, "geometry": {"type": "Polygon", "coordinates": [[[-118.280140796082, 34.0466962134951], [-118.280064420607, 34.0468180114156], [-118.280389177592, 34.0469646260916], [-118.280465552637, 34.0468428004863], [-118.280140796082, 34.0466962134951]]]}}, {"type": "Feature", "properties": {"zone_id": "02065C2GIBGPBNIM1SBF1P", "tract_id": "06037209820", "city": "LOS ANGELES, CA", "zone_code": "RD1.5-1", "zone_category": "Residential", "ev_permitted": false}, "geometry": {"type": "Polygon", "coordinates": [[[-118.279592874906, 34.0466049900494], [-118.279516498716, 34.0467267876228], [-118.279842875309, 34.0468744167275], [-118.279919218147, 34.0467526190233], [-118.279592874906, 34.0466049900494]]]}}, {"type": "Feature", "properties": {"zone_id": "02021V6996D74MNGSP32R2", "tract_id": "06037209820", "city": "LOS ANGELES, CA", "zone_code": "RD1.5-1", "zone_category": "Residential", "ev_permitted": false}, "geometry": {"type": "Polygon", "coordinates": [[[-118.279745626619, 34.0463613947599], [-118.279669250874, 34.0464831924284], [-118.279995593775, 34.046630821195], [-118.280071969179, 34.0465090233192], [-118.279745626619, 34.0463613947599]]]}}, {"type": "Feature", "properties": {"zone_id": "0201ZZU2E9JPYV85028LPW", "tract_id": "06037209820", "city": "LOS ANGELES, CA", "zone_code": "RD1.5-1", "zone_category": "Residential", "ev_permitted": false}, "geometry": {"type": "Polygon", "coordinates": [[[-118.278864970497, 34.0466197530892], [-118.278674027106, 34.0469243007396], [-118.278819064478, 34.0469898873604], [-118.27901000749, 34.0466853394796], [-118.278864970497, 34.0466197530892]]]}}, {"type": "Feature", "properties": {"zone_id": "0206529GIZ193T53Z6BDFI", "tract_id": "06037209820", "city": "LOS ANGELES, CA", "zone_code": "RD1.5-1", "zone_category": "Residential", "ev_permitted": false}, "geometry": {"type": "Polygon", "coordinates": [[[-118.279430423485, 34.0462969450695], [-118.279239449878, 34.0466014936855], [-118.279371461254, 34.0466612018406], [-118.279562434516, 34.0463566530149], [-118.279430423485, 34.0462969450695]]]}}, {"type": "Feature", "properties": {"zone_id": "0201JI9XQI15VOUIMXQPJS", "tract_id": "06037209820", "city": "LOS ANGELES, CA", "zone_code": "CM-1", "zone_category": "Commercial", "ev_permitted": true}, "geometry": {"type": "Polygon", "coordinates": [[[-118.279621132813, 34.045992753988], [-118.279430423485, 34.0462969450695], [-118.279562434516, 34.0463566530149], [-118.279753143225, 34.0460523792885], [-118.279621132813, 34.045992753988]]]}}, {"type": "Feature", "properties": {"zone_id": "02013DDV5VNOR74F02QITI", "tract_id": "06037209820", "city": "LOS ANGELES, CA", "zone_code": "CM-1", "zone_category": "Commercial", "ev_permitted": true}, "geometry": {"type": "Polygon", "coordinates": [[[-118.279489089671, 34.0459331560982], [-118.279298412642, 34.0462372369799], [-118.279430423485, 34.0462969450695], [-118.279621132813, 34.045992753988], [-118.279489089671, 34.0459331560982]]]}}, {"type": "Feature", "properties": {"zone_id": "0201IE4ZAHMBF4IZC2JJ2U", "tract_id": "06037209820", "city": "LOS ANGELES, CA", "zone_code": "CM-1", "zone_category": "Commercial", "ev_permitted": true}, "geometry": {"type": "Polygon", "coordinates": [[[-118.279344020871, 34.0458676527976], [-118.27915340921, 34.0461716508611], [-118.279298412642, 34.0462372369799], [-118.279489089671, 34.0459331560982], [-118.279344020871, 34.0458676527976]]]}}, {"type": "Feature", "properties": {"zone_id": "02075PTUC5KUDYWSZSG2K2", "tract_id": "06037209820", "city": "LOS ANGELES, CA", "zone_code": "CM-1", "zone_category": "Commercial", "ev_permitted": true}, "geometry": {"type": "Polygon", "coordinates": [[[-118.279198919287, 34.0458021493992], [-118.279008372811, 34.0461060096877], [-118.27915340921, 34.0461716508611], [-118.279344020871, 34.0458676527976], [-118.279198919287, 34.0458021493992]]]}}, {"type": "Feature", "properties": {"zone_id": "0205HJZUY0NZOEHN3JXGYT", "tract_id": "06037209820", "city": "LOS ANGELES, CA", "zone_code": "CM-1", "zone_category": "Commercial", "ev_permitted": true}, "geometry": {"type": "Polygon", "coordinates": [[[-118.279053850941, 34.0457366457503], [-118.278863336914, 34.0460404507757], [-118.279008372811, 34.0461060096877], [-118.279198919287, 34.0458021493992], [-118.279053850941, 34.0457366457503]]]}}, {"type": "Feature", "properties": {"zone_id": "0207B1KWCQS2GEXLLN600I", "tract_id": "06037209820", "city": "LOS ANGELES, CA", "zone_code": "CM-1", "zone_category": "Commercial", "ev_permitted": true}, "geometry": {"type": "Polygon", "coordinates": [[[-118.278908749812, 34.0456711420037], [-118.278718301062, 34.0459748367328], [-118.278863336914, 34.0460404507757], [-118.279053850941, 34.0457366457503], [-118.278908749812, 34.0456711420037]]]}}, {"type": "Feature", "properties": {"zone_id": "020246G84PTDI3ASMIUPS2", "tract_id": "06037209820", "city": "LOS ANGELES, CA", "zone_code": "RD1.5-1", "zone_category": "Residential", "ev_permitted": false}, "geometry": {"type": "Polygon", "coordinates": [[[-118.277704781399, 34.0460949455607], [-118.277513834983, 34.0463994913687], [-118.277658837525, 34.0464650794571], [-118.277849816665, 34.0461605608214], [-118.277704781399, 34.0460949455607]]]}}, {"type": "Feature", "properties": {"zone_id": "020706LVDQLF8YN8P8RSZQ", "tract_id": "06037209820", "city": "LOS ANGELES, CA", "zone_code": "RD1.5-1", "zone_category": "Residential", "ev_permitted": false}, "geometry": {"type": "Polygon", "coordinates": [[[-118.277559746361, 34.0460293301261], [-118.277368799657, 34.0463339031822], [-118.277513834983, 34.0463994913687], [-118.277704781399, 34.0460949455607], [-118.277559746361, 34.0460293301261]]]}}, {"type": "Feature", "properties": {"zone_id": "0202X643HT9BFA11WORYO6", "tract_id": "06037209820", "city": "LOS ANGELES, CA", "zone_code": "RD1.5-1", "zone_category": "Residential", "ev_permitted": false}, "geometry": {"type": "Polygon", "coordinates": [[[-118.277078762608, 34.0462026987329], [-118.276886762697, 34.046508867206], [-118.277031863605, 34.0465743459066], [-118.277223764468, 34.0462682873432], [-118.277078762608, 34.0462026987329]]]}}, {"type": "Feature", "properties": {"zone_id": "0205EN602CMUZDJ4HJP86L", "tract_id": "06037209820", "city": "LOS ANGELES, CA", "zone_code": "RD1.5-1", "zone_category": "Residential", "ev_permitted": false}, "geometry": {"type": "Polygon", "coordinates": [[[-118.276788693458, 34.0460714936637], [-118.276596561471, 34.0463778818039], [-118.276741661925, 34.0464433608528], [-118.276933727874, 34.0461370825461], [-118.276788693458, 34.0460714936637]]]}}, {"type": "Feature", "properties": {"zone_id": "02074IMJ3GNX0H67G6TBXI", "tract_id": "06037209820", "city": "LOS ANGELES, CA", "zone_code": "RD1.5-1", "zone_category": "Residential", "ev_permitted": false}, "geometry": {"type": "Polygon", "coordinates": [[[-118.276643692189, 34.0460058770531], [-118.276451494255, 34.0463124025053], [-118.276596561471, 34.0463778818039], [-118.276788693458, 34.0460714936637], [-118.276643692189, 34.0460058770531]]]}}, {"type": "Feature", "properties": {"zone_id": "0205FNRKBGIZ92YHNL2SY9", "tract_id": "06037209820", "city": "LOS ANGELES, CA", "zone_code": "RD1.5-1", "zone_category": "Residential", "ev_permitted": false}, "geometry": {"type": "Polygon", "coordinates": [[[-118.276285722076, 34.0459847136563], [-118.276160368652, 34.0461809785163], [-118.276306394256, 34.0462469231082], [-118.276429896408, 34.0460499204084], [-118.276285722076, 34.0459847136563]]]}}, {"type": "Feature", "properties": {"zone_id": "0202CVQLAROVKWV1JSM8IT", "tract_id": "06037209820", "city": "LOS ANGELES, CA", "zone_code": "C1-1", "zone_category": "Commercial", "ev_permitted": true}, "geometry": {"type": "Polygon", "coordinates": [[[-118.275978922083, 34.0476360610206], [-118.275789130174, 34.0479332921278], [-118.275934068272, 34.0479989648786], [-118.276123892827, 34.0477017334672], [-118.275978922083, 34.0476360610206]]]}}, {"type": "Feature", "properties": {"zone_id": "0207BO8H46T5W20D3QA7FB", "tract_id": "06037209820", "city": "LOS ANGELES, CA", "zone_code": "C1-1", "zone_category": "Commercial", "ev_permitted": true}, "geometry": {"type": "Polygon", "coordinates": [[[-118.275833951477, 34.0475703609217], [-118.275644126282, 34.0478676193539], [-118.275789130174, 34.0479332921278], [-118.275978922083, 34.0476360610206], [-118.275833951477, 34.0475703609217]]]}}, {"type": "Feature", "properties": {"zone_id": "020118HRN0RRQ09KF9EV84", "tract_id": "06037209820", "city": "LOS ANGELES, CA", "zone_code": "C1-1", "zone_category": "Commercial", "ev_permitted": true}, "geometry": {"type": "Polygon", "coordinates": [[[-118.275543978118, 34.0474390152348], [-118.275354185111, 34.0477362456554], [-118.275499155628, 34.0478019463308], [-118.275688981189, 34.0475046881275], [-118.275543978118, 34.0474390152348]]]}}, {"type": "Feature", "properties": {"zone_id": "0202BVPLPKZI7FZYEZXAUS", "tract_id": "06037209820", "city": "LOS ANGELES, CA", "zone_code": "C1-1", "zone_category": "Commercial", "ev_permitted": true}, "geometry": {"type": "Polygon", "coordinates": [[[-118.275399008285, 34.0473733420928], [-118.275374377045, 34.0474119508881], [-118.275258122265, 34.0476358376442], [-118.275254637174, 34.0476443833423], [-118.275252884838, 34.0476532861137], [-118.275252912394, 34.0476623064751], [-118.275254719101, 34.0476712017804], [-118.275258256358, 34.0476797327472], [-118.275263429015, 34.047687669894], [-118.275270097927, 34.047694799713], [-118.275278083702, 34.0477009304135], [-118.275287171523, 34.0477058970807], [-118.275354185111, 34.0477362456554], [-118.275543978118, 34.0474390152348], [-118.275399008285, 34.0473733420928]]]}}, {"type": "Feature", "properties": {"zone_id": "0202S5LNG0HN50GQIAYVCP", "tract_id": "06037209820", "city": "LOS ANGELES, CA", "zone_code": "C1-1", "zone_category": "Commercial", "ev_permitted": true}, "geometry": {"type": "Polygon", "coordinates": [[[-118.275688981189, 34.0475046881275], [-118.275499155628, 34.0478019463308], [-118.275644126282, 34.0478676193539], [-118.275833951477, 34.0475703609217], [-118.275688981189, 34.0475046881275]]]}}, {"type": "Feature", "properties": {"zone_id": "0202N7A8YS87FK9M3HS9ZS", "tract_id": "06037209820", "city": "LOS ANGELES, CA", "zone_code": "RD1.5-1", "zone_category": "Residential", "ev_permitted": false}, "geometry": {"type": "Polygon", "coordinates": [[[-118.27558883314, 34.0470760565748], [-118.275399008285, 34.0473733420928], [-118.275543978118, 34.0474390152348], [-118.275733835617, 34.0471417294124], [-118.27558883314, 34.0470760565748]]]}}, {"type": "Feature", "properties": {"zone_id": "0207BCH6JRR9OXQ0L7EDI0", "tract_id": "06037209820", "city": "LOS ANGELES, CA", "zone_code": "RD1.5-1", "zone_category": "Residential", "ev_permitted": false}, "geometry": {"type": "Polygon", "coordinates": [[[-118.276020474689, 34.0466928419258], [-118.275826776815, 34.0469961548054], [-118.27597174633, 34.0470618274325], [-118.276165476841, 34.046758514244], [-118.276020474689, 34.0466928419258]]]}}, {"type": "Feature", "properties": {"zone_id": "0200DF626U91SX0Q2RD76W", "tract_id": "06037209820", "city": "LOS ANGELES, CA", "zone_code": "RD1.5-1", "zone_category": "Residential", "ev_permitted": false}, "geometry": {"type": "Polygon", "coordinates": [[[-118.275748475669, 34.0468261030575], [-118.275681807527, 34.0469304820044], [-118.275826776815, 34.0469961548054], [-118.275893411998, 34.0468918308105], [-118.275748475669, 34.0468261030575]]]}}, {"type": "Feature", "properties": {"zone_id": "0204HQF2H7FGGL1W2X6XVQ", "tract_id": "06037209820", "city": "LOS ANGELES, CA", "zone_code": "RD1.5-1", "zone_category": "Residential", "ev_permitted": false}, "geometry": {"type": "Polygon", "coordinates": [[[-118.275875505775, 34.0466271693584], [-118.275811957832, 34.046726650039], [-118.275956926868, 34.0467923226831], [-118.276020474689, 34.0466928419258], [-118.275875505775, 34.0466271693584]]]}}, {"type": "Feature", "properties": {"zone_id": "02052RYNH1LGGGFDDKK4D6", "tract_id": "06037209820", "city": "LOS ANGELES, CA", "zone_code": "RD1.5-1", "zone_category": "Residential", "ev_permitted": false}, "geometry": {"type": "Polygon", "coordinates": [[[-118.275811957832, 34.046726650039], [-118.275748475669, 34.0468261030575], [-118.275893411998, 34.0468918308105], [-118.275956926868, 34.0467923226831], [-118.275811957832, 34.046726650039]]]}}, {"type": "Feature", "properties": {"zone_id": "02073JE5W5GWN853Y9TD6H", "tract_id": "06037209820", "city": "LOS ANGELES, CA", "zone_code": "RD1.5-1", "zone_category": "Residential", "ev_permitted": false}, "geometry": {"type": "Polygon", "coordinates": [[[-118.27606907112, 34.0463240215791], [-118.275875505775, 34.0466271693584], [-118.276020474689, 34.0466928419258], [-118.27621407258, 34.0463896663591], [-118.27606907112, 34.0463240215791]]]}}, {"type": "Feature", "properties": {"zone_id": "02047G5XUQJDYU6PGDY4CM", "tract_id": "06037209820", "city": "LOS ANGELES, CA", "zone_code": "CM-1", "zone_category": "Commercial", "ev_permitted": true}, "geometry": {"type": "Polygon", "coordinates": [[[-118.278763678893, 34.045604729499], [-118.278573298538, 34.0459092499182], [-118.278718301062, 34.0459748367328], [-118.278908749812, 34.0456711420037], [-118.278763678893, 34.045604729499]]]}}, {"type": "Feature", "properties": {"zone_id": "0205G62YJ8NV377G8CH1BU", "tract_id": "06037209820", "city": "LOS ANGELES, CA", "zone_code": "CM-1", "zone_category": "Commercial", "ev_permitted": true}, "geometry": {"type": "Polygon", "coordinates": [[[-118.278604133873, 34.0455335723566], [-118.278413782812, 34.0458371015039], [-118.278573298538, 34.0459092499182], [-118.278763678893, 34.045604729499], [-118.278761731393, 34.045604763191], [-118.278604133873, 34.0455335723566]]]}}, {"type": "Feature", "properties": {"zone_id": "0201MR7L78I3KNZYTTCLBF", "tract_id": "06037209820", "city": "LOS ANGELES, CA", "zone_code": "CM-1", "zone_category": "Commercial", "ev_permitted": true}, "geometry": {"type": "Polygon", "coordinates": [[[-118.278334099177, 34.045411475187], [-118.278138226221, 34.0457124611046], [-118.278283228062, 34.0457780484409], [-118.278473480798, 34.0454746296427], [-118.278334099177, 34.045411475187]]]}}, {"type": "Feature", "properties": {"zone_id": "0206U20L9GDIJ8XMRQFP07", "tract_id": "06037209820", "city": "LOS ANGELES, CA", "zone_code": "CM-1", "zone_category": "Commercial", "ev_permitted": true}, "geometry": {"type": "Polygon", "coordinates": [[[-118.278473480798, 34.0454746296427], [-118.278283228062, 34.0457780484409], [-118.278413782812, 34.0458371015039], [-118.278604133873, 34.0455335723566], [-118.278473480798, 34.0454746296427]]]}}, {"type": "Feature", "properties": {"zone_id": "0206OLVPDYYHHBT98F3API", "tract_id": "06037209820", "city": "LOS ANGELES, CA", "zone_code": "CM-1", "zone_category": "Commercial", "ev_permitted": true}, "geometry": {"type": "Polygon", "coordinates": [[[-118.278189032185, 34.0453459705005], [-118.277993191506, 34.0456468461918], [-118.278138226221, 34.0457124611046], [-118.278334099177, 34.045411475187], [-118.278189032185, 34.0453459705005]]]}}, {"type": "Feature", "properties": {"zone_id": "0203CZ8VMBJMNCSEU754OO", "tract_id": "06037209820", "city": "LOS ANGELES, CA", "zone_code": "RD1.5-1", "zone_category": "Residential", "ev_permitted": false}, "geometry": {"type": "Polygon", "coordinates": [[[-118.277753766461, 34.0451494280699], [-118.277558121917, 34.0454500552906], [-118.277367176439, 34.0457546008568], [-118.27751217784, 34.0458202165977], [-118.277703155859, 34.0455156432468], [-118.277898832863, 34.0452149607572], [-118.277753766461, 34.0451494280699]]]}}, {"type": "Feature", "properties": {"zone_id": "0203JZ3CHJ4WH25HRW1CB8", "tract_id": "06037209820", "city": "LOS ANGELES, CA", "zone_code": "RD1.5-1", "zone_category": "Residential", "ev_permitted": false}, "geometry": {"type": "Polygon", "coordinates": [[[-118.277848157109, 34.0455812585835], [-118.277657212296, 34.0458857771318], [-118.277802247162, 34.045951392449], [-118.277993191506, 34.0456468461918], [-118.277848157109, 34.0455812585835]]]}}, {"type": "Feature", "properties": {"zone_id": "0201XHG81VC5NITBDXO2HJ", "tract_id": "06037209820", "city": "LOS ANGELES, CA", "zone_code": "RD1.5-1", "zone_category": "Residential", "ev_permitted": false}, "geometry": {"type": "Polygon", "coordinates": [[[-118.277993191506, 34.0456468461918], [-118.277802247162, 34.045951392449], [-118.277947249154, 34.0460169801895], [-118.278138226221, 34.0457124611046], [-118.277993191506, 34.0456468461918]]]}}, {"type": "Feature", "properties": {"zone_id": "02016TLI0GI76WDUCS1VTW", "tract_id": "06037209820", "city": "LOS ANGELES, CA", "zone_code": "RD1.5-1", "zone_category": "Residential", "ev_permitted": false}, "geometry": {"type": "Polygon", "coordinates": [[[-118.277703155859, 34.0455156432468], [-118.27751217784, 34.0458202165977], [-118.277657212296, 34.0458857771318], [-118.277848157109, 34.0455812585835], [-118.277703155859, 34.0455156432468]]]}}, {"type": "Feature", "properties": {"zone_id": "0206A7YEY1A0WL7V6IULX1", "tract_id": "06037209820", "city": "LOS ANGELES, CA", "zone_code": "CM-1", "zone_category": "Commercial", "ev_permitted": true}, "geometry": {"type": "Polygon", "coordinates": [[[-118.277898832863, 34.0452149607572], [-118.277703155859, 34.0455156432468], [-118.277848157109, 34.0455812585835], [-118.27804393241, 34.0452804657159], [-118.277898832863, 34.0452149607572]]]}}, {"type": "Feature", "properties": {"zone_id": "0207OD0OOHUDCWUQQ70I1F", "tract_id": "06037209820", "city": "LOS ANGELES, CA", "zone_code": "CM-1", "zone_category": "Commercial", "ev_permitted": true}, "geometry": {"type": "Polygon", "coordinates": [[[-118.27804393241, 34.0452804657159], [-118.277848157109, 34.0455812585835], [-118.277993191506, 34.0456468461918], [-118.278189032185, 34.0453459705005], [-118.27804393241, 34.0452804657159]]]}}, {"type": "Feature", "properties": {"zone_id": "02045XNNZIJZGQDXDM9Y8X", "tract_id": "06037209820", "city": "LOS ANGELES, CA", "zone_code": "CM-1", "zone_category": "Commercial", "ev_permitted": true}, "geometry": {"type": "Polygon", "coordinates": [[[-118.277463601786, 34.0450184996415], [-118.27727099634, 34.0453199987286], [-118.277558121917, 34.0454500552906], [-118.277753766461, 34.0451494280699], [-118.277463601786, 34.0450184996415]]]}}, {"type": "Feature", "properties": {"zone_id": "02004YV0GOB42TSBO6E3TF", "tract_id": "06037209820", "city": "LOS ANGELES, CA", "zone_code": "RD1.5-1", "zone_category": "Residential", "ev_permitted": false}, "geometry": {"type": "Polygon", "coordinates": [[[-118.277416029923, 34.0453856145077], [-118.277222307033, 34.0456889022034], [-118.277367176439, 34.0457546008568], [-118.277558121917, 34.0454500552906], [-118.277416029923, 34.0453856145077]]]}}, {"type": "Feature", "properties": {"zone_id": "0206RAR72WYGJCO13OVWOF", "tract_id": "06037209820", "city": "LOS ANGELES, CA", "zone_code": "R3-1", "zone_category": "Residential", "ev_permitted": false}, "geometry": {"type": "Polygon", "coordinates": [[[-118.27727099634, 34.0453199987286], [-118.277077306178, 34.0456233135933], [-118.277222307033, 34.0456889022034], [-118.277416029923, 34.0453856145077], [-118.27727099634, 34.0453199987286]]]}}, {"type": "Feature", "properties": {"zone_id": "0203KP922630R4DH6H5OKY", "tract_id": "06037209820", "city": "LOS ANGELES, CA", "zone_code": "R3-1", "zone_category": "Residential", "ev_permitted": false}, "geometry": {"type": "Polygon", "coordinates": [[[-118.277050315338, 34.0448435865946], [-118.277029428567, 34.0448505488432], [-118.27696148761, 34.0449571279925], [-118.276925029504, 34.0450349042061], [-118.276899746912, 34.0450857428278], [-118.276846008772, 34.0451862457458], [-118.276788105879, 34.0452851369431], [-118.276710442145, 34.0454077600393], [-118.276729086696, 34.045465752335], [-118.277077306178, 34.0456233135933], [-118.277457789011, 34.0450275534913], [-118.277050315338, 34.0448435865946]]]}}, {"type": "Feature", "properties": {"zone_id": "0201DZ3R964VC5SSNYE91X", "tract_id": "06037209820", "city": "LOS ANGELES, CA", "zone_code": "RD1.5-1", "zone_category": "Residential", "ev_permitted": false}, "geometry": {"type": "Polygon", "coordinates": [[[-118.279279783016, 34.0468073807992], [-118.279088840707, 34.0471119291084], [-118.279233878729, 34.0471775152315], [-118.279424853762, 34.0468729940941], [-118.279279783016, 34.0468073807992]]]}}, {"type": "Feature", "properties": {"zone_id": "0203LQGIAFMYLYDLG7HXPT", "tract_id": "06037209820", "city": "LOS ANGELES, CA", "zone_code": "RD1.5-1", "zone_category": "Residential", "ev_permitted": false}, "geometry": {"type": "Polygon", "coordinates": [[[-118.280217171244, 34.0465743880486], [-118.280140796082, 34.0466962134951], [-118.280465552637, 34.0468428004863], [-118.28054189454, 34.0467210023886], [-118.280217171244, 34.0465743880486]]]}}, {"type": "Feature", "properties": {"zone_id": "020651T6U54TQW2LI8DYST", "tract_id": "06037209820", "city": "LOS ANGELES, CA", "zone_code": "RD1.5-1", "zone_category": "Residential", "ev_permitted": false}, "geometry": {"type": "Polygon", "coordinates": [[[-118.280064420607, 34.0468180114156], [-118.279988044909, 34.0469398092885], [-118.280312802233, 34.0470864241708], [-118.280389177592, 34.0469646260916], [-118.280064420607, 34.0468180114156]]]}}, {"type": "Feature", "properties": {"zone_id": "0207N76L1D7290KIKMFOVI", "tract_id": "06037209820", "city": "LOS ANGELES, CA", "zone_code": "C2-1", "zone_category": "Commercial", "ev_permitted": true}, "geometry": {"type": "Polygon", "coordinates": [[[-118.280369888072, 34.0463307920463], [-118.280293513264, 34.0464525901095], [-118.280618302427, 34.046599259047], [-118.280694643702, 34.0464774058972], [-118.280369888072, 34.0463307920463]]]}}, {"type": "Feature", "properties": {"zone_id": "0200FJPEVEDWS1PAI924F6", "tract_id": "06037209820", "city": "LOS ANGELES, CA", "zone_code": "RD1.5-1", "zone_category": "Residential", "ev_permitted": false}, "geometry": {"type": "Polygon", "coordinates": [[[-118.280293513264, 34.0464525901095], [-118.280217171244, 34.0465743880486], [-118.28054189454, 34.0467210023886], [-118.280618302427, 34.046599259047], [-118.280293513264, 34.0464525901095]]]}}, {"type": "Feature", "properties": {"zone_id": "0203P0VY68X2L37KM6T8BG", "tract_id": "06037209820", "city": "LOS ANGELES, CA", "zone_code": "RD1.5-1", "zone_category": "Residential", "ev_permitted": false}, "geometry": {"type": "Polygon", "coordinates": [[[-118.279669250874, 34.0464831924284], [-118.279592874906, 34.0466049900494], [-118.279919218147, 34.0467526190233], [-118.279995593775, 34.046630821195], [-118.279669250874, 34.0464831924284]]]}}, {"type": "Feature", "properties": {"zone_id": "0207D0P6EHKSI2GOLFOTK4", "tract_id": "06037209820", "city": "LOS ANGELES, CA", "zone_code": "RD1.5-1", "zone_category": "Residential", "ev_permitted": false}, "geometry": {"type": "Polygon", "coordinates": [[[-118.279562434516, 34.0463566530149], [-118.279371461254, 34.0466612018406], [-118.279516498716, 34.0467267876228], [-118.279707471693, 34.0464222660451], [-118.279562434516, 34.0463566530149]]]}}, {"type": "Feature", "properties": {"zone_id": "0204L85HYBATCRPTEADQBO", "tract_id": "06037209820", "city": "LOS ANGELES, CA", "zone_code": "RD1.5-1", "zone_category": "Residential", "ev_permitted": false}, "geometry": {"type": "Polygon", "coordinates": [[[-118.279144895155, 34.0467463602146], [-118.278953952494, 34.0470509083097], [-118.279088840707, 34.0471119291084], [-118.279279783016, 34.0468073807992], [-118.279144895155, 34.0467463602146]]]}}, {"type": "Feature", "properties": {"zone_id": "0203JYR3Z8YPKWNSLX9PCE", "tract_id": "06037209820", "city": "LOS ANGELES, CA", "zone_code": "RD1.5-1", "zone_category": "Residential", "ev_permitted": false}, "geometry": {"type": "Polygon", "coordinates": [[[-118.27901000749, 34.0466853394796], [-118.278819064478, 34.0469898873604], [-118.278953952494, 34.0470509083097], [-118.279144895155, 34.0467463602146], [-118.27901000749, 34.0466853394796]]]}}, {"type": "Feature", "properties": {"zone_id": "02062Q7DKKLC8A2JZNCR39", "tract_id": "06037209820", "city": "LOS ANGELES, CA", "zone_code": "RD1.5-1", "zone_category": "Residential", "ev_permitted": false}, "geometry": {"type": "Polygon", "coordinates": [[[-118.279298412642, 34.0462372369799], [-118.279107471702, 34.04654178531], [-118.279239449878, 34.0466014936855], [-118.279430423485, 34.0462969450695], [-118.279298412642, 34.0462372369799]]]}}, {"type": "Feature", "properties": {"zone_id": "0202E7JXRDWY47LKH338LA", "tract_id": "06037209820", "city": "LOS ANGELES, CA", "zone_code": "CM-1", "zone_category": "Commercial", "ev_permitted": true}, "geometry": {"type": "Polygon", "coordinates": [[[-118.279898311697, 34.0461178818687], [-118.279822002141, 34.0462395970438], [-118.280148344362, 34.0463872253958], [-118.280224784882, 34.0462652898792], [-118.279898311697, 34.0461178818687]]]}}, {"type": "Feature", "properties": {"zone_id": "0202FBR5Y23QN4OTUPX0CB", "tract_id": "06037209820", "city": "LOS ANGELES, CA", "zone_code": "RD1.5-1", "zone_category": "Residential", "ev_permitted": false}, "geometry": {"type": "Polygon", "coordinates": [[[-118.279822002141, 34.0462395970438], [-118.279745626619, 34.0463613947599], [-118.280071969179, 34.0465090233192], [-118.280148344362, 34.0463872253958], [-118.279822002141, 34.0462395970438]]]}}, {"type": "Feature", "properties": {"zone_id": "0203D8APH9ACVS1VBBH8VJ", "tract_id": "06037209820", "city": "LOS ANGELES, CA", "zone_code": "RD1.5-1", "zone_category": "Residential", "ev_permitted": false}, "geometry": {"type": "Polygon", "coordinates": [[[-118.279753143225, 34.0460523792885], [-118.279562434516, 34.0463566530149], [-118.279707471693, 34.0464222660451], [-118.279898311697, 34.0461178818687], [-118.279753143225, 34.0460523792885]]]}}, {"type": "Feature", "properties": {"zone_id": "0202IOU1XQP20HLMEAJFBC", "tract_id": "06037209820", "city": "LOS ANGELES, CA", "zone_code": "RD1.5-1", "zone_category": "Residential", "ev_permitted": false}, "geometry": {"type": "Polygon", "coordinates": [[[-118.279167889654, 34.046178184796], [-118.278976915363, 34.0464827329951], [-118.279107471702, 34.04654178531], [-118.279298412642, 34.0462372369799], [-118.279167889654, 34.046178184796]]]}}, {"type": "Feature", "properties": {"zone_id": "0201834UDIAGW8OIVTPBGM", "tract_id": "06037209820", "city": "LOS ANGELES, CA", "zone_code": "RD1.5-1", "zone_category": "Residential", "ev_permitted": false}, "geometry": {"type": "Polygon", "coordinates": [[[-118.279066394, 34.0461322826498], [-118.278875419352, 34.0464368032091], [-118.278976915363, 34.0464827329951], [-118.279167889654, 34.046178184796], [-118.279066394, 34.0461322826498]]]}}, {"type": "Feature", "properties": {"zone_id": "0201WHNVYWBKSO2GPGO64D", "tract_id": "06037209820", "city": "LOS ANGELES, CA", "zone_code": "RD1.5-1", "zone_category": "Residential", "ev_permitted": false}, "geometry": {"type": "Polygon", "coordinates": [[[-118.278964865447, 34.0460863804946], [-118.278773923637, 34.046390928295], [-118.278875419352, 34.0464368032091], [-118.279066394, 34.0461322826498], [-118.278964865447, 34.0460863804946]]]}}, {"type": "Feature", "properties": {"zone_id": "0200IRROJRA1E0BRBNKSO2", "tract_id": "06037209820", "city": "LOS ANGELES, CA", "zone_code": "RD1.5-1", "zone_category": "Residential", "ev_permitted": false}, "geometry": {"type": "Polygon", "coordinates": [[[-118.278863336914, 34.0460404507757], [-118.278672394839, 34.0463449984148], [-118.278773923637, 34.046390928295], [-118.278964865447, 34.0460863804946], [-118.278863336914, 34.0460404507757]]]}}]}