{"type": "FeatureCollection", "features": [{"type": "Feature", "properties": {"zone_id": "02007XM6HL20VPNN5O3WYR", "tract_id": "06037206302", "city": "LOS ANGELES, CA", "zone_code": "[MB2-G1-5] [CX2-FA]", "zone_category": "Other", "ev_permitted": false}, "geometry": {"type": "Polygon", "coordinates": [[[-118.244766817609, 34.0439183912787], [-118.244506211141, 34.0443267852833], [-118.244659366983, 34.0443798661409], [-118.244914682546, 34.0439797536172], [-118.244766817609, 34.0439183912787]]]}}, {"type": "Feature", "properties": {"zone_id": "0200TPMOGXO76U27D1FWCE", "tract_id": "06037206302", "city": "LOS ANGELES, CA", "zone_code": "[MB2-G1-5] [CX2-FA]", "zone_category": "Other", "ev_permitted": false}, "geometry": {"type": "Polygon", "coordinates": [[[-118.244914682546, 34.0439797536172], [-118.244659366983, 34.0443798661409], [-118.24481235773, 34.0444328647034], [-118.244968997195, 34.0441873822548], [-118.245116960577, 34.0442483319678], [-118.245210115583, 34.0441023409621], [-118.244914682546, 34.0439797536172]]]}}, {"type": "Feature", "properties": {"zone_id": "0202WGJ68OO560OKX2QGMO", "tract_id": "06037206302", "city": "LOS ANGELES, CA", "zone_code": "CPIO", "zone_category": "Other", "ev_permitted": false}, "geometry": {"type": "Polygon", "coordinates": [[[-118.24493377242, 34.0442426308979], [-118.24481235773, 34.0444328647034], [-118.244965348751, 34.0444858905507], [-118.245081505693, 34.0443038833868], [-118.24493377242, 34.0442426308979]]]}}, {"type": "Feature", "properties": {"zone_id": "0200KNO1SN89M9QGCYAMQW", "tract_id": "06037206302", "city": "LOS ANGELES, CA", "zone_code": "CPIO", "zone_category": "Other", "ev_permitted": false}, "geometry": {"type": "Polygon", "coordinates": [[[-118.244968997195, 34.0441873822548], [-118.24493377242, 34.0442426308979], [-118.245081505693, 34.0443038833868], [-118.245116960577, 34.0442483319678], [-118.244968997195, 34.0441873822548]]]}}, {"type": "Feature", "properties": {"zone_id": "02063ZR7VL4K3HNUN3SLQA", "tract_id": "06037206302", "city": "LOS ANGELES, CA", "zone_code": "[MB2-G1-5] [CX2-FA]", "zone_category": "Other", "ev_permitted": false}, "geometry": {"type": "Polygon", "coordinates": [[[-118.245042825602, 34.0435737434736], [-118.244984895518, 34.0436645131786], [-118.245375493651, 34.0438431558588], [-118.245430597521, 34.0437567882981], [-118.245042825602, 34.0435737434736]]]}}, {"type": "Feature", "properties": {"zone_id": "0200IWR19KLFW1IZXM2W2A", "tract_id": "06037206302", "city": "LOS ANGELES, CA", "zone_code": "CPIO", "zone_category": "Other", "ev_permitted": false}, "geometry": {"type": "Polygon", "coordinates": [[[-118.245100821177, 34.0434828362147], [-118.245042825602, 34.0435737434736], [-118.245430597521, 34.0437567882981], [-118.245485767215, 34.0436703930998], [-118.245100821177, 34.0434828362147]]]}}, {"type": "Feature", "properties": {"zone_id": "020488GZ3FSYZZPV5V44OS", "tract_id": "06037206302", "city": "LOS ANGELES, CA", "zone_code": "[MB2-G1-5] [CX2-FA]", "zone_category": "Other", "ev_permitted": false}, "geometry": {"type": "Polygon", "coordinates": [[[-118.244984895518, 34.0436645131786], [-118.244860426135, 34.0438596169523], [-118.245256577994, 34.044029538017], [-118.245375493651, 34.0438431558588], [-118.244984895518, 34.0436645131786]]]}}, {"type": "Feature", "properties": {"zone_id": "0201K67OO2C09DWYYCBW3L", "tract_id": "06037206302", "city": "LOS ANGELES, CA", "zone_code": "[MB2-G1-5] [CX2-FA]", "zone_category": "Other", "ev_permitted": false}, "geometry": {"type": "Polygon", "coordinates": [[[-118.244549303824, 34.0435299331253], [-118.244417378889, 34.0437254843275], [-118.244835157473, 34.0438991825295], [-118.244945623037, 34.0437260592187], [-118.244549303824, 34.0435299331253]]]}}, {"type": "Feature", "properties": {"zone_id": "0202XFRIU5AMLY6FE9N12R", "tract_id": "06037206302", "city": "LOS ANGELES, CA", "zone_code": "[MB2-G1-5] [CX2-FA]", "zone_category": "Other", "ev_permitted": false}, "geometry": {"type": "Polygon", "coordinates": [[[-118.244417378889, 34.0437254843275], [-118.244166201814, 34.0440978253707], [-118.244161584452, 34.0441062511009], [-118.244158735129, 34.0441151985501], [-118.244157734318, 34.0441244150188], [-118.244158610282, 34.0441336402099], [-118.244161338284, 34.0441426135802], [-118.244165841277, 34.0441510816983], [-118.244171992085, 34.0441588054027], [-118.244179616993, 34.0441655665562], [-118.244188500654, 34.0441711742065], [-118.24419839217, 34.044175469979], [-118.244517282251, 34.0442859845056], [-118.244755150148, 34.0439132489368], [-118.24481113744, 34.0439367945838], [-118.244835157473, 34.0438991825295], [-118.244417378889, 34.0437254843275]]]}}, {"type": "Feature", "properties": {"zone_id": "02010KSZJFH0BJPVCLTLD0", "tract_id": "06037206302", "city": "LOS ANGELES, CA", "zone_code": "CPIO", "zone_category": "Other", "ev_permitted": false}, "geometry": {"type": "Polygon", "coordinates": [[[-118.244860426135, 34.0438596169523], [-118.24481113744, 34.0439367945838], [-118.245210115583, 34.0441023409621], [-118.245256577994, 34.044029538017], [-118.244860426135, 34.0438596169523]]]}}, {"type": "Feature", "properties": {"zone_id": "0206650VA1SY77UUJQD7F6", "tract_id": "06037206302", "city": "LOS ANGELES, CA", "zone_code": "CPIO", "zone_category": "Other", "ev_permitted": false}, "geometry": {"type": "Polygon", "coordinates": [[[-118.244755150148, 34.0439132489368], [-118.244517282251, 34.0442859845056], [-118.244529508263, 34.0442902189431], [-118.244766817609, 34.0439183912787], [-118.244755150148, 34.0439132489368]]]}}, {"type": "Feature", "properties": {"zone_id": "0205E5412AYEUNLKTONILT", "tract_id": "06037206302", "city": "LOS ANGELES, CA", "zone_code": "[MB2-SH1-5] [CX2-FA]", "zone_category": "Other", "ev_permitted": false}, "geometry": {"type": "Polygon", "coordinates": [[[-118.245837877825, 34.0417924451185], [-118.245622863995, 34.041997542149], [-118.245463832633, 34.0422132708861], [-118.245489558605, 34.0422623504607], [-118.2461584043, 34.0426944099912], [-118.24620803893, 34.0426905991753], [-118.246372925291, 34.0425130528666], [-118.246533983359, 34.0422708791473], [-118.245837877825, 34.0417924451185]]]}}, {"type": "Feature", "properties": {"zone_id": "0201WXLN4JJ2NSJ83QT93P", "tract_id": "06037206302", "city": "LOS ANGELES, CA", "zone_code": "[MB2-SH1-5] [CX2-FA]", "zone_category": "Other", "ev_permitted": false}, "geometry": {"type": "Polygon", "coordinates": [[[-118.245920331787, 34.041713796401], [-118.245837877825, 34.0417924451185], [-118.246533983359, 34.0422708791473], [-118.246635833156, 34.0421177299905], [-118.245920331787, 34.041713796401]]]}}, {"type": "Feature", "properties": {"zone_id": "0203I6Z0HJ7DSIHBF4O9QE", "tract_id": "06037206302", "city": "LOS ANGELES, CA", "zone_code": "[MB2-SH1-5] [CX2-FA]", "zone_category": "Other", "ev_permitted": false}, "geometry": {"type": "Polygon", "coordinates": [[[-118.246432569182, 34.0417384446372], [-118.246281189642, 34.0419175297602], [-118.246635833156, 34.0421177299905], [-118.246763736978, 34.0419254201967], [-118.246432569182, 34.0417384446372]]]}}, {"type": "Feature", "properties": {"zone_id": "0201XOV6U2KUKNRI231CVH", "tract_id": "06037206302", "city": "LOS ANGELES, CA", "zone_code": "[MB2-SH1-5] [CX2-FA]", "zone_category": "Other", "ev_permitted": false}, "geometry": {"type": "Polygon", "coordinates": [[[-118.247031437676, 34.0410304144151], [-118.246652170991, 34.0414788723361], [-118.246949216366, 34.0416465995703], [-118.247254873092, 34.0411869977281], [-118.247031437676, 34.0410304144151]]]}}, {"type": "Feature", "properties": {"zone_id": "0206SJI1XUCOLTC33ZOZEU", "tract_id": "06037206302", "city": "LOS ANGELES, CA", "zone_code": "[MB2-SH1-5] [CX2-FA]", "zone_category": "Other", "ev_permitted": false}, "geometry": {"type": "Polygon", "coordinates": [[[-118.246652170991, 34.0414788723361], [-118.246580264476, 34.0415639008301], [-118.246888452644, 34.041737953034], [-118.246949216366, 34.0416465995703], [-118.246652170991, 34.0414788723361]]]}}, {"type": "Feature", "properties": {"zone_id": "0204UIJMFEG4Q48X2S36PQ", "tract_id": "06037206302", "city": "LOS ANGELES, CA", "zone_code": "[MB2-SH1-5] [CX2-FA]", "zone_category": "Other", "ev_permitted": false}, "geometry": {"type": "Polygon", "coordinates": [[[-118.246580264476, 34.0415639008301], [-118.246508324888, 34.0416489568274], [-118.246827719568, 34.0418292497298], [-118.246888452644, 34.041737953034], [-118.246580264476, 34.0415639008301]]]}}, {"type": "Feature", "properties": {"zone_id": "0202HMHGQDAD30H0U9IPQ0", "tract_id": "06037206302", "city": "LOS ANGELES, CA", "zone_code": "[MB2-SH1-5] [CX2-FA]", "zone_category": "Other", "ev_permitted": false}, "geometry": {"type": "Polygon", "coordinates": [[[-118.246508324888, 34.0416489568274], [-118.246432569182, 34.0417384446372], [-118.246763736978, 34.0419254201967], [-118.246827719568, 34.0418292497298], [-118.246508324888, 34.0416489568274]]]}}, {"type": "Feature", "properties": {"zone_id": "0201VYBN73M0KSD7219I2V", "tract_id": "06037206302", "city": "LOS ANGELES, CA", "zone_code": "[MB2-SH1-5] [CX2-FA]", "zone_category": "Other", "ev_permitted": false}, "geometry": {"type": "Polygon", "coordinates": [[[-118.246347191509, 34.0413066540594], [-118.246094558701, 34.041547607627], [-118.246432569182, 34.0417384446372], [-118.246652170991, 34.0414788723361], [-118.246347191509, 34.0413066540594]]]}}, {"type": "Feature", "properties": {"zone_id": "0200MQTKXK605OAIV88RS1", "tract_id": "06037206302", "city": "LOS ANGELES, CA", "zone_code": "[MB2-SH1-5] [CX2-FA]", "zone_category": "Other", "ev_permitted": false}, "geometry": {"type": "Polygon", "coordinates": [[[-118.246094558701, 34.041547607627], [-118.246050812743, 34.0415893269714], [-118.246394609434, 34.0417834222602], [-118.246432569182, 34.0417384446372], [-118.246094558701, 34.041547607627]]]}}, {"type": "Feature", "properties": {"zone_id": "0204K3I7CEU3811Z23HJ4X", "tract_id": "06037206302", "city": "LOS ANGELES, CA", "zone_code": "[MB2-SH1-5] [CX2-FA]", "zone_category": "Other", "ev_permitted": false}, "geometry": {"type": "Polygon", "coordinates": [[[-118.246050812743, 34.0415893269714], [-118.246007461795, 34.0416306882724], [-118.246356945591, 34.0418280145661], [-118.246394609434, 34.0417834222602], [-118.246050812743, 34.0415893269714]]]}}, {"type": "Feature", "properties": {"zone_id": "02044IDVH5JNGUR0J7MY2M", "tract_id": "06037206302", "city": "LOS ANGELES, CA", "zone_code": "[MB2-SH1-5] [CX2-FA]", "zone_category": "Other", "ev_permitted": false}, "geometry": {"type": "Polygon", "coordinates": [[[-118.246007461795, 34.0416306882724], [-118.245920331787, 34.041713796401], [-118.246281189642, 34.0419175297602], [-118.246356945591, 34.0418280145661], [-118.246007461795, 34.0416306882724]]]}}, {"type": "Feature", "properties": {"zone_id": "02077098XSJDZ4JW9CBJLE", "tract_id": "06037206302", "city": "LOS ANGELES, CA", "zone_code": "[MB2-SH1-5] [CX2-FA]", "zone_category": "Other", "ev_permitted": false}, "geometry": {"type": "Polygon", "coordinates": [[[-118.246429942848, 34.0412277313179], [-118.246347191509, 34.0413066540594], [-118.246652170991, 34.0414788723361], [-118.246724110286, 34.0413938162538], [-118.246429942848, 34.0412277313179]]]}}, {"type": "Feature", "properties": {"zone_id": "02001HE61CYLRQUQFA0EVH", "tract_id": "06037206302", "city": "LOS ANGELES, CA", "zone_code": "[MB2-SH1-5] [CX2-FA]", "zone_category": "Other", "ev_permitted": false}, "geometry": {"type": "Polygon", "coordinates": [[[-118.246830978427, 34.0409078847626], [-118.246759959069, 34.0409129486022], [-118.24652395125, 34.0411380413748], [-118.246805818908, 34.0412971991167], [-118.247021898432, 34.0410416727092], [-118.246830978427, 34.0409078847626]]]}}, {"type": "Feature", "properties": {"zone_id": "020330JCZMTLMZD314EY9G", "tract_id": "06037206302", "city": "LOS ANGELES, CA", "zone_code": "[MB2-SH1-5] [CX2-FA]", "zone_category": "Other", "ev_permitted": false}, "geometry": {"type": "Polygon", "coordinates": [[[-118.24652395125, 34.0411380413748], [-118.246429942848, 34.0412277313179], [-118.246724110286, 34.0413938162538], [-118.246805818908, 34.0412971991167], [-118.24652395125, 34.0411380413748]]]}}, {"type": "Feature", "properties": {"zone_id": "020270UQKR3HX7KCE3UTRP", "tract_id": "06037206302", "city": "LOS ANGELES, CA", "zone_code": "[MB2-SH1-5] [CX2-FA]", "zone_category": "Other", "ev_permitted": false}, "geometry": {"type": "Polygon", "coordinates": [[[-118.245005090431, 34.0428729763653], [-118.244763187184, 34.0432076626262], [-118.244748972648, 34.043200656897], [-118.244691274597, 34.0432804894752], [-118.244529436365, 34.0435201016449], [-118.244945623037, 34.0437260592187], [-118.245100821177, 34.0434828362147], [-118.245485767215, 34.0436703930998], [-118.245730332107, 34.0432871451389], [-118.245435622409, 34.0431178438531], [-118.245005090431, 34.0428729763653]]]}}, {"type": "Feature", "properties": {"zone_id": "0201Q9WGQ9YBUVAIDGKDTR", "tract_id": "06037206302", "city": "LOS ANGELES, CA", "zone_code": "CPIO", "zone_category": "Other", "ev_permitted": false}, "geometry": {"type": "Polygon", "coordinates": [[[-118.245710319246, 34.0426657555608], [-118.245400144173, 34.0430976641748], [-118.245730332107, 34.0432871451389], [-118.245780900798, 34.0432078761473], [-118.246033995303, 34.0428749511511], [-118.245710319246, 34.0426657555608]]]}}, {"type": "Feature", "properties": {"zone_id": "0203JV8WKCAB9J5J03RRWB", "tract_id": "06037206302", "city": "LOS ANGELES, CA", "zone_code": "[MB2-SH1-5] [CX2-FA]", "zone_category": "Other", "ev_permitted": false}, "geometry": {"type": "Polygon", "coordinates": [[[-118.245318583248, 34.0424126216024], [-118.244991434833, 34.0428652001277], [-118.245400144173, 34.0430976641748], [-118.245710319246, 34.0426657555608], [-118.245318583248, 34.0424126216024]]]}}]}