{"type": "FeatureCollection", "features": [{"type": "Feature", "properties": {"zone_id": "0203EWIZ99HKVIPKD99H4B", "tract_id": "36061015801", "city": "NEW YORK, NY", "zone_code": "R8B", "zone_category": "Residential", "ev_permitted": false}, "geometry": {"type": "Polygon", "coordinates": [[[-73.9523835424766, 40.7856820717345], [-73.9522026371479, 40.7859290716931], [-73.9525982486675, 40.7860957424719], [-73.9527791502092, 40.7858487404922], [-73.9523835424766, 40.7856820717345]]]}}, {"type": "Feature", "properties": {"zone_id": "0204PMCWFAVMI3LPKPYQ1G", "tract_id": "36061015801", "city": "NEW YORK, NY", "zone_code": "R10", "zone_category": "Residential", "ev_permitted": false}, "geometry": {"type": "Polygon", "coordinates": [[[-73.9523129001418, 40.7859755254105], [-73.9521346032568, 40.7862189624813], [-73.9524199497321, 40.7863391778705], [-73.9525982486675, 40.7860957424719], [-73.9523129001418, 40.7859755254105]]]}}, {"type": "Feature", "properties": {"zone_id": "0204MGRXTMYG0XX7QNKS6G", "tract_id": "36061015801", "city": "NEW YORK, NY", "zone_code": "R8B", "zone_category": "Residential", "ev_permitted": false}, "geometry": {"type": "Polygon", "coordinates": [[[-73.9519958215559, 40.7858419398284], [-73.9518175238699, 40.786085375711], [-73.9521346032568, 40.7862189624813], [-73.9523129001418, 40.7859755254105], [-73.9519958215559, 40.7858419398284]]]}}, {"type": "Feature", "properties": {"zone_id": "0200NVBBTX7MA2089F42TA", "tract_id": "36061015801", "city": "NEW YORK, NY", "zone_code": "R8B", "zone_category": "Residential", "ev_permitted": false}, "geometry": {"type": "Polygon", "coordinates": [[[-73.9523310963287, 40.7856599755452], [-73.9521501899415, 40.7859069747192], [-73.9522026371479, 40.7859290716931], [-73.9523835424766, 40.7856820717345], [-73.9523310963287, 40.7856599755452]]]}}, {"type": "Feature", "properties": {"zone_id": "0202BAOL01OZHAL0Y37E4C", "tract_id": "36061015801", "city": "NEW YORK, NY", "zone_code": "R8B", "zone_category": "Residential", "ev_permitted": false}, "geometry": {"type": "Polygon", "coordinates": [[[-73.9522747659692, 40.785636244058], [-73.9520938594369, 40.7858832438472], [-73.9521501899415, 40.7859069747192], [-73.9523310963287, 40.7856599755452], [-73.9522747659692, 40.785636244058]]]}}, {"type": "Feature", "properties": {"zone_id": "0202HOZOXSUPVWN29SR8S1", "tract_id": "36061015801", "city": "NEW YORK, NY", "zone_code": "R8B", "zone_category": "Residential", "ev_permitted": false}, "geometry": {"type": "Polygon", "coordinates": [[[-73.9522258825283, 40.7856156494575], [-73.9520449758708, 40.7858626491708], [-73.9520938594369, 40.7858832438472], [-73.9522747659692, 40.785636244058], [-73.9522258825283, 40.7856156494575]]]}}, {"type": "Feature", "properties": {"zone_id": "0200Y329JS1GKFXX6UFB6C", "tract_id": "36061015801", "city": "NEW YORK, NY", "zone_code": "R8B", "zone_category": "Residential", "ev_permitted": false}, "geometry": {"type": "Polygon", "coordinates": [[[-73.9518373714597, 40.7857751836355], [-73.9516590733726, 40.7860186199781], [-73.9518175238699, 40.786085375711], [-73.9519958215559, 40.7858419398284], [-73.9518373714597, 40.7857751836355]]]}}, {"type": "Feature", "properties": {"zone_id": "02017VXUTAV6TNHT8T8GOC", "tract_id": "36061015801", "city": "NEW YORK, NY", "zone_code": "R8B", "zone_category": "Residential", "ev_permitted": false}, "geometry": {"type": "Polygon", "coordinates": [[[-73.9526756207526, 40.7849919820851], [-73.9524963340179, 40.785236776165], [-73.9530549781233, 40.7854721313475], [-73.9532342625129, 40.7852273371096], [-73.9526756207526, 40.7849919820851]]]}}, {"type": "Feature", "properties": {"zone_id": "020196U44T356A1MAGM932", "tract_id": "36061015801", "city": "NEW YORK, NY", "zone_code": "R10", "zone_category": "Residential", "ev_permitted": false}, "geometry": {"type": "Polygon", "coordinates": [[[-73.9528014063562, 40.7854233318997], [-73.9527649621155, 40.7854731103882], [-73.9529860448021, 40.7855662515608], [-73.9530224990943, 40.7855164772232], [-73.9528014063562, 40.7854233318997]]]}}, {"type": "Feature", "properties": {"zone_id": "0202CL32IQZVF2QOYQSLN8", "tract_id": "36061015801", "city": "NEW YORK, NY", "zone_code": "R10", "zone_category": "Residential", "ev_permitted": false}, "geometry": {"type": "Polygon", "coordinates": [[[-73.9527287639731, 40.785522533424], [-73.95269014047, 40.7855752691582], [-73.952911224315, 40.7856684111759], [-73.9529498476981, 40.785615673963], [-73.9527287639731, 40.785522533424]]]}}, {"type": "Feature", "properties": {"zone_id": "0200MUZ1WXUJZWWSGJ7UPI", "tract_id": "36061015801", "city": "NEW YORK, NY", "zone_code": "R10", "zone_category": "Residential", "ev_permitted": false}, "geometry": {"type": "Polygon", "coordinates": [[[-73.95269014047, 40.7855752691582], [-73.9526502686263, 40.7856297075942], [-73.9528713525963, 40.7857228496876], [-73.952911224315, 40.7856684111759], [-73.95269014047, 40.7855752691582]]]}}, {"type": "Feature", "properties": {"zone_id": "0206KLH8NCNQVTFE4VUUBI", "tract_id": "36061015801", "city": "NEW YORK, NY", "zone_code": "R10", "zone_category": "Residential", "ev_permitted": false}, "geometry": {"type": "Polygon", "coordinates": [[[-73.9527649621155, 40.7854731103882], [-73.9527287639731, 40.785522533424], [-73.9529498476981, 40.785615673963], [-73.9529860448021, 40.7855662515608], [-73.9527649621155, 40.7854731103882]]]}}, {"type": "Feature", "properties": {"zone_id": "0203QHG5AS4UTX2OIMVGUW", "tract_id": "36061015801", "city": "NEW YORK, NY", "zone_code": "R10", "zone_category": "Residential", "ev_permitted": false}, "geometry": {"type": "Polygon", "coordinates": [[[-73.9527512845343, 40.7854022163492], [-73.9526001430007, 40.7856085898691], [-73.9526502686263, 40.7856297075942], [-73.9528014063562, 40.7854233318997], [-73.9527512845343, 40.7854022163492]]]}}, {"type": "Feature", "properties": {"zone_id": "02078MZKOTFDL9QULLQED6", "tract_id": "36061015801", "city": "NEW YORK, NY", "zone_code": "R8B", "zone_category": "Residential", "ev_permitted": false}, "geometry": {"type": "Polygon", "coordinates": [[[-73.9527011840008, 40.7853811085147], [-73.9525500368141, 40.785587480562], [-73.9526001430007, 40.7856085898691], [-73.9527512845343, 40.7854022163492], [-73.9527011840008, 40.7853811085147]]]}}, {"type": "Feature", "properties": {"zone_id": "0201JYOBMINA82I0S0A18I", "tract_id": "36061015801", "city": "NEW YORK, NY", "zone_code": "R10", "zone_category": "Residential", "ev_permitted": false}, "geometry": {"type": "Polygon", "coordinates": [[[-73.9527336631778, 40.7853367627286], [-73.9527011840008, 40.7853811085147], [-73.9530224990943, 40.7855164772232], [-73.9530549781233, 40.7854721313475], [-73.9527336631778, 40.7853367627286]]]}}, {"type": "Feature", "properties": {"zone_id": "0206ADRUJMJ5YCHMAY9S3C", "tract_id": "36061015801", "city": "NEW YORK, NY", "zone_code": "R8B", "zone_category": "Residential", "ev_permitted": false}, "geometry": {"type": "Polygon", "coordinates": [[[-73.9526703611001, 40.7853100935974], [-73.9524867354962, 40.7855608113314], [-73.9525500368141, 40.785587480562], [-73.9527336631778, 40.7853367627286], [-73.9526703611001, 40.7853100935974]]]}}, {"type": "Feature", "properties": {"zone_id": "0202AGC3UOW22T5BSZGNAP", "tract_id": "36061015801", "city": "NEW YORK, NY", "zone_code": "R8B", "zone_category": "Residential", "ev_permitted": false}, "geometry": {"type": "Polygon", "coordinates": [[[-73.9526051432955, 40.7852826169992], [-73.9524215165972, 40.7855333346299], [-73.9524867354962, 40.7855608113314], [-73.9526703611001, 40.7853100935974], [-73.9526051432955, 40.7852826169992]]]}}, {"type": "Feature", "properties": {"zone_id": "0207FU2UBMITWLYFJ7GUF6", "tract_id": "36061015801", "city": "NEW YORK, NY", "zone_code": "R8B", "zone_category": "Residential", "ev_permitted": false}, "geometry": {"type": "Polygon", "coordinates": [[[-73.9525424133735, 40.7852561890424], [-73.952358786512, 40.7855069065741], [-73.9524215165972, 40.7855333346299], [-73.9526051432955, 40.7852826169992], [-73.9525424133735, 40.7852561890424]]]}}, {"type": "Feature", "properties": {"zone_id": "0205VRQIRX94Y0BULCPSGV", "tract_id": "36061015801", "city": "NEW YORK, NY", "zone_code": "R8B", "zone_category": "Residential", "ev_permitted": false}, "geometry": {"type": "Polygon", "coordinates": [[[-73.9524794191932, 40.7852296492206], [-73.9522957921676, 40.7854803666531], [-73.952358786512, 40.7855069065741], [-73.9525424133735, 40.7852561890424], [-73.9524794191932, 40.7852296492206]]]}}, {"type": "Feature", "properties": {"zone_id": "0202Q0MC30YWHY1ZNSI8HS", "tract_id": "36061015801", "city": "NEW YORK, NY", "zone_code": "R8B", "zone_category": "Residential", "ev_permitted": false}, "geometry": {"type": "Polygon", "coordinates": [[[-73.9521733634761, 40.7855935229519], [-73.9519924576082, 40.7858405225839], [-73.9520449758708, 40.7858626491708], [-73.9522258825283, 40.7856156494575], [-73.9521733634761, 40.7855935229519]]]}}, {"type": "Feature", "properties": {"zone_id": "0200W7FHLN9SAQZV086CRI", "tract_id": "36061015801", "city": "NEW YORK, NY", "zone_code": "R8B", "zone_category": "Residential", "ev_permitted": false}, "geometry": {"type": "Polygon", "coordinates": [[[-73.9521223443682, 40.7855720280266], [-73.9519414383694, 40.7858190275794], [-73.9519924576082, 40.7858405225839], [-73.9521733634761, 40.7855935229519], [-73.9521223443682, 40.7855720280266]]]}}, {"type": "Feature", "properties": {"zone_id": "020047FHEZBRS2UXD105Q8", "tract_id": "36061015801", "city": "NEW YORK, NY", "zone_code": "R8B", "zone_category": "Residential", "ev_permitted": false}, "geometry": {"type": "Polygon", "coordinates": [[[-73.9520713077339, 40.785550526045], [-73.9518904016043, 40.7857975255184], [-73.9519414383694, 40.7858190275794], [-73.9521223443682, 40.7855720280266], [-73.9520713077339, 40.785550526045]]]}}, {"type": "Feature", "properties": {"zone_id": "0200HTLZ811ODSLMC0VHPZ", "tract_id": "36061015801", "city": "NEW YORK, NY", "zone_code": "R8B", "zone_category": "Residential", "ev_permitted": false}, "geometry": {"type": "Polygon", "coordinates": [[[-73.9520155477648, 40.7855270342721], [-73.9518346405678, 40.7857740336586], [-73.9518904016043, 40.7857975255184], [-73.9520713077339, 40.785550526045], [-73.9520155477648, 40.7855270342721]]]}}, {"type": "Feature", "properties": {"zone_id": "0202II506BUHNBPY7UJZRE", "tract_id": "36061015801", "city": "NEW YORK, NY", "zone_code": "R8B", "zone_category": "Residential", "ev_permitted": false}, "geometry": {"type": "Polygon", "coordinates": [[[-73.9519608774155, 40.785504001758], [-73.9517799710026, 40.78575100106], [-73.9518346405678, 40.7857740336586], [-73.9520155477648, 40.7855270342721], [-73.9519608774155, 40.785504001758]]]}}, {"type": "Feature", "properties": {"zone_id": "0201DRAVBDTIVJ150DIUPV", "tract_id": "36061015801", "city": "NEW YORK, NY", "zone_code": "R8B", "zone_category": "Residential", "ev_permitted": false}, "geometry": {"type": "Polygon", "coordinates": [[[-73.9519114997458, 40.7854831981301], [-73.9517305922819, 40.7857301973549], [-73.9517799710026, 40.78575100106], [-73.9519608774155, 40.785504001758], [-73.9519114997458, 40.7854831981301]]]}}, {"type": "Feature", "properties": {"zone_id": "02050RLWZ3KKOYZP2KGOO2", "tract_id": "36061015801", "city": "NEW YORK, NY", "zone_code": "R8B", "zone_category": "Residential", "ev_permitted": false}, "geometry": {"type": "Polygon", "coordinates": [[[-73.9518551465821, 40.7854594558877], [-73.9516742398981, 40.7857064550254], [-73.9517305922819, 40.7857301973549], [-73.9519114997458, 40.7854831981301], [-73.9518551465821, 40.7854594558877]]]}}, {"type": "Feature", "properties": {"zone_id": "0204O6J2P3YK5D7AWKRZGI", "tract_id": "36061015801", "city": "NEW YORK, NY", "zone_code": "R8B", "zone_category": "Residential", "ev_permitted": false}, "geometry": {"type": "Polygon", "coordinates": [[[-73.9518017766294, 40.7854369712069], [-73.9516208698089, 40.7856839695589], [-73.9516742398981, 40.7857064550254], [-73.9518551465821, 40.7854594558877], [-73.9518017766294, 40.7854369712069]]]}}, {"type": "Feature", "properties": {"zone_id": "02034FBAQU855KRATLQDX9", "tract_id": "36061015801", "city": "NEW YORK, NY", "zone_code": "R8B", "zone_category": "Residential", "ev_permitted": false}, "geometry": {"type": "Polygon", "coordinates": [[[-73.9524208221924, 40.7852049626673], [-73.9522371950147, 40.7854556793047], [-73.9522957921676, 40.7854803666531], [-73.9524794191932, 40.7852296492206], [-73.9524208221924, 40.7852049626673]]]}}, {"type": "Feature", "properties": {"zone_id": "0203OTKQWNWUNA9FTEJQH5", "tract_id": "36061015801", "city": "NEW YORK, NY", "zone_code": "R8B", "zone_category": "Residential", "ev_permitted": false}, "geometry": {"type": "Polygon", "coordinates": [[[-73.9523632723026, 40.785180716377], [-73.9521796449746, 40.7854314336263], [-73.9522371950147, 40.7854556793047], [-73.9524208221924, 40.7852049626673], [-73.9523632723026, 40.785180716377]]]}}, {"type": "Feature", "properties": {"zone_id": "0204LXAO819663S1VDZGR1", "tract_id": "36061015801", "city": "NEW YORK, NY", "zone_code": "R8B", "zone_category": "Residential", "ev_permitted": false}, "geometry": {"type": "Polygon", "coordinates": [[[-73.9523072279016, 40.7851571037702], [-73.9521236013516, 40.7854078216341], [-73.9521796449746, 40.7854314336263], [-73.9523632723026, 40.785180716377], [-73.9523072279016, 40.7851571037702]]]}}, {"type": "Feature", "properties": {"zone_id": "0201P5ARSBR6G9EN36N6DN", "tract_id": "36061015801", "city": "NEW YORK, NY", "zone_code": "R8B", "zone_category": "Residential", "ev_permitted": false}, "geometry": {"type": "Polygon", "coordinates": [[[-73.9522513517351, 40.7851335635789], [-73.9520677250406, 40.7853842799494], [-73.9521236013516, 40.7854078216341], [-73.9523072279016, 40.7851571037702], [-73.9522513517351, 40.7851335635789]]]}}, {"type": "Feature", "properties": {"zone_id": "0205TF7BO0PE0R4S2G52RD", "tract_id": "36061015801", "city": "NEW YORK, NY", "zone_code": "R8B", "zone_category": "Residential", "ev_permitted": false}, "geometry": {"type": "Polygon", "coordinates": [[[-73.9521954793048, 40.7851100247672], [-73.9520118533888, 40.7853607417526], [-73.9520677250406, 40.7853842799494], [-73.9522513517351, 40.7851335635789], [-73.9521954793048, 40.7851100247672]]]}}, {"type": "Feature", "properties": {"zone_id": "0207MAA474ZNB3XR3DM4SZ", "tract_id": "36061015801", "city": "NEW YORK, NY", "zone_code": "R8B", "zone_category": "Residential", "ev_permitted": false}, "geometry": {"type": "Polygon", "coordinates": [[[-73.9521366939886, 40.7850852571858], [-73.9519530660707, 40.7853359740777], [-73.9520118533888, 40.7853607417526], [-73.9521954793048, 40.7851100247672], [-73.9521366939886, 40.7850852571858]]]}}, {"type": "Feature", "properties": {"zone_id": "0202705U57ZF6T6AF6TJM4", "tract_id": "36061015801", "city": "NEW YORK, NY", "zone_code": "R8B", "zone_category": "Residential", "ev_permitted": false}, "geometry": {"type": "Polygon", "coordinates": [[[-73.9526216797719, 40.7849692558355], [-73.9524423928996, 40.785214050535], [-73.9524963340179, 40.785236776165], [-73.9526756207526, 40.7849919820851], [-73.9526216797719, 40.7849692558355]]]}}, {"type": "Feature", "properties": {"zone_id": "0205YMDN5L3W8YTWDSEFKH", "tract_id": "36061015801", "city": "NEW YORK, NY", "zone_code": "R8B", "zone_category": "Residential", "ev_permitted": false}, "geometry": {"type": "Polygon", "coordinates": [[[-73.9525696398082, 40.7849473320688], [-73.9523903528047, 40.7851921252829], [-73.9524423928996, 40.785214050535], [-73.9526216797719, 40.7849692558355], [-73.9525696398082, 40.7849473320688]]]}}, {"type": "Feature", "properties": {"zone_id": "0204L80169PZECKFDXUHKB", "tract_id": "36061015801", "city": "NEW YORK, NY", "zone_code": "R8B", "zone_category": "Residential", "ev_permitted": false}, "geometry": {"type": "Polygon", "coordinates": [[[-73.9525158689433, 40.7849246782127], [-73.952336582727, 40.785169472047], [-73.9523903528047, 40.7851921252829], [-73.9525696398082, 40.7849473320688], [-73.9525158689433, 40.7849246782127]]]}}, {"type": "Feature", "properties": {"zone_id": "0206P0J6BTK1W2TYSNTNZW", "tract_id": "36061015801", "city": "NEW YORK, NY", "zone_code": "R8B", "zone_category": "Residential", "ev_permitted": false}, "geometry": {"type": "Polygon", "coordinates": [[[-73.9524659666112, 40.7849036546741], [-73.9522866802686, 40.7851484477289], [-73.952336582727, 40.785169472047], [-73.9525158689433, 40.7849246782127], [-73.9524659666112, 40.7849036546741]]]}}, {"type": "Feature", "properties": {"zone_id": "02014JHH9P4C7ZVAYDY7GF", "tract_id": "36061015801", "city": "NEW YORK, NY", "zone_code": "R8B", "zone_category": "Residential", "ev_permitted": false}, "geometry": {"type": "Polygon", "coordinates": [[[-73.9524124425653, 40.7848811041612], [-73.9522331551617, 40.7851258978359], [-73.9522866802686, 40.7851484477289], [-73.9524659666112, 40.7849036546741], [-73.9524124425653, 40.7848811041612]]]}}, {"type": "Feature", "properties": {"zone_id": "0206A2A9DCLQ1RLAVDR1VX", "tract_id": "36061015801", "city": "NEW YORK, NY", "zone_code": "R8B", "zone_category": "Residential", "ev_permitted": false}, "geometry": {"type": "Polygon", "coordinates": [[[-73.9523595617633, 40.7848588258155], [-73.9521802751501, 40.7851036187065], [-73.9522331551617, 40.7851258978359], [-73.9524124425653, 40.7848811041612], [-73.9523595617633, 40.7848588258155]]]}}, {"type": "Feature", "properties": {"zone_id": "0204511HF74NNKY8I9GU86", "tract_id": "36061015801", "city": "NEW YORK, NY", "zone_code": "R8B", "zone_category": "Residential", "ev_permitted": false}, "geometry": {"type": "Polygon", "coordinates": [[[-73.9523089876741, 40.7848375180596], [-73.952129700008, 40.7850823108724], [-73.9521802751501, 40.7851036187065], [-73.9523595617633, 40.7848588258155], [-73.9523089876741, 40.7848375180596]]]}}, {"type": "Feature", "properties": {"zone_id": "02066OFPHKSC7U4YGWZO5T", "tract_id": "36061015801", "city": "NEW YORK, NY", "zone_code": "R8B", "zone_category": "Residential", "ev_permitted": false}, "geometry": {"type": "Polygon", "coordinates": [[[-73.9520798133905, 40.7850612934974], [-73.951896186249, 40.7853120103001], [-73.9519530660707, 40.7853359740777], [-73.9521366939886, 40.7850852571858], [-73.9520798133905, 40.7850612934974]]]}}, {"type": "Feature", "properties": {"zone_id": "0204MQXJLF5KQQSIOP15D0", "tract_id": "36061015801", "city": "NEW YORK, NY", "zone_code": "C1-8X", "zone_category": "Commercial", "ev_permitted": true}, "geometry": {"type": "Polygon", "coordinates": [[[-73.9520207693973, 40.7850364182434], [-73.9518371421025, 40.7852871342503], [-73.951896186249, 40.7853120103001], [-73.9520798133905, 40.7850612934974], [-73.9520207693973, 40.7850364182434]]]}}, {"type": "Feature", "properties": {"zone_id": "0200AV23LIOJG78MYQPLQB", "tract_id": "36061015801", "city": "NEW YORK, NY", "zone_code": "C1-8X", "zone_category": "Commercial", "ev_permitted": true}, "geometry": {"type": "Polygon", "coordinates": [[[-73.9517797620971, 40.7849046948013], [-73.951749359896, 40.784946203883], [-73.9520072621846, 40.7850548607436], [-73.9520376642745, 40.7850133515945], [-73.9517797620971, 40.7849046948013]]]}}, {"type": "Feature", "properties": {"zone_id": "0206HIS7EWPAI9ZOHHF86I", "tract_id": "36061015801", "city": "NEW YORK, NY", "zone_code": "C1-8X", "zone_category": "Commercial", "ev_permitted": true}, "geometry": {"type": "Polygon", "coordinates": [[[-73.951749359896, 40.784946203883], [-73.9517175455775, 40.7849896418469], [-73.9519754479824, 40.7850982987779], [-73.9520072621846, 40.7850548607436], [-73.951749359896, 40.784946203883]]]}}, {"type": "Feature", "properties": {"zone_id": "0204FX9449EE2A6X8PZW7R", "tract_id": "36061015801", "city": "NEW YORK, NY", "zone_code": "C1-8X", "zone_category": "Commercial", "ev_permitted": true}, "geometry": {"type": "Polygon", "coordinates": [[[-73.9517175455775, 40.7849896418469], [-73.9516853564508, 40.7850335925804], [-73.951943258049, 40.7851422495824], [-73.9519754479824, 40.7850982987779], [-73.9517175455775, 40.7849896418469]]]}}, {"type": "Feature", "properties": {"zone_id": "0205SDG9DSDJDEIJ3QVRYC", "tract_id": "36061015801", "city": "NEW YORK, NY", "zone_code": "C1-8X", "zone_category": "Commercial", "ev_permitted": true}, "geometry": {"type": "Polygon", "coordinates": [[[-73.9516853564508, 40.7850335925804], [-73.9515792391919, 40.7851784770129], [-73.9518371421025, 40.7852871342503], [-73.951943258049, 40.7851422495824], [-73.9516853564508, 40.7850335925804]]]}}, {"type": "Feature", "properties": {"zone_id": "0206BO1A2JHUW80FHNNLYT", "tract_id": "36061015801", "city": "NEW YORK, NY", "zone_code": "R8B", "zone_category": "Residential", "ev_permitted": false}, "geometry": {"type": "Polygon", "coordinates": [[[-73.9522523465804, 40.7848136550337], [-73.9520730596947, 40.7850584477597], [-73.952129700008, 40.7850823108724], [-73.9523089876741, 40.7848375180596], [-73.9522523465804, 40.7848136550337]]]}}, {"type": "Feature", "properties": {"zone_id": "0203KT8SFGK2T18LF2AE94", "tract_id": "36061015801", "city": "NEW YORK, NY", "zone_code": "C1-8X", "zone_category": "Commercial", "ev_permitted": true}, "geometry": {"type": "Polygon", "coordinates": [[[-73.9522000573408, 40.7847916248958], [-73.9520207693973, 40.7850364182434], [-73.9520730596947, 40.7850584477597], [-73.9522523465804, 40.7848136550337], [-73.9522000573408, 40.7847916248958]]]}}, {"type": "Feature", "properties": {"zone_id": "0203ID6HAE0OLZW96YCJRT", "tract_id": "36061015801", "city": "NEW YORK, NY", "zone_code": "C1-8X", "zone_category": "Commercial", "ev_permitted": true}, "geometry": {"type": "Polygon", "coordinates": [[[-73.9519421557573, 40.7846829684623], [-73.9517797620971, 40.7849046948013], [-73.9520376642745, 40.7850133515945], [-73.9522000573408, 40.7847916248958], [-73.9519421557573, 40.7846829684623]]]}}, {"type": "Feature", "properties": {"zone_id": "0204K8RZZFB6RVTFREZ36F", "tract_id": "36061015801", "city": "NEW YORK, NY", "zone_code": "R8B", "zone_category": "Residential", "ev_permitted": false}, "geometry": {"type": "Polygon", "coordinates": [[[-73.9517411461714, 40.7857346432366], [-73.9515628478411, 40.7859780794319], [-73.9516590733726, 40.7860186199781], [-73.9518373714597, 40.7857751836355], [-73.9517411461714, 40.7857346432366]]]}}, {"type": "Feature", "properties": {"zone_id": "0204ACM101V1AHKNJLZY99", "tract_id": "36061015801", "city": "NEW YORK, NY", "zone_code": "R8B", "zone_category": "Residential", "ev_permitted": false}, "geometry": {"type": "Polygon", "coordinates": [[[-73.9516376950141, 40.785691058648], [-73.9514593964227, 40.7859344939822], [-73.9515628478411, 40.7859780794319], [-73.9517411461714, 40.7857346432366], [-73.9516376950141, 40.785691058648]]]}}, {"type": "Feature", "properties": {"zone_id": "0204E5JXHLD9Z7WJ8FJROE", "tract_id": "36061015801", "city": "NEW YORK, NY", "zone_code": "R10A", "zone_category": "Residential", "ev_permitted": false}, "geometry": {"type": "Polygon", "coordinates": [[[-73.9515849847971, 40.7856688516919], [-73.9514066860725, 40.7859122869454], [-73.9514593964227, 40.7859344939822], [-73.9516376950141, 40.785691058648], [-73.9515849847971, 40.7856688516919]]]}}, {"type": "Feature", "properties": {"zone_id": "0203JPCXRGFV4XCJ3KSNXP", "tract_id": "36061015801", "city": "NEW YORK, NY", "zone_code": "R10A", "zone_category": "Residential", "ev_permitted": false}, "geometry": {"type": "Polygon", "coordinates": [[[-73.9515288469211, 40.7856452000233], [-73.9513505471301, 40.7858886351905], [-73.9514066860725, 40.7859122869454], [-73.9515849847971, 40.7856688516919], [-73.9515288469211, 40.7856452000233]]]}}, {"type": "Feature", "properties": {"zone_id": "0200OKYYK9VL6TFVGY7L0M", "tract_id": "36061015801", "city": "NEW YORK, NY", "zone_code": "R10A", "zone_category": "Residential", "ev_permitted": false}, "geometry": {"type": "Polygon", "coordinates": [[[-73.9514286287354, 40.7856029769399], [-73.951250329615, 40.7858464126567], [-73.9513505471301, 40.7858886351905], [-73.9515288469211, 40.7856452000233], [-73.9514286287354, 40.7856029769399]]]}}, {"type": "Feature", "properties": {"zone_id": "0200G2RMDEK468BW5NR380", "tract_id": "36061015801", "city": "NEW YORK, NY", "zone_code": "R8B", "zone_category": "Residential", "ev_permitted": false}, "geometry": {"type": "Polygon", "coordinates": [[[-73.9499268072664, 40.7846470052373], [-73.9495675922625, 40.7851374338161], [-73.9501743804919, 40.7853930934255], [-73.9503526841822, 40.7851496579518], [-73.9510949513247, 40.785462394001], [-73.9512758594947, 40.7852153957634], [-73.9499268072664, 40.7846470052373]]]}}, {"type": "Feature", "properties": {"zone_id": "0205WKALF2EQ2GENX7GUFT", "tract_id": "36061015801", "city": "NEW YORK, NY", "zone_code": "C1-8X", "zone_category": "Commercial", "ev_permitted": true}, "geometry": {"type": "Polygon", "coordinates": [[[-73.9517480000856, 40.7854143141813], [-73.9515670922023, 40.7856613131521], [-73.9516208698089, 40.7856839695589], [-73.9518017766294, 40.7854369712069], [-73.9517480000856, 40.7854143141813]]]}}, {"type": "Feature", "properties": {"zone_id": "0204VETCFVZJ62AELHFAIW", "tract_id": "36061015801", "city": "NEW YORK, NY", "zone_code": "C1-8X", "zone_category": "Commercial", "ev_permitted": true}, "geometry": {"type": "Polygon", "coordinates": [[[-73.9516950506955, 40.7853920059926], [-73.9515141426764, 40.785639004881], [-73.9515670922023, 40.7856613131521], [-73.9517480000856, 40.7854143141813], [-73.9516950506955, 40.7853920059926]]]}}, {"type": "Feature", "properties": {"zone_id": "02056XR6ZJOWRPB5CAQ16H", "tract_id": "36061015801", "city": "NEW YORK, NY", "zone_code": "C1-8X", "zone_category": "Commercial", "ev_permitted": true}, "geometry": {"type": "Polygon", "coordinates": [[[-73.9516385803181, 40.7853682151119], [-73.9514576730785, 40.785615213913], [-73.9515141426764, 40.785639004881], [-73.9516950506955, 40.7853920059926], [-73.9516385803181, 40.7853682151119]]]}}, {"type": "Feature", "properties": {"zone_id": "0204HM98JM34QL7C1AO6B6", "tract_id": "36061015801", "city": "NEW YORK, NY", "zone_code": "R10A", "zone_category": "Residential", "ev_permitted": false}, "geometry": {"type": "Polygon", "coordinates": [[[-73.9513061274871, 40.7855513653601], [-73.9511278280565, 40.7857948015919], [-73.951250329615, 40.7858464126567], [-73.9514286287354, 40.7856029769399], [-73.9513061274871, 40.7855513653601]]]}}, {"type": "Feature", "properties": {"zone_id": "020792PEY95XL5YTSJMGDR", "tract_id": "36061015801", "city": "NEW YORK, NY", "zone_code": "C1-8X", "zone_category": "Commercial", "ev_permitted": true}, "geometry": {"type": "Polygon", "coordinates": [[[-73.9515814917241, 40.7853441625572], [-73.951531356916, 40.785412613497], [-73.9515376735014, 40.7854152735825], [-73.9514069009342, 40.7855938227676], [-73.9514576730785, 40.785615213913], [-73.9516385803181, 40.7853682151119], [-73.9515814917241, 40.7853441625572]]]}}, {"type": "Feature", "properties": {"zone_id": "0206DG1EZNDCORDXGWU1WM", "tract_id": "36061015801", "city": "NEW YORK, NY", "zone_code": "C1-8X", "zone_category": "Commercial", "ev_permitted": true}, "geometry": {"type": "Polygon", "coordinates": [[[-73.9514870351154, 40.7853043667944], [-73.9513061274871, 40.7855513653601], [-73.9514069009342, 40.7855938227676], [-73.9515376735014, 40.7854152735825], [-73.951531356916, 40.785412613497], [-73.9515814917241, 40.7853441625572], [-73.9514870351154, 40.7853043667944]]]}}, {"type": "Feature", "properties": {"zone_id": "020517FZPJ1CIVKVW31CLF", "tract_id": "36061015801", "city": "NEW YORK, NY", "zone_code": "R8B", "zone_category": "Residential", "ev_permitted": false}, "geometry": {"type": "Polygon", "coordinates": [[[-73.950555883914, 40.7852352741997], [-73.9503775825877, 40.7854787078774], [-73.9509166513613, 40.7857058285041], [-73.9510949513247, 40.785462394001], [-73.950555883914, 40.7852352741997]]]}}, {"type": "Feature", "properties": {"zone_id": "0201Q08BJEL9DCU0ENX5YT", "tract_id": "36061015801", "city": "NEW YORK, NY", "zone_code": "R8B", "zone_category": "Residential", "ev_permitted": false}, "geometry": {"type": "Polygon", "coordinates": [[[-73.9503526841822, 40.7851496579518], [-73.9501743804919, 40.7853930934255], [-73.9503775825877, 40.7854787078774], [-73.950555883914, 40.7852352741997], [-73.9503526841822, 40.7851496579518]]]}}, {"type": "Feature", "properties": {"zone_id": "0206UEFMIL528UZPV1BT43", "tract_id": "36061015801", "city": "NEW YORK, NY", "zone_code": "C1-8X", "zone_category": "Commercial", "ev_permitted": true}, "geometry": {"type": "Polygon", "coordinates": [[[-73.9512828008344, 40.7846383282888], [-73.9512509040025, 40.7846818785154], [-73.9515685873534, 40.7848157235986], [-73.9516004840412, 40.7847721739876], [-73.9512828008344, 40.7846383282888]]]}}, {"type": "Feature", "properties": {"zone_id": "0202D7K9J3EITCIST5BSU4", "tract_id": "36061015801", "city": "NEW YORK, NY", "zone_code": "C1-8X", "zone_category": "Commercial", "ev_permitted": true}, "geometry": {"type": "Polygon", "coordinates": [[[-73.9512509040025, 40.7846818785154], [-73.9512192690035, 40.784725071194], [-73.9515369524964, 40.7848589170661], [-73.9515685873534, 40.7848157235986], [-73.9512509040025, 40.7846818785154]]]}}, {"type": "Feature", "properties": {"zone_id": "02048WRRH93NY169U1NNY0", "tract_id": "36061015801", "city": "NEW YORK, NY", "zone_code": "C1-8X", "zone_category": "Commercial", "ev_permitted": true}, "geometry": {"type": "Polygon", "coordinates": [[[-73.9512192690035, 40.784725071194], [-73.9511564967238, 40.7848107758654], [-73.9514741804999, 40.7849446212061], [-73.9515369524964, 40.7848589170661], [-73.9512192690035, 40.784725071194]]]}}, {"type": "Feature", "properties": {"zone_id": "0203XUIOYCX3LRWVFNPPBU", "tract_id": "36061015801", "city": "NEW YORK, NY", "zone_code": "C1-8X", "zone_category": "Commercial", "ev_permitted": true}, "geometry": {"type": "Polygon", "coordinates": [[[-73.9511564967238, 40.7848107758654], [-73.951050380518, 40.7849556598167], [-73.9513680638472, 40.7850895061492], [-73.9514741804999, 40.7849446212061], [-73.9511564967238, 40.7848107758654]]]}}, {"type": "Feature", "properties": {"zone_id": "0202QLRNFZVSLPBME3W0KA", "tract_id": "36061015801", "city": "NEW YORK, NY", "zone_code": "R8B", "zone_category": "Residential", "ev_permitted": false}, "geometry": {"type": "Polygon", "coordinates": [[[-73.9511764405046, 40.7846806897254], [-73.9509928110106, 40.7849314058059], [-73.951050380518, 40.7849556598167], [-73.9512340098617, 40.784704944348], [-73.9511764405046, 40.7846806897254]]]}}, {"type": "Feature", "properties": {"zone_id": "0203GDKN792CRG3PCLR90N", "tract_id": "36061015801", "city": "NEW YORK, NY", "zone_code": "R8B", "zone_category": "Residential", "ev_permitted": false}, "geometry": {"type": "Polygon", "coordinates": [[[-73.9511157790178, 40.7846551317484], [-73.9509321484419, 40.7849058470302], [-73.9509928110106, 40.7849314058059], [-73.9511764405046, 40.7846806897254], [-73.9511157790178, 40.7846551317484]]]}}, {"type": "Feature", "properties": {"zone_id": "0206ZXBAT7YAD57OGM2MMF", "tract_id": "36061015801", "city": "NEW YORK, NY", "zone_code": "R8B", "zone_category": "Residential", "ev_permitted": false}, "geometry": {"type": "Polygon", "coordinates": [[[-73.9510539282104, 40.784629072946], [-73.9508702983984, 40.784879787428], [-73.9509321484419, 40.7849058470302], [-73.9511157790178, 40.7846551317484], [-73.9510539282104, 40.784629072946]]]}}, {"type": "Feature", "properties": {"zone_id": "0201XZU0FCJH1JXRAVEKOE", "tract_id": "36061015801", "city": "NEW YORK, NY", "zone_code": "R8B", "zone_category": "Residential", "ev_permitted": false}, "geometry": {"type": "Polygon", "coordinates": [[[-73.9509983310966, 40.784605648201], [-73.9508147020637, 40.7848563632983], [-73.9508702983984, 40.784879787428], [-73.9510539282104, 40.784629072946], [-73.9509983310966, 40.784605648201]]]}}, {"type": "Feature", "properties": {"zone_id": "0200MOPPCAA817BO4PFT0I", "tract_id": "36061015801", "city": "NEW YORK, NY", "zone_code": "R8B", "zone_category": "Residential", "ev_permitted": false}, "geometry": {"type": "Polygon", "coordinates": [[[-73.9509376595811, 40.7845800859097], [-73.9507540294658, 40.784830800911], [-73.9508147020637, 40.7848563632983], [-73.9509983310966, 40.784605648201], [-73.9509376595811, 40.7845800859097]]]}}, {"type": "Feature", "properties": {"zone_id": "0203GNOPS915MQENEEHL9H", "tract_id": "36061015801", "city": "NEW YORK, NY", "zone_code": "R10", "zone_category": "Residential", "ev_permitted": false}, "geometry": {"type": "Polygon", "coordinates": [[[-73.9543873719799, 40.7832429256198], [-73.9543485304146, 40.783296667336], [-73.9545840313493, 40.7833956375775], [-73.9546228709334, 40.783341895782], [-73.9543873719799, 40.7832429256198]]]}}, {"type": "Feature", "properties": {"zone_id": "0206Y680QMALLFGFVD3XSH", "tract_id": "36061015801", "city": "NEW YORK, NY", "zone_code": "R8B", "zone_category": "Residential", "ev_permitted": false}, "geometry": {"type": "Polygon", "coordinates": [[[-73.9528860871183, 40.7842507108499], [-73.9527039670472, 40.784499374328], [-73.9527204741461, 40.7845063514082], [-73.952533698358, 40.784761370292], [-73.9533319746793, 40.7850987548963], [-73.9537008663258, 40.7845950706821], [-73.9528860871183, 40.7842507108499]]]}}, {"type": "Feature", "properties": {"zone_id": "0206L1OI2AY409EU64DE6R", "tract_id": "36061015801", "city": "NEW YORK, NY", "zone_code": "R8B", "zone_category": "Residential", "ev_permitted": false}, "geometry": {"type": "Polygon", "coordinates": [[[-73.953491049311, 40.7840092358822], [-73.9533067521366, 40.7842608793891], [-73.9537946132589, 40.7844670682675], [-73.9539789091602, 40.7842154239884], [-73.953491049311, 40.7840092358822]]]}}, {"type": "Feature", "properties": {"zone_id": "0206TD378UAIQE0HFD3EFX", "tract_id": "36061015801", "city": "NEW YORK, NY", "zone_code": "R8B", "zone_category": "Residential", "ev_permitted": false}, "geometry": {"type": "Polygon", "coordinates": [[[-73.9536731031062, 40.7837606575428], [-73.953491049311, 40.7840092358822], [-73.9539789091602, 40.7842154239884], [-73.9541609616977, 40.7839668448862], [-73.9536731031062, 40.7837606575428]]]}}, {"type": "Feature", "properties": {"zone_id": "0200P1WWO2NLHGRKM6I686", "tract_id": "36061015801", "city": "NEW YORK, NY", "zone_code": "R8B", "zone_category": "Residential", "ev_permitted": false}, "geometry": {"type": "Polygon", "coordinates": [[[-73.9531797714599, 40.7838776759794], [-73.9529954716249, 40.7841293182903], [-73.9530482466573, 40.7841516237071], [-73.9532325445063, 40.7838999806094], [-73.9531797714599, 40.7838776759794]]]}}, {"type": "Feature", "properties": {"zone_id": "0204HANUGHWO0RZA5Z3I9J", "tract_id": "36061015801", "city": "NEW YORK, NY", "zone_code": "R8B", "zone_category": "Residential", "ev_permitted": false}, "geometry": {"type": "Polygon", "coordinates": [[[-73.9532861437708, 40.7839226340654], [-73.9531018442134, 40.7841742765446], [-73.9533067521366, 40.7842608793891], [-73.953491049311, 40.7840092358822], [-73.9532861437708, 40.7839226340654]]]}}, {"type": "Feature", "properties": {"zone_id": "0205Z61X2HP89936QV4U0S", "tract_id": "36061015801", "city": "NEW YORK, NY", "zone_code": "R8B", "zone_category": "Residential", "ev_permitted": false}, "geometry": {"type": "Polygon", "coordinates": [[[-73.9532325445063, 40.7838999806094], [-73.9530482466573, 40.7841516237071], [-73.9531018442134, 40.7841742765446], [-73.9532861437708, 40.7839226340654], [-73.9532325445063, 40.7838999806094]]]}}, {"type": "Feature", "properties": {"zone_id": "0206N5K7EYQT4H5TU01FUP", "tract_id": "36061015801", "city": "NEW YORK, NY", "zone_code": "R8B", "zone_category": "Residential", "ev_permitted": false}, "geometry": {"type": "Polygon", "coordinates": [[[-73.9533618251335, 40.7836290974237], [-73.9531797714599, 40.7838776759794], [-73.953491049311, 40.7840092358822], [-73.9536731031062, 40.7837606575428], [-73.9533618251335, 40.7836290974237]]]}}, {"type": "Feature", "properties": {"zone_id": "0200FI65TJ1S2VTWLCP2NA", "tract_id": "36061015801", "city": "NEW YORK, NY", "zone_code": "R8B", "zone_category": "Residential", "ev_permitted": false}, "geometry": {"type": "Polygon", "coordinates": [[[-73.9533216343871, 40.7836121121061], [-73.9531395806104, 40.7838606898963], [-73.9531797714599, 40.7838776759794], [-73.9533618251335, 40.7836290974237], [-73.9533216343871, 40.7836121121061]]]}}, {"type": "Feature", "properties": {"zone_id": "0201W3UJ1KZIYDAZ26VZZX", "tract_id": "36061015801", "city": "NEW YORK, NY", "zone_code": "R8B", "zone_category": "Residential", "ev_permitted": false}, "geometry": {"type": "Polygon", "coordinates": [[[-73.9532041267086, 40.7835624473823], [-73.9530220707801, 40.783811024988], [-73.9530998232029, 40.783843886665], [-73.9532818770821, 40.783595308937], [-73.9532041267086, 40.7835624473823]]]}}, {"type": "Feature", "properties": {"zone_id": "0202LWMKU4BSBY9UWUPN9B", "tract_id": "36061015801", "city": "NEW YORK, NY", "zone_code": "R8B", "zone_category": "Residential", "ev_permitted": false}, "geometry": {"type": "Polygon", "coordinates": [[[-73.9532818770821, 40.783595308937], [-73.9530998232029, 40.783843886665], [-73.9531395806104, 40.7838606898963], [-73.9533216343871, 40.7836121121061], [-73.9532818770821, 40.783595308937]]]}}, {"type": "Feature", "properties": {"zone_id": "0200CEAVORDI13MERW1N7C", "tract_id": "36061015801", "city": "NEW YORK, NY", "zone_code": "R8B", "zone_category": "Residential", "ev_permitted": false}, "geometry": {"type": "Polygon", "coordinates": [[[-73.9524690319032, 40.7844000793833], [-73.9522822545258, 40.7846550978635], [-73.952533698358, 40.784761370292], [-73.9527204741461, 40.7845063514082], [-73.9524690319032, 40.7844000793833]]]}}, {"type": "Feature", "properties": {"zone_id": "0201R94AGKQ42EFHHR7UTR", "tract_id": "36061015801", "city": "NEW YORK, NY", "zone_code": "R8B", "zone_category": "Residential", "ev_permitted": false}, "geometry": {"type": "Polygon", "coordinates": [[[-73.9527290124175, 40.7841843239146], [-73.9525468919413, 40.784432987147], [-73.9527039670472, 40.784499374328], [-73.9528860871183, 40.7842507108499], [-73.9527290124175, 40.7841843239146]]]}}, {"type": "Feature", "properties": {"zone_id": "0205QGD77MD7GMF07LZO66", "tract_id": "36061015801", "city": "NEW YORK, NY", "zone_code": "C1-8X", "zone_category": "Commercial", "ev_permitted": true}, "geometry": {"type": "Polygon", "coordinates": [[[-73.9525376653803, 40.7841034515378], [-73.9523555444118, 40.7843521130656], [-73.9525468919413, 40.784432987147], [-73.9527290124175, 40.7841843239146], [-73.9525376653803, 40.7841034515378]]]}}, {"type": "Feature", "properties": {"zone_id": "02025WYV43BR95B2B4F3J6", "tract_id": "36061015801", "city": "NEW YORK, NY", "zone_code": "R8B", "zone_category": "Residential", "ev_permitted": false}, "geometry": {"type": "Polygon", "coordinates": [[[-73.9516827890718, 40.7839511168904], [-73.9516163926546, 40.7840417725934], [-73.951725146594, 40.7840877351009], [-73.9515395211438, 40.7843411768246], [-73.9518107161005, 40.7844557996186], [-73.9520661458052, 40.7841070471889], [-73.9517946529462, 40.783992834511], [-73.951791664127, 40.7839969142633], [-73.9516827890718, 40.7839511168904]]]}}, {"type": "Feature", "properties": {"zone_id": "0200K9UZR97MZOK79183ER", "tract_id": "36061015801", "city": "NEW YORK, NY", "zone_code": "C1-8X", "zone_category": "Commercial", "ev_permitted": true}, "geometry": {"type": "Polygon", "coordinates": [[[-73.9521315997671, 40.7844161815193], [-73.9520996323468, 40.784459828216], [-73.9523482971704, 40.7845649271716], [-73.9523802635537, 40.7845212804062], [-73.9521315997671, 40.7844161815193]]]}}, {"type": "Feature", "properties": {"zone_id": "0202X4MMXNG02QDAE2TB5Q", "tract_id": "36061015801", "city": "NEW YORK, NY", "zone_code": "C1-8X", "zone_category": "Commercial", "ev_permitted": true}, "geometry": {"type": "Polygon", "coordinates": [[[-73.9520996323468, 40.784459828216], [-73.9520335894697, 40.7845499987668], [-73.9522822545258, 40.7846550978635], [-73.9523482971704, 40.7845649271716], [-73.9520996323468, 40.784459828216]]]}}, {"type": "Feature", "properties": {"zone_id": "0202PWEL9L6ZTB1O5N9YMZ", "tract_id": "36061015801", "city": "NEW YORK, NY", "zone_code": "C1-8X", "zone_category": "Commercial", "ev_permitted": true}, "geometry": {"type": "Polygon", "coordinates": [[[-73.9522203675042, 40.7842949813883], [-73.9521903591205, 40.7843359539272], [-73.9524390227002, 40.7844410526886], [-73.9524690319032, 40.7844000793833], [-73.9522203675042, 40.7842949813883]]]}}, {"type": "Feature", "properties": {"zone_id": "02006VDAUVIUVE2I2HBH9V", "tract_id": "36061015801", "city": "NEW YORK, NY", "zone_code": "C1-8X", "zone_category": "Commercial", "ev_permitted": true}, "geometry": {"type": "Polygon", "coordinates": [[[-73.9521903591205, 40.7843359539272], [-73.9521315997671, 40.7844161815193], [-73.9523802635537, 40.7845212804062], [-73.9524390227002, 40.7844410526886], [-73.9521903591205, 40.7843359539272]]]}}, {"type": "Feature", "properties": {"zone_id": "0203RAQP8LH26RJ1J6MY0G", "tract_id": "36061015801", "city": "NEW YORK, NY", "zone_code": "C1-8X", "zone_category": "Commercial", "ev_permitted": true}, "geometry": {"type": "Polygon", "coordinates": [[[-73.9522677914085, 40.7842302305852], [-73.9522203675042, 40.7842949813883], [-73.9523555444118, 40.7843521130656], [-73.9524029673001, 40.7842873636124], [-73.9522677914085, 40.7842302305852]]]}}, {"type": "Feature", "properties": {"zone_id": "0201HTEUQBVGR966DNXAVJ", "tract_id": "36061015801", "city": "NEW YORK, NY", "zone_code": "R8B", "zone_category": "Residential", "ev_permitted": false}, "geometry": {"type": "Polygon", "coordinates": [[[-73.9530220707801, 40.783811024988], [-73.9528377723829, 40.7840626663473], [-73.9529155240837, 40.7840955288497], [-73.9530998232029, 40.783843886665], [-73.9530220707801, 40.783811024988]]]}}, {"type": "Feature", "properties": {"zone_id": "0201JRAES2C84VZP2AVSZP", "tract_id": "36061015801", "city": "NEW YORK, NY", "zone_code": "R8B", "zone_category": "Residential", "ev_permitted": false}, "geometry": {"type": "Polygon", "coordinates": [[[-73.9530998232029, 40.783843886665], [-73.9529155240837, 40.7840955288497], [-73.9529954716249, 40.7841293182903], [-73.9531797714599, 40.7838776759794], [-73.9530998232029, 40.783843886665]]]}}, {"type": "Feature", "properties": {"zone_id": "02026YQDZ1394BF3TMFC40", "tract_id": "36061015801", "city": "NEW YORK, NY", "zone_code": "R8B", "zone_category": "Residential", "ev_permitted": false}, "geometry": {"type": "Polygon", "coordinates": [[[-73.9531544525648, 40.7835414530385], [-73.9529723974327, 40.7837900305669], [-73.9530220707801, 40.783811024988], [-73.9532041267086, 40.7835624473823], [-73.9531544525648, 40.7835414530385]]]}}, {"type": "Feature", "properties": {"zone_id": "0205PC4VIUW597BWOH2TBT", "tract_id": "36061015801", "city": "NEW YORK, NY", "zone_code": "R8B", "zone_category": "Residential", "ev_permitted": false}, "geometry": {"type": "Polygon", "coordinates": [[[-73.9528623206819, 40.7837435065718], [-73.9526780209429, 40.7839951483805], [-73.9528377723829, 40.7840626663473], [-73.9530220707801, 40.783811024988], [-73.9528623206819, 40.7837435065718]]]}}, {"type": "Feature", "properties": {"zone_id": "02021QTXO22QFL7LF7BF62", "tract_id": "36061015801", "city": "NEW YORK, NY", "zone_code": "C1-8X", "zone_category": "Commercial", "ev_permitted": true}, "geometry": {"type": "Polygon", "coordinates": [[[-73.9526805367682, 40.7836666750732], [-73.9524962374788, 40.7839183172973], [-73.9526780209429, 40.7839951483805], [-73.9528623206819, 40.7837435065718], [-73.9526805367682, 40.7836666750732]]]}}, {"type": "Feature", "properties": {"zone_id": "0204JTJ0JGCORRHDD3JIAH", "tract_id": "36061015801", "city": "NEW YORK, NY", "zone_code": "R8B", "zone_category": "Residential", "ev_permitted": false}, "geometry": {"type": "Polygon", "coordinates": [[[-73.9517377240244, 40.7837653502948], [-73.9515544443228, 40.7840155903494], [-73.9516163926546, 40.7840417725934], [-73.9516827890718, 40.7839511168904], [-73.951791664127, 40.7839969142633], [-73.9517946529462, 40.783992834511], [-73.9520661458052, 40.7841070471889], [-73.9521796156927, 40.7839521202241], [-73.9517377240244, 40.7837653502948]]]}}, {"type": "Feature", "properties": {"zone_id": "0206KPTW2QL06ZL1NRCHX2", "tract_id": "36061015801", "city": "NEW YORK, NY", "zone_code": "C1-8X", "zone_category": "Commercial", "ev_permitted": true}, "geometry": {"type": "Polygon", "coordinates": [[[-73.9524024888223, 40.7840463186666], [-73.9522677914085, 40.7842302305852], [-73.9524029673001, 40.7842873636124], [-73.9525376653803, 40.7841034515378], [-73.9524024888223, 40.7840463186666]]]}}, {"type": "Feature", "properties": {"zone_id": "0206P03731EW9REDM95T33", "tract_id": "36061015801", "city": "NEW YORK, NY", "zone_code": "R8B", "zone_category": "Residential", "ev_permitted": false}, "geometry": {"type": "Polygon", "coordinates": [[[-73.9539524479882, 40.7833861990687], [-73.9537717088144, 40.7836362673098], [-73.9542613844709, 40.7838420579627], [-73.9544694923368, 40.7835541169985], [-73.9541752858333, 40.7834304734619], [-73.9541479148192, 40.7834683460581], [-73.9539524479882, 40.7833861990687]]]}}, {"type": "Feature", "properties": {"zone_id": "020055PIPJUYQZHD160ZY3", "tract_id": "36061015801", "city": "NEW YORK, NY", "zone_code": "R10", "zone_category": "Residential", "ev_permitted": false}, "geometry": {"type": "Polygon", "coordinates": [[[-73.9543194227934, 40.7833369423557], [-73.9542893676447, 40.7833785260326], [-73.9545248687805, 40.7834774970964], [-73.9545549229028, 40.7834359126556], [-73.9543194227934, 40.7833369423557]]]}}, {"type": "Feature", "properties": {"zone_id": "0205GSKDMZQ0C5M02WJTBZ", "tract_id": "36061015801", "city": "NEW YORK, NY", "zone_code": "R10", "zone_category": "Residential", "ev_permitted": false}, "geometry": {"type": "Polygon", "coordinates": [[[-73.9542632884197, 40.7834146102168], [-73.9542339919372, 40.7834551451205], [-73.9544694923368, 40.7835541169985], [-73.9544987887199, 40.7835135813329], [-73.9542632884197, 40.7834146102168]]]}}, {"type": "Feature", "properties": {"zone_id": "0201MYK5HX53IYQOM2KSKR", "tract_id": "36061015801", "city": "NEW YORK, NY", "zone_code": "R10", "zone_category": "Residential", "ev_permitted": false}, "geometry": {"type": "Polygon", "coordinates": [[[-73.9542893676447, 40.7833785260326], [-73.9542632884197, 40.7834146102168], [-73.9544987887199, 40.7835135813329], [-73.9545248687805, 40.7834774970964], [-73.9542893676447, 40.7833785260326]]]}}, {"type": "Feature", "properties": {"zone_id": "0203HOPKL8D8DAC81V6YYU", "tract_id": "36061015801", "city": "NEW YORK, NY", "zone_code": "R8B", "zone_category": "Residential", "ev_permitted": false}, "geometry": {"type": "Polygon", "coordinates": [[[-73.9538711320726, 40.7833520253896], [-73.9536903936111, 40.7836020928022], [-73.9537717088144, 40.7836362673098], [-73.9539524479882, 40.7833861990687], [-73.9538711320726, 40.7833520253896]]]}}, {"type": "Feature", "properties": {"zone_id": "0201XCUB446LF2XR75A835", "tract_id": "36061015801", "city": "NEW YORK, NY", "zone_code": "R8B", "zone_category": "Residential", "ev_permitted": false}, "geometry": {"type": "Polygon", "coordinates": [[[-73.9542790110913, 40.7831973852581], [-73.9540982200355, 40.7834474617263], [-73.9541479148192, 40.7834683460581], [-73.9543286660063, 40.7832182540385], [-73.9542790110913, 40.7831973852581]]]}}, {"type": "Feature", "properties": {"zone_id": "0204GLVE50A1X72DOCA01F", "tract_id": "36061015801", "city": "NEW YORK, NY", "zone_code": "R10", "zone_category": "Residential", "ev_permitted": false}, "geometry": {"type": "Polygon", "coordinates": [[[-73.9543485304146, 40.783296667336], [-73.9543194227934, 40.7833369423557], [-73.9545549229028, 40.7834359126556], [-73.9545840313493, 40.7833956375775], [-73.9543485304146, 40.783296667336]]]}}, {"type": "Feature", "properties": {"zone_id": "0201Z7UNSJBJS2N38F98S1", "tract_id": "36061015801", "city": "NEW YORK, NY", "zone_code": "R10", "zone_category": "Residential", "ev_permitted": false}, "geometry": {"type": "Polygon", "coordinates": [[[-73.9543286660063, 40.7832182540385], [-73.9541752858333, 40.7834304734619], [-73.9542339919372, 40.7834551451205], [-73.9543873719799, 40.7832429256198], [-73.9543286660063, 40.7832182540385]]]}}, {"type": "Feature", "properties": {"zone_id": "0201LJDDA3LM49YFFDXXVM", "tract_id": "36061015801", "city": "NEW YORK, NY", "zone_code": "R8B", "zone_category": "Residential", "ev_permitted": false}, "geometry": {"type": "Polygon", "coordinates": [[[-73.954232462235, 40.7831778232172], [-73.954051671058, 40.7834278989106], [-73.9540982200355, 40.7834474617263], [-73.9542790110913, 40.7831973852581], [-73.954232462235, 40.7831778232172]]]}}, {"type": "Feature", "properties": {"zone_id": "0200YUM8G84FJDTX58ZGW3", "tract_id": "36061015801", "city": "NEW YORK, NY", "zone_code": "R8B", "zone_category": "Residential", "ev_permitted": false}, "geometry": {"type": "Polygon", "coordinates": [[[-73.9541331996869, 40.7831361066499], [-73.9539524479882, 40.7833861990687], [-73.954051671058, 40.7834278989106], [-73.954232462235, 40.7831778232172], [-73.9541331996869, 40.7831361066499]]]}}, {"type": "Feature", "properties": {"zone_id": "0201I1VB4SHWBUH09HXO1H", "tract_id": "36061015801", "city": "NEW YORK, NY", "zone_code": "R8B", "zone_category": "Residential", "ev_permitted": false}, "geometry": {"type": "Polygon", "coordinates": [[[-73.9540398942432, 40.7830968938141], [-73.9538591413761, 40.7833469860877], [-73.9539091335825, 40.7833679957139], [-73.954089980581, 40.7831179427487], [-73.9540398942432, 40.7830968938141]]]}}, {"type": "Feature", "properties": {"zone_id": "0202I6E1POQGN4AP11E50C", "tract_id": "36061015801", "city": "NEW YORK, NY", "zone_code": "R8B", "zone_category": "Residential", "ev_permitted": false}, "geometry": {"type": "Polygon", "coordinates": [[[-73.9539936902299, 40.7830774765603], [-73.9538129381669, 40.7833275680598], [-73.9538591413761, 40.7833469860877], [-73.9540398942432, 40.7830968938141], [-73.9539936902299, 40.7830774765603]]]}}, {"type": "Feature", "properties": {"zone_id": "0206NPB1CA5OZU9OG0SPD5", "tract_id": "36061015801", "city": "NEW YORK, NY", "zone_code": "R8B", "zone_category": "Residential", "ev_permitted": false}, "geometry": {"type": "Polygon", "coordinates": [[[-73.954089980581, 40.7831179427487], [-73.9539091335825, 40.7833679957139], [-73.9539524479882, 40.7833861990687], [-73.9541331996869, 40.7831361066499], [-73.954089980581, 40.7831179427487]]]}}, {"type": "Feature", "properties": {"zone_id": "020270DZFAUHBI6EMY8UX3", "tract_id": "36061015801", "city": "NEW YORK, NY", "zone_code": "R8B", "zone_category": "Residential", "ev_permitted": false}, "geometry": {"type": "Polygon", "coordinates": [[[-73.9539439116909, 40.7830565555893], [-73.9537631585727, 40.7833066477138], [-73.9538129381669, 40.7833275680598], [-73.9539936902299, 40.7830774765603], [-73.9539439116909, 40.7830565555893]]]}}, {"type": "Feature", "properties": {"zone_id": "0206JAD1YLOL5JID860B4J", "tract_id": "36061015801", "city": "NEW YORK, NY", "zone_code": "R8B", "zone_category": "Residential", "ev_permitted": false}, "geometry": {"type": "Polygon", "coordinates": [[[-73.9538989054115, 40.7830376418748], [-73.9537181531006, 40.7832877332273], [-73.9537631585727, 40.7833066477138], [-73.9539439116909, 40.7830565555893], [-73.9538989054115, 40.7830376418748]]]}}, {"type": "Feature", "properties": {"zone_id": "0202195LHRMTEULJWFTDB2", "tract_id": "36061015801", "city": "NEW YORK, NY", "zone_code": "R8B", "zone_category": "Residential", "ev_permitted": false}, "geometry": {"type": "Polygon", "coordinates": [[[-73.9537181531006, 40.7832877332273], [-73.9535374142385, 40.7835378011051], [-73.9536100007826, 40.7835683064722], [-73.9537907385304, 40.7833182384813], [-73.9537181531006, 40.7832877332273]]]}}, {"type": "Feature", "properties": {"zone_id": "0202L328TNUXHREHXNGTEU", "tract_id": "36061015801", "city": "NEW YORK, NY", "zone_code": "R8B", "zone_category": "Residential", "ev_permitted": false}, "geometry": {"type": "Polygon", "coordinates": [[[-73.9537907385304, 40.7833182384813], [-73.9536100007826, 40.7835683064722], [-73.9536903936111, 40.7836020928022], [-73.9538711320726, 40.7833520253896], [-73.9537907385304, 40.7833182384813]]]}}, {"type": "Feature", "properties": {"zone_id": "0203PWHHEGCY5N53N1F164", "tract_id": "36061015801", "city": "NEW YORK, NY", "zone_code": "R8B", "zone_category": "Residential", "ev_permitted": false}, "geometry": {"type": "Polygon", "coordinates": [[[-73.9538415860004, 40.783013552395], [-73.9536608335391, 40.7832636443612], [-73.9537181531006, 40.7832877332273], [-73.9538989054115, 40.7830376418748], [-73.9538415860004, 40.783013552395]]]}}, {"type": "Feature", "properties": {"zone_id": "02073FI2QQX0E7FHWSAWGG", "tract_id": "36061015801", "city": "NEW YORK, NY", "zone_code": "R8B", "zone_category": "Residential", "ev_permitted": false}, "geometry": {"type": "Polygon", "coordinates": [[[-73.953585229079, 40.7832318695221], [-73.9534044898694, 40.7834819371936], [-73.9534554514543, 40.7835033549463], [-73.9536361905307, 40.7832532871957], [-73.953585229079, 40.7832318695221]]]}}, {"type": "Feature", "properties": {"zone_id": "0204APX8IGNYSH06KFNNZH", "tract_id": "36061015801", "city": "NEW YORK, NY", "zone_code": "R8B", "zone_category": "Residential", "ev_permitted": false}, "geometry": {"type": "Polygon", "coordinates": [[[-73.9536361905307, 40.7832532871957], [-73.9534554514543, 40.7835033549463], [-73.9535374142385, 40.7835378011051], [-73.9537181531006, 40.7832877332273], [-73.9536361905307, 40.7832532871957]]]}}, {"type": "Feature", "properties": {"zone_id": "02013UQ0YYW6LT3VMSG3G5", "tract_id": "36061015801", "city": "NEW YORK, NY", "zone_code": "R8B", "zone_category": "Residential", "ev_permitted": false}, "geometry": {"type": "Polygon", "coordinates": [[[-73.9535378274263, 40.7832119485047], [-73.9533570880927, 40.7834620161025], [-73.9534044898694, 40.7834819371936], [-73.953585229079, 40.7832318695221], [-73.9535378274263, 40.7832119485047]]]}}, {"type": "Feature", "properties": {"zone_id": "0203VDZ93STPTQG191MYP1", "tract_id": "36061015801", "city": "NEW YORK, NY", "zone_code": "C1-8X", "zone_category": "Commercial", "ev_permitted": true}, "geometry": {"type": "Polygon", "coordinates": [[[-73.9531048236145, 40.7830993333318], [-73.9529625370756, 40.7832961963893], [-73.9530582458346, 40.783336421489], [-73.953162467896, 40.7831922227822], [-73.9532684557622, 40.7832367668713], [-73.9533065209097, 40.783184100964], [-73.9531048236145, 40.7830993333318]]]}}, {"type": "Feature", "properties": {"zone_id": "02030CK0RLLKWJTF55CP9Q", "tract_id": "36061015801", "city": "NEW YORK, NY", "zone_code": "C1-8X", "zone_category": "Commercial", "ev_permitted": true}, "geometry": {"type": "Polygon", "coordinates": [[[-73.9533065209097, 40.783184100964], [-73.9531642347851, 40.7833809656734], [-73.9532183114762, 40.7834036924327], [-73.9533605974895, 40.7832068276573], [-73.9533065209097, 40.783184100964]]]}}, {"type": "Feature", "properties": {"zone_id": "0207N9HHDL50IPLXIKN6R5", "tract_id": "36061015801", "city": "NEW YORK, NY", "zone_code": "R8B", "zone_category": "Residential", "ev_permitted": false}, "geometry": {"type": "Polygon", "coordinates": [[[-73.9533990511726, 40.7831536250502], [-73.9532183114762, 40.7834036924327], [-73.9533133228222, 40.7834436226254], [-73.9534940622697, 40.7831935557981], [-73.9533990511726, 40.7831536250502]]]}}, {"type": "Feature", "properties": {"zone_id": "0207FOE4EMFHV2ZFCSSVJ7", "tract_id": "36061015801", "city": "NEW YORK, NY", "zone_code": "R8B", "zone_category": "Residential", "ev_permitted": false}, "geometry": {"type": "Polygon", "coordinates": [[[-73.9534940622697, 40.7831935557981], [-73.9533133228222, 40.7834436226254], [-73.9533570880927, 40.7834620161025], [-73.9535378274263, 40.7832119485047], [-73.9534940622697, 40.7831935557981]]]}}, {"type": "Feature", "properties": {"zone_id": "0201DWM2QMOTFN6HBIE7M1", "tract_id": "36061015801", "city": "NEW YORK, NY", "zone_code": "C1-8X", "zone_category": "Commercial", "ev_permitted": true}, "geometry": {"type": "Polygon", "coordinates": [[[-73.953162467896, 40.7831922227822], [-73.9530582458346, 40.783336421489], [-73.9531110360587, 40.7833586074355], [-73.9532152580404, 40.7832144086814], [-73.953162467896, 40.7831922227822]]]}}, {"type": "Feature", "properties": {"zone_id": "0201Y8XW6APCULU2GUUYQO", "tract_id": "36061015801", "city": "NEW YORK, NY", "zone_code": "C1-8X", "zone_category": "Commercial", "ev_permitted": true}, "geometry": {"type": "Polygon", "coordinates": [[[-73.9532152580404, 40.7832144086814], [-73.9531110360587, 40.7833586074355], [-73.9531642347851, 40.7833809656734], [-73.9532684557622, 40.7832367668713], [-73.9532152580404, 40.7832144086814]]]}}, {"type": "Feature", "properties": {"zone_id": "0206FJHZ0G38Z5NLQJXGSW", "tract_id": "36061015801", "city": "NEW YORK, NY", "zone_code": "R8B", "zone_category": "Residential", "ev_permitted": false}, "geometry": {"type": "Polygon", "coordinates": [[[-73.9537872663668, 40.7829907232422], [-73.9536065137635, 40.7832408151239], [-73.9536608335391, 40.7832636443612], [-73.9538415860004, 40.783013552395], [-73.9537872663668, 40.7829907232422]]]}}, {"type": "Feature", "properties": {"zone_id": "0207EEDT4QYZW803CEXWQ9", "tract_id": "36061015801", "city": "NEW YORK, NY", "zone_code": "R8B", "zone_category": "Residential", "ev_permitted": false}, "geometry": {"type": "Polygon", "coordinates": [[[-73.9536748170154, 40.7829434647943], [-73.9534940622697, 40.7831935557981], [-73.9535485825058, 40.7832164687849], [-73.9537293352607, 40.7829663769931], [-73.9536748170154, 40.7829434647943]]]}}, {"type": "Feature", "properties": {"zone_id": "02069SFXF1HKKAMNMCA6MR", "tract_id": "36061015801", "city": "NEW YORK, NY", "zone_code": "R8B", "zone_category": "Residential", "ev_permitted": false}, "geometry": {"type": "Polygon", "coordinates": [[[-73.9536204799375, 40.782920628529], [-73.9534802596457, 40.783114637484], [-73.9535346688894, 40.7831375427037], [-73.9536748170154, 40.7829434647943], [-73.9536204799375, 40.782920628529]]]}}, {"type": "Feature", "properties": {"zone_id": "020032I758MK88M1COSFSM", "tract_id": "36061015801", "city": "NEW YORK, NY", "zone_code": "R8B", "zone_category": "Residential", "ev_permitted": false}, "geometry": {"type": "Polygon", "coordinates": [[[-73.9537293352607, 40.7829663769931], [-73.9535485825058, 40.7832164687849], [-73.9536065137635, 40.7832408151239], [-73.9537872663668, 40.7829907232422], [-73.9537293352607, 40.7829663769931]]]}}, {"type": "Feature", "properties": {"zone_id": "0206ITJM1152BA0B0C1EC9", "tract_id": "36061015801", "city": "NEW YORK, NY", "zone_code": "C1-8X", "zone_category": "Commercial", "ev_permitted": true}, "geometry": {"type": "Polygon", "coordinates": [[[-73.9535665051561, 40.7828979441567], [-73.95342628383, 40.7830919537491], [-73.9534802596457, 40.783114637484], [-73.9536204799375, 40.782920628529], [-73.9535665051561, 40.7828979441567]]]}}, {"type": "Feature", "properties": {"zone_id": "02071UMUZAJDBQWI2WTDGE", "tract_id": "36061015801", "city": "NEW YORK, NY", "zone_code": "C1-8X", "zone_category": "Commercial", "ev_permitted": true}, "geometry": {"type": "Polygon", "coordinates": [[[-73.9532853075295, 40.7828496180407], [-73.9532494928864, 40.7828991707027], [-73.9534919670494, 40.7830010753682], [-73.9535277815673, 40.782951521929], [-73.9532853075295, 40.7828496180407]]]}}, {"type": "Feature", "properties": {"zone_id": "0206VQLO69DYU8RSUZ7A8O", "tract_id": "36061015801", "city": "NEW YORK, NY", "zone_code": "C1-8X", "zone_category": "Commercial", "ev_permitted": true}, "geometry": {"type": "Polygon", "coordinates": [[[-73.953216844572, 40.7829443421977], [-73.95318378908, 40.7829900770446], [-73.95342628383, 40.7830919537491], [-73.9534593188495, 40.7830462469311], [-73.953216844572, 40.7829443421977]]]}}, {"type": "Feature", "properties": {"zone_id": "0203Y6G5LSXSIN9ZXY9R4L", "tract_id": "36061015801", "city": "NEW YORK, NY", "zone_code": "R8B", "zone_category": "Residential", "ev_permitted": false}, "geometry": {"type": "Polygon", "coordinates": [[[-73.95318378908, 40.7829900770446], [-73.953143276516, 40.7830461301061], [-73.9534940622697, 40.7831935557981], [-73.9535346688894, 40.7831375427037], [-73.95318378908, 40.7829900770446]]]}}, {"type": "Feature", "properties": {"zone_id": "0206ALNWPK6ROY3K7LGEFC", "tract_id": "36061015801", "city": "NEW YORK, NY", "zone_code": "C1-8X", "zone_category": "Commercial", "ev_permitted": true}, "geometry": {"type": "Polygon", "coordinates": [[[-73.953143276516, 40.7830461301061], [-73.9531048236145, 40.7830993333318], [-73.9533605974895, 40.7832068276573], [-73.9533990511726, 40.7831536250502], [-73.953143276516, 40.7830461301061]]]}}, {"type": "Feature", "properties": {"zone_id": "0207O9XQMTI585ML33MLU7", "tract_id": "36061015801", "city": "NEW YORK, NY", "zone_code": "C1-8X", "zone_category": "Commercial", "ev_permitted": true}, "geometry": {"type": "Polygon", "coordinates": [[[-73.9532494928864, 40.7828991707027], [-73.953216844572, 40.7829443421977], [-73.9534593188495, 40.7830462469311], [-73.9534919670494, 40.7830010753682], [-73.9532494928864, 40.7828991707027]]]}}, {"type": "Feature", "properties": {"zone_id": "0203JBKIZ4CFUF33LXSZ80", "tract_id": "36061015801", "city": "NEW YORK, NY", "zone_code": "C1-8X", "zone_category": "Commercial", "ev_permitted": true}, "geometry": {"type": "Polygon", "coordinates": [[[-73.9533240312547, 40.7827960396465], [-73.9532853075295, 40.7828496180407], [-73.9535277815673, 40.782951521929], [-73.9535665051561, 40.7828979441567], [-73.9533240312547, 40.7827960396465]]]}}, {"type": "Feature", "properties": {"zone_id": "02057NL5TU4JECCVTJ5NAR", "tract_id": "36061015801", "city": "NEW YORK, NY", "zone_code": "C1-8X", "zone_category": "Commercial", "ev_permitted": true}, "geometry": {"type": "Polygon", "coordinates": [[[-73.953102833149, 40.7835196357787], [-73.9529207788082, 40.7837682132268], [-73.9529723974327, 40.7837900305669], [-73.9531544525648, 40.7835414530385], [-73.953102833149, 40.7835196357787]]]}}, {"type": "Feature", "properties": {"zone_id": "020063TLHTDWJP45JIFVN5", "tract_id": "36061015801", "city": "NEW YORK, NY", "zone_code": "C1-8X", "zone_category": "Commercial", "ev_permitted": true}, "geometry": {"type": "Polygon", "coordinates": [[[-73.9529956030856, 40.7834743146022], [-73.9528135475435, 40.7837228925849], [-73.9528675023154, 40.7837456967494], [-73.9530495577179, 40.783497119385], [-73.9529956030856, 40.7834743146022]]]}}, {"type": "Feature", "properties": {"zone_id": "0200Y6DDUPQ2NN10PD6V3W", "tract_id": "36061015801", "city": "NEW YORK, NY", "zone_code": "C1-8X", "zone_category": "Commercial", "ev_permitted": true}, "geometry": {"type": "Polygon", "coordinates": [[[-73.952945885639, 40.7834533018816], [-73.9527638299693, 40.7837018790839], [-73.9528135475435, 40.7837228925849], [-73.9529956030856, 40.7834743146022], [-73.952945885639, 40.7834533018816]]]}}, {"type": "Feature", "properties": {"zone_id": "0205JCB1U6BN960K5R4GIX", "tract_id": "36061015801", "city": "NEW YORK, NY", "zone_code": "C1-8X", "zone_category": "Commercial", "ev_permitted": true}, "geometry": {"type": "Polygon", "coordinates": [[[-73.9528625926527, 40.7834180980012], [-73.9526805367682, 40.7836666750732], [-73.9527638299693, 40.7837018790839], [-73.952945885639, 40.7834533018816], [-73.9528625926527, 40.7834180980012]]]}}, {"type": "Feature", "properties": {"zone_id": "0205H2SHDI0SSQPU8SQDM0", "tract_id": "36061015801", "city": "NEW YORK, NY", "zone_code": "C1-8X", "zone_category": "Commercial", "ev_permitted": true}, "geometry": {"type": "Polygon", "coordinates": [[[-73.9530495577179, 40.783497119385], [-73.9528675023154, 40.7837456967494], [-73.9529207788082, 40.7837682132268], [-73.953102833149, 40.7835196357787], [-73.9530495577179, 40.783497119385]]]}}, {"type": "Feature", "properties": {"zone_id": "0205I2JHQ673LCDWWQW4Y1", "tract_id": "36061015801", "city": "NEW YORK, NY", "zone_code": "C1-8X", "zone_category": "Commercial", "ev_permitted": true}, "geometry": {"type": "Polygon", "coordinates": [[[-73.9521772326107, 40.7834578056671], [-73.9519950852289, 40.7837065017714], [-73.9522733646446, 40.7838241197369], [-73.952419422233, 40.7836246944221], [-73.9521964636225, 40.7835304594323], [-73.9522325509649, 40.7834811861678], [-73.9521772326107, 40.7834578056671]]]}}, {"type": "Feature", "properties": {"zone_id": "0203JZFK24GLUCJO2V3SO0", "tract_id": "36061015801", "city": "NEW YORK, NY", "zone_code": "C1-8X", "zone_category": "Commercial", "ev_permitted": true}, "geometry": {"type": "Polygon", "coordinates": [[[-73.9522325509649, 40.7834811861678], [-73.9521964636225, 40.7835304594323], [-73.952419422233, 40.7836246944221], [-73.9524555103854, 40.7835754217915], [-73.9522325509649, 40.7834811861678]]]}}, {"type": "Feature", "properties": {"zone_id": "02045GZMW3UU4WGJWJCSVS", "tract_id": "36061015801", "city": "NEW YORK, NY", "zone_code": "R8B", "zone_category": "Residential", "ev_permitted": false}, "geometry": {"type": "Polygon", "coordinates": [[[-73.9517889027413, 40.7832936729887], [-73.951606754358, 40.7835423684855], [-73.9516700542672, 40.7835691232291], [-73.9518522024878, 40.7833204269305], [-73.9517889027413, 40.7832936729887]]]}}, {"type": "Feature", "properties": {"zone_id": "0205QGEQM39COXMGTKPRB2", "tract_id": "36061015801", "city": "NEW YORK, NY", "zone_code": "R8B", "zone_category": "Residential", "ev_permitted": false}, "geometry": {"type": "Polygon", "coordinates": [[[-73.9518522024878, 40.7833204269305], [-73.9516700542672, 40.7835691232291], [-73.9517305042173, 40.7835946731011], [-73.9519126532059, 40.7833459774111], [-73.9518522024878, 40.7833204269305]]]}}, {"type": "Feature", "properties": {"zone_id": "020548OIW8OUNQUY45I15Q", "tract_id": "36061015801", "city": "NEW YORK, NY", "zone_code": "R8B", "zone_category": "Residential", "ev_permitted": false}, "geometry": {"type": "Polygon", "coordinates": [[[-73.9519126532059, 40.7833459774111], [-73.9517305042173, 40.7835946731011], [-73.9517865562857, 40.783618364695], [-73.9519687032815, 40.7833696682138], [-73.9519126532059, 40.7833459774111]]]}}, {"type": "Feature", "properties": {"zone_id": "0203FS0KM3GZWW4AU1QEZ0", "tract_id": "36061015801", "city": "NEW YORK, NY", "zone_code": "R8B", "zone_category": "Residential", "ev_permitted": false}, "geometry": {"type": "Polygon", "coordinates": [[[-73.9520193943865, 40.783391093516], [-73.9518372456731, 40.783639789373], [-73.9518937358552, 40.7836636658951], [-73.9520758834989, 40.7834149692466], [-73.9520193943865, 40.783391093516]]]}}, {"type": "Feature", "properties": {"zone_id": "0204U2QT3EG4MN1DKTUBAO", "tract_id": "36061015801", "city": "NEW YORK, NY", "zone_code": "R8B", "zone_category": "Residential", "ev_permitted": false}, "geometry": {"type": "Polygon", "coordinates": [[[-73.9520758834989, 40.7834149692466], [-73.9518937358552, 40.7836636658951], [-73.9519426796303, 40.7836843513106], [-73.9521248271474, 40.7834356552882], [-73.9520758834989, 40.7834149692466]]]}}, {"type": "Feature", "properties": {"zone_id": "02040BIYZZOTDNE1DMS0QG", "tract_id": "36061015801", "city": "NEW YORK, NY", "zone_code": "R8B", "zone_category": "Residential", "ev_permitted": false}, "geometry": {"type": "Polygon", "coordinates": [[[-73.9519687032815, 40.7833696682138], [-73.9517865562857, 40.783618364695], [-73.9518372456731, 40.783639789373], [-73.9520193943865, 40.783391093516], [-73.9519687032815, 40.7833696682138]]]}}, {"type": "Feature", "properties": {"zone_id": "020751WC4IP8U4HKP6AYY2", "tract_id": "36061015801", "city": "NEW YORK, NY", "zone_code": "R8B", "zone_category": "Residential", "ev_permitted": false}, "geometry": {"type": "Polygon", "coordinates": [[[-73.9521248271474, 40.7834356552882], [-73.9519426796303, 40.7836843513106], [-73.9519950852289, 40.7837065017714], [-73.9521772326107, 40.7834578056671], [-73.9521248271474, 40.7834356552882]]]}}, {"type": "Feature", "properties": {"zone_id": "0200E1X6Y51PAISZ51ARLR", "tract_id": "36061015801", "city": "NEW YORK, NY", "zone_code": "C1-8X", "zone_category": "Commercial", "ev_permitted": true}, "geometry": {"type": "Polygon", "coordinates": [[[-73.9523377391704, 40.7831962656754], [-73.9521535277936, 40.7834477858471], [-73.9524555103854, 40.7835754217915], [-73.952639720975, 40.7833239004394], [-73.9523377391704, 40.7831962656754]]]}}, {"type": "Feature", "properties": {"zone_id": "0202ZZLMXV08XI8OOGKASL", "tract_id": "36061015801", "city": "NEW YORK, NY", "zone_code": "R8B", "zone_category": "Residential", "ev_permitted": false}, "geometry": {"type": "Polygon", "coordinates": [[[-73.9522585129764, 40.7831627803203], [-73.9520743023174, 40.783414300367], [-73.9521535277936, 40.7834477858471], [-73.9523377391704, 40.7831962656754], [-73.9522585129764, 40.7831627803203]]]}}, {"type": "Feature", "properties": {"zone_id": "0205G9VJ2KLROIUT4GP8DZ", "tract_id": "36061015801", "city": "NEW YORK, NY", "zone_code": "R8B", "zone_category": "Residential", "ev_permitted": false}, "geometry": {"type": "Polygon", "coordinates": [[[-73.952187185351, 40.7831326322718], [-73.9520029745055, 40.7833841529083], [-73.9520743023174, 40.783414300367], [-73.9522585129764, 40.7831627803203], [-73.952187185351, 40.7831326322718]]]}}, {"type": "Feature", "properties": {"zone_id": "0201Z9DUVXIOUBVTD5DAAV", "tract_id": "36061015801", "city": "NEW YORK, NY", "zone_code": "R8B", "zone_category": "Residential", "ev_permitted": false}, "geometry": {"type": "Polygon", "coordinates": [[[-73.9520522605776, 40.7830756044825], [-73.9518680493812, 40.7833271235002], [-73.9520029745055, 40.7833841529083], [-73.952187185351, 40.7831326322718], [-73.9520522605776, 40.7830756044825]]]}}, {"type": "Feature", "properties": {"zone_id": "0202TP0ON2CDG9QWINBJ1J", "tract_id": "36061015801", "city": "NEW YORK, NY", "zone_code": "R8B", "zone_category": "Residential", "ev_permitted": false}, "geometry": {"type": "Polygon", "coordinates": [[[-73.9519170745085, 40.7830184668119], [-73.9517328620346, 40.7832699863181], [-73.9518680493812, 40.7833271235002], [-73.9520522605776, 40.7830756044825], [-73.9519170745085, 40.7830184668119]]]}}, {"type": "Feature", "properties": {"zone_id": "02026QYXBYJ8FE9UPE3Q4U", "tract_id": "36061015801", "city": "NEW YORK, NY", "zone_code": "R8B", "zone_category": "Residential", "ev_permitted": false}, "geometry": {"type": "Polygon", "coordinates": [[[-73.9527472124707, 40.7825507680064], [-73.9525680949864, 40.7827985514384], [-73.9522980176553, 40.7826850417509], [-73.9521136705134, 40.7829394356689], [-73.9527410440898, 40.783203109072], [-73.9531041189147, 40.7827007677088], [-73.9527472124707, 40.7825507680064]]]}}, {"type": "Feature", "properties": {"zone_id": "0200L4TVABCGZS6BOZJFAE", "tract_id": "36061015801", "city": "NEW YORK, NY", "zone_code": "R8B", "zone_category": "Residential", "ev_permitted": false}, "geometry": {"type": "Polygon", "coordinates": [[[-73.9525585534224, 40.7824714784141], [-73.9523794576289, 40.782719269997], [-73.9525680949864, 40.7827985514384], [-73.9527472124707, 40.7825507680064], [-73.9525585534224, 40.7824714784141]]]}}, {"type": "Feature", "properties": {"zone_id": "0201V2RNCCT9VSWO2G4X0I", "tract_id": "36061015801", "city": "NEW YORK, NY", "zone_code": "R8B", "zone_category": "Residential", "ev_permitted": false}, "geometry": {"type": "Polygon", "coordinates": [[[-73.9517828894934, 40.7829617509923], [-73.9515986775929, 40.7832132716918], [-73.9517328620346, 40.7832699863181], [-73.9519170745085, 40.7830184668119], [-73.9517828894934, 40.7829617509923]]]}}, {"type": "Feature", "properties": {"zone_id": "0200VJA7W4TE1K67KSBZKG", "tract_id": "36061015801", "city": "NEW YORK, NY", "zone_code": "R8B", "zone_category": "Residential", "ev_permitted": false}, "geometry": {"type": "Polygon", "coordinates": [[[-73.9521399747937, 40.7826186184616], [-73.9519559931834, 40.7828731661627], [-73.9520415751252, 40.7829091347345], [-73.9522255565071, 40.7826545876008], [-73.9521399747937, 40.7826186184616]]]}}, {"type": "Feature", "properties": {"zone_id": "0206559ROVW2BC2PEI97UL", "tract_id": "36061015801", "city": "NEW YORK, NY", "zone_code": "R8B", "zone_category": "Residential", "ev_permitted": false}, "geometry": {"type": "Polygon", "coordinates": [[[-73.9522255565071, 40.7826545876008], [-73.9520415751252, 40.7829091347345], [-73.9521136705134, 40.7829394356689], [-73.9522980176553, 40.7826850417509], [-73.9522255565071, 40.7826545876008]]]}}, {"type": "Feature", "properties": {"zone_id": "0201DA8HJYYS5EZ9IUVIMW", "tract_id": "36061015801", "city": "NEW YORK, NY", "zone_code": "R8B", "zone_category": "Residential", "ev_permitted": false}, "geometry": {"type": "Polygon", "coordinates": [[[-73.9519047473103, 40.7825197543444], [-73.9517207650735, 40.7827743023765], [-73.9519559931834, 40.7828731661627], [-73.9521399747937, 40.7826186184616], [-73.9519047473103, 40.7825197543444]]]}}, {"type": "Feature", "properties": {"zone_id": "0200WLXHXDSVTVUC93SOFZ", "tract_id": "36061015801", "city": "NEW YORK, NY", "zone_code": "R8B", "zone_category": "Residential", "ev_permitted": false}, "geometry": {"type": "Polygon", "coordinates": [[[-73.9518118811474, 40.7824807253835], [-73.951627898665, 40.7827352711609], [-73.9517207650735, 40.7827743023765], [-73.9519047473103, 40.7825197543444], [-73.9518118811474, 40.7824807253835]]]}}, {"type": "Feature", "properties": {"zone_id": "0203699MZJL9N1JBP0BN5G", "tract_id": "36061015801", "city": "NEW YORK, NY", "zone_code": "C1-8X", "zone_category": "Commercial", "ev_permitted": true}, "geometry": {"type": "Polygon", "coordinates": [[[-73.9513490844832, 40.7845478280243], [-73.9513150474056, 40.7845943018029], [-73.9516327304681, 40.7847281460084], [-73.9516667673913, 40.7846816735422], [-73.9513490844832, 40.7845478280243]]]}}, {"type": "Feature", "properties": {"zone_id": "0206MMSVYK1U9SGNNUMW6A", "tract_id": "36061015801", "city": "NEW YORK, NY", "zone_code": "C1-8X", "zone_category": "Commercial", "ev_permitted": true}, "geometry": {"type": "Polygon", "coordinates": [[[-73.9513781801629, 40.7845081032302], [-73.9513490844832, 40.7845478280243], [-73.9516667673913, 40.7846816735422], [-73.95169586294, 40.7846419486687], [-73.9513781801629, 40.7845081032302]]]}}, {"type": "Feature", "properties": {"zone_id": "0202JS25QOISVRBGJGGNCW", "tract_id": "36061015801", "city": "NEW YORK, NY", "zone_code": "C1-8X", "zone_category": "Commercial", "ev_permitted": true}, "geometry": {"type": "Polygon", "coordinates": [[[-73.9514132998047, 40.7844601529144], [-73.9513781801629, 40.7845081032302], [-73.95169586294, 40.7846419486687], [-73.9517309814992, 40.7845939982568], [-73.9514132998047, 40.7844601529144]]]}}, {"type": "Feature", "properties": {"zone_id": "02062IB61ASIU320I5C1PK", "tract_id": "36061015801", "city": "NEW YORK, NY", "zone_code": "C1-8X", "zone_category": "Commercial", "ev_permitted": true}, "geometry": {"type": "Polygon", "coordinates": [[[-73.9513150474056, 40.7845943018029], [-73.9512828008344, 40.7846383282888], [-73.9516004840412, 40.7847721739876], [-73.9516327304681, 40.7847281460084], [-73.9513150474056, 40.7845943018029]]]}}, {"type": "Feature", "properties": {"zone_id": "0204GBI8YKQVSMSDFD4VOO", "tract_id": "36061015801", "city": "NEW YORK, NY", "zone_code": "R8B", "zone_category": "Residential", "ev_permitted": false}, "geometry": {"type": "Polygon", "coordinates": [[[-73.9513557305934, 40.7844358990831], [-73.9511764405046, 40.7846806897254], [-73.9512340098617, 40.784704944348], [-73.9514132998047, 40.7844601529144], [-73.9513557305934, 40.7844358990831]]]}}, {"type": "Feature", "properties": {"zone_id": "0205J1K6D6U3KMVEOMSDQB", "tract_id": "36061015801", "city": "NEW YORK, NY", "zone_code": "R8B", "zone_category": "Residential", "ev_permitted": false}, "geometry": {"type": "Polygon", "coordinates": [[[-73.9512950683375, 40.7844103397938], [-73.9511157790178, 40.7846551317484], [-73.9511764405046, 40.7846806897254], [-73.9513557305934, 40.7844358990831], [-73.9512950683375, 40.7844103397938]]]}}, {"type": "Feature", "properties": {"zone_id": "0202Y5FO8X9U1783KRN0T4", "tract_id": "36061015801", "city": "NEW YORK, NY", "zone_code": "R8B", "zone_category": "Residential", "ev_permitted": false}, "geometry": {"type": "Polygon", "coordinates": [[[-73.9511776225631, 40.7843608571307], [-73.9509983310966, 40.784605648201], [-73.9510539282104, 40.784629072946], [-73.9512332186116, 40.7843842810871], [-73.9511776225631, 40.7843608571307]]]}}, {"type": "Feature", "properties": {"zone_id": "0207J9YR7V5YBJKO9B329Q", "tract_id": "36061015801", "city": "NEW YORK, NY", "zone_code": "R8B", "zone_category": "Residential", "ev_permitted": false}, "geometry": {"type": "Polygon", "coordinates": [[[-73.9511169502774, 40.7843352949325], [-73.9509376595811, 40.7845800859097], [-73.9509983310966, 40.784605648201], [-73.9511776225631, 40.7843608571307], [-73.9511169502774, 40.7843352949325]]]}}, {"type": "Feature", "properties": {"zone_id": "0203EB12QADA4H5CS3S20B", "tract_id": "36061015801", "city": "NEW YORK, NY", "zone_code": "R8B", "zone_category": "Residential", "ev_permitted": false}, "geometry": {"type": "Polygon", "coordinates": [[[-73.9512332186116, 40.7843842810871], [-73.9510539282104, 40.784629072946], [-73.9511157790178, 40.7846551317484], [-73.9512950683375, 40.7844103397938], [-73.9512332186116, 40.7843842810871]]]}}, {"type": "Feature", "properties": {"zone_id": "0205JPHGV4H7R3Q7SA28V2", "tract_id": "36061015801", "city": "NEW YORK, NY", "zone_code": "R8B", "zone_category": "Residential", "ev_permitted": false}, "geometry": {"type": "Polygon", "coordinates": [[[-73.9510570838835, 40.7843100724253], [-73.9508777930355, 40.7845548626076], [-73.9509376595811, 40.7845800859097], [-73.9511169502774, 40.7843352949325], [-73.9510570838835, 40.7843100724253]]]}}, {"type": "Feature", "properties": {"zone_id": "02047MYJ703X7PHQFJFK86", "tract_id": "36061015801", "city": "NEW YORK, NY", "zone_code": "R8B", "zone_category": "Residential", "ev_permitted": false}, "geometry": {"type": "Polygon", "coordinates": [[[-73.9508187628787, 40.7845299916599], [-73.9506351315295, 40.7847807064734], [-73.9506941627649, 40.7848055768119], [-73.9508777930355, 40.7845548626076], [-73.9508187628787, 40.7845299916599]]]}}, {"type": "Feature", "properties": {"zone_id": "0206ADR618YUH7JQBIYXZF", "tract_id": "36061015801", "city": "NEW YORK, NY", "zone_code": "R8B", "zone_category": "Residential", "ev_permitted": false}, "geometry": {"type": "Polygon", "coordinates": [[[-73.9508777930355, 40.7845548626076], [-73.9506941627649, 40.7848055768119], [-73.9507540294658, 40.784830800911], [-73.9509376595811, 40.7845800859097], [-73.9508777930355, 40.7845548626076]]]}}, {"type": "Feature", "properties": {"zone_id": "0201BNXKRQVX07YK54AKWM", "tract_id": "36061015801", "city": "NEW YORK, NY", "zone_code": "R8B", "zone_category": "Residential", "ev_permitted": false}, "geometry": {"type": "Polygon", "coordinates": [[[-73.9507601791238, 40.7845053084807], [-73.950576547622, 40.7847560232017], [-73.9506351315295, 40.7847807064734], [-73.9508187628787, 40.7845299916599], [-73.9507601791238, 40.7845053084807]]]}}, {"type": "Feature", "properties": {"zone_id": "0202AEYJOHTN9S3641N6WZ", "tract_id": "36061015801", "city": "NEW YORK, NY", "zone_code": "R8B", "zone_category": "Residential", "ev_permitted": false}, "geometry": {"type": "Polygon", "coordinates": [[[-73.9505228956289, 40.784405334721], [-73.9503392644338, 40.7846560490682], [-73.9504024180187, 40.7846826568832], [-73.9505860490489, 40.7844319431391], [-73.9505228956289, 40.784405334721]]]}}, {"type": "Feature", "properties": {"zone_id": "0202HZEBB2C2GPW2CHSOYC", "tract_id": "36061015801", "city": "NEW YORK, NY", "zone_code": "R8B", "zone_category": "Residential", "ev_permitted": false}, "geometry": {"type": "Polygon", "coordinates": [[[-73.9506413945087, 40.7844552611729], [-73.9504577626978, 40.7847059757066], [-73.950517064572, 40.7847309614874], [-73.9507006953042, 40.7844802468598], [-73.9506413945087, 40.7844552611729]]]}}, {"type": "Feature", "properties": {"zone_id": "0206076X1GPZMKWCXTAVEM", "tract_id": "36061015801", "city": "NEW YORK, NY", "zone_code": "R8B", "zone_category": "Residential", "ev_permitted": false}, "geometry": {"type": "Polygon", "coordinates": [[[-73.9507006953042, 40.7844802468598], [-73.950517064572, 40.7847309614874], [-73.950576547622, 40.7847560232017], [-73.9507601791238, 40.7845053084807], [-73.9507006953042, 40.7844802468598]]]}}, {"type": "Feature", "properties": {"zone_id": "02043NYQBAPP5PW0HLFO8T", "tract_id": "36061015801", "city": "NEW YORK, NY", "zone_code": "R8B", "zone_category": "Residential", "ev_permitted": false}, "geometry": {"type": "Polygon", "coordinates": [[[-73.9505860490489, 40.7844319431391], [-73.9504024180187, 40.7846826568832], [-73.9504577626978, 40.7847059757066], [-73.9506413945087, 40.7844552611729], [-73.9505860490489, 40.7844319431391]]]}}, {"type": "Feature", "properties": {"zone_id": "0205OQJWEQLNJSK0X4QP0E", "tract_id": "36061015801", "city": "NEW YORK, NY", "zone_code": "R8B", "zone_category": "Residential", "ev_permitted": false}, "geometry": {"type": "Polygon", "coordinates": [[[-73.9509980529529, 40.7842852008655], [-73.9508187628787, 40.7845299916599], [-73.9508777930355, 40.7845548626076], [-73.9510570838835, 40.7843100724253], [-73.9509980529529, 40.7842852008655]]]}}, {"type": "Feature", "properties": {"zone_id": "0205JHWP2EVCCT3WJO6N0T", "tract_id": "36061015801", "city": "NEW YORK, NY", "zone_code": "R8B", "zone_category": "Residential", "ev_permitted": false}, "geometry": {"type": "Polygon", "coordinates": [[[-73.9508799866028, 40.7842354562475], [-73.9507006953042, 40.7844802468598], [-73.9507601791238, 40.7845053084807], [-73.9509394693468, 40.7842605177764], [-73.9508799866028, 40.7842354562475]]]}}, {"type": "Feature", "properties": {"zone_id": "02026TXL1COSDWGTSGJI40", "tract_id": "36061015801", "city": "NEW YORK, NY", "zone_code": "R8B", "zone_category": "Residential", "ev_permitted": false}, "geometry": {"type": "Polygon", "coordinates": [[[-73.9509394693468, 40.7842605177764], [-73.9507601791238, 40.7845053084807], [-73.9508187628787, 40.7845299916599], [-73.9509980529529, 40.7842852008655], [-73.9509394693468, 40.7842605177764]]]}}, {"type": "Feature", "properties": {"zone_id": "0205KUY1DUYALZL83TITSC", "tract_id": "36061015801", "city": "NEW YORK, NY", "zone_code": "R8B", "zone_category": "Residential", "ev_permitted": false}, "geometry": {"type": "Polygon", "coordinates": [[[-73.9507653406385, 40.7841871534059], [-73.9505860490489, 40.7844319431391], [-73.9506413945087, 40.7844552611729], [-73.9508206850337, 40.7842104706515], [-73.9507653406385, 40.7841871534059]]]}}, {"type": "Feature", "properties": {"zone_id": "02048J732R5HZJNMDDS0EH", "tract_id": "36061015801", "city": "NEW YORK, NY", "zone_code": "R8B", "zone_category": "Residential", "ev_permitted": false}, "geometry": {"type": "Polygon", "coordinates": [[[-73.9508206850337, 40.7842104706515], [-73.9506413945087, 40.7844552611729], [-73.9507006953042, 40.7844802468598], [-73.9508799866028, 40.7842354562475], [-73.9508206850337, 40.7842104706515]]]}}, {"type": "Feature", "properties": {"zone_id": "02061HAOU0A24N9VV28QHV", "tract_id": "36061015801", "city": "NEW YORK, NY", "zone_code": "R8B", "zone_category": "Residential", "ev_permitted": false}, "geometry": {"type": "Polygon", "coordinates": [[[-73.9507021873795, 40.7841605443825], [-73.9505228956289, 40.784405334721], [-73.9505860490489, 40.7844319431391], [-73.9507653406385, 40.7841871534059], [-73.9507021873795, 40.7841605443825]]]}}, {"type": "Feature", "properties": {"zone_id": "0201T6B80FGXAI79N3KHHZ", "tract_id": "36061015801", "city": "NEW YORK, NY", "zone_code": "R8B", "zone_category": "Residential", "ev_permitted": false}, "geometry": {"type": "Polygon", "coordinates": [[[-73.9512534493496, 40.7838883782774], [-73.9510678300623, 40.7841418094152], [-73.9515395211438, 40.7843411768246], [-73.951725146594, 40.7840877351009], [-73.9512534493496, 40.7838883782774]]]}}, {"type": "Feature", "properties": {"zone_id": "02033L2D5KSK4VQEXAJXDL", "tract_id": "36061015801", "city": "NEW YORK, NY", "zone_code": "R8B", "zone_category": "Residential", "ev_permitted": false}, "geometry": {"type": "Polygon", "coordinates": [[[-73.9510149024142, 40.7837875575879], [-73.9508292862007, 40.784040984131], [-73.9510678300623, 40.7841418094152], [-73.9512534493496, 40.7838883782774], [-73.9510149024142, 40.7837875575879]]]}}, {"type": "Feature", "properties": {"zone_id": "02042MGCUGGT9JUCCIEPQ8", "tract_id": "36061015801", "city": "NEW YORK, NY", "zone_code": "R8B", "zone_category": "Residential", "ev_permitted": false}, "geometry": {"type": "Polygon", "coordinates": [[[-73.9516416228561, 40.7837247318566], [-73.9514583419791, 40.7839749738674], [-73.9515544443228, 40.7840155903494], [-73.9517377240244, 40.7837653502948], [-73.9516416228561, 40.7837247318566]]]}}, {"type": "Feature", "properties": {"zone_id": "0203GEQY3MDTYBHHP9ZKIZ", "tract_id": "36061015801", "city": "NEW YORK, NY", "zone_code": "R8B", "zone_category": "Residential", "ev_permitted": false}, "geometry": {"type": "Polygon", "coordinates": [[[-73.9515453369794, 40.7836840352659], [-73.9513620549266, 40.7839342792328], [-73.9514583419791, 40.7839749738674], [-73.9516416228561, 40.7837247318566], [-73.9515453369794, 40.7836840352659]]]}}, {"type": "Feature", "properties": {"zone_id": "02027K60IIG6COPA39Q89H", "tract_id": "36061015801", "city": "NEW YORK, NY", "zone_code": "R8B", "zone_category": "Residential", "ev_permitted": false}, "geometry": {"type": "Polygon", "coordinates": [[[-73.951452956581, 40.7836449886613], [-73.9512696715137, 40.7838952345895], [-73.9513620549266, 40.7839342792328], [-73.9515453369794, 40.7836840352659], [-73.951452956581, 40.7836449886613]]]}}, {"type": "Feature", "properties": {"zone_id": "0205BK8UNLHDVQB6ZQ2F2I", "tract_id": "36061015801", "city": "NEW YORK, NY", "zone_code": "R8B", "zone_category": "Residential", "ev_permitted": false}, "geometry": {"type": "Polygon", "coordinates": [[[-73.9511675220249, 40.7835243449779], [-73.9509842334401, 40.7837745953743], [-73.9512696715137, 40.7838952345895], [-73.951452956581, 40.7836449886613], [-73.9511675220249, 40.7835243449779]]]}}, {"type": "Feature", "properties": {"zone_id": "0204O3MD6HGOLULC45N50U", "tract_id": "36061015801", "city": "NEW YORK, NY", "zone_code": "R8B", "zone_category": "Residential", "ev_permitted": false}, "geometry": {"type": "Polygon", "coordinates": [[[-73.9503819379759, 40.784025613004], [-73.950336425102, 40.7840877528026], [-73.9506566728624, 40.7842226857108], [-73.9507021873795, 40.7841605443825], [-73.9503819379759, 40.784025613004]]]}}, {"type": "Feature", "properties": {"zone_id": "02071HNXUKEFNHHEBZBS7X", "tract_id": "36061015801", "city": "NEW YORK, NY", "zone_code": "C2-8", "zone_category": "Commercial", "ev_permitted": true}, "geometry": {"type": "Polygon", "coordinates": [[[-73.9506408863895, 40.7838749877885], [-73.9505925829962, 40.7839409362734], [-73.9507145852746, 40.783992503443], [-73.9507627924754, 40.7839265141126], [-73.9506408863895, 40.7838749877885]]]}}, {"type": "Feature", "properties": {"zone_id": "0202G2EAHA5BIWIBM8RJYK", "tract_id": "36061015801", "city": "NEW YORK, NY", "zone_code": "R8B", "zone_category": "Residential", "ev_permitted": false}, "geometry": {"type": "Polygon", "coordinates": [[[-73.9506967596779, 40.7835731383551], [-73.9506525068067, 40.7836335573243], [-73.9509846951868, 40.7837739645892], [-73.9510289478499, 40.7837135454937], [-73.9506967596779, 40.7835731383551]]]}}, {"type": "Feature", "properties": {"zone_id": "02012XENHQIO58XARTIOX2", "tract_id": "36061015801", "city": "NEW YORK, NY", "zone_code": "R8B", "zone_category": "Residential", "ev_permitted": false}, "geometry": {"type": "Polygon", "coordinates": [[[-73.9506525068067, 40.7836335573243], [-73.950608173349, 40.7836940872605], [-73.9509403619375, 40.7838344946518], [-73.9509846951868, 40.7837739645892], [-73.9506525068067, 40.7836335573243]]]}}, {"type": "Feature", "properties": {"zone_id": "0200JW8AIHT7QUGVB4L9WP", "tract_id": "36061015801", "city": "NEW YORK, NY", "zone_code": "R8B", "zone_category": "Residential", "ev_permitted": false}, "geometry": {"type": "Polygon", "coordinates": [[[-73.950608173349, 40.7836940872605], [-73.9505641007611, 40.7837542589384], [-73.950896289557, 40.7838946664555], [-73.9509403619375, 40.7838344946518], [-73.950608173349, 40.7836940872605]]]}}, {"type": "Feature", "properties": {"zone_id": "0200IE9Q1GRIUKQNDECA23", "tract_id": "36061015801", "city": "NEW YORK, NY", "zone_code": "R8B", "zone_category": "Residential", "ev_permitted": false}, "geometry": {"type": "Polygon", "coordinates": [[[-73.9505641007611, 40.7837542589384], [-73.950514731371, 40.7838216649375], [-73.9508469194746, 40.7839620725951], [-73.950896289557, 40.7838946664555], [-73.9505641007611, 40.7837542589384]]]}}, {"type": "Feature", "properties": {"zone_id": "02063UEP2BEOID013XFMRO", "tract_id": "36061015801", "city": "NEW YORK, NY", "zone_code": "R8B", "zone_category": "Residential", "ev_permitted": false}, "geometry": {"type": "Polygon", "coordinates": [[[-73.9509842334401, 40.7837745953743], [-73.9508469194746, 40.7839620725951], [-73.9507627924754, 40.7839265141126], [-73.9507145852746, 40.783992503443], [-73.9508292862007, 40.784040984131], [-73.9510149024142, 40.7837875575879], [-73.9509842334401, 40.7837745953743]]]}}, {"type": "Feature", "properties": {"zone_id": "0200VGIVNAYFCTNTF3J74U", "tract_id": "36061015801", "city": "NEW YORK, NY", "zone_code": "C2-8", "zone_category": "Commercial", "ev_permitted": true}, "geometry": {"type": "Polygon", "coordinates": [[[-73.950514731371, 40.7838216649375], [-73.9504664278914, 40.7838876133701], [-73.9505925829962, 40.7839409362734], [-73.9506408863895, 40.7838749877885], [-73.950514731371, 40.7838216649375]]]}}, {"type": "Feature", "properties": {"zone_id": "0203M6U70AJX6FXTRQ632U", "tract_id": "36061015801", "city": "NEW YORK, NY", "zone_code": "R8B", "zone_category": "Residential", "ev_permitted": false}, "geometry": {"type": "Polygon", "coordinates": [[[-73.950336425102, 40.7840877528026], [-73.9500190133824, 40.7845211166914], [-73.9503392644338, 40.7846560490682], [-73.9506566728624, 40.7842226857108], [-73.950336425102, 40.7840877528026]]]}}, {"type": "Feature", "properties": {"zone_id": "020220HPU8RPYCBV8IXVEP", "tract_id": "36061015801", "city": "NEW YORK, NY", "zone_code": "R8B", "zone_category": "Residential", "ev_permitted": false}, "geometry": {"type": "Polygon", "coordinates": [[[-73.9517256002739, 40.7832669169029], [-73.9515434517269, 40.7835156130033], [-73.951606754358, 40.7835423684855], [-73.9517889027413, 40.7832936729887], [-73.9517256002739, 40.7832669169029]]]}}, {"type": "Feature", "properties": {"zone_id": "0204PVZNW34FN67FTVLLYZ", "tract_id": "36061015801", "city": "NEW YORK, NY", "zone_code": "R8B", "zone_category": "Residential", "ev_permitted": false}, "geometry": {"type": "Polygon", "coordinates": [[[-73.9515986775929, 40.7832132716918], [-73.95141652872, 40.7834619654857], [-73.9514813347991, 40.7834893582737], [-73.9516634835064, 40.7832406622704], [-73.9515986775929, 40.7832132716918]]]}}, {"type": "Feature", "properties": {"zone_id": "020516B6YC6UM015GZA1U1", "tract_id": "36061015801", "city": "NEW YORK, NY", "zone_code": "R8B", "zone_category": "Residential", "ev_permitted": false}, "geometry": {"type": "Polygon", "coordinates": [[[-73.9516634835064, 40.7832406622704], [-73.9514813347991, 40.7834893582737], [-73.9515434517269, 40.7835156130033], [-73.9517256002739, 40.7832669169029], [-73.9516634835064, 40.7832406622704]]]}}, {"type": "Feature", "properties": {"zone_id": "0201V26BBT2UVOAYQMGM23", "tract_id": "36061015801", "city": "NEW YORK, NY", "zone_code": "R8B", "zone_category": "Residential", "ev_permitted": false}, "geometry": {"type": "Polygon", "coordinates": [[[-73.9514411039023, 40.7831466698757], [-73.9512589564708, 40.7833953648293], [-73.95141652872, 40.7834619654857], [-73.9515986775929, 40.7832132716918], [-73.9514411039023, 40.7831466698757]]]}}, {"type": "Feature", "properties": {"zone_id": "02033ATWS91TB59ECYLOAH", "tract_id": "36061015801", "city": "NEW YORK, NY", "zone_code": "C1-9", "zone_category": "Commercial", "ev_permitted": true}, "geometry": {"type": "Polygon", "coordinates": [[[-73.9510673043449, 40.7830672223976], [-73.9509290852408, 40.7832559388298], [-73.9511616131852, 40.7833542212843], [-73.9512998318338, 40.7831655052787], [-73.9510673043449, 40.7830672223976]]]}}, {"type": "Feature", "properties": {"zone_id": "02037JTPT80U950U66CXQI", "tract_id": "36061015801", "city": "NEW YORK, NY", "zone_code": "C1-9", "zone_category": "Commercial", "ev_permitted": true}, "geometry": {"type": "Polygon", "coordinates": [[[-73.9512998318338, 40.7831655052787], [-73.9511616131852, 40.7833542212843], [-73.9512120277062, 40.7833755301843], [-73.9513502462561, 40.7831868141188], [-73.9512998318338, 40.7831655052787]]]}}, {"type": "Feature", "properties": {"zone_id": "0204LZGLY75MWATO4MU08J", "tract_id": "36061015801", "city": "NEW YORK, NY", "zone_code": "R8B", "zone_category": "Residential", "ev_permitted": false}, "geometry": {"type": "Polygon", "coordinates": [[[-73.9513502462561, 40.7831868141188], [-73.9512120277062, 40.7833755301843], [-73.9512589564708, 40.7833953648293], [-73.9513971730806, 40.7832066480047], [-73.9513502462561, 40.7831868141188]]]}}, {"type": "Feature", "properties": {"zone_id": "0204FWYR6LQXTLCMYSJVS8", "tract_id": "36061015801", "city": "NEW YORK, NY", "zone_code": "R8B", "zone_category": "Residential", "ev_permitted": false}, "geometry": {"type": "Polygon", "coordinates": [[[-73.9508353354291, 40.7833839382351], [-73.9507872083993, 40.7834496472772], [-73.9511193952215, 40.7835900541574], [-73.9511675220249, 40.7835243449779], [-73.9508353354291, 40.7833839382351]]]}}, {"type": "Feature", "properties": {"zone_id": "02053HU2Y1JAVVZQ7LIJ4C", "tract_id": "36061015801", "city": "NEW YORK, NY", "zone_code": "R8B", "zone_category": "Residential", "ev_permitted": false}, "geometry": {"type": "Polygon", "coordinates": [[[-73.9507872083993, 40.7834496472772], [-73.9507398271025, 40.7835143377719], [-73.9510720141476, 40.7836547447873], [-73.9511193952215, 40.7835900541574], [-73.9507872083993, 40.7834496472772]]]}}, {"type": "Feature", "properties": {"zone_id": "020321VIUHQG2XACWMVTYO", "tract_id": "36061015801", "city": "NEW YORK, NY", "zone_code": "R8B", "zone_category": "Residential", "ev_permitted": false}, "geometry": {"type": "Polygon", "coordinates": [[[-73.9507398271025, 40.7835143377719], [-73.9506967596779, 40.7835731383551], [-73.9510289478499, 40.7837135454937], [-73.9510720141476, 40.7836547447873], [-73.9507398271025, 40.7835143377719]]]}}, {"type": "Feature", "properties": {"zone_id": "0201N9ZJFAMW4A4RXGC0C4", "tract_id": "36061015801", "city": "NEW YORK, NY", "zone_code": "R8B", "zone_category": "Residential", "ev_permitted": false}, "geometry": {"type": "Polygon", "coordinates": [[[-73.9517050565045, 40.7829288532552], [-73.9515208434771, 40.7831803731286], [-73.9515986775929, 40.7832132716918], [-73.9517828894934, 40.7829617509923], [-73.9517050565045, 40.7829288532552]]]}}, {"type": "Feature", "properties": {"zone_id": "0204KHNETITMDPPYPFNFXQ", "tract_id": "36061015801", "city": "NEW YORK, NY", "zone_code": "R8B", "zone_category": "Residential", "ev_permitted": false}, "geometry": {"type": "Polygon", "coordinates": [[[-73.9516253171376, 40.7828951501286], [-73.9514411039023, 40.7831466698757], [-73.9515208434771, 40.7831803731286], [-73.9517050565045, 40.7829288532552], [-73.9516253171376, 40.7828951501286]]]}}, {"type": "Feature", "properties": {"zone_id": "0202JZJE8RXU2HAI6VUNIN", "tract_id": "36061015801", "city": "NEW YORK, NY", "zone_code": "R8B", "zone_category": "Residential", "ev_permitted": false}, "geometry": {"type": "Polygon", "coordinates": [[[-73.9512457891574, 40.7828235276627], [-73.9511112344483, 40.7830072429875], [-73.9514411039023, 40.7831466698757], [-73.9515756570586, 40.7829629541694], [-73.9512457891574, 40.7828235276627]]]}}, {"type": "Feature", "properties": {"zone_id": "0203UJ5B6BZNINC1410S1H", "tract_id": "36061015801", "city": "NEW YORK, NY", "zone_code": "R8B", "zone_category": "Residential", "ev_permitted": false}, "geometry": {"type": "Polygon", "coordinates": [[[-73.9511112344483, 40.7830072429875], [-73.9510673043449, 40.7830672223976], [-73.9513971730806, 40.7832066480047], [-73.9514411039023, 40.7831466698757], [-73.9511112344483, 40.7830072429875]]]}}, {"type": "Feature", "properties": {"zone_id": "0201GJ22SDZQCIE0UX91IU", "tract_id": "36061015801", "city": "NEW YORK, NY", "zone_code": "R8B", "zone_category": "Residential", "ev_permitted": false}, "geometry": {"type": "Polygon", "coordinates": [[[-73.9512954494684, 40.7827557237626], [-73.9512457891574, 40.7828235276627], [-73.9515756570586, 40.7829629541694], [-73.9516253171376, 40.7828951501286], [-73.9512954494684, 40.7827557237626]]]}}, {"type": "Feature", "properties": {"zone_id": "0202BYHW7D5FN60CWYTMSQ", "tract_id": "36061015801", "city": "NEW YORK, NY", "zone_code": "R8B", "zone_category": "Residential", "ev_permitted": false}, "geometry": {"type": "Polygon", "coordinates": [[[-73.9522404243664, 40.7823377728404], [-73.9520613277486, 40.7825855639339], [-73.9523794576289, 40.782719269997], [-73.9525585534224, 40.7824714784141], [-73.9522404243664, 40.7823377728404]]]}}, {"type": "Feature", "properties": {"zone_id": "020704KMS72U5QO42HAIY2", "tract_id": "36061015801", "city": "NEW YORK, NY", "zone_code": "R8B", "zone_category": "Residential", "ev_permitted": false}, "geometry": {"type": "Polygon", "coordinates": [[[-73.9520838452576, 40.7822719641948], [-73.9519047473103, 40.7825197543444], [-73.9520613277486, 40.7825855639339], [-73.9522404243664, 40.7823377728404], [-73.9520838452576, 40.7822719641948]]]}}, {"type": "Feature", "properties": {"zone_id": "020729W28XQ4URJZ100CSA", "tract_id": "36061015801", "city": "NEW YORK, NY", "zone_code": "R8B", "zone_category": "Residential", "ev_permitted": false}, "geometry": {"type": "Polygon", "coordinates": [[[-73.951758671774, 40.7821352961913], [-73.9516684401204, 40.782260135833], [-73.9519139498689, 40.7823633225253], [-73.951825080272, 40.7824862769352], [-73.9519047473103, 40.7825197543444], [-73.9520838452576, 40.7822719641948], [-73.951758671774, 40.7821352961913]]]}}, {"type": "Feature", "properties": {"zone_id": "02076XXBJV31CVJ816N239", "tract_id": "36061015801", "city": "NEW YORK, NY", "zone_code": "C1-9", "zone_category": "Commercial", "ev_permitted": true}, "geometry": {"type": "Polygon", "coordinates": [[[-73.9516684401204, 40.782260135833], [-73.9513955898823, 40.7826376326565], [-73.951627898665, 40.7827352711609], [-73.9518118811474, 40.7824807253835], [-73.951825080272, 40.7824862769352], [-73.9519139498689, 40.7823633225253], [-73.9516684401204, 40.782260135833]]]}}]}