{"type": "FeatureCollection", "features": [{"type": "Feature", "properties": {"zone_id": "02042WNKOE80QCIFBBRNZY", "tract_id": "06037264303", "city": "LOS ANGELES, CA", "zone_code": "C1.5-1VL", "zone_category": "Commercial", "ev_permitted": true}, "geometry": {"type": "Polygon", "coordinates": [[[-118.46809515402, 34.0525084565506], [-118.467374138177, 34.0530927028395], [-118.467893886044, 34.0529891831201], [-118.467890822101, 34.0529785056964], [-118.46821188385, 34.0529145544606], [-118.46809515402, 34.0525084565506]]]}}, {"type": "Feature", "properties": {"zone_id": "02078M8COLC3J2R51FB5DN", "tract_id": "06037264303", "city": "LOS ANGELES, CA", "zone_code": "C1.5-1VL", "zone_category": "Commercial", "ev_permitted": true}, "geometry": {"type": "Polygon", "coordinates": [[[-118.4673166709, 34.0526097086683], [-118.466594644972, 34.0527534948143], [-118.466729076459, 34.053221160926], [-118.466872163652, 34.0531926892646], [-118.467450419981, 34.0527241078075], [-118.4673166709, 34.0526097086683]]]}}, {"type": "Feature", "properties": {"zone_id": "0200BOE4ID257ULHP3GQQA", "tract_id": "06037264303", "city": "LOS ANGELES, CA", "zone_code": "C1.5-1VL", "zone_category": "Commercial", "ev_permitted": true}, "geometry": {"type": "Polygon", "coordinates": [[[-118.466594644972, 34.0527534948143], [-118.466113051238, 34.0528494148978], [-118.466247480187, 34.0533170815477], [-118.466729076459, 34.053221160926], [-118.466594644972, 34.0527534948143]]]}}, {"type": "Feature", "properties": {"zone_id": "0205AOTPYNCFQQC6DPD0F5", "tract_id": "06037264303", "city": "LOS ANGELES, CA", "zone_code": "C1.5-1VL", "zone_category": "Commercial", "ev_permitted": true}, "geometry": {"type": "Polygon", "coordinates": [[[-118.465727748984, 34.0529261386925], [-118.465701367509, 34.0529314064652], [-118.465304582608, 34.0532527354337], [-118.465543682628, 34.0534572187486], [-118.465862175903, 34.053393805773], [-118.465727748984, 34.0529261386925]]]}}, {"type": "Feature", "properties": {"zone_id": "02067FJI1OKXOLO1NMDYCQ", "tract_id": "06037264303", "city": "LOS ANGELES, CA", "zone_code": "C1.5-1VL", "zone_category": "Commercial", "ev_permitted": true}, "geometry": {"type": "Polygon", "coordinates": [[[-118.465952486735, 34.0528813879596], [-118.465727748984, 34.0529261386925], [-118.465862175903, 34.053393805773], [-118.466086947851, 34.0533490546615], [-118.465952486735, 34.0528813879596]]]}}, {"type": "Feature", "properties": {"zone_id": "0202UN5LE561U3IGR8LI97", "tract_id": "06037264303", "city": "LOS ANGELES, CA", "zone_code": "R3-1", "zone_category": "Residential", "ev_permitted": false}, "geometry": {"type": "Polygon", "coordinates": [[[-118.466132723295, 34.0525820516623], [-118.465770746055, 34.0528751918491], [-118.466342367209, 34.0527613664917], [-118.466132723295, 34.0525820516623]]]}}, {"type": "Feature", "properties": {"zone_id": "0207C7GTI8UGGKCB48IVH6", "tract_id": "06037264303", "city": "LOS ANGELES, CA", "zone_code": "C1.5-1VL", "zone_category": "Commercial", "ev_permitted": true}, "geometry": {"type": "Polygon", "coordinates": [[[-118.466113051238, 34.0528494148978], [-118.465952486735, 34.0528813879596], [-118.466086947851, 34.0533490546615], [-118.466247480187, 34.0533170815477], [-118.466113051238, 34.0528494148978]]]}}, {"type": "Feature", "properties": {"zone_id": "02046MEJIQJDKLHE3WBVCG", "tract_id": "06037264303", "city": "LOS ANGELES, CA", "zone_code": "C1.5-1VL", "zone_category": "Commercial", "ev_permitted": true}, "geometry": {"type": "Polygon", "coordinates": [[[-118.464834735952, 34.0531463604117], [-118.464637563014, 34.0531851225219], [-118.464828418342, 34.0533759434899], [-118.464999558883, 34.0535656035239], [-118.465200324247, 34.0535256179144], [-118.465218130732, 34.0534743561207], [-118.464834735952, 34.0531463604117]]]}}, {"type": "Feature", "properties": {"zone_id": "0201VAG5VMSNN4MLPC1P1R", "tract_id": "06037264303", "city": "LOS ANGELES, CA", "zone_code": "C1.5-1VL", "zone_category": "Commercial", "ev_permitted": true}, "geometry": {"type": "Polygon", "coordinates": [[[-118.46452565951, 34.053205227915], [-118.464398902279, 34.0532257750303], [-118.46434790367, 34.0532330606935], [-118.464437167948, 34.0536663894824], [-118.464493081795, 34.0536583704255], [-118.464631813026, 34.0536359085791], [-118.46452565951, 34.053205227915]]]}}, {"type": "Feature", "properties": {"zone_id": "0202DMB8BEO3IDLI1L4QE9", "tract_id": "06037264303", "city": "LOS ANGELES, CA", "zone_code": "C1.5-1VL", "zone_category": "Commercial", "ev_permitted": true}, "geometry": {"type": "Polygon", "coordinates": [[[-118.464637563014, 34.0531851225219], [-118.46452565951, 34.053205227915], [-118.464631813026, 34.0536359085791], [-118.464701603053, 34.0536238241169], [-118.464805289724, 34.0536042722875], [-118.464999558883, 34.0535656035239], [-118.464828418342, 34.0533759434899], [-118.464637563014, 34.0531851225219]]]}}, {"type": "Feature", "properties": {"zone_id": "0201U7QGF9UN8Q2NJFS84P", "tract_id": "06037264303", "city": "LOS ANGELES, CA", "zone_code": "C1.5-1VL", "zone_category": "Commercial", "ev_permitted": true}, "geometry": {"type": "Polygon", "coordinates": [[[-118.46434790367, 34.0532330606935], [-118.464303205791, 34.0532394702646], [-118.464169130646, 34.0532560883117], [-118.464241437034, 34.0536915982962], [-118.464388313399, 34.053673392127], [-118.464437167948, 34.0536663894824], [-118.46434790367, 34.0532330606935]]]}}, {"type": "Feature", "properties": {"zone_id": "0200RWLZX1FUAB4KEV9UMK", "tract_id": "06037264303", "city": "LOS ANGELES, CA", "zone_code": "R3-1", "zone_category": "Residential", "ev_permitted": false}, "geometry": {"type": "Polygon", "coordinates": [[[-118.465175959388, 34.0525516945461], [-118.464939361117, 34.0527433092777], [-118.465284739892, 34.0530387512242], [-118.46552133836, 34.0528471632914], [-118.465175959388, 34.0525516945461]]]}}, {"type": "Feature", "properties": {"zone_id": "02042O877MBHEB7HAN7VHR", "tract_id": "06037264303", "city": "LOS ANGELES, CA", "zone_code": "R3-1", "zone_category": "Residential", "ev_permitted": false}, "geometry": {"type": "Polygon", "coordinates": [[[-118.464939361117, 34.0527433092777], [-118.464821045069, 34.052839116534], [-118.465166424127, 34.0531346137767], [-118.465284739892, 34.0530387512242], [-118.464939361117, 34.0527433092777]]]}}, {"type": "Feature", "properties": {"zone_id": "0202N46T79GDQS8RW3T7S9", "tract_id": "06037264303", "city": "LOS ANGELES, CA", "zone_code": "R3-1", "zone_category": "Residential", "ev_permitted": false}, "geometry": {"type": "Polygon", "coordinates": [[[-118.464240033317, 34.0526770551228], [-118.464086188469, 34.052801603769], [-118.464424664698, 34.0530911117694], [-118.464613971542, 34.0529378207235], [-118.464310059182, 34.052677857583], [-118.464240033317, 34.0526770551228]]]}}, {"type": "Feature", "properties": {"zone_id": "0203Z6O1Y4DSFS4YAUJWW5", "tract_id": "06037264303", "city": "LOS ANGELES, CA", "zone_code": "C1.5-1VL", "zone_category": "Commercial", "ev_permitted": true}, "geometry": {"type": "Polygon", "coordinates": [[[-118.464679065606, 34.0529541125672], [-118.464394513565, 34.0531845185949], [-118.464489047201, 34.0531695087733], [-118.464583243045, 34.053153126232], [-118.464850593565, 34.0531008217871], [-118.464679065606, 34.0529541125672]]]}}, {"type": "Feature", "properties": {"zone_id": "0202CWKJBCBZTFDDTWF82E", "tract_id": "06037264303", "city": "LOS ANGELES, CA", "zone_code": "C1.5-1VL", "zone_category": "Commercial", "ev_permitted": true}, "geometry": {"type": "Polygon", "coordinates": [[[-118.464169130646, 34.0532560883117], [-118.464111030409, 34.053262714198], [-118.463989571558, 34.0532743098771], [-118.464044818399, 34.053711534254], [-118.464177892542, 34.0536988221994], [-118.464241437034, 34.0536915982962], [-118.464169130646, 34.0532560883117]]]}}, {"type": "Feature", "properties": {"zone_id": "020157ZD6LE3I7OAYMUL71", "tract_id": "06037264303", "city": "LOS ANGELES, CA", "zone_code": "C1.5-1VL", "zone_category": "Commercial", "ev_permitted": true}, "geometry": {"type": "Polygon", "coordinates": [[[-118.463989571558, 34.0532743098771], [-118.463809395618, 34.0532877230189], [-118.463627401432, 34.0532962275837], [-118.463648356587, 34.0537355347825], [-118.463847510007, 34.0537261691124], [-118.464044818399, 34.053711534254], [-118.463989571558, 34.0532743098771]]]}}, {"type": "Feature", "properties": {"zone_id": "02023PX57ADIWDQORC2VW9", "tract_id": "06037264303", "city": "LOS ANGELES, CA", "zone_code": "R3-1", "zone_category": "Residential", "ev_permitted": false}, "geometry": {"type": "Polygon", "coordinates": [[[-118.464086188469, 34.052801603769], [-118.46382592364, 34.0530124050934], [-118.464067043053, 34.0532186696856], [-118.464184308325, 34.0532056584957], [-118.464301286, 34.0531909773821], [-118.464424664698, 34.0530911117694], [-118.464086188469, 34.052801603769]]]}}, {"type": "Feature", "properties": {"zone_id": "02042FRNF1FZLZIOXHMIZX", "tract_id": "06037264303", "city": "LOS ANGELES, CA", "zone_code": "R3-1", "zone_category": "Residential", "ev_permitted": false}, "geometry": {"type": "Polygon", "coordinates": [[[-118.46382592364, 34.0530124050934], [-118.463621759749, 34.0531777327381], [-118.463625456508, 34.0532550441762], [-118.46377538115, 34.0532484306291], [-118.463925025697, 34.0532383640164], [-118.464074274312, 34.0532248521292], [-118.46382592364, 34.0530124050934]]]}}, {"type": "Feature", "properties": {"zone_id": "0200QSPIIYUZ7A6OVLT8JW", "tract_id": "06037264303", "city": "LOS ANGELES, CA", "zone_code": "C1.5-1VL", "zone_category": "Commercial", "ev_permitted": true}, "geometry": {"type": "Polygon", "coordinates": [[[-118.469932622123, 34.0522460686335], [-118.469743478822, 34.0523382818054], [-118.469820315585, 34.0526054900771], [-118.470093807898, 34.0523839075096], [-118.469932622123, 34.0522460686335]]]}}, {"type": "Feature", "properties": {"zone_id": "0201RUQVG8EHLJ9R7DY1EA", "tract_id": "06037264303", "city": "LOS ANGELES, CA", "zone_code": "C1.5-1VL", "zone_category": "Commercial", "ev_permitted": true}, "geometry": {"type": "Polygon", "coordinates": [[[-118.469783345747, 34.0521184053702], [-118.469477193556, 34.0521793900717], [-118.469534770931, 34.0523798172065], [-118.469743478822, 34.0523382818054], [-118.469932622123, 34.0522460686335], [-118.469783345747, 34.0521184053702]]]}}, {"type": "Feature", "properties": {"zone_id": "0205T2POCNNB8HVWAXDGY3", "tract_id": "06037264303", "city": "LOS ANGELES, CA", "zone_code": "R3-1", "zone_category": "Residential", "ev_permitted": false}, "geometry": {"type": "Polygon", "coordinates": [[[-118.46914362774, 34.051620006769], [-118.46825188265, 34.05233995282], [-118.468275037066, 34.0523598127232], [-118.469729739049, 34.0520725592473], [-118.469203517539, 34.0516207633289], [-118.46914362774, 34.051620006769]]]}}, {"type": "Feature", "properties": {"zone_id": "02075M3X90FDK52JT9XZQH", "tract_id": "06037264303", "city": "LOS ANGELES, CA", "zone_code": "C1.5-1VL", "zone_category": "Commercial", "ev_permitted": true}, "geometry": {"type": "Polygon", "coordinates": [[[-118.46928451259, 34.0522177576165], [-118.468883222631, 34.0522976862226], [-118.469017633319, 34.0527653773828], [-118.469418991264, 34.0526854205934], [-118.46928451259, 34.0522177576165]]]}}, {"type": "Feature", "properties": {"zone_id": "02046SYJWBN1X4PSVQQNE4", "tract_id": "06037264303", "city": "LOS ANGELES, CA", "zone_code": "C1.5-1VL", "zone_category": "Commercial", "ev_permitted": true}, "geometry": {"type": "Polygon", "coordinates": [[[-118.469477193556, 34.0521793900717], [-118.46928451259, 34.0522177576165], [-118.469418991264, 34.0526854205934], [-118.469820315585, 34.0526054900771], [-118.469743478822, 34.0523382818054], [-118.469534770931, 34.0523798172065], [-118.469477193556, 34.0521793900717]]]}}, {"type": "Feature", "properties": {"zone_id": "0203BNBQTRTNW9UL2I1REY", "tract_id": "06037264303", "city": "LOS ANGELES, CA", "zone_code": "C1.5-1VL", "zone_category": "Commercial", "ev_permitted": true}, "geometry": {"type": "Polygon", "coordinates": [[[-118.46848183302, 34.0523776413579], [-118.468183197499, 34.052437109751], [-118.46809515402, 34.0525084565506], [-118.468214980844, 34.0529252317481], [-118.468616307465, 34.0528453052322], [-118.46848183302, 34.0523776413579]]]}}, {"type": "Feature", "properties": {"zone_id": "02034XKLIR5EZGOHWECKSN", "tract_id": "06037264303", "city": "LOS ANGELES, CA", "zone_code": "C1.5-1VL", "zone_category": "Commercial", "ev_permitted": true}, "geometry": {"type": "Polygon", "coordinates": [[[-118.468722660245, 34.0523296629667], [-118.46848183302, 34.0523776413579], [-118.468616307465, 34.0528453052322], [-118.4688571031, 34.0527973541782], [-118.468722660245, 34.0523296629667]]]}}, {"type": "Feature", "properties": {"zone_id": "02044PG0WICCV2LMZTW76E", "tract_id": "06037264303", "city": "LOS ANGELES, CA", "zone_code": "C1.5-1VL", "zone_category": "Commercial", "ev_permitted": true}, "geometry": {"type": "Polygon", "coordinates": [[[-118.468883222631, 34.0522976862226], [-118.468722660245, 34.0523296629667], [-118.4688571031, 34.0527973541782], [-118.469017633319, 34.0527653773828], [-118.468883222631, 34.0522976862226]]]}}, {"type": "Feature", "properties": {"zone_id": "02078R8SFI9DIQ2NDS5JFR", "tract_id": "06037264303", "city": "LOS ANGELES, CA", "zone_code": "R3-1", "zone_category": "Residential", "ev_permitted": false}, "geometry": {"type": "Polygon", "coordinates": [[[-118.468429988046, 34.0513550226209], [-118.468193467097, 34.0515467258958], [-118.468538851961, 34.0518420760834], [-118.468775373107, 34.0516503996076], [-118.468429988046, 34.0513550226209]]]}}, {"type": "Feature", "properties": {"zone_id": "0200NU7VIN79PFM0HPF16N", "tract_id": "06037264303", "city": "LOS ANGELES, CA", "zone_code": "R3-1", "zone_category": "Residential", "ev_permitted": false}, "geometry": {"type": "Polygon", "coordinates": [[[-118.468666541076, 34.0511633462348], [-118.468548264696, 34.0512591844856], [-118.46889364978, 34.0515545611326], [-118.469011926182, 34.0514587225422], [-118.468666541076, 34.0511633462348]]]}}, {"type": "Feature", "properties": {"zone_id": "0205R6K9BNULNYG1I13W3C", "tract_id": "06037264303", "city": "LOS ANGELES, CA", "zone_code": "R3-1", "zone_category": "Residential", "ev_permitted": false}, "geometry": {"type": "Polygon", "coordinates": [[[-118.468548264696, 34.0512591844856], [-118.468429988046, 34.0513550226209], [-118.468775373107, 34.0516503996076], [-118.46889364978, 34.0515545611326], [-118.468548264696, 34.0512591844856]]]}}, {"type": "Feature", "properties": {"zone_id": "02024MFCTQRHJX0XC3AAOS", "tract_id": "06037264303", "city": "LOS ANGELES, CA", "zone_code": "R3-1", "zone_category": "Residential", "ev_permitted": false}, "geometry": {"type": "Polygon", "coordinates": [[[-118.468516870573, 34.0510353532104], [-118.468162073662, 34.0513228670469], [-118.468277179479, 34.0514213448112], [-118.468631976259, 34.0511338031568], [-118.468516870573, 34.0510353532104]]]}}, {"type": "Feature", "properties": {"zone_id": "0203KFRJIRS1BSQ97GU379", "tract_id": "06037264303", "city": "LOS ANGELES, CA", "zone_code": "R3-1", "zone_category": "Residential", "ev_permitted": false}, "geometry": {"type": "Polygon", "coordinates": [[[-118.467726160436, 34.0519350000803], [-118.467489603222, 34.0521267021098], [-118.467829183137, 34.0524171306036], [-118.46806577356, 34.0522254552566], [-118.467726160436, 34.0519350000803]]]}}, {"type": "Feature", "properties": {"zone_id": "02044OL7PUI08PPPVNXDXU", "tract_id": "06037264303", "city": "LOS ANGELES, CA", "zone_code": "R3-1", "zone_category": "Residential", "ev_permitted": false}, "geometry": {"type": "Polygon", "coordinates": [[[-118.467483831417, 34.0521217782504], [-118.467247010248, 34.0523137006552], [-118.467592361924, 34.0526090536884], [-118.467829183137, 34.0524171306036], [-118.467483831417, 34.0521217782504]]]}}, {"type": "Feature", "properties": {"zone_id": "0200CT39WDBQ449BBRVUSU", "tract_id": "06037264303", "city": "LOS ANGELES, CA", "zone_code": "R3-1", "zone_category": "Residential", "ev_permitted": false}, "geometry": {"type": "Polygon", "coordinates": [[[-118.467069574588, 34.0523983900657], [-118.466833014253, 34.0525900358566], [-118.466902840791, 34.0526497798359], [-118.467276466648, 34.0525753232563], [-118.467069574588, 34.0523983900657]]]}}, {"type": "Feature", "properties": {"zone_id": "0203X3L7DSL3SG8J7EULNU", "tract_id": "06037264303", "city": "LOS ANGELES, CA", "zone_code": "R3-1", "zone_category": "Residential", "ev_permitted": false}, "geometry": {"type": "Polygon", "coordinates": [[[-118.468075189633, 34.0516425636849], [-118.467838633893, 34.0518342389172], [-118.468184018846, 34.0521296176019], [-118.46842057463, 34.0519379416905], [-118.468075189633, 34.0516425636849]]]}}, {"type": "Feature", "properties": {"zone_id": "0206QSAUO3WM65APCE0YRG", "tract_id": "06037264303", "city": "LOS ANGELES, CA", "zone_code": "R3-1", "zone_category": "Residential", "ev_permitted": false}, "geometry": {"type": "Polygon", "coordinates": [[[-118.467838633893, 34.0518342389172], [-118.467720388629, 34.0519300762322], [-118.46806577356, 34.0522254552566], [-118.468184018846, 34.0521296176019], [-118.467838633893, 34.0518342389172]]]}}, {"type": "Feature", "properties": {"zone_id": "0205YAXHW7H21ZT3Y9H94C", "tract_id": "06037264303", "city": "LOS ANGELES, CA", "zone_code": "R3-1", "zone_category": "Residential", "ev_permitted": false}, "geometry": {"type": "Polygon", "coordinates": [[[-118.468193467097, 34.0515467258958], [-118.468075189633, 34.0516425636849], [-118.46842057463, 34.0519379416905], [-118.468538851961, 34.0518420760834], [-118.468193467097, 34.0515467258958]]]}}, {"type": "Feature", "properties": {"zone_id": "02012EA9RZK3DYKULZC3W5", "tract_id": "06037264303", "city": "LOS ANGELES, CA", "zone_code": "R3-1", "zone_category": "Residential", "ev_permitted": false}, "geometry": {"type": "Polygon", "coordinates": [[[-118.467576334347, 34.0514129040337], [-118.4674580232, 34.0515087138673], [-118.467804102104, 34.0518046954733], [-118.467922380107, 34.0517088579489], [-118.467576334347, 34.0514129040337]]]}}, {"type": "Feature", "properties": {"zone_id": "0200ZDDG9I4SXNSWXCJE1G", "tract_id": "06037264303", "city": "LOS ANGELES, CA", "zone_code": "R3-1", "zone_category": "Residential", "ev_permitted": false}, "geometry": {"type": "Polygon", "coordinates": [[[-118.4674580232, 34.0515087138673], [-118.467221400246, 34.0517003606664], [-118.467561806649, 34.0519914736708], [-118.467798396327, 34.0517997713732], [-118.4674580232, 34.0515087138673]]]}}, {"type": "Feature", "properties": {"zone_id": "0204HF26U8N5A2F71766ZH", "tract_id": "06037264303", "city": "LOS ANGELES, CA", "zone_code": "R3-1", "zone_category": "Residential", "ev_permitted": false}, "geometry": {"type": "Polygon", "coordinates": [[[-118.467221400246, 34.0517003606664], [-118.467103088286, 34.0517961701536], [-118.467449299634, 34.0520922347047], [-118.46756757845, 34.0519963975264], [-118.467221400246, 34.0517003606664]]]}}, {"type": "Feature", "properties": {"zone_id": "0207EH5KZSZI1KGQ6G9KUI", "tract_id": "06037264303", "city": "LOS ANGELES, CA", "zone_code": "R3-1", "zone_category": "Residential", "ev_permitted": false}, "geometry": {"type": "Polygon", "coordinates": [[[-118.467103088286, 34.0517961701536], [-118.466984809067, 34.0518919793977], [-118.467325248746, 34.0521831479005], [-118.467443527833, 34.0520873108433], [-118.467103088286, 34.0517961701536]]]}}, {"type": "Feature", "properties": {"zone_id": "02022Z9O6IAUZ75PL8B8HC", "tract_id": "06037264303", "city": "LOS ANGELES, CA", "zone_code": "R3-1", "zone_category": "Residential", "ev_permitted": false}, "geometry": {"type": "Polygon", "coordinates": [[[-118.466984809067, 34.0518919793977], [-118.466902188419, 34.0519590451233], [-118.466896544542, 34.0519644919292], [-118.466892122641, 34.0519706653623], [-118.466889055977, 34.0519773793787], [-118.466887436967, 34.0519844316436], [-118.466887314401, 34.0519916096286], [-118.466888691974, 34.0519986970168], [-118.466891528169, 34.0520054802213], [-118.466895737517, 34.0520117548225], [-118.466901193161, 34.0520173317279], [-118.467206938217, 34.0522793147097], [-118.467325248746, 34.0521831479005], [-118.466984809067, 34.0518919793977]]]}}, {"type": "Feature", "properties": {"zone_id": "0203GOCAF33J1GHXGL6O2C", "tract_id": "06037264303", "city": "LOS ANGELES, CA", "zone_code": "R3-1", "zone_category": "Residential", "ev_permitted": false}, "geometry": {"type": "Polygon", "coordinates": [[[-118.466487664876, 34.0522945982172], [-118.466369351236, 34.0523904069883], [-118.46671602723, 34.0526869389965], [-118.466902840791, 34.0526497798359], [-118.466487664876, 34.0522945982172]]]}}, {"type": "Feature", "properties": {"zone_id": "0201LT2UR03O0NU997CHRV", "tract_id": "06037264303", "city": "LOS ANGELES, CA", "zone_code": "R3-1", "zone_category": "Residential", "ev_permitted": false}, "geometry": {"type": "Polygon", "coordinates": [[[-118.46695450186, 34.052299911018], [-118.466717875362, 34.0524915293595], [-118.466833014253, 34.0525900358566], [-118.467069574588, 34.0523983900657], [-118.46695450186, 34.052299911018]]]}}, {"type": "Feature", "properties": {"zone_id": "02054DBKDCSFOZ3RMRZVLS", "tract_id": "06037264303", "city": "LOS ANGELES, CA", "zone_code": "R3-1", "zone_category": "Residential", "ev_permitted": false}, "geometry": {"type": "Polygon", "coordinates": [[[-118.466369351236, 34.0523904069883], [-118.466251037477, 34.0524862431221], [-118.466529213809, 34.0527241528248], [-118.46671602723, 34.0526869389965], [-118.466369351236, 34.0523904069883]]]}}, {"type": "Feature", "properties": {"zone_id": "0204W8SHO067AL0DW4UP8G", "tract_id": "06037264303", "city": "LOS ANGELES, CA", "zone_code": "R3-1", "zone_category": "Residential", "ev_permitted": false}, "geometry": {"type": "Polygon", "coordinates": [[[-118.466251037477, 34.0524862431221], [-118.466132723295, 34.0525820516623], [-118.466335668625, 34.0527556372459], [-118.466522515215, 34.0527184235894], [-118.466251037477, 34.0524862431221]]]}}, {"type": "Feature", "properties": {"zone_id": "02007UWFRJYBGD15M6838U", "tract_id": "06037264303", "city": "LOS ANGELES, CA", "zone_code": "R3-1", "zone_category": "Residential", "ev_permitted": false}, "geometry": {"type": "Polygon", "coordinates": [[[-118.466723978423, 34.0521200453073], [-118.466708630635, 34.0521218892916], [-118.466694731864, 34.0521275894299], [-118.46660594508, 34.0521987619799], [-118.466836188746, 34.0523957202465], [-118.46695450186, 34.052299911018], [-118.466758789863, 34.0521325242092], [-118.466746397748, 34.0521247987234], [-118.466739258916, 34.052122239657], [-118.466723978423, 34.0521200453073]]]}}, {"type": "Feature", "properties": {"zone_id": "0206WTTTMXA94QUXM132D0", "tract_id": "06037264303", "city": "LOS ANGELES, CA", "zone_code": "R3-1", "zone_category": "Residential", "ev_permitted": false}, "geometry": {"type": "Polygon", "coordinates": [[[-118.46660594508, 34.0521987619799], [-118.466487664876, 34.0522945982172], [-118.466717875362, 34.0524915293595], [-118.466836188746, 34.0523957202465], [-118.46660594508, 34.0521987619799]]]}}, {"type": "Feature", "properties": {"zone_id": "02070PVBNSQN6VNAV5S8Y9", "tract_id": "06037264303", "city": "LOS ANGELES, CA", "zone_code": "R3-1", "zone_category": "Residential", "ev_permitted": false}, "geometry": {"type": "Polygon", "coordinates": [[[-118.465885813569, 34.0519768198474], [-118.465767466677, 34.0520726281547], [-118.466112911632, 34.0523680674683], [-118.466231192522, 34.052272259076], [-118.465885813569, 34.0519768198474]]]}}, {"type": "Feature", "properties": {"zone_id": "0206AP7HZTREYLXJSNOSUR", "tract_id": "06037264303", "city": "LOS ANGELES, CA", "zone_code": "R3-1", "zone_category": "Residential", "ev_permitted": false}, "geometry": {"type": "Polygon", "coordinates": [[[-118.465767466677, 34.0520726281547], [-118.465649185538, 34.0521684360918], [-118.465994597458, 34.0524638758725], [-118.466112911632, 34.0523680674683], [-118.465767466677, 34.0520726281547]]]}}, {"type": "Feature", "properties": {"zone_id": "02013KYN5FY5X9GM7MIMRD", "tract_id": "06037264303", "city": "LOS ANGELES, CA", "zone_code": "R3-1", "zone_category": "Residential", "ev_permitted": false}, "geometry": {"type": "Polygon", "coordinates": [[[-118.465649185538, 34.0521684360918], [-118.465530904128, 34.0522642439135], [-118.465876283167, 34.0525597116396], [-118.465994597458, 34.0524638758725], [-118.465649185538, 34.0521684360918]]]}}, {"type": "Feature", "properties": {"zone_id": "0206JNDSATPDI32XGS2G8L", "tract_id": "06037264303", "city": "LOS ANGELES, CA", "zone_code": "R3-1", "zone_category": "Residential", "ev_permitted": false}, "geometry": {"type": "Polygon", "coordinates": [[[-118.466720350247, 34.0512721983783], [-118.466365413649, 34.0515596250149], [-118.46669354353, 34.0518403183984], [-118.466705943495, 34.0518480301552], [-118.46671308336, 34.0518505832639], [-118.466728361912, 34.0518527689308], [-118.466743705367, 34.051850921542], [-118.466750924851, 34.0518485270595], [-118.466763568565, 34.0518410919577], [-118.467083011457, 34.0515824069748], [-118.466720350247, 34.0512721983783]]]}}, {"type": "Feature", "properties": {"zone_id": "0206H8KS0B0SS2QOXI8P70", "tract_id": "06037264303", "city": "LOS ANGELES, CA", "zone_code": "R3-1", "zone_category": "Residential", "ev_permitted": false}, "geometry": {"type": "Polygon", "coordinates": [[[-118.466240720419, 34.0516893672638], [-118.466122407352, 34.0517851757902], [-118.466467819515, 34.0520806416902], [-118.466586099439, 34.0519848054734], [-118.466240720419, 34.0516893672638]]]}}, {"type": "Feature", "properties": {"zone_id": "0203ZYXUVYTWQOTF04IZAM", "tract_id": "06037264303", "city": "LOS ANGELES, CA", "zone_code": "R3-1", "zone_category": "Residential", "ev_permitted": false}, "geometry": {"type": "Polygon", "coordinates": [[[-118.46568337657, 34.0515081510868], [-118.465505939306, 34.0516518628854], [-118.465851282411, 34.051947275845], [-118.466028719708, 34.0518035635368], [-118.46568337657, 34.0515081510868]]]}}, {"type": "Feature", "properties": {"zone_id": "0205ADB0X9TQ7OJ3U2D6UR", "tract_id": "06037264303", "city": "LOS ANGELES, CA", "zone_code": "R3-1", "zone_category": "Residential", "ev_permitted": false}, "geometry": {"type": "Polygon", "coordinates": [[[-118.466128179207, 34.0517901271929], [-118.466009865868, 34.0518859356094], [-118.466349506154, 34.0521764504409], [-118.466467819515, 34.0520806416902], [-118.466128179207, 34.0517901271929]]]}}, {"type": "Feature", "properties": {"zone_id": "02059JVOTLDX8EEENVEDKL", "tract_id": "06037264303", "city": "LOS ANGELES, CA", "zone_code": "R3-1", "zone_category": "Residential", "ev_permitted": false}, "geometry": {"type": "Polygon", "coordinates": [[[-118.466004127026, 34.0518809840736], [-118.465885813569, 34.0519768198474], [-118.466231192522, 34.052272259076], [-118.466349506154, 34.0521764504409], [-118.466004127026, 34.0518809840736]]]}}, {"type": "Feature", "properties": {"zone_id": "02050L6U3TLA7TK19I9M9M", "tract_id": "06037264303", "city": "LOS ANGELES, CA", "zone_code": "R3-1", "zone_category": "Residential", "ev_permitted": false}, "geometry": {"type": "Polygon", "coordinates": [[[-118.465505939306, 34.0516518628854], [-118.46538762545, 34.0517476706917], [-118.465727229848, 34.0520381599202], [-118.465845510714, 34.0519423519072], [-118.465505939306, 34.0516518628854]]]}}, {"type": "Feature", "properties": {"zone_id": "0202PHK7X1SU07TANUALUX", "tract_id": "06037264303", "city": "LOS ANGELES, CA", "zone_code": "R3-1", "zone_category": "Residential", "ev_permitted": false}, "geometry": {"type": "Polygon", "coordinates": [[[-118.466091085852, 34.0515613985804], [-118.46591361601, 34.0517050836275], [-118.466028719708, 34.0518035635368], [-118.466206189254, 34.0516598233633], [-118.466091085852, 34.0515613985804]]]}}, {"type": "Feature", "properties": {"zone_id": "02006ETLCHKC5WAUMABP5P", "tract_id": "06037264303", "city": "LOS ANGELES, CA", "zone_code": "R3-1", "zone_category": "Residential", "ev_permitted": false}, "geometry": {"type": "Polygon", "coordinates": [[[-118.465860846236, 34.0513644389011], [-118.46568337657, 34.0515081510868], [-118.46591361601, 34.0517050836275], [-118.466091085852, 34.0515613985804], [-118.465860846236, 34.0513644389011]]]}}, {"type": "Feature", "properties": {"zone_id": "0206C3J5ZAO44M9PAQ22P1", "tract_id": "06037264303", "city": "LOS ANGELES, CA", "zone_code": "R3-1", "zone_category": "Residential", "ev_permitted": false}, "geometry": {"type": "Polygon", "coordinates": [[[-118.468286129362, 34.050838015385], [-118.46793123315, 34.051125473968], [-118.468162073662, 34.0513228670469], [-118.468516870573, 34.0510353532104], [-118.468286129362, 34.050838015385]]]}}, {"type": "Feature", "properties": {"zone_id": "0201ZSXWTJP1EHBORC4D5U", "tract_id": "06037264303", "city": "LOS ANGELES, CA", "zone_code": "R3-1", "zone_category": "Residential", "ev_permitted": false}, "geometry": {"type": "Polygon", "coordinates": [[[-118.46793123315, 34.051125473968], [-118.467812889804, 34.0512212842758], [-118.468158935301, 34.0515171825538], [-118.468277179479, 34.0514213448112], [-118.46793123315, 34.051125473968]]]}}, {"type": "Feature", "properties": {"zone_id": "0200RUDC19ERR2SOBD3VYN", "tract_id": "06037264303", "city": "LOS ANGELES, CA", "zone_code": "R3-1", "zone_category": "Residential", "ev_permitted": false}, "geometry": {"type": "Polygon", "coordinates": [[[-118.467812889804, 34.0512212842758], [-118.467694612211, 34.0513170942124], [-118.46804065784, 34.0516130203091], [-118.468158935301, 34.0515171825538], [-118.467812889804, 34.0512212842758]]]}}, {"type": "Feature", "properties": {"zone_id": "0204HPTPVMDDPDMN4ZDAIV", "tract_id": "06037264303", "city": "LOS ANGELES, CA", "zone_code": "R3-1", "zone_category": "Residential", "ev_permitted": false}, "geometry": {"type": "Polygon", "coordinates": [[[-118.467694612211, 34.0513170942124], [-118.467576334347, 34.0514129040337], [-118.467922380107, 34.0517088579489], [-118.46804065784, 34.0516130203091], [-118.467694612211, 34.0513170942124]]]}}, {"type": "Feature", "properties": {"zone_id": "020587OSW5K21CPS7K39UF", "tract_id": "06037264303", "city": "LOS ANGELES, CA", "zone_code": "R3-1", "zone_category": "Residential", "ev_permitted": false}, "geometry": {"type": "Polygon", "coordinates": [[[-118.466956940136, 34.05108055441], [-118.466720350247, 34.0512721983783], [-118.467083011457, 34.0515824069748], [-118.467319601507, 34.0513907829018], [-118.466956940136, 34.05108055441]]]}}, {"type": "Feature", "properties": {"zone_id": "0201SR0ZZ4A2BEUIB1ZYRN", "tract_id": "06037264303", "city": "LOS ANGELES, CA", "zone_code": "R3-1", "zone_category": "Residential", "ev_permitted": false}, "geometry": {"type": "Polygon", "coordinates": [[[-118.467311872659, 34.0507931243241], [-118.467193561932, 34.0508889064174], [-118.467556223389, 34.0511991410654], [-118.467674533985, 34.051103331137], [-118.467311872659, 34.0507931243241]]]}}, {"type": "Feature", "properties": {"zone_id": "0206NICJTWBC0MV72D03U9", "tract_id": "06037264303", "city": "LOS ANGELES, CA", "zone_code": "R3-1", "zone_category": "Residential", "ev_permitted": false}, "geometry": {"type": "Polygon", "coordinates": [[[-118.467193561932, 34.0508889064174], [-118.467075251241, 34.0509847433519], [-118.467437879509, 34.0512949510061], [-118.467556223389, 34.0511991410654], [-118.467193561932, 34.0508889064174]]]}}, {"type": "Feature", "properties": {"zone_id": "0201D2JI93MRY0R4LZBMFH", "tract_id": "06037264303", "city": "LOS ANGELES, CA", "zone_code": "R3-1", "zone_category": "Residential", "ev_permitted": false}, "geometry": {"type": "Polygon", "coordinates": [[[-118.467075251241, 34.0509847433519], [-118.466956940136, 34.05108055441], [-118.467319601507, 34.0513907829018], [-118.467437879509, 34.0512949510061], [-118.467075251241, 34.0509847433519]]]}}, {"type": "Feature", "properties": {"zone_id": "0202EYJXFPA0VC17H58ICY", "tract_id": "06037264303", "city": "LOS ANGELES, CA", "zone_code": "R3-1", "zone_category": "Residential", "ev_permitted": false}, "geometry": {"type": "Polygon", "coordinates": [[[-118.467785276381, 34.0504097193737], [-118.46754868999, 34.0506013117194], [-118.467911384221, 34.050911490212], [-118.468112512592, 34.0507485834721], [-118.468118154553, 34.0507431407984], [-118.468122573634, 34.050736970806], [-118.468125636287, 34.0507302599546], [-118.468127249957, 34.0507232110487], [-118.468127365879, 34.050716037109], [-118.46812598055, 34.0507089549348], [-118.468123135835, 34.0507021785524], [-118.468118917702, 34.0506959127468], [-118.468113453624, 34.0506903468735], [-118.467785276381, 34.0504097193737]]]}}, {"type": "Feature", "properties": {"zone_id": "0200IKOORJ2XJYRK5I3MKF", "tract_id": "06037264303", "city": "LOS ANGELES, CA", "zone_code": "R3-1", "zone_category": "Residential", "ev_permitted": false}, "geometry": {"type": "Polygon", "coordinates": [[[-118.46754868999, 34.0506013117194], [-118.46743014995, 34.0506973147648], [-118.467792844311, 34.0510075210932], [-118.467911384221, 34.050911490212], [-118.46754868999, 34.0506013117194]]]}}, {"type": "Feature", "properties": {"zone_id": "0202HG870KTH0XLVZCE6ST", "tract_id": "06037264303", "city": "LOS ANGELES, CA", "zone_code": "R3-1", "zone_category": "Residential", "ev_permitted": false}, "geometry": {"type": "Polygon", "coordinates": [[[-118.467422387634, 34.0501166083072], [-118.467407046928, 34.0501184518327], [-118.467399829041, 34.0501208460091], [-118.467387191017, 34.0501282830418], [-118.466949247341, 34.0504829712557], [-118.467311872659, 34.0507931243241], [-118.467785276381, 34.0504097193737], [-118.467457181767, 34.0501290838048], [-118.467444796403, 34.05012136048], [-118.467437661055, 34.0501188020884], [-118.467422387634, 34.0501166083072]]]}}, {"type": "Feature", "properties": {"zone_id": "0205U6WE5SDRWW04SLVNXL", "tract_id": "06037264303", "city": "LOS ANGELES, CA", "zone_code": "R3-1", "zone_category": "Residential", "ev_permitted": false}, "geometry": {"type": "Polygon", "coordinates": [[[-118.46743014995, 34.0506973147648], [-118.467311872659, 34.0507931243241], [-118.467674533985, 34.051103331137], [-118.467792844311, 34.0510075210932], [-118.46743014995, 34.0506973147648]]]}}, {"type": "Feature", "properties": {"zone_id": "0207KY5OCS981NNMMDUD2T", "tract_id": "06037264303", "city": "LOS ANGELES, CA", "zone_code": "R3-1", "zone_category": "Residential", "ev_permitted": false}, "geometry": {"type": "Polygon", "coordinates": [[[-118.466949247341, 34.0504829712557], [-118.466830936638, 34.0505787529923], [-118.467193561932, 34.0508889064174], [-118.467311872659, 34.0507931243241], [-118.466949247341, 34.0504829712557]]]}}, {"type": "Feature", "properties": {"zone_id": "0200VAP66UYL1FI57OK2RE", "tract_id": "06037264303", "city": "LOS ANGELES, CA", "zone_code": "R3-1", "zone_category": "Residential", "ev_permitted": false}, "geometry": {"type": "Polygon", "coordinates": [[[-118.466357724892, 34.0509620160482], [-118.466121133824, 34.0511536330805], [-118.46648372612, 34.0514638162515], [-118.466720350247, 34.0512721983783], [-118.466357724892, 34.0509620160482]]]}}, {"type": "Feature", "properties": {"zone_id": "0203DNQ7KXP7J0KF08D10D", "tract_id": "06037264303", "city": "LOS ANGELES, CA", "zone_code": "R3-1", "zone_category": "Residential", "ev_permitted": false}, "geometry": {"type": "Polygon", "coordinates": [[[-118.466476069538, 34.0508662071676], [-118.466357724892, 34.0509620160482], [-118.466720350247, 34.0512721983783], [-118.466838661752, 34.0511763617902], [-118.466476069538, 34.0508662071676]]]}}, {"type": "Feature", "properties": {"zone_id": "0205JXMKTRTR4C9JEEGHTL", "tract_id": "06037264303", "city": "LOS ANGELES, CA", "zone_code": "R3-1", "zone_category": "Residential", "ev_permitted": false}, "geometry": {"type": "Polygon", "coordinates": [[[-118.466121133824, 34.0511536330805], [-118.46600282153, 34.0512494689655], [-118.466365413649, 34.0515596250149], [-118.46648372612, 34.0514638162515], [-118.466121133824, 34.0511536330805]]]}}, {"type": "Feature", "properties": {"zone_id": "0200XY22PGADQSVJ1L2IXZ", "tract_id": "06037264303", "city": "LOS ANGELES, CA", "zone_code": "R3-1", "zone_category": "Residential", "ev_permitted": false}, "geometry": {"type": "Polygon", "coordinates": [[[-118.465607587364, 34.0511478102146], [-118.465548430885, 34.0511957141808], [-118.465663566311, 34.0512941668301], [-118.465722722794, 34.0512462628073], [-118.465607587364, 34.0511478102146]]]}}, {"type": "Feature", "properties": {"zone_id": "0204FA91JF2TTLWRB5TDMD", "tract_id": "06037264303", "city": "LOS ANGELES, CA", "zone_code": "R3-1", "zone_category": "Residential", "ev_permitted": false}, "geometry": {"type": "Polygon", "coordinates": [[[-118.46633019154, 34.0501504230904], [-118.466093602856, 34.0503420675395], [-118.46645619138, 34.0506522233026], [-118.466692813276, 34.0504606054909], [-118.46633019154, 34.0501504230904]]]}}, {"type": "Feature", "properties": {"zone_id": "0204HDNYDNR86Y7O3DOE9L", "tract_id": "06037264303", "city": "LOS ANGELES, CA", "zone_code": "R3-1", "zone_category": "Residential", "ev_permitted": false}, "geometry": {"type": "Polygon", "coordinates": [[[-118.466830936638, 34.0505787529923], [-118.466653503469, 34.050722493949], [-118.467016095718, 34.0510326480367], [-118.467193561932, 34.0508889064174], [-118.466830936638, 34.0505787529923]]]}}, {"type": "Feature", "properties": {"zone_id": "0207KPVIHBFX58LV888M4W", "tract_id": "06037264303", "city": "LOS ANGELES, CA", "zone_code": "R3-1", "zone_category": "Residential", "ev_permitted": false}, "geometry": {"type": "Polygon", "coordinates": [[[-118.466653503469, 34.050722493949], [-118.466476069538, 34.0508662071676], [-118.466838661752, 34.0511763617902], [-118.467016095718, 34.0510326480367], [-118.466653503469, 34.050722493949]]]}}, {"type": "Feature", "properties": {"zone_id": "020208OJNI4TJUQ2HRMKGQ", "tract_id": "06037264303", "city": "LOS ANGELES, CA", "zone_code": "R3-1", "zone_category": "Residential", "ev_permitted": false}, "geometry": {"type": "Polygon", "coordinates": [[[-118.465975291526, 34.0504378759155], [-118.465738668051, 34.0506294923209], [-118.46610128967, 34.0509396765051], [-118.466337880026, 34.0507480320353], [-118.465975291526, 34.0504378759155]]]}}, {"type": "Feature", "properties": {"zone_id": "02036JXBHFIVR9UQ31SZ8X", "tract_id": "06037264303", "city": "LOS ANGELES, CA", "zone_code": "R3-1", "zone_category": "Residential", "ev_permitted": false}, "geometry": {"type": "Polygon", "coordinates": [[[-118.465738668051, 34.0506294923209], [-118.465502076505, 34.0508211081373], [-118.465830235831, 34.0511018329172], [-118.465836067498, 34.0511060783134], [-118.465849762322, 34.0511120538048], [-118.465865017445, 34.0511142212884], [-118.465880332698, 34.0511123676168], [-118.465894201999, 34.0511066750776], [-118.465900158825, 34.051102550693], [-118.465982977503, 34.0510354848913], [-118.465735490923, 34.0508237804073], [-118.465853803075, 34.0507279722646], [-118.465738668051, 34.0506294923209]]]}}, {"type": "Feature", "properties": {"zone_id": "0202BJZ50201PQ3XXH1QDT", "tract_id": "06037264303", "city": "LOS ANGELES, CA", "zone_code": "R3-1", "zone_category": "Residential", "ev_permitted": false}, "geometry": {"type": "Polygon", "coordinates": [[[-118.465853803075, 34.0507279722646], [-118.465735490923, 34.0508237804073], [-118.465982977503, 34.0510354848913], [-118.46610128967, 34.0509396765051], [-118.465853803075, 34.0507279722646]]]}}, {"type": "Feature", "properties": {"zone_id": "0201A4LMGQS55550SC7C36", "tract_id": "06037264303", "city": "LOS ANGELES, CA", "zone_code": "R3-1", "zone_category": "Residential", "ev_permitted": false}, "geometry": {"type": "Polygon", "coordinates": [[[-118.466093602856, 34.0503420675395], [-118.465975291526, 34.0504378759155], [-118.466337880026, 34.0507480320353], [-118.46645619138, 34.0506522233026], [-118.466093602856, 34.0503420675395]]]}}, {"type": "Feature", "properties": {"zone_id": "02054LT0BQ0OFYSRO6ITGY", "tract_id": "06037264303", "city": "LOS ANGELES, CA", "zone_code": "R3-1", "zone_category": "Residential", "ev_permitted": false}, "geometry": {"type": "Polygon", "coordinates": [[[-118.467054256628, 34.049784491128], [-118.466817473027, 34.0499762201929], [-118.467047711075, 34.0501731780351], [-118.467284494398, 34.0499813935603], [-118.467054256628, 34.049784491128]]]}}, {"type": "Feature", "properties": {"zone_id": "0205Q9IHWFN153E58C0M8K", "tract_id": "06037264303", "city": "LOS ANGELES, CA", "zone_code": "R3-1", "zone_category": "Residential", "ev_permitted": false}, "geometry": {"type": "Polygon", "coordinates": [[[-118.466204160047, 34.0496485954079], [-118.46597233744, 34.0498363192151], [-118.466334989653, 34.0501465300364], [-118.466566812305, 34.0499588055302], [-118.466204160047, 34.0496485954079]]]}}, {"type": "Feature", "properties": {"zone_id": "0200QXFU8QKGN8PDUMUTF8", "tract_id": "06037264303", "city": "LOS ANGELES, CA", "zone_code": "R3-1", "zone_category": "Residential", "ev_permitted": false}, "geometry": {"type": "Polygon", "coordinates": [[[-118.466566812305, 34.0499588055302], [-118.466448502058, 34.050054614368], [-118.466811123817, 34.0503647964119], [-118.466929401076, 34.0502689873451], [-118.466566812305, 34.0499588055302]]]}}, {"type": "Feature", "properties": {"zone_id": "0204IXI968PWIUSAD7Y8IL", "tract_id": "06037264303", "city": "LOS ANGELES, CA", "zone_code": "R3-1", "zone_category": "Residential", "ev_permitted": false}, "geometry": {"type": "Polygon", "coordinates": [[[-118.466448502058, 34.050054614368], [-118.46633019154, 34.0501504230904], [-118.466692813276, 34.0504606054909], [-118.466811123817, 34.0503647964119], [-118.466448502058, 34.050054614368]]]}}, {"type": "Feature", "properties": {"zone_id": "02032OS7H9RO2IU6QFBSRZ", "tract_id": "06037264303", "city": "LOS ANGELES, CA", "zone_code": "R3-1", "zone_category": "Residential", "ev_permitted": false}, "geometry": {"type": "Polygon", "coordinates": [[[-118.466685089116, 34.0498629692262], [-118.466566812305, 34.0499588055302], [-118.466929401076, 34.0502689873451], [-118.467047711075, 34.0501731780351], [-118.466685089116, 34.0498629692262]]]}}, {"type": "Feature", "properties": {"zone_id": "0200L8PBFVKUVEGEH3U71B", "tract_id": "06037264303", "city": "LOS ANGELES, CA", "zone_code": "R3-1", "zone_category": "Residential", "ev_permitted": false}, "geometry": {"type": "Polygon", "coordinates": [[[-118.465875257016, 34.0499149536909], [-118.46573091768, 34.0500318561176], [-118.466093602856, 34.0503420675395], [-118.466237876198, 34.0502251649323], [-118.465875257016, 34.0499149536909]]]}}, {"type": "Feature", "properties": {"zone_id": "020779W5GHA9SPU9JIIER7", "tract_id": "06037264303", "city": "LOS ANGELES, CA", "zone_code": "R3-1", "zone_category": "Residential", "ev_permitted": false}, "geometry": {"type": "Polygon", "coordinates": [[[-118.465612639384, 34.0501276640095], [-118.465376015956, 34.0503192797015], [-118.465738668051, 34.0506294923209], [-118.465975291526, 34.0504378759155], [-118.465612639384, 34.0501276640095]]]}}, {"type": "Feature", "properties": {"zone_id": "0203VJ6RDIL1H3BVVJ8ZXW", "tract_id": "06037264303", "city": "LOS ANGELES, CA", "zone_code": "R3-1", "zone_category": "Residential", "ev_permitted": false}, "geometry": {"type": "Polygon", "coordinates": [[[-118.46573091768, 34.0500318561176], [-118.465612639384, 34.0501276640095], [-118.465975291526, 34.0504378759155], [-118.466093602856, 34.0503420675395], [-118.46573091768, 34.0500318561176]]]}}, {"type": "Feature", "properties": {"zone_id": "02020EUS9BSW70AZ8INBO2", "tract_id": "06037264303", "city": "LOS ANGELES, CA", "zone_code": "R3-1", "zone_category": "Residential", "ev_permitted": false}, "geometry": {"type": "Polygon", "coordinates": [[[-118.46597233744, 34.0498363192151], [-118.465875257016, 34.0499149536909], [-118.466237876198, 34.0502251649323], [-118.466334989653, 34.0501465300364], [-118.46597233744, 34.0498363192151]]]}}, {"type": "Feature", "properties": {"zone_id": "0204986VV489V4KX3LB662", "tract_id": "06037264303", "city": "LOS ANGELES, CA", "zone_code": "R3-1", "zone_category": "Residential", "ev_permitted": false}, "geometry": {"type": "Polygon", "coordinates": [[[-118.46644074667, 34.049456978227], [-118.466322436988, 34.0495527869389], [-118.466817473027, 34.0499762201929], [-118.467054256628, 34.049784491128], [-118.466921839688, 34.0496712405496], [-118.466803398975, 34.0497671876359], [-118.46644074667, 34.049456978227]]]}}, {"type": "Feature", "properties": {"zone_id": "020184I1YEG49Z33WACTHS", "tract_id": "06037264303", "city": "LOS ANGELES, CA", "zone_code": "R3-1", "zone_category": "Residential", "ev_permitted": false}, "geometry": {"type": "Polygon", "coordinates": [[[-118.466559154502, 34.0493610591038], [-118.46644074667, 34.049456978227], [-118.466803398975, 34.0497671876359], [-118.466921839688, 34.0496712405496], [-118.466559154502, 34.0493610591038]]]}}, {"type": "Feature", "properties": {"zone_id": "0203LGTND4MNDC1R28E76C", "tract_id": "06037264303", "city": "LOS ANGELES, CA", "zone_code": "R3-1", "zone_category": "Residential", "ev_permitted": false}, "geometry": {"type": "Polygon", "coordinates": [[[-118.466322436988, 34.0495527869389], [-118.466204160047, 34.0496485954079], [-118.466566812305, 34.0499588055302], [-118.466685089116, 34.0498629692262], [-118.466322436988, 34.0495527869389]]]}}, {"type": "Feature", "properties": {"zone_id": "0207FHG6NP1NRTM0BN6KDD", "tract_id": "06037264303", "city": "LOS ANGELES, CA", "zone_code": "R3-1", "zone_category": "Residential", "ev_permitted": false}, "geometry": {"type": "Polygon", "coordinates": [[[-118.465466803071, 34.0494118787877], [-118.465348459327, 34.0495076866725], [-118.465711107649, 34.0498178718841], [-118.465829418405, 34.0497220637698], [-118.465466803071, 34.0494118787877]]]}}, {"type": "Feature", "properties": {"zone_id": "0202809WG5BKWAC8UOUSOY", "tract_id": "06037264303", "city": "LOS ANGELES, CA", "zone_code": "R3-1", "zone_category": "Residential", "ev_permitted": false}, "geometry": {"type": "Polygon", "coordinates": [[[-118.465798038672, 34.0491436165798], [-118.465703390714, 34.0492202630537], [-118.466066005941, 34.0495304198441], [-118.466160653918, 34.0494537730849], [-118.465798038672, 34.0491436165798]]]}}, {"type": "Feature", "properties": {"zone_id": "02002HWTVDSDPCVIQVKG2P", "tract_id": "06037264303", "city": "LOS ANGELES, CA", "zone_code": "R3-1", "zone_category": "Residential", "ev_permitted": false}, "geometry": {"type": "Polygon", "coordinates": [[[-118.465703390714, 34.0492202630537], [-118.465585113534, 34.0493160709148], [-118.465947695879, 34.0496262556675], [-118.466066005941, 34.0495304198441], [-118.465703390714, 34.0492202630537]]]}}, {"type": "Feature", "properties": {"zone_id": "0201XOUI8S6NWRMI1VG271", "tract_id": "06037264303", "city": "LOS ANGELES, CA", "zone_code": "R3-1", "zone_category": "Residential", "ev_permitted": false}, "geometry": {"type": "Polygon", "coordinates": [[[-118.465585113534, 34.0493160709148], [-118.465466803071, 34.0494118787877], [-118.465829418405, 34.0497220637698], [-118.465947695879, 34.0496262556675], [-118.465585113534, 34.0493160709148]]]}}, {"type": "Feature", "properties": {"zone_id": "0204WCHQRNEW882YVVUEUN", "tract_id": "06037264303", "city": "LOS ANGELES, CA", "zone_code": "R3-1", "zone_category": "Residential", "ev_permitted": false}, "geometry": {"type": "Polygon", "coordinates": [[[-118.465695426313, 34.0486396379209], [-118.465680079435, 34.0486414815255], [-118.465672858365, 34.0486438759605], [-118.465660213663, 34.0486513140835], [-118.465459087766, 34.0488142424753], [-118.465821700634, 34.0491244549498], [-118.465798038672, 34.0491436165798], [-118.466160653918, 34.0494537730849], [-118.466385507731, 34.0492716540456], [-118.466391150461, 34.0492662059028], [-118.466395570508, 34.0492600310546], [-118.466398634569, 34.049253315725], [-118.466400250238, 34.0492462624379], [-118.466400368788, 34.04923908391], [-118.466398986644, 34.0492319966346], [-118.466396145489, 34.0492252143534], [-118.466391931008, 34.0492189416099], [-118.466386470303, 34.0492133675805], [-118.465730236173, 34.0486521157201], [-118.465717844326, 34.048644390972], [-118.465710705855, 34.0486418321451], [-118.465695426313, 34.0486396379209]]]}}, {"type": "Feature", "properties": {"zone_id": "0200US9EJMGDW39SPXEBQ7", "tract_id": "06037264303", "city": "LOS ANGELES, CA", "zone_code": "R3-1", "zone_category": "Residential", "ev_permitted": false}, "geometry": {"type": "Polygon", "coordinates": [[[-118.465032715422, 34.0520351207689], [-118.464796085271, 34.0522267353422], [-118.465141428243, 34.0525221503399], [-118.465378058438, 34.0523305350871], [-118.465032715422, 34.0520351207689]]]}}, {"type": "Feature", "properties": {"zone_id": "0200I6MJ35VZTEW1QIBQWK", "tract_id": "06037264303", "city": "LOS ANGELES, CA", "zone_code": "R3-1", "zone_category": "Residential", "ev_permitted": false}, "geometry": {"type": "Polygon", "coordinates": [[[-118.465536642816, 34.0522691679936], [-118.465181731087, 34.0525566185159], [-118.46552133836, 34.0528471632914], [-118.465876283167, 34.0525597116396], [-118.465536642816, 34.0522691679936]]]}}, {"type": "Feature", "properties": {"zone_id": "0200J4D3XYJX5SVFEF0C72", "tract_id": "06037264303", "city": "LOS ANGELES, CA", "zone_code": "R3-1", "zone_category": "Residential", "ev_permitted": false}, "geometry": {"type": "Polygon", "coordinates": [[[-118.464796085271, 34.0522267353422], [-118.46467776979, 34.0523225424557], [-118.465023112739, 34.052617957793], [-118.465141428243, 34.0525221503399], [-118.464796085271, 34.0522267353422]]]}}, {"type": "Feature", "properties": {"zone_id": "0204L04FXJAKD16770RNXA", "tract_id": "06037264303", "city": "LOS ANGELES, CA", "zone_code": "R3-1", "zone_category": "Residential", "ev_permitted": false}, "geometry": {"type": "Polygon", "coordinates": [[[-118.465150997078, 34.0519393134361], [-118.465032715422, 34.0520351207689], [-118.465378058438, 34.0523305350871], [-118.465496339963, 34.0522346999365], [-118.465150997078, 34.0519393134361]]]}}, {"type": "Feature", "properties": {"zone_id": "0201DNGYSZP5HWZ1S4C9P8", "tract_id": "06037264303", "city": "LOS ANGELES, CA", "zone_code": "R3-1", "zone_category": "Residential", "ev_permitted": false}, "geometry": {"type": "Polygon", "coordinates": [[[-118.464559454037, 34.0524183494536], [-118.464441138166, 34.0525141838145], [-118.46478648107, 34.0528095998312], [-118.464904862989, 34.0527137648765], [-118.464559454037, 34.0524183494536]]]}}, {"type": "Feature", "properties": {"zone_id": "0204O55XM0S4WDIGB1KYL4", "tract_id": "06037264303", "city": "LOS ANGELES, CA", "zone_code": "R3-1", "zone_category": "Residential", "ev_permitted": false}, "geometry": {"type": "Polygon", "coordinates": [[[-118.46467776979, 34.0523225424557], [-118.464559454037, 34.0524183494536], [-118.464904862989, 34.0527137648765], [-118.465023112739, 34.052617957793], [-118.46467776979, 34.0523225424557]]]}}, {"type": "Feature", "properties": {"zone_id": "020291H9KOKM9IB54HK2P2", "tract_id": "06037264303", "city": "LOS ANGELES, CA", "zone_code": "R3-1", "zone_category": "Residential", "ev_permitted": false}, "geometry": {"type": "Polygon", "coordinates": [[[-118.464200043643, 34.0519139119407], [-118.464081727922, 34.0520097184687], [-118.464421330846, 34.0523001993436], [-118.46453964659, 34.0522043924815], [-118.464200043643, 34.0519139119407]]]}}, {"type": "Feature", "properties": {"zone_id": "0205HYXY3Q3KVEFXKYYPVL", "tract_id": "06037264303", "city": "LOS ANGELES, CA", "zone_code": "R3-1", "zone_category": "Residential", "ev_permitted": false}, "geometry": {"type": "Polygon", "coordinates": [[[-118.46538762545, 34.0517476706917], [-118.465150997078, 34.0519393134361], [-118.46549060128, 34.0522297758545], [-118.465727229848, 34.0520381599202], [-118.46538762545, 34.0517476706917]]]}}, {"type": "Feature", "properties": {"zone_id": "02062EU1KMTXSXPHXX2KFK", "tract_id": "06037264303", "city": "LOS ANGELES, CA", "zone_code": "R3-1", "zone_category": "Residential", "ev_permitted": false}, "geometry": {"type": "Polygon", "coordinates": [[[-118.464881439611, 34.0513620029816], [-118.464791553855, 34.0514348108361], [-118.465131188079, 34.0517253290877], [-118.465221106864, 34.0516525208522], [-118.464881439611, 34.0513620029816]]]}}, {"type": "Feature", "properties": {"zone_id": "0202T6B6S9LXMAT713SA13", "tract_id": "06037264303", "city": "LOS ANGELES, CA", "zone_code": "R3-1", "zone_category": "Residential", "ev_permitted": false}, "geometry": {"type": "Polygon", "coordinates": [[[-118.464785782256, 34.0514298868479], [-118.464667467889, 34.0515256939476], [-118.46501287369, 34.0518211365272], [-118.465131188079, 34.0517253290877], [-118.464785782256, 34.0514298868479]]]}}, {"type": "Feature", "properties": {"zone_id": "0206RPYJ63FWROQEN6U5RR", "tract_id": "06037264303", "city": "LOS ANGELES, CA", "zone_code": "R3-1", "zone_category": "Residential", "ev_permitted": false}, "geometry": {"type": "Polygon", "coordinates": [[[-118.464549186264, 34.0516215008048], [-118.464430871355, 34.0517173076735], [-118.464776244099, 34.0520127510597], [-118.46489455903, 34.0519169438512], [-118.464549186264, 34.0516215008048]]]}}, {"type": "Feature", "properties": {"zone_id": "02069T29EV4OSCKUGDHUYN", "tract_id": "06037264303", "city": "LOS ANGELES, CA", "zone_code": "R3-1", "zone_category": "Residential", "ev_permitted": false}, "geometry": {"type": "Polygon", "coordinates": [[[-118.464436609941, 34.0517222318057], [-118.464318294761, 34.0518180385647], [-118.464657962062, 34.052108585504], [-118.464776244099, 34.0520127510597], [-118.464436609941, 34.0517222318057]]]}}, {"type": "Feature", "properties": {"zone_id": "0202D8JVK5ZSTFCKSFBM48", "tract_id": "06037264303", "city": "LOS ANGELES, CA", "zone_code": "R3-1", "zone_category": "Residential", "ev_permitted": false}, "geometry": {"type": "Polygon", "coordinates": [[[-118.464312556023, 34.0518130869485], [-118.464194240878, 34.0519089485429], [-118.46453964659, 34.0522043924815], [-118.464657962062, 34.052108585504], [-118.464312556023, 34.0518130869485]]]}}, {"type": "Feature", "properties": {"zone_id": "0205964IDPB26OTTDFWIYB", "tract_id": "06037264303", "city": "LOS ANGELES, CA", "zone_code": "R3-1", "zone_category": "Residential", "ev_permitted": false}, "geometry": {"type": "Polygon", "coordinates": [[[-118.464667467889, 34.0515256939476], [-118.464549186264, 34.0516215008048], [-118.46489455903, 34.0519169438512], [-118.46501287369, 34.0518211365272], [-118.464667467889, 34.0515256939476]]]}}, {"type": "Feature", "properties": {"zone_id": "0204DP8MJCVDXMG1CKGRQI", "tract_id": "06037264303", "city": "LOS ANGELES, CA", "zone_code": "R3-1", "zone_category": "Residential", "ev_permitted": false}, "geometry": {"type": "Polygon", "coordinates": [[[-118.464075925156, 34.0520047550653], [-118.463957609011, 34.0521005339938], [-118.464303014831, 34.0523960060903], [-118.464421330846, 34.0523001993436], [-118.464075925156, 34.0520047550653]]]}}, {"type": "Feature", "properties": {"zone_id": "02034T8FVH4Q049Y352L55", "tract_id": "06037264303", "city": "LOS ANGELES, CA", "zone_code": "R3-1", "zone_category": "Residential", "ev_permitted": false}, "geometry": {"type": "Polygon", "coordinates": [[[-118.463932655906, 34.0514881801237], [-118.4636960581, 34.0516798473663], [-118.463926260171, 34.0518767563461], [-118.464044575883, 34.051780949971], [-118.464159710344, 34.0518794040569], [-118.46427799278, 34.05178359758], [-118.463932655906, 34.0514881801237]]]}}, {"type": "Feature", "properties": {"zone_id": "0207BSQQC179KGWTZDP8Q6", "tract_id": "06037264303", "city": "LOS ANGELES, CA", "zone_code": "R3-1", "zone_category": "Residential", "ev_permitted": false}, "geometry": {"type": "Polygon", "coordinates": [[[-118.464044575883, 34.051780949971], [-118.463807977201, 34.0519725624789], [-118.463923078635, 34.0520710169182], [-118.464159710344, 34.0518794040569], [-118.464044575883, 34.051780949971]]]}}, {"type": "Feature", "properties": {"zone_id": "0207E3GDH7CAQ9T4X3D3JF", "tract_id": "06037264303", "city": "LOS ANGELES, CA", "zone_code": "R3-1", "zone_category": "Residential", "ev_permitted": false}, "geometry": {"type": "Polygon", "coordinates": [[[-118.4636960581, 34.0516798473663], [-118.46357774198, 34.0517756259212], [-118.463807977201, 34.0519725624789], [-118.463926260171, 34.0518767563461], [-118.4636960581, 34.0516798473663]]]}}, {"type": "Feature", "properties": {"zone_id": "02035XN81WN0O8AXIP0PIA", "tract_id": "06037264303", "city": "LOS ANGELES, CA", "zone_code": "R3-1", "zone_category": "Residential", "ev_permitted": false}, "geometry": {"type": "Polygon", "coordinates": [[[-118.464050971214, 34.0513924012224], [-118.463932655906, 34.0514881801237], [-118.46427799278, 34.05178359758], [-118.464396307958, 34.0516877908607], [-118.464050971214, 34.0513924012224]]]}}, {"type": "Feature", "properties": {"zone_id": "0206Y5A7BTERDATEQ1UVHI", "tract_id": "06037264303", "city": "LOS ANGELES, CA", "zone_code": "R3-1", "zone_category": "Residential", "ev_permitted": false}, "geometry": {"type": "Polygon", "coordinates": [[[-118.465140723577, 34.0511424373777], [-118.464958553482, 34.0512899586869], [-118.465303959337, 34.0515854004306], [-118.465486096607, 34.0514379062037], [-118.465140723577, 34.0511424373777]]]}}, {"type": "Feature", "properties": {"zone_id": "0206LF3Z5NX7WK0FY6N4XH", "tract_id": "06037264303", "city": "LOS ANGELES, CA", "zone_code": "R3-1", "zone_category": "Residential", "ev_permitted": false}, "geometry": {"type": "Polygon", "coordinates": [[[-118.465417492351, 34.0512058365129], [-118.465313376699, 34.0512901583017], [-118.465486096607, 34.0514379062037], [-118.465545253141, 34.0513899747892], [-118.465430150735, 34.0512915218994], [-118.465475076695, 34.0512551040675], [-118.465417492351, 34.0512058365129]]]}}, {"type": "Feature", "properties": {"zone_id": "02009DFXWH6M1MQ8JP4OYB", "tract_id": "06037264303", "city": "LOS ANGELES, CA", "zone_code": "R3-1", "zone_category": "Residential", "ev_permitted": false}, "geometry": {"type": "Polygon", "coordinates": [[[-118.465489274185, 34.0512435906399], [-118.465430150735, 34.0512915218994], [-118.465545253141, 34.0513899747892], [-118.46560440976, 34.0513420708241], [-118.465489274185, 34.0512435906399]]]}}, {"type": "Feature", "properties": {"zone_id": "020445LKRCV352IUY2PRA8", "tract_id": "06037264303", "city": "LOS ANGELES, CA", "zone_code": "R3-1", "zone_category": "Residential", "ev_permitted": false}, "geometry": {"type": "Polygon", "coordinates": [[[-118.465548430885, 34.0511957141808], [-118.465489274185, 34.0512435906399], [-118.46560440976, 34.0513420708241], [-118.465663566311, 34.0512941668301], [-118.465548430885, 34.0511957141808]]]}}, {"type": "Feature", "properties": {"zone_id": "020532XCRDPC8FV9K9J38T", "tract_id": "06037264303", "city": "LOS ANGELES, CA", "zone_code": "R3-1", "zone_category": "Residential", "ev_permitted": false}, "geometry": {"type": "Polygon", "coordinates": [[[-118.464964325081, 34.0512948826668], [-118.464881439611, 34.0513620029816], [-118.465221106864, 34.0516525208522], [-118.465303959337, 34.0515854004306], [-118.464964325081, 34.0512948826668]]]}}, {"type": "Feature", "properties": {"zone_id": "02005EWUFIG6HJY20EFBEE", "tract_id": "06037264303", "city": "LOS ANGELES, CA", "zone_code": "R3-1", "zone_category": "Residential", "ev_permitted": false}, "geometry": {"type": "Polygon", "coordinates": [[[-118.46537731686, 34.0509508222663], [-118.465140723577, 34.0511424373777], [-118.465313376699, 34.0512901583017], [-118.465550002863, 34.0510985152451], [-118.46537731686, 34.0509508222663]]]}}, {"type": "Feature", "properties": {"zone_id": "0204V33SS9M1Q1BB4O7EOD", "tract_id": "06037264303", "city": "LOS ANGELES, CA", "zone_code": "R3-1", "zone_category": "Residential", "ev_permitted": false}, "geometry": {"type": "Polygon", "coordinates": [[[-118.465550002863, 34.0510985152451], [-118.465417492351, 34.0512058365129], [-118.465475076695, 34.0512551040675], [-118.465607587364, 34.0511478102146], [-118.465550002863, 34.0510985152451]]]}}, {"type": "Feature", "properties": {"zone_id": "0201AAEYYLKJLOIANJV769", "tract_id": "06037264303", "city": "LOS ANGELES, CA", "zone_code": "R3-1", "zone_category": "Residential", "ev_permitted": false}, "geometry": {"type": "Polygon", "coordinates": [[[-118.465204697643, 34.0508031562655], [-118.464968071523, 34.0509947986429], [-118.465106160167, 34.0511129207689], [-118.465342786457, 34.0509213055983], [-118.465204697643, 34.0508031562655]]]}}, {"type": "Feature", "properties": {"zone_id": "0207241XGTU0AX1ABXFD3X", "tract_id": "06037264303", "city": "LOS ANGELES, CA", "zone_code": "R3-1", "zone_category": "Residential", "ev_permitted": false}, "geometry": {"type": "Polygon", "coordinates": [[[-118.464169285945, 34.051296567249], [-118.464050971214, 34.0513924012224], [-118.464390569377, 34.0516828667266], [-118.46450885127, 34.0515870600245], [-118.464169285945, 34.051296567249]]]}}, {"type": "Feature", "properties": {"zone_id": "0206ZDCDWRE6NCEM57TCXN", "tract_id": "06037264303", "city": "LOS ANGELES, CA", "zone_code": "R3-1", "zone_category": "Residential", "ev_permitted": false}, "geometry": {"type": "Polygon", "coordinates": [[[-118.464287600559, 34.0512007606386], [-118.464169285945, 34.051296567249], [-118.464514622864, 34.051591984026], [-118.464632937652, 34.0514962045541], [-118.464287600559, 34.0512007606386]]]}}, {"type": "Feature", "properties": {"zone_id": "0203E50I53HLEERDRXGJHS", "tract_id": "06037264303", "city": "LOS ANGELES, CA", "zone_code": "R3-1", "zone_category": "Residential", "ev_permitted": false}, "geometry": {"type": "Polygon", "coordinates": [[[-118.464405881889, 34.0511049540395], [-118.464287600559, 34.0512007606386], [-118.464632937652, 34.0514962045541], [-118.464751251711, 34.0514003425317], [-118.464405881889, 34.0511049540395]]]}}, {"type": "Feature", "properties": {"zone_id": "0206U9B97HPOAHKN22P09U", "tract_id": "06037264303", "city": "LOS ANGELES, CA", "zone_code": "R3-1", "zone_category": "Residential", "ev_permitted": false}, "geometry": {"type": "Polygon", "coordinates": [[[-118.46452419596, 34.051009147198], [-118.464405881889, 34.0511049540395], [-118.464751251711, 34.0514003425317], [-118.464869532792, 34.0513045354776], [-118.46452419596, 34.051009147198]]]}}, {"type": "Feature", "properties": {"zone_id": "0201VCQNF05KDLM6BZP5Z5", "tract_id": "06037264303", "city": "LOS ANGELES, CA", "zone_code": "R3-1", "zone_category": "Residential", "ev_permitted": false}, "geometry": {"type": "Polygon", "coordinates": [[[-118.464760823137, 34.0508175056904], [-118.464642509607, 34.0509133127629], [-118.464987846768, 34.0512087556593], [-118.465106160167, 34.0511129207689], [-118.464760823137, 34.0508175056904]]]}}, {"type": "Feature", "properties": {"zone_id": "0204MOJZNUTK0JK1O5EXER", "tract_id": "06037264303", "city": "LOS ANGELES, CA", "zone_code": "R3-1", "zone_category": "Residential", "ev_permitted": false}, "geometry": {"type": "Polygon", "coordinates": [[[-118.464642509607, 34.0509133127629], [-118.46452419596, 34.051009147198], [-118.464869532792, 34.0513045354776], [-118.464987846768, 34.0512087556593], [-118.464642509607, 34.0509133127629]]]}}, {"type": "Feature", "properties": {"zone_id": "02056OFS1WIRCS7FALLXLM", "tract_id": "06037264303", "city": "LOS ANGELES, CA", "zone_code": "R3-1", "zone_category": "Residential", "ev_permitted": false}, "geometry": {"type": "Polygon", "coordinates": [[[-118.465376015956, 34.0503192797015], [-118.465174918203, 34.0504821525494], [-118.465169272132, 34.0504876004818], [-118.465164850187, 34.0504937762868], [-118.465161786018, 34.0505004933042], [-118.465160172238, 34.050507548516], [-118.465160057622, 34.0505147286827], [-118.465161445634, 34.0505218167879], [-118.465164294322, 34.050528598598], [-118.465168517587, 34.0505348691368], [-118.465173987783, 34.0505404388813], [-118.465502076505, 34.0508211081373], [-118.465738668051, 34.0506294923209], [-118.465376015956, 34.0503192797015]]]}}, {"type": "Feature", "properties": {"zone_id": "0205Y1Q2X1NZB5D06AU34T", "tract_id": "06037264303", "city": "LOS ANGELES, CA", "zone_code": "R3-1", "zone_category": "Residential", "ev_permitted": false}, "geometry": {"type": "Polygon", "coordinates": [[[-118.46499716851, 34.0506429565064], [-118.464981826871, 34.0506447952977], [-118.464974606417, 34.0506471840105], [-118.464961955362, 34.0506546059241], [-118.464760823137, 34.0508175056904], [-118.464968071523, 34.0509947986429], [-118.465204697643, 34.0508031562655], [-118.465031979541, 34.0506554079656], [-118.465019580939, 34.0506476991389], [-118.465012442938, 34.0506451459675], [-118.46499716851, 34.0506429565064]]]}}, {"type": "Feature", "properties": {"zone_id": "02069WIRQRFRNRIV0U720O", "tract_id": "06037264303", "city": "LOS ANGELES, CA", "zone_code": "R3-1", "zone_category": "Residential", "ev_permitted": false}, "geometry": {"type": "Polygon", "coordinates": [[[-118.46451976637, 34.0502172498258], [-118.464283140339, 34.0504088908554], [-118.464622702151, 34.0506993283416], [-118.464823801502, 34.0505364564116], [-118.464829441997, 34.0505310074558], [-118.4648338602, 34.050524832407], [-118.464836922977, 34.050518117339], [-118.464838538036, 34.0505110645982], [-118.464838656712, 34.0505038867062], [-118.464837275426, 34.0504967999558], [-118.464834435803, 34.0504900178935], [-118.464830223409, 34.0504837448847], [-118.464824765177, 34.0504781699553], [-118.46451976637, 34.0502172498258]]]}}, {"type": "Feature", "properties": {"zone_id": "02057NILLHSOX30P6M9DVT", "tract_id": "06037264303", "city": "LOS ANGELES, CA", "zone_code": "R3-1", "zone_category": "Residential", "ev_permitted": false}, "geometry": {"type": "Polygon", "coordinates": [[[-118.464164992509, 34.0505048067367], [-118.463928365157, 34.0506965020305], [-118.46426776093, 34.050986776283], [-118.464504388631, 34.0507951352781], [-118.464164992509, 34.0505048067367]]]}}, {"type": "Feature", "properties": {"zone_id": "0203U8TU8C1IM7I8AJUDTZ", "tract_id": "06037264303", "city": "LOS ANGELES, CA", "zone_code": "R3-1", "zone_category": "Residential", "ev_permitted": false}, "geometry": {"type": "Polygon", "coordinates": [[[-118.464277401852, 34.0504039667162], [-118.464159121366, 34.0504997731862], [-118.464504388631, 34.0507951352781], [-118.464622702151, 34.0506993283416], [-118.464277401852, 34.0504039667162]]]}}, {"type": "Feature", "properties": {"zone_id": "0202QL4RF63FX639D5ROQX", "tract_id": "06037264303", "city": "LOS ANGELES, CA", "zone_code": "R3-1", "zone_category": "Residential", "ev_permitted": false}, "geometry": {"type": "Polygon", "coordinates": [[[-118.46356761614, 34.0509788591416], [-118.463330985774, 34.0511704983126], [-118.463676252579, 34.0514658078252], [-118.463912883142, 34.0512741954532], [-118.46356761614, 34.0509788591416]]]}}, {"type": "Feature", "properties": {"zone_id": "02000QTS47CNJQBIKF5VAM", "tract_id": "06037264303", "city": "LOS ANGELES, CA", "zone_code": "R3-1", "zone_category": "Residential", "ev_permitted": false}, "geometry": {"type": "Polygon", "coordinates": [[[-118.463804212411, 34.0507872196355], [-118.463685897981, 34.0508830532488], [-118.464031165157, 34.0511784166992], [-118.464149479609, 34.0510825827462], [-118.463804212411, 34.0507872196355]]]}}, {"type": "Feature", "properties": {"zone_id": "02020PFCE3BE3C5HUYGHK6", "tract_id": "06037264303", "city": "LOS ANGELES, CA", "zone_code": "R3-1", "zone_category": "Residential", "ev_permitted": false}, "geometry": {"type": "Polygon", "coordinates": [[[-118.463685897981, 34.0508830532488], [-118.46356761614, 34.0509788591416], [-118.463912883142, 34.0512741954532], [-118.464031165157, 34.0511784166992], [-118.463685897981, 34.0508830532488]]]}}, {"type": "Feature", "properties": {"zone_id": "0202MN187X2P46TDCLUQ7H", "tract_id": "06037264303", "city": "LOS ANGELES, CA", "zone_code": "R3-1", "zone_category": "Residential", "ev_permitted": false}, "geometry": {"type": "Polygon", "coordinates": [[[-118.463330985774, 34.0511704983126], [-118.46321270312, 34.0512663038591], [-118.463557937043, 34.0515616413163], [-118.463676252579, 34.0514658078252], [-118.463330985774, 34.0511704983126]]]}}, {"type": "Feature", "properties": {"zone_id": "0207DYHCX0E1DAQXPTZ3HI", "tract_id": "06037264303", "city": "LOS ANGELES, CA", "zone_code": "R3-1", "zone_category": "Residential", "ev_permitted": false}, "geometry": {"type": "Polygon", "coordinates": [[[-118.463327803035, 34.0513647863407], [-118.463209487243, 34.0514606194899], [-118.463439555059, 34.051657447467], [-118.463557937043, 34.0515616413163], [-118.463327803035, 34.0513647863407]]]}}, {"type": "Feature", "properties": {"zone_id": "020599QXR0A4M1UTLJJM9G", "tract_id": "06037264303", "city": "LOS ANGELES, CA", "zone_code": "R3-1", "zone_category": "Residential", "ev_permitted": false}, "geometry": {"type": "Polygon", "coordinates": [[[-118.46321270312, 34.0512663038591], [-118.463094387336, 34.0513621368951], [-118.463209487243, 34.0514606194899], [-118.463327803035, 34.0513647863407], [-118.46321270312, 34.0512663038591]]]}}, {"type": "Feature", "properties": {"zone_id": "0206C2DKURTPOA4SQVVG1Y", "tract_id": "06037264303", "city": "LOS ANGELES, CA", "zone_code": "R3-1", "zone_category": "Residential", "ev_permitted": false}, "geometry": {"type": "Polygon", "coordinates": [[[-118.462832842617, 34.050941365978], [-118.462750013292, 34.0510084365201], [-118.462748648219, 34.051066410204], [-118.463059824404, 34.0513325922219], [-118.463178173199, 34.0512367590933], [-118.462832842617, 34.050941365978]]]}}, {"type": "Feature", "properties": {"zone_id": "0205V8GDDDHSWILZIIO8Y7", "tract_id": "06037264303", "city": "LOS ANGELES, CA", "zone_code": "R3-1", "zone_category": "Residential", "ev_permitted": false}, "geometry": {"type": "Polygon", "coordinates": [[[-118.462951125094, 34.0508455333268], [-118.462832842617, 34.050941365978], [-118.463178173199, 34.0512367590933], [-118.46329645585, 34.0511409535808], [-118.462951125094, 34.0508455333268]]]}}, {"type": "Feature", "properties": {"zone_id": "0201P1J3RZ9CBQCNGDV382", "tract_id": "06037264303", "city": "LOS ANGELES, CA", "zone_code": "R3-1", "zone_category": "Residential", "ev_permitted": false}, "geometry": {"type": "Polygon", "coordinates": [[[-118.463928365157, 34.0506965020305], [-118.46381003373, 34.0507921984369], [-118.464149479609, 34.0510825827462], [-118.46426776093, 34.050986776283], [-118.463928365157, 34.0506965020305]]]}}, {"type": "Feature", "properties": {"zone_id": "02071IS7IU95LO1HL15V5D", "tract_id": "06037264303", "city": "LOS ANGELES, CA", "zone_code": "R3-1", "zone_category": "Residential", "ev_permitted": false}, "geometry": {"type": "Polygon", "coordinates": [[[-118.463424351785, 34.0504622836226], [-118.463306037228, 34.0505580893839], [-118.463651368051, 34.0508535086189], [-118.46376968263, 34.0507577025178], [-118.463424351785, 34.0504622836226]]]}}, {"type": "Feature", "properties": {"zone_id": "0205TLSWKO8G06AOUZ7SKC", "tract_id": "06037264303", "city": "LOS ANGELES, CA", "zone_code": "R3-1", "zone_category": "Residential", "ev_permitted": false}, "geometry": {"type": "Polygon", "coordinates": [[[-118.463660946923, 34.0502706444019], [-118.46354263306, 34.0503664778725], [-118.463887963775, 34.0506618689498], [-118.464006277812, 34.0505660626178], [-118.463660946923, 34.0502706444019]]]}}, {"type": "Feature", "properties": {"zone_id": "02072ISNR89VX1P9OLW9L6", "tract_id": "06037264303", "city": "LOS ANGELES, CA", "zone_code": "R3-1", "zone_category": "Residential", "ev_permitted": false}, "geometry": {"type": "Polygon", "coordinates": [[[-118.46354263306, 34.0503664778725], [-118.463424351785, 34.0504622836226], [-118.46376968263, 34.0507577025178], [-118.463887963775, 34.0506618689498], [-118.46354263306, 34.0503664778725]]]}}, {"type": "Feature", "properties": {"zone_id": "0202HG5JVYM1SPS9382UGW", "tract_id": "06037264303", "city": "LOS ANGELES, CA", "zone_code": "R3-1", "zone_category": "Residential", "ev_permitted": false}, "geometry": {"type": "Polygon", "coordinates": [[[-118.463306037228, 34.0505580893839], [-118.463069440465, 34.0507497279118], [-118.463408999751, 34.0510402237722], [-118.463645687389, 34.0508485928147], [-118.463306037228, 34.0505580893839]]]}}, {"type": "Feature", "properties": {"zone_id": "0201KPDL047WMREN0UB1V6", "tract_id": "06037264303", "city": "LOS ANGELES, CA", "zone_code": "R3-1", "zone_category": "Residential", "ev_permitted": false}, "geometry": {"type": "Polygon", "coordinates": [[[-118.463069440465, 34.0507497279118], [-118.462951125094, 34.0508455333268], [-118.46329645585, 34.0511409535808], [-118.463414771243, 34.0510451478261], [-118.463069440465, 34.0507497279118]]]}}, {"type": "Feature", "properties": {"zone_id": "0207O2Q3SR8001BAHP0LDX", "tract_id": "06037264303", "city": "LOS ANGELES, CA", "zone_code": "R3-1", "zone_category": "Residential", "ev_permitted": false}, "geometry": {"type": "Polygon", "coordinates": [[[-118.465111903223, 34.049699329065], [-118.46487527986, 34.0498909437719], [-118.465237894924, 34.0502011030592], [-118.465474485323, 34.0500094877662], [-118.465111903223, 34.049699329065]]]}}, {"type": "Feature", "properties": {"zone_id": "02008I3Y6F3ZEK1SJ0Q3W2", "tract_id": "06037264303", "city": "LOS ANGELES, CA", "zone_code": "R3-1", "zone_category": "Residential", "ev_permitted": false}, "geometry": {"type": "Polygon", "coordinates": [[[-118.464889382281, 34.0501000039061], [-118.464771036902, 34.0501958112282], [-118.465001270584, 34.0503927454959], [-118.465119582966, 34.0502969380745], [-118.464889382281, 34.0501000039061]]]}}, {"type": "Feature", "properties": {"zone_id": "0203NB3U44BF4PYEEN8GN3", "tract_id": "06037264303", "city": "LOS ANGELES, CA", "zone_code": "R3-1", "zone_category": "Residential", "ev_permitted": false}, "geometry": {"type": "Polygon", "coordinates": [[[-118.46487527986, 34.0498909437719], [-118.464756967772, 34.0499867509521], [-118.465119582966, 34.0502969380745], [-118.465237894924, 34.0502011030592], [-118.46487527986, 34.0498909437719]]]}}, {"type": "Feature", "properties": {"zone_id": "0203920YZ5SGIY8F7OBHT7", "tract_id": "06037264303", "city": "LOS ANGELES, CA", "zone_code": "R3-1", "zone_category": "Residential", "ev_permitted": false}, "geometry": {"type": "Polygon", "coordinates": [[[-118.464512700496, 34.0495807832734], [-118.464276076096, 34.049772396805], [-118.464638655261, 34.0500825305385], [-118.46487527986, 34.0498909437719], [-118.464512700496, 34.0495807832734]]]}}, {"type": "Feature", "properties": {"zone_id": "02014PJ7P9CKXS4BE3GIBV", "tract_id": "06037264303", "city": "LOS ANGELES, CA", "zone_code": "R3-1", "zone_category": "Residential", "ev_permitted": false}, "geometry": {"type": "Polygon", "coordinates": [[[-118.464756967772, 34.0499867509521], [-118.464638655261, 34.0500825305385], [-118.464771036902, 34.0501958112282], [-118.464889382281, 34.0501000039061], [-118.464756967772, 34.0499867509521]]]}}, {"type": "Feature", "properties": {"zone_id": "0203CWMMKYVTCJ7EVQX1N7", "tract_id": "06037264303", "city": "LOS ANGELES, CA", "zone_code": "R3-1", "zone_category": "Residential", "ev_permitted": false}, "geometry": {"type": "Polygon", "coordinates": [[[-118.465104190426, 34.0491016927215], [-118.4648676019, 34.0492933347588], [-118.465230181334, 34.0496034941874], [-118.465466803071, 34.0494118787877], [-118.465104190426, 34.0491016927215]]]}}, {"type": "Feature", "properties": {"zone_id": "0205Z2JX6TAASPHIGXZLIX", "tract_id": "06037264303", "city": "LOS ANGELES, CA", "zone_code": "R3-1", "zone_category": "Residential", "ev_permitted": false}, "geometry": {"type": "Polygon", "coordinates": [[[-118.465348459327, 34.0495076866725], [-118.465111903223, 34.049699329065], [-118.465474485323, 34.0500094877662], [-118.465711107649, 34.0498178718841], [-118.465348459327, 34.0495076866725]]]}}, {"type": "Feature", "properties": {"zone_id": "0207B1K9JMTNDQCFNP4693", "tract_id": "06037264303", "city": "LOS ANGELES, CA", "zone_code": "R3-1", "zone_category": "Residential", "ev_permitted": false}, "geometry": {"type": "Polygon", "coordinates": [[[-118.4648676019, 34.0492933347588], [-118.464630979125, 34.0494849489832], [-118.464993591677, 34.0497951364762], [-118.465230181334, 34.0496034941874], [-118.4648676019, 34.0492933347588]]]}}, {"type": "Feature", "properties": {"zone_id": "0204H9EM0YI6KA6WTOJ9EE", "tract_id": "06037264303", "city": "LOS ANGELES, CA", "zone_code": "R3-1", "zone_category": "Residential", "ev_permitted": false}, "geometry": {"type": "Polygon", "coordinates": [[[-118.464630979125, 34.0494849489832], [-118.464512700496, 34.0495807832734], [-118.46487527986, 34.0498909437719], [-118.464993591677, 34.0497951364762], [-118.464630979125, 34.0494849489832]]]}}, {"type": "Feature", "properties": {"zone_id": "0205YDKE0WAQ478WQ2WIWG", "tract_id": "06037264303", "city": "LOS ANGELES, CA", "zone_code": "R3-1", "zone_category": "Residential", "ev_permitted": false}, "geometry": {"type": "Polygon", "coordinates": [[[-118.464306815713, 34.0500350868026], [-118.464070189709, 34.0502267274133], [-118.463897541129, 34.0500790321979], [-118.463779227656, 34.050174838421], [-118.464118820086, 34.0504653321506], [-118.464473726595, 34.0501778847811], [-118.464306815713, 34.0500350868026]]]}}, {"type": "Feature", "properties": {"zone_id": "0203HXX2J6EFZMBV5EAK9N", "tract_id": "06037264303", "city": "LOS ANGELES, CA", "zone_code": "R3-1", "zone_category": "Residential", "ev_permitted": false}, "geometry": {"type": "Polygon", "coordinates": [[[-118.463779227656, 34.050174838421], [-118.463660946923, 34.0502706444019], [-118.464000506472, 34.0505611660706], [-118.464118820086, 34.0504653321506], [-118.463779227656, 34.050174838421]]]}}, {"type": "Feature", "properties": {"zone_id": "0207KIHC3YPN0HC1NAJDKP", "tract_id": "06037264303", "city": "LOS ANGELES, CA", "zone_code": "R3-1", "zone_category": "Residential", "ev_permitted": false}, "geometry": {"type": "Polygon", "coordinates": [[[-118.464133853666, 34.0499044573396], [-118.46411850632, 34.0499063009157], [-118.464111285066, 34.0499086954617], [-118.464098640248, 34.049916134002], [-118.463897541129, 34.0500790321979], [-118.464070189709, 34.0502267274133], [-118.464306815713, 34.0500350868026], [-118.464168663802, 34.0499169365442], [-118.464156272147, 34.0499092110601], [-118.464149133595, 34.0499066519359], [-118.464133853666, 34.0499044573396]]]}}, {"type": "Feature", "properties": {"zone_id": "0202WFH6S4SDQY60Z7JKH6", "tract_id": "06037264303", "city": "LOS ANGELES, CA", "zone_code": "R3-1", "zone_category": "Residential", "ev_permitted": false}, "geometry": {"type": "Polygon", "coordinates": [[[-118.465459087766, 34.0488142424753], [-118.465104190426, 34.0491016927215], [-118.465466803071, 34.0494118787877], [-118.465821700634, 34.0491244549498], [-118.465459087766, 34.0488142424753]]]}}]}