{"type": "FeatureCollection", "features": [{"type": "Feature", "properties": {"zone_id": "0201ZPFJVJ3BFGZL2SD4NH", "tract_id": "36047076400", "city": "BROOKLYN, NY", "zone_code": "R1-2", "zone_category": "Residential", "ev_permitted": false}, "geometry": {"type": "Polygon", "coordinates": [[[-73.9602528555013, 40.6352212617484], [-73.9599137535578, 40.6352577037234], [-73.959952686891, 40.6354640578642], [-73.9602697467968, 40.6353107857834], [-73.9602528555013, 40.6352212617484]]]}}, {"type": "Feature", "properties": {"zone_id": "0204X78WI3ZPBBJYEBMXIP", "tract_id": "36047076400", "city": "BROOKLYN, NY", "zone_code": "R1-2", "zone_category": "Residential", "ev_permitted": false}, "geometry": {"type": "Polygon", "coordinates": [[[-73.9602295106322, 40.6350975304168], [-73.9598904083823, 40.6351339723231], [-73.9599137535578, 40.6352577037234], [-73.9602528555013, 40.6352212617484], [-73.9602295106322, 40.6350975304168]]]}}, {"type": "Feature", "properties": {"zone_id": "0204ZXA9VEA9XK1GTVWBHT", "tract_id": "36047076400", "city": "BROOKLYN, NY", "zone_code": "R1-2", "zone_category": "Residential", "ev_permitted": false}, "geometry": {"type": "Polygon", "coordinates": [[[-73.9601784381692, 40.634826841008], [-73.9598393372672, 40.634863282062], [-73.9598647831302, 40.6349981507578], [-73.9602038837816, 40.6349617089262], [-73.9601784381692, 40.634826841008]]]}}, {"type": "Feature", "properties": {"zone_id": "0200HOY30YI1PE7KF284LZ", "tract_id": "36047076400", "city": "BROOKLYN, NY", "zone_code": "R1-2", "zone_category": "Residential", "ev_permitted": false}, "geometry": {"type": "Polygon", "coordinates": [[[-73.9602038837816, 40.6349617089262], [-73.9598647831302, 40.6349981507578], [-73.9598904083823, 40.6351339723231], [-73.9602295106322, 40.6350975304168], [-73.9602038837816, 40.6349617089262]]]}}, {"type": "Feature", "properties": {"zone_id": "0207LF55CZKVJYREV0OZ9W", "tract_id": "36047076400", "city": "BROOKLYN, NY", "zone_code": "R1-2", "zone_category": "Residential", "ev_permitted": false}, "geometry": {"type": "Polygon", "coordinates": [[[-73.9601276428675, 40.6345576230465], [-73.9597885442277, 40.6345940646548], [-73.9598141737669, 40.6347299101353], [-73.9601532740053, 40.6346934684522], [-73.9601276428675, 40.6345576230465]]]}}, {"type": "Feature", "properties": {"zone_id": "0207C5JJAFCYZDDY4BMIZQ", "tract_id": "36047076400", "city": "BROOKLYN, NY", "zone_code": "R1-2", "zone_category": "Residential", "ev_permitted": false}, "geometry": {"type": "Polygon", "coordinates": [[[-73.9601532740053, 40.6346934684522], [-73.9598141737669, 40.6347299101353], [-73.9598393372672, 40.634863282062], [-73.9601784381692, 40.634826841008], [-73.9601532740053, 40.6346934684522]]]}}, {"type": "Feature", "properties": {"zone_id": "0207AN9HFPGQAWF4P9FOFM", "tract_id": "36047076400", "city": "BROOKLYN, NY", "zone_code": "R7A", "zone_category": "Residential", "ev_permitted": false}, "geometry": {"type": "Polygon", "coordinates": [[[-73.9588698699126, 40.635745157163], [-73.9584702753836, 40.635788455133], [-73.9585357858467, 40.6361334917979], [-73.9589097269277, 40.6359550794106], [-73.9588698699126, 40.635745157163]]]}}, {"type": "Feature", "properties": {"zone_id": "0203RHBOKY3N4S7B779UZF", "tract_id": "36047076400", "city": "BROOKLYN, NY", "zone_code": "R1-2", "zone_category": "Residential", "ev_permitted": false}, "geometry": {"type": "Polygon", "coordinates": [[[-73.9599166938898, 40.6352732912777], [-73.9595702592066, 40.635310520182], [-73.9595939158374, 40.6354369183706], [-73.9599405384145, 40.6353996690834], [-73.9599166938898, 40.6352732912777]]]}}, {"type": "Feature", "properties": {"zone_id": "0201QFRDOXB50Q3JD3ERXK", "tract_id": "36047076400", "city": "BROOKLYN, NY", "zone_code": "R1-2", "zone_category": "Residential", "ev_permitted": false}, "geometry": {"type": "Polygon", "coordinates": [[[-73.9599405384145, 40.6353996690834], [-73.9595939158374, 40.6354369183706], [-73.9596283404341, 40.6356208524866], [-73.959952686891, 40.6354640578642], [-73.9599405384145, 40.6353996690834]]]}}, {"type": "Feature", "properties": {"zone_id": "020734YHKKW1729JEC0IXJ", "tract_id": "36047076400", "city": "BROOKLYN, NY", "zone_code": "R7A", "zone_category": "Residential", "ev_permitted": false}, "geometry": {"type": "Polygon", "coordinates": [[[-73.9593187188526, 40.6353480353173], [-73.958805037518, 40.6354036974854], [-73.9588298577733, 40.6355344183436], [-73.9593435400934, 40.6354787560654], [-73.9593187188526, 40.6353480353173]]]}}, {"type": "Feature", "properties": {"zone_id": "02040PVUV37KXY4A01Z0L0", "tract_id": "36047076400", "city": "BROOKLYN, NY", "zone_code": "R7A", "zone_category": "Residential", "ev_permitted": false}, "geometry": {"type": "Polygon", "coordinates": [[[-73.9593435400934, 40.6354787560654], [-73.9588298577733, 40.6355344183436], [-73.9588549410643, 40.6356665291612], [-73.9593686243808, 40.6356108660691], [-73.9593435400934, 40.6354787560654]]]}}, {"type": "Feature", "properties": {"zone_id": "0204N45MX24FKZ2C7IPXUK", "tract_id": "36047076400", "city": "BROOKLYN, NY", "zone_code": "R7A", "zone_category": "Residential", "ev_permitted": false}, "geometry": {"type": "Polygon", "coordinates": [[[-73.9590442296636, 40.6356460177703], [-73.9588549410643, 40.6356665291612], [-73.9589097269277, 40.6359550794106], [-73.9590868646643, 40.6358705648246], [-73.9590442296636, 40.6356460177703]]]}}, {"type": "Feature", "properties": {"zone_id": "02059CK3WXJ53Q5UFCYNGW", "tract_id": "36047076400", "city": "BROOKLYN, NY", "zone_code": "R1-2", "zone_category": "Residential", "ev_permitted": false}, "geometry": {"type": "Polygon", "coordinates": [[[-73.9593686243808, 40.6356108660691], [-73.9590442296636, 40.6356460177703], [-73.9590868646643, 40.6358705648246], [-73.9593904347311, 40.6357257258738], [-73.9593686243808, 40.6356108660691]]]}}, {"type": "Feature", "properties": {"zone_id": "0203ZF3J8UHL4SKXFL3SD7", "tract_id": "36047076400", "city": "BROOKLYN, NY", "zone_code": "R7A", "zone_category": "Residential", "ev_permitted": false}, "geometry": {"type": "Polygon", "coordinates": [[[-73.9588444086986, 40.6356110576708], [-73.9584448149561, 40.635654355553], [-73.9584702753836, 40.635788455133], [-73.9588698699126, 40.635745157163], [-73.9588444086986, 40.6356110576708]]]}}, {"type": "Feature", "properties": {"zone_id": "0207GF5F9CCR9TX25RS0LP", "tract_id": "36047076400", "city": "BROOKLYN, NY", "zone_code": "R7A", "zone_category": "Residential", "ev_permitted": false}, "geometry": {"type": "Polygon", "coordinates": [[[-73.958792445855, 40.6353373753906], [-73.9583928527952, 40.6353806730932], [-73.9584448149561, 40.635654355553], [-73.9588444086986, 40.6356110576708], [-73.958792445855, 40.6353373753906]]]}}, {"type": "Feature", "properties": {"zone_id": "0206V1O2T1X94KTRIB95EN", "tract_id": "36047076400", "city": "BROOKLYN, NY", "zone_code": "R1-2", "zone_category": "Residential", "ev_permitted": false}, "geometry": {"type": "Polygon", "coordinates": [[[-73.9598904083823, 40.6351339723231], [-73.9595441810287, 40.6351711787362], [-73.9595702592066, 40.635310520182], [-73.9599166938898, 40.6352732912777], [-73.9598904083823, 40.6351339723231]]]}}, {"type": "Feature", "properties": {"zone_id": "02059133KGAYWB4L8WCCRH", "tract_id": "36047076400", "city": "BROOKLYN, NY", "zone_code": "R1-2", "zone_category": "Residential", "ev_permitted": false}, "geometry": {"type": "Polygon", "coordinates": [[[-73.9598647831302, 40.6349981507578], [-73.9595187575531, 40.6350353353824], [-73.9595441810287, 40.6351711787362], [-73.9598904083823, 40.6351339723231], [-73.9598647831302, 40.6349981507578]]]}}, {"type": "Feature", "properties": {"zone_id": "0204W8T7W31DNRDFTUHJYN", "tract_id": "36047076400", "city": "BROOKLYN, NY", "zone_code": "R1-2", "zone_category": "Residential", "ev_permitted": false}, "geometry": {"type": "Polygon", "coordinates": [[[-73.9598141737669, 40.6347299101353], [-73.9594685471111, 40.6347670518862], [-73.9594935125383, 40.6349004456012], [-73.9598393372672, 40.634863282062], [-73.9598141737669, 40.6347299101353]]]}}, {"type": "Feature", "properties": {"zone_id": "0204UELM0B95G6FGXJO0Y6", "tract_id": "36047076400", "city": "BROOKLYN, NY", "zone_code": "R1-2", "zone_category": "Residential", "ev_permitted": false}, "geometry": {"type": "Polygon", "coordinates": [[[-73.9598393372672, 40.634863282062], [-73.9594935125383, 40.6349004456012], [-73.9595187575531, 40.6350353353824], [-73.9598647831302, 40.6349981507578], [-73.9598393372672, 40.634863282062]]]}}, {"type": "Feature", "properties": {"zone_id": "0202RA6XJULNUEWP6QRZ00", "tract_id": "36047076400", "city": "BROOKLYN, NY", "zone_code": "R7A", "zone_category": "Residential", "ev_permitted": false}, "geometry": {"type": "Polygon", "coordinates": [[[-73.9588174178992, 40.6346959559844], [-73.9582740321331, 40.6347548345914], [-73.9583674257763, 40.6352467456552], [-73.9589108145434, 40.635187865907], [-73.9588174178992, 40.6346959559844]]]}}, {"type": "Feature", "properties": {"zone_id": "02056D29Y16BA309KC0P4P", "tract_id": "36047076400", "city": "BROOKLYN, NY", "zone_code": "R7A", "zone_category": "Residential", "ev_permitted": false}, "geometry": {"type": "Polygon", "coordinates": [[[-73.9589108145434, 40.635187865907], [-73.9587670171283, 40.6352034480399], [-73.958805037518, 40.6354036974854], [-73.9593187188526, 40.6353480353173], [-73.9592906954355, 40.6352004452367], [-73.9589208127395, 40.6352405258379], [-73.9589108145434, 40.635187865907]]]}}, {"type": "Feature", "properties": {"zone_id": "02001QA1V13G3VWM27RO4J", "tract_id": "36047076400", "city": "BROOKLYN, NY", "zone_code": "R1-2", "zone_category": "Residential", "ev_permitted": false}, "geometry": {"type": "Polygon", "coordinates": [[[-73.9592650303985, 40.6350652727873], [-73.9588951484363, 40.6351053533065], [-73.9589208127395, 40.6352405258379], [-73.9592906954355, 40.6352004452367], [-73.9592650303985, 40.6350652727873]]]}}, {"type": "Feature", "properties": {"zone_id": "0203AYY11K6DXGAH8DWOAS", "tract_id": "36047076400", "city": "BROOKLYN, NY", "zone_code": "R1-2", "zone_category": "Residential", "ev_permitted": false}, "geometry": {"type": "Polygon", "coordinates": [[[-73.9592131848527, 40.6347922210142], [-73.9588433043728, 40.6348323013679], [-73.9588693444892, 40.6349694513505], [-73.9592392257132, 40.6349293716164], [-73.9592131848527, 40.6347922210142]]]}}, {"type": "Feature", "properties": {"zone_id": "0204JBQPSMK9DKX9TQFDQZ", "tract_id": "36047076400", "city": "BROOKLYN, NY", "zone_code": "R1-2", "zone_category": "Residential", "ev_permitted": false}, "geometry": {"type": "Polygon", "coordinates": [[[-73.9592392257132, 40.6349293716164], [-73.9588693444892, 40.6349694513505], [-73.9588951484363, 40.6351053533065], [-73.9592650303985, 40.6350652727873], [-73.9592392257132, 40.6349293716164]]]}}, {"type": "Feature", "properties": {"zone_id": "0204VVGPJDDLKKXJ1I8BZR", "tract_id": "36047076400", "city": "BROOKLYN, NY", "zone_code": "R7A", "zone_category": "Residential", "ev_permitted": false}, "geometry": {"type": "Polygon", "coordinates": [[[-73.9587670171283, 40.6352034480399], [-73.9583674257763, 40.6352467456552], [-73.9583928527952, 40.6353806730932], [-73.958792445855, 40.6353373753906], [-73.9587670171283, 40.6352034480399]]]}}, {"type": "Feature", "properties": {"zone_id": "0200O1PUMUR90T76RZASLS", "tract_id": "36047076400", "city": "BROOKLYN, NY", "zone_code": "R1-2", "zone_category": "Residential", "ev_permitted": false}, "geometry": {"type": "Polygon", "coordinates": [[[-73.9597885442277, 40.6345940646548], [-73.9594431193461, 40.6346311846176], [-73.9594685471111, 40.6347670518862], [-73.9598141737669, 40.6347299101353], [-73.9597885442277, 40.6345940646548]]]}}, {"type": "Feature", "properties": {"zone_id": "0203G0INPQ5IHCHYLBHB44", "tract_id": "36047076400", "city": "BROOKLYN, NY", "zone_code": "R1-2", "zone_category": "Residential", "ev_permitted": false}, "geometry": {"type": "Polygon", "coordinates": [[[-73.9597621553604, 40.6344541982477], [-73.9594169396513, 40.6344912964227], [-73.9594431193461, 40.6346311846176], [-73.9597885442277, 40.6345940646548], [-73.9597621553604, 40.6344541982477]]]}}, {"type": "Feature", "properties": {"zone_id": "0200MG73X6QVIFKTQLN0MI", "tract_id": "36047076400", "city": "BROOKLYN, NY", "zone_code": "R1-2", "zone_category": "Residential", "ev_permitted": false}, "geometry": {"type": "Polygon", "coordinates": [[[-73.9601012542257, 40.6344177574197], [-73.9597621553604, 40.6344541982477], [-73.9597885442277, 40.6345940646548], [-73.9601276428675, 40.6345576230465], [-73.9601012542257, 40.6344177574197]]]}}, {"type": "Feature", "properties": {"zone_id": "0201JZSTNLZ7423XKL1R5H", "tract_id": "36047076400", "city": "BROOKLYN, NY", "zone_code": "R1-2", "zone_category": "Residential", "ev_permitted": false}, "geometry": {"type": "Polygon", "coordinates": [[[-73.9600763827492, 40.6342859329152], [-73.9597372845401, 40.6343223736704], [-73.9597621553604, 40.6344541982477], [-73.9601012542257, 40.6344177574197], [-73.9600763827492, 40.6342859329152]]]}}, {"type": "Feature", "properties": {"zone_id": "0203TVDB4O9UTR6B5IKXAO", "tract_id": "36047076400", "city": "BROOKLYN, NY", "zone_code": "R1-2", "zone_category": "Residential", "ev_permitted": false}, "geometry": {"type": "Polygon", "coordinates": [[[-73.9597372845401, 40.6343223736704], [-73.9593922641265, 40.63435945076], [-73.9594169396513, 40.6344912964227], [-73.9597621553604, 40.6344541982477], [-73.9597372845401, 40.6343223736704]]]}}, {"type": "Feature", "properties": {"zone_id": "02075IGE1HC46AI1KWB0QH", "tract_id": "36047076400", "city": "BROOKLYN, NY", "zone_code": "R1-2", "zone_category": "Residential", "ev_permitted": false}, "geometry": {"type": "Polygon", "coordinates": [[[-73.9591872967161, 40.6346558764159], [-73.9588174178992, 40.6346959559844], [-73.9588433043728, 40.6348323013679], [-73.9592131848527, 40.6347922210142], [-73.9591872967161, 40.6346558764159]]]}}, {"type": "Feature", "properties": {"zone_id": "0200O0S749DXI8LBA0CFTN", "tract_id": "36047076400", "city": "BROOKLYN, NY", "zone_code": "R1-2", "zone_category": "Residential", "ev_permitted": false}, "geometry": {"type": "Polygon", "coordinates": [[[-73.9591610914995, 40.6345178593527], [-73.958791212509, 40.6345579395399], [-73.9588174178992, 40.6346959559844], [-73.9591872967161, 40.6346558764159], [-73.9591610914995, 40.6345178593527]]]}}, {"type": "Feature", "properties": {"zone_id": "0201CPCKDT1OISBZYMRSCP", "tract_id": "36047076400", "city": "BROOKLYN, NY", "zone_code": "R1-2", "zone_category": "Residential", "ev_permitted": false}, "geometry": {"type": "Polygon", "coordinates": [[[-73.9591362774114, 40.6343871687685], [-73.9586765336757, 40.6344369857765], [-73.9587013468816, 40.6345676771619], [-73.9591610914995, 40.6345178593527], [-73.9591362774114, 40.6343871687685]]]}}, {"type": "Feature", "properties": {"zone_id": "02048PDAZ4N43543Q6KUUY", "tract_id": "36047076400", "city": "BROOKLYN, NY", "zone_code": "R1-2", "zone_category": "Residential", "ev_permitted": false}, "geometry": {"type": "Polygon", "coordinates": [[[-73.959110132165, 40.6342494665051], [-73.9586503893581, 40.6342992841119], [-73.9586765336757, 40.6344369857765], [-73.9591362774114, 40.6343871687685], [-73.959110132165, 40.6342494665051]]]}}, {"type": "Feature", "properties": {"zone_id": "02006PACV698W4M81666B1", "tract_id": "36047076400", "city": "BROOKLYN, NY", "zone_code": "R1-2", "zone_category": "Residential", "ev_permitted": false}, "geometry": {"type": "Polygon", "coordinates": [[[-73.9600507528468, 40.6341500874866], [-73.9597116553136, 40.6341865288694], [-73.9597372845401, 40.6343223736704], [-73.9600763827492, 40.6342859329152], [-73.9600507528468, 40.6341500874866]]]}}, {"type": "Feature", "properties": {"zone_id": "020509LJUUYD1XG4TBXFCQ", "tract_id": "36047076400", "city": "BROOKLYN, NY", "zone_code": "R1-2", "zone_category": "Residential", "ev_permitted": false}, "geometry": {"type": "Polygon", "coordinates": [[[-73.9600251221264, 40.63401424205], [-73.9596860252694, 40.6340506833578], [-73.9597116553136, 40.6341865288694], [-73.9600507528468, 40.6341500874866], [-73.9600251221264, 40.63401424205]]]}}, {"type": "Feature", "properties": {"zone_id": "0200ETRJYFJQ71HUYXSWBV", "tract_id": "36047076400", "city": "BROOKLYN, NY", "zone_code": "R1-2", "zone_category": "Residential", "ev_permitted": false}, "geometry": {"type": "Polygon", "coordinates": [[[-73.9599736476988, 40.6337414141663], [-73.9596345522, 40.6337778553233], [-73.959660396252, 40.6339148378388], [-73.9599994924326, 40.633878396606], [-73.9599736476988, 40.6337414141663]]]}}, {"type": "Feature", "properties": {"zone_id": "0206GS59ADE2FBWLEQGLAX", "tract_id": "36047076400", "city": "BROOKLYN, NY", "zone_code": "R1-2", "zone_category": "Residential", "ev_permitted": false}, "geometry": {"type": "Polygon", "coordinates": [[[-73.959660396252, 40.6339148378388], [-73.9593159820733, 40.6339518502678], [-73.9593414093214, 40.6340877161693], [-73.9596860252694, 40.6340506833578], [-73.959660396252, 40.6339148378388]]]}}, {"type": "Feature", "properties": {"zone_id": "0207NR3M9XIV0EW6EX71RY", "tract_id": "36047076400", "city": "BROOKLYN, NY", "zone_code": "R1-2", "zone_category": "Residential", "ev_permitted": false}, "geometry": {"type": "Polygon", "coordinates": [[[-73.9590580782723, 40.6339753085675], [-73.958694448725, 40.6340147118947], [-73.9587215105308, 40.6341572433044], [-73.9590851399159, 40.6341178405945], [-73.9590580782723, 40.6339753085675]]]}}, {"type": "Feature", "properties": {"zone_id": "0202U7S6R0ZBXWNZJEWQLD", "tract_id": "36047076400", "city": "BROOKLYN, NY", "zone_code": "R1-2", "zone_category": "Residential", "ev_permitted": false}, "geometry": {"type": "Polygon", "coordinates": [[[-73.9590851399159, 40.6341178405945], [-73.9586253979971, 40.6341676581022], [-73.9586503893581, 40.6342992841119], [-73.959110132165, 40.6342494665051], [-73.9590851399159, 40.6341178405945]]]}}, {"type": "Feature", "properties": {"zone_id": "0202DEJO45JYR7NVCCSL6H", "tract_id": "36047076400", "city": "BROOKLYN, NY", "zone_code": "R1-2", "zone_category": "Residential", "ev_permitted": false}, "geometry": {"type": "Polygon", "coordinates": [[[-73.9590325051948, 40.6338406152987], [-73.9586688754441, 40.6338800185453], [-73.958694448725, 40.6340147118947], [-73.9590580782723, 40.6339753085675], [-73.9590325051948, 40.6338406152987]]]}}, {"type": "Feature", "properties": {"zone_id": "0201SOZG3ATSRQQ265PLYY", "tract_id": "36047076400", "city": "BROOKLYN, NY", "zone_code": "R2", "zone_category": "Residential", "ev_permitted": false}, "geometry": {"type": "Polygon", "coordinates": [[[-73.9593544821667, 40.6303948722343], [-73.9591820517396, 40.6304148315088], [-73.9592350335495, 40.6306956981775], [-73.9594074646864, 40.6306757388241], [-73.9593544821667, 40.6303948722343]]]}}, {"type": "Feature", "properties": {"zone_id": "0200KL88NY8D6069YSD259", "tract_id": "36047076400", "city": "BROOKLYN, NY", "zone_code": "R2", "zone_category": "Residential", "ev_permitted": false}, "geometry": {"type": "Polygon", "coordinates": [[[-73.9591820517396, 40.6304148315088], [-73.9590040778552, 40.6304354328931], [-73.95905705801, 40.6307162996428], [-73.9592350335495, 40.6306956981775], [-73.9591820517396, 40.6304148315088]]]}}, {"type": "Feature", "properties": {"zone_id": "0200P6J9K7RGIRLUGS9967", "tract_id": "36047076400", "city": "BROOKLYN, NY", "zone_code": "R2", "zone_category": "Residential", "ev_permitted": false}, "geometry": {"type": "Polygon", "coordinates": [[[-73.9590040778552, 40.6304354328931], [-73.9586402980302, 40.6304775412677], [-73.9587004769332, 40.6308003051219], [-73.9590649465593, 40.630758117402], [-73.9590040778552, 40.6304354328931]]]}}, {"type": "Feature", "properties": {"zone_id": "0203PRI4EWBIVQ0TGHWGHN", "tract_id": "36047076400", "city": "BROOKLYN, NY", "zone_code": "R4A", "zone_category": "Residential", "ev_permitted": false}, "geometry": {"type": "Polygon", "coordinates": [[[-73.9587378715291, 40.6299631819298], [-73.9585459910408, 40.6299846882691], [-73.9585968634446, 40.6302594216162], [-73.9587889285497, 40.630238909531], [-73.9587378715291, 40.6299631819298]]]}}, {"type": "Feature", "properties": {"zone_id": "0207LKAHYVP6EEMICP2T2X", "tract_id": "36047076400", "city": "BROOKLYN, NY", "zone_code": "R4A", "zone_category": "Residential", "ev_permitted": false}, "geometry": {"type": "Polygon", "coordinates": [[[-73.9592431155882, 40.6297986565148], [-73.9588924906236, 40.62983707222], [-73.9589122245473, 40.6299436399861], [-73.9592626891894, 40.6299043584797], [-73.9592431155882, 40.6297986565148]]]}}, {"type": "Feature", "properties": {"zone_id": "020423DU7BXMQLWAYPRMUS", "tract_id": "36047076400", "city": "BROOKLYN, NY", "zone_code": "R4A", "zone_category": "Residential", "ev_permitted": false}, "geometry": {"type": "Polygon", "coordinates": [[[-73.959085402394, 40.6299242308665], [-73.9589122245473, 40.6299436399861], [-73.9589634486515, 40.6302202711984], [-73.9591367935864, 40.6302017579605], [-73.959085402394, 40.6299242308665]]]}}, {"type": "Feature", "properties": {"zone_id": "02064N74KPEOCEU73FGMH2", "tract_id": "36047076400", "city": "BROOKLYN, NY", "zone_code": "R4A", "zone_category": "Residential", "ev_permitted": false}, "geometry": {"type": "Polygon", "coordinates": [[[-73.9592626891894, 40.6299043584797], [-73.959085402394, 40.6299242308665], [-73.9591367935864, 40.6302017579605], [-73.9593142511659, 40.630182805345], [-73.9592626891894, 40.6299043584797]]]}}, {"type": "Feature", "properties": {"zone_id": "0203D0ZJEQH07NQVOPS1YH", "tract_id": "36047076400", "city": "BROOKLYN, NY", "zone_code": "R4A", "zone_category": "Residential", "ev_permitted": false}, "geometry": {"type": "Polygon", "coordinates": [[[-73.9588924906236, 40.62983707222], [-73.9585260903974, 40.6298772146436], [-73.9585459910408, 40.6299846882691], [-73.9589122245473, 40.6299436399861], [-73.9588924906236, 40.62983707222]]]}}, {"type": "Feature", "properties": {"zone_id": "020296GEAMB3827M17U85T", "tract_id": "36047076400", "city": "BROOKLYN, NY", "zone_code": "R4A", "zone_category": "Residential", "ev_permitted": false}, "geometry": {"type": "Polygon", "coordinates": [[[-73.9589122245473, 40.6299436399861], [-73.9587378715291, 40.6299631819298], [-73.9587889285497, 40.630238909531], [-73.9589634486515, 40.6302202711984], [-73.9589122245473, 40.6299436399861]]]}}, {"type": "Feature", "properties": {"zone_id": "0205JWQ55HZZM8VH01YV0M", "tract_id": "36047076400", "city": "BROOKLYN, NY", "zone_code": "R4A", "zone_category": "Residential", "ev_permitted": false}, "geometry": {"type": "Polygon", "coordinates": [[[-73.9592032046777, 40.6295831318666], [-73.9588527416879, 40.6296224124904], [-73.9588728735066, 40.6297311305664], [-73.959223337056, 40.629691849179], [-73.9592032046777, 40.6295831318666]]]}}, {"type": "Feature", "properties": {"zone_id": "02064PJFP1NLTIFTPFL8V7", "tract_id": "36047076400", "city": "BROOKLYN, NY", "zone_code": "R4A", "zone_category": "Residential", "ev_permitted": false}, "geometry": {"type": "Polygon", "coordinates": [[[-73.959223337056, 40.629691849179], [-73.9588728735066, 40.6297311305664], [-73.9588924906236, 40.62983707222], [-73.9592431155882, 40.6297986565148], [-73.959223337056, 40.629691849179]]]}}, {"type": "Feature", "properties": {"zone_id": "02008CJ8U652P7WI2PI4AP", "tract_id": "36047076400", "city": "BROOKLYN, NY", "zone_code": "R4A", "zone_category": "Residential", "ev_permitted": false}, "geometry": {"type": "Polygon", "coordinates": [[[-73.9588527416879, 40.6296224124904], [-73.9584865108294, 40.6296634612883], [-73.9585066411425, 40.6297721780223], [-73.9588728735066, 40.6297311305664], [-73.9588527416879, 40.6296224124904]]]}}, {"type": "Feature", "properties": {"zone_id": "02030SEPG6VGABF3EKGKCX", "tract_id": "36047076400", "city": "BROOKLYN, NY", "zone_code": "R4A", "zone_category": "Residential", "ev_permitted": false}, "geometry": {"type": "Polygon", "coordinates": [[[-73.9588728735066, 40.6297311305664], [-73.9585066411425, 40.6297721780223], [-73.9585260903974, 40.6298772146436], [-73.9588924906236, 40.62983707222], [-73.9588728735066, 40.6297311305664]]]}}, {"type": "Feature", "properties": {"zone_id": "0200SRJ7IW0MDQOQ3SRON9", "tract_id": "36047076400", "city": "BROOKLYN, NY", "zone_code": "R2", "zone_category": "Residential", "ev_permitted": false}, "geometry": {"type": "Polygon", "coordinates": [[[-73.9584078811337, 40.630494988944], [-73.9580297420869, 40.6305361008379], [-73.9580570151048, 40.6306799879782], [-73.95843515495, 40.6306388759953], [-73.9584078811337, 40.630494988944]]]}}, {"type": "Feature", "properties": {"zone_id": "0207GK5KNNJN1MRDJHKTQ5", "tract_id": "36047076400", "city": "", "zone_code": "R7A", "zone_category": "Residential", "ev_permitted": false}, "geometry": {"type": "Polygon", "coordinates": [[[-73.9580647346121, 40.6300328318748], [-73.9578707147784, 40.6300545766187], [-73.9578720227281, 40.6300616431077], [-73.9578330912734, 40.6300660064458], [-73.9578834892773, 40.6303381941742], [-73.9581166657968, 40.6303132932506], [-73.9580647346121, 40.6300328318748]]]}}, {"type": "Feature", "properties": {"zone_id": "0204P8QAQ4J7E0NO7N4GX1", "tract_id": "36047076400", "city": "", "zone_code": "R7A", "zone_category": "Residential", "ev_permitted": false}, "geometry": {"type": "Polygon", "coordinates": [[[-73.9583034845165, 40.630006074053], [-73.9580647346121, 40.6300328318748], [-73.9581166657968, 40.6303132932506], [-73.9583556446393, 40.6302877720965], [-73.9583034845165, 40.630006074053]]]}}, {"type": "Feature", "properties": {"zone_id": "02047ZEJH2XNZEHWFFA1DU", "tract_id": "36047076400", "city": "BROOKLYN, NY", "zone_code": "R7A", "zone_category": "Residential", "ev_permitted": false}, "geometry": {"type": "Polygon", "coordinates": [[[-73.9578330912734, 40.6300660064458], [-73.9576080470926, 40.6300912273984], [-73.9576582281996, 40.6303622494223], [-73.9578834892773, 40.6303381941742], [-73.9578330912734, 40.6300660064458]]]}}, {"type": "Feature", "properties": {"zone_id": "0200I8S39FVVH1GFFENX7T", "tract_id": "36047076400", "city": "BROOKLYN, NY", "zone_code": "R7A", "zone_category": "Residential", "ev_permitted": false}, "geometry": {"type": "Polygon", "coordinates": [[[-73.9576080470926, 40.6300912273984], [-73.9573919919749, 40.6301154408082], [-73.9574419644993, 40.6303853435019], [-73.9576582281996, 40.6303622494223], [-73.9576080470926, 40.6300912273984]]]}}, {"type": "Feature", "properties": {"zone_id": "0204H485CL43KULB3XNU5V", "tract_id": "36047076400", "city": "BROOKLYN, NY", "zone_code": "R7A", "zone_category": "Residential", "ev_permitted": false}, "geometry": {"type": "Polygon", "coordinates": [[[-73.9582845236547, 40.6299036795968], [-73.9578515578732, 40.6299511132646], [-73.9578707147784, 40.6300545766187], [-73.9583034845165, 40.630006074053], [-73.9582845236547, 40.6299036795968]]]}}, {"type": "Feature", "properties": {"zone_id": "0205HGCNNPFTDHZ6SP9NYL", "tract_id": "36047076400", "city": "BROOKLYN, NY", "zone_code": "R7A", "zone_category": "Residential", "ev_permitted": false}, "geometry": {"type": "Polygon", "coordinates": [[[-73.9582227882109, 40.629570266023], [-73.9577898236267, 40.6296176987569], [-73.9578515578732, 40.6299511132646], [-73.9582845236547, 40.6299036795968], [-73.9582227882109, 40.629570266023]]]}}, {"type": "Feature", "properties": {"zone_id": "0200JZMLTU6X6XG0TXUM9W", "tract_id": "36047076400", "city": "BROOKLYN, NY", "zone_code": "R7A", "zone_category": "Residential", "ev_permitted": false}, "geometry": {"type": "Polygon", "coordinates": [[[-73.9577898236267, 40.6296176987569], [-73.9573095754126, 40.6296703092319], [-73.9573919919749, 40.6301154408082], [-73.9578720227281, 40.6300616431077], [-73.9577898236267, 40.6296176987569]]]}}, {"type": "Feature", "properties": {"zone_id": "020044H2PNTVCRYCJYREL0", "tract_id": "36047076400", "city": "BROOKLYN, NY", "zone_code": "R4A", "zone_category": "Residential", "ev_permitted": false}, "geometry": {"type": "Polygon", "coordinates": [[[-73.9602000139354, 40.6290549639181], [-73.9592339784018, 40.6291632477953], [-73.9592868032627, 40.6294536924638], [-73.9602532777281, 40.6293477966585], [-73.9602000139354, 40.6290549639181]]]}}, {"type": "Feature", "properties": {"zone_id": "0203VH2R5RCN97X3EPGPV6", "tract_id": "36047076400", "city": "BROOKLYN, NY", "zone_code": "R4A", "zone_category": "Residential", "ev_permitted": false}, "geometry": {"type": "Polygon", "coordinates": [[[-73.9592124189592, 40.6290447102134], [-73.9591760547503, 40.6290552899989], [-73.9591098844213, 40.629070662602], [-73.9587579190319, 40.6291381200174], [-73.9582719797668, 40.6291925839971], [-73.9583395454602, 40.6295574748952], [-73.9592868032627, 40.6294536924638], [-73.9592124189592, 40.6290447102134]]]}}, {"type": "Feature", "properties": {"zone_id": "020462E76MYRFZ3GPN3PGJ", "tract_id": "36047076400", "city": "BROOKLYN, NY", "zone_code": "R4A", "zone_category": "Residential", "ev_permitted": false}, "geometry": {"type": "Polygon", "coordinates": [[[-73.9591813745302, 40.6294652434516], [-73.958830752204, 40.6295036589701], [-73.9588527416879, 40.6296224124904], [-73.9592032046777, 40.6295831318666], [-73.9591813745302, 40.6294652434516]]]}}, {"type": "Feature", "properties": {"zone_id": "0203VX9IBSYF8D0KTD5FLP", "tract_id": "36047076400", "city": "BROOKLYN, NY", "zone_code": "R4A", "zone_category": "Residential", "ev_permitted": false}, "geometry": {"type": "Polygon", "coordinates": [[[-73.958830752204, 40.6295036589701], [-73.9584643537712, 40.6295438011985], [-73.9584865108294, 40.6296634612883], [-73.9588527416879, 40.6296224124904], [-73.958830752204, 40.6295036589701]]]}}, {"type": "Feature", "properties": {"zone_id": "0205AIMA7GM5G5TFF1MLF1", "tract_id": "36047076400", "city": "BROOKLYN, NY", "zone_code": "R2", "zone_category": "Residential", "ev_permitted": false}, "geometry": {"type": "Polygon", "coordinates": [[[-73.9590704784251, 40.6288663687829], [-73.9587149785745, 40.6289062149496], [-73.9587579190319, 40.6291381200174], [-73.9591098844213, 40.629070662602], [-73.9591760547503, 40.6290552899989], [-73.9592124189592, 40.6290447102134], [-73.9592003997528, 40.6289786258218], [-73.959093484792, 40.6289906097469], [-73.9590704784251, 40.6288663687829]]]}}, {"type": "Feature", "properties": {"zone_id": "0200L5478OO1BCVKS80KGI", "tract_id": "36047076400", "city": "BROOKLYN, NY", "zone_code": "R2", "zone_category": "Residential", "ev_permitted": false}, "geometry": {"type": "Polygon", "coordinates": [[[-73.959049386881, 40.6287524654163], [-73.9586938876245, 40.6287923115182], [-73.9587149785745, 40.6289062149496], [-73.9590704784251, 40.6288663687829], [-73.959049386881, 40.6287524654163]]]}}, {"type": "Feature", "properties": {"zone_id": "0204MNHO6J6F489H4FMKF8", "tract_id": "36047076400", "city": "BROOKLYN, NY", "zone_code": "R2", "zone_category": "Residential", "ev_permitted": false}, "geometry": {"type": "Polygon", "coordinates": [[[-73.9590276997559, 40.6286353457292], [-73.9586722001886, 40.6286751910615], [-73.9586938876245, 40.6287923115182], [-73.959049386881, 40.6287524654163], [-73.9590276997559, 40.6286353457292]]]}}, {"type": "Feature", "properties": {"zone_id": "0204DH4XUBEZ3TWH9OU3PN", "tract_id": "36047076400", "city": "BROOKLYN, NY", "zone_code": "R2", "zone_category": "Residential", "ev_permitted": false}, "geometry": {"type": "Polygon", "coordinates": [[[-73.9590042193218, 40.6285085398467], [-73.9586487204155, 40.6285483858096], [-73.9586722001886, 40.6286751910615], [-73.9590276997559, 40.6286353457292], [-73.9590042193218, 40.6285085398467]]]}}, {"type": "Feature", "properties": {"zone_id": "0202Q577XQTJRHZ99PCP6L", "tract_id": "36047076400", "city": "BROOKLYN, NY", "zone_code": "R7A", "zone_category": "Residential", "ev_permitted": false}, "geometry": {"type": "Polygon", "coordinates": [[[-73.9582812367214, 40.6292425750232], [-73.9572517438539, 40.6293579540736], [-73.9573095754126, 40.6296703092319], [-73.9583395454602, 40.6295574748952], [-73.9582812367214, 40.6292425750232]]]}}, {"type": "Feature", "properties": {"zone_id": "020156EWGB0V4NZ411H0JD", "tract_id": "36047076400", "city": "BROOKLYN, NY", "zone_code": "R2", "zone_category": "Residential", "ev_permitted": false}, "geometry": {"type": "Polygon", "coordinates": [[[-73.958736980526, 40.6290250352574], [-73.9583757925137, 40.6290655177596], [-73.9583967313429, 40.6291786018825], [-73.9587579190319, 40.6291381200174], [-73.958736980526, 40.6290250352574]]]}}, {"type": "Feature", "properties": {"zone_id": "020151AQPE6CRG5OTG9WEE", "tract_id": "36047076400", "city": "BROOKLYN, NY", "zone_code": "R2", "zone_category": "Residential", "ev_permitted": false}, "geometry": {"type": "Polygon", "coordinates": [[[-73.9581444046453, 40.6291469374051], [-73.9577719686286, 40.6291886787139], [-73.9577920976346, 40.6292973955785], [-73.9581645351671, 40.629255654908], [-73.9581444046453, 40.6291469374051]]]}}, {"type": "Feature", "properties": {"zone_id": "0200W4ZUSZ2WTQOUQN4Y56", "tract_id": "36047076400", "city": "BROOKLYN, NY", "zone_code": "R2", "zone_category": "Residential", "ev_permitted": false}, "geometry": {"type": "Polygon", "coordinates": [[[-73.9581242751108, 40.6290382206005], [-73.9577518406106, 40.6290799618449], [-73.9577719686286, 40.6291886787139], [-73.9581444046453, 40.6291469374051], [-73.9581242751108, 40.6290382206005]]]}}, {"type": "Feature", "properties": {"zone_id": "0202T6IRXPVSWXAC6Y378A", "tract_id": "36047076400", "city": "BROOKLYN, NY", "zone_code": "R7A", "zone_category": "Residential", "ev_permitted": false}, "geometry": {"type": "Polygon", "coordinates": [[[-73.9577308027168, 40.628966342135], [-73.957190450639, 40.6290268996412], [-73.9572517438539, 40.6293579540736], [-73.9577920976346, 40.6292973955785], [-73.9577308027168, 40.628966342135]]]}}, {"type": "Feature", "properties": {"zone_id": "02041P17FRQHBHCGE313AF", "tract_id": "36047076400", "city": "BROOKLYN, NY", "zone_code": "R2", "zone_category": "Residential", "ev_permitted": false}, "geometry": {"type": "Polygon", "coordinates": [[[-73.9587160659866, 40.6289120854129], [-73.9583548785732, 40.6289525671471], [-73.9583757925137, 40.6290655177596], [-73.958736980526, 40.6290250352574], [-73.9587160659866, 40.6289120854129]]]}}, {"type": "Feature", "properties": {"zone_id": "0206W8AP6ZWPBYE0J456VR", "tract_id": "36047076400", "city": "BROOKLYN, NY", "zone_code": "R2", "zone_category": "Residential", "ev_permitted": false}, "geometry": {"type": "Polygon", "coordinates": [[[-73.9586938876245, 40.6287923115182], [-73.958332700846, 40.6288327931833], [-73.9583548785732, 40.6289525671471], [-73.9587160659866, 40.6289120854129], [-73.9586938876245, 40.6287923115182]]]}}, {"type": "Feature", "properties": {"zone_id": "0200O0D5U37W89PFVHPHF6", "tract_id": "36047076400", "city": "BROOKLYN, NY", "zone_code": "R2", "zone_category": "Residential", "ev_permitted": false}, "geometry": {"type": "Polygon", "coordinates": [[[-73.9581032375184, 40.6289246009586], [-73.9577308027168, 40.628966342135], [-73.9577518406106, 40.6290799618449], [-73.9581242751108, 40.6290382206005], [-73.9581032375184, 40.6289246009586]]]}}, {"type": "Feature", "properties": {"zone_id": "02064V8X41HRJN2BW90MGO", "tract_id": "36047076400", "city": "BROOKLYN, NY", "zone_code": "R2", "zone_category": "Residential", "ev_permitted": false}, "geometry": {"type": "Polygon", "coordinates": [[[-73.9580840153169, 40.6288207862738], [-73.9577115810825, 40.6288625273885], [-73.9577308027168, 40.628966342135], [-73.9581032375184, 40.6289246009586], [-73.9580840153169, 40.6288207862738]]]}}, {"type": "Feature", "properties": {"zone_id": "0204WS748VL5EDTRB2DSG6", "tract_id": "36047076400", "city": "BROOKLYN, NY", "zone_code": "R2", "zone_category": "Residential", "ev_permitted": false}, "geometry": {"type": "Polygon", "coordinates": [[[-73.9586702340414, 40.6286645688533], [-73.9583090479394, 40.6287050511473], [-73.958332700846, 40.6288327931833], [-73.9586938876245, 40.6287923115182], [-73.9586702340414, 40.6286645688533]]]}}, {"type": "Feature", "properties": {"zone_id": "0206JMC0PJAXFO1ZI1V6KE", "tract_id": "36047076400", "city": "BROOKLYN, NY", "zone_code": "R2", "zone_category": "Residential", "ev_permitted": false}, "geometry": {"type": "Polygon", "coordinates": [[[-73.958649500806, 40.6285525999793], [-73.9582883152978, 40.628593081506], [-73.9583090479394, 40.6287050511473], [-73.9586702340414, 40.6286645688533], [-73.958649500806, 40.6285525999793]]]}}, {"type": "Feature", "properties": {"zone_id": "0202CDYDLKGS9A654TMPHB", "tract_id": "36047076400", "city": "BROOKLYN, NY", "zone_code": "R7A", "zone_category": "Residential", "ev_permitted": false}, "geometry": {"type": "Polygon", "coordinates": [[[-73.9576803144604, 40.6286936567782], [-73.9571399645442, 40.6287542147516], [-73.957190450639, 40.6290268996412], [-73.9577308027168, 40.628966342135], [-73.9576803144604, 40.6286936567782]]]}}, {"type": "Feature", "properties": {"zone_id": "0203VSMX7W6NUYO8CITURR", "tract_id": "36047076400", "city": "BROOKLYN, NY", "zone_code": "R7A", "zone_category": "Residential", "ev_permitted": false}, "geometry": {"type": "Polygon", "coordinates": [[[-73.9576308514226, 40.6284265094811], [-73.9570905045466, 40.628487067224], [-73.9571399645442, 40.6287542147516], [-73.9576803144604, 40.6286936567782], [-73.9576308514226, 40.6284265094811]]]}}, {"type": "Feature", "properties": {"zone_id": "02058EI7405ATDNKL3VMT8", "tract_id": "36047076400", "city": "BROOKLYN, NY", "zone_code": "R2", "zone_category": "Residential", "ev_permitted": false}, "geometry": {"type": "Polygon", "coordinates": [[[-73.9580636414844, 40.6287107518666], [-73.9576912078513, 40.6287524929158], [-73.9577115810825, 40.6288625273885], [-73.9580840153169, 40.6288207862738], [-73.9580636414844, 40.6287107518666]]]}}, {"type": "Feature", "properties": {"zone_id": "0200ZLHD18QN2FPGWW8XC4", "tract_id": "36047076400", "city": "BROOKLYN, NY", "zone_code": "R2", "zone_category": "Residential", "ev_permitted": false}, "geometry": {"type": "Polygon", "coordinates": [[[-73.9580435112908, 40.6286020350425], [-73.9576710782518, 40.6286437760269], [-73.9576912078513, 40.6287524929158], [-73.9580636414844, 40.6287107518666], [-73.9580435112908, 40.6286020350425]]]}}, {"type": "Feature", "properties": {"zone_id": "02054O438YOFZDKWMW9TDF", "tract_id": "36047076400", "city": "BROOKLYN, NY", "zone_code": "R2", "zone_category": "Residential", "ev_permitted": false}, "geometry": {"type": "Polygon", "coordinates": [[[-73.9580232966059, 40.6284928551256], [-73.9576508632418, 40.628534595342], [-73.9576710782518, 40.6286437760269], [-73.9580435112908, 40.6286020350425], [-73.9580232966059, 40.6284928551256]]]}}, {"type": "Feature", "properties": {"zone_id": "02050C4MICJAZY0B360UAX", "tract_id": "36047076400", "city": "BROOKLYN, NY", "zone_code": "R2", "zone_category": "Residential", "ev_permitted": false}, "geometry": {"type": "Polygon", "coordinates": [[[-73.9589821692636, 40.6283894652012], [-73.9586266719006, 40.6284293110968], [-73.9586487204155, 40.6285483858096], [-73.9590042193218, 40.6285085398467], [-73.9589821692636, 40.6283894652012]]]}}, {"type": "Feature", "properties": {"zone_id": "0200WDOF4VS9L3LH9OI29G", "tract_id": "36047076400", "city": "BROOKLYN, NY", "zone_code": "R2", "zone_category": "Residential", "ev_permitted": false}, "geometry": {"type": "Polygon", "coordinates": [[[-73.9589620385929, 40.6282807485345], [-73.9586065417975, 40.6283205936656], [-73.9586266719006, 40.6284293110968], [-73.9589821692636, 40.6283894652012], [-73.9589620385929, 40.6282807485345]]]}}, {"type": "Feature", "properties": {"zone_id": "0202OXR3OS8TD1U7GZL2JB", "tract_id": "36047076400", "city": "BROOKLYN, NY", "zone_code": "R2", "zone_category": "Residential", "ev_permitted": false}, "geometry": {"type": "Polygon", "coordinates": [[[-73.9589087027397, 40.6279927108314], [-73.9587652934149, 40.6280082980259], [-73.9588187169045, 40.6282968122344], [-73.9589620385929, 40.6282807485345], [-73.9589087027397, 40.6279927108314]]]}}, {"type": "Feature", "properties": {"zone_id": "0203A2DE5414ITGF91X0F2", "tract_id": "36047076400", "city": "BROOKLYN, NY", "zone_code": "R2", "zone_category": "Residential", "ev_permitted": false}, "geometry": {"type": "Polygon", "coordinates": [[[-73.9587652934149, 40.6280082980259], [-73.9586238762309, 40.6280236679321], [-73.958677387367, 40.6283126530238], [-73.9588187169045, 40.6282968122344], [-73.9587652934149, 40.6280082980259]]]}}, {"type": "Feature", "properties": {"zone_id": "02017IHA96UIV40CH6ITVY", "tract_id": "36047076400", "city": "BROOKLYN, NY", "zone_code": "R2", "zone_category": "Residential", "ev_permitted": false}, "geometry": {"type": "Polygon", "coordinates": [[[-73.9586266719006, 40.6284293110968], [-73.958265487968, 40.6284697925527], [-73.9582883152978, 40.628593081506], [-73.958649500806, 40.6285525999793], [-73.9586266719006, 40.6284293110968]]]}}, {"type": "Feature", "properties": {"zone_id": "0201NH7F0GYZRKDO3HGPVF", "tract_id": "36047076400", "city": "BROOKLYN, NY", "zone_code": "R2", "zone_category": "Residential", "ev_permitted": false}, "geometry": {"type": "Polygon", "coordinates": [[[-73.9586065417975, 40.6283205936656], [-73.9582453575183, 40.6283610757611], [-73.958265487968, 40.6284697925527], [-73.9586266719006, 40.6284293110968], [-73.9586065417975, 40.6283205936656]]]}}, {"type": "Feature", "properties": {"zone_id": "0206PF8FJ183TBL6AB4P8Z", "tract_id": "36047076400", "city": "BROOKLYN, NY", "zone_code": "R2", "zone_category": "Residential", "ev_permitted": false}, "geometry": {"type": "Polygon", "coordinates": [[[-73.9584812184629, 40.6280391728309], [-73.9583484571128, 40.628053601843], [-73.9584021352825, 40.6283435041022], [-73.9585348163133, 40.6283286330223], [-73.9584812184629, 40.6280391728309]]]}}, {"type": "Feature", "properties": {"zone_id": "0200OBSKQ2LYPQQ7Z9LI9M", "tract_id": "36047076400", "city": "BROOKLYN, NY", "zone_code": "R2", "zone_category": "Residential", "ev_permitted": false}, "geometry": {"type": "Polygon", "coordinates": [[[-73.9583484571128, 40.628053601843], [-73.9581915835052, 40.6280706520158], [-73.9582453575183, 40.6283610757611], [-73.9584021352825, 40.6283435041022], [-73.9583484571128, 40.628053601843]]]}}, {"type": "Feature", "properties": {"zone_id": "0200EGO0WNIIX1FOB4JJ20", "tract_id": "36047076400", "city": "BROOKLYN, NY", "zone_code": "R2", "zone_category": "Residential", "ev_permitted": false}, "geometry": {"type": "Polygon", "coordinates": [[[-73.9586238762309, 40.6280236679321], [-73.9584812184629, 40.6280391728309], [-73.9585348163133, 40.6283286330223], [-73.958677387367, 40.6283126530238], [-73.9586238762309, 40.6280236679321]]]}}, {"type": "Feature", "properties": {"zone_id": "0206TJHEQCZ1JPWJLSHS39", "tract_id": "36047076400", "city": "BROOKLYN, NY", "zone_code": "R7A", "zone_category": "Residential", "ev_permitted": false}, "geometry": {"type": "Polygon", "coordinates": [[[-73.9575005421642, 40.6281457539772], [-73.9570366472274, 40.6281961665019], [-73.9570905045466, 40.628487067224], [-73.9575541156246, 40.6284351085125], [-73.9575005421642, 40.6281457539772]]]}}, {"type": "Feature", "properties": {"zone_id": "0202V8KG2CBKBQ7MUFUIZI", "tract_id": "36047076400", "city": "BROOKLYN, NY", "zone_code": "R2", "zone_category": "Residential", "ev_permitted": false}, "geometry": {"type": "Polygon", "coordinates": [[[-73.9580032832738, 40.6283847693287], [-73.9576308514226, 40.6284265094811], [-73.9576508632418, 40.628534595342], [-73.9580232966059, 40.6284928551256], [-73.9580032832738, 40.6283847693287]]]}}, {"type": "Feature", "properties": {"zone_id": "02027C9IOMF493YWAMLZ8S", "tract_id": "36047076400", "city": "BROOKLYN, NY", "zone_code": "R2", "zone_category": "Residential", "ev_permitted": false}, "geometry": {"type": "Polygon", "coordinates": [[[-73.9579499854868, 40.628096908971], [-73.9577966865914, 40.6281135692299], [-73.9578500793235, 40.6284019398288], [-73.9580032832738, 40.6283847693287], [-73.9579499854868, 40.628096908971]]]}}, {"type": "Feature", "properties": {"zone_id": "0200MFHYR3SU38Z9BC9ZZ7", "tract_id": "36047076400", "city": "BROOKLYN, NY", "zone_code": "R2", "zone_category": "Residential", "ev_permitted": false}, "geometry": {"type": "Polygon", "coordinates": [[[-73.9577966865914, 40.6281135692299], [-73.9576540284391, 40.6281290731022], [-73.9577075078814, 40.6284179180987], [-73.9578500793235, 40.6284019398288], [-73.9577966865914, 40.6281135692299]]]}}, {"type": "Feature", "properties": {"zone_id": "0203Q8A1CBJP98Q8KHZ15P", "tract_id": "36047076400", "city": "BROOKLYN, NY", "zone_code": "R2", "zone_category": "Residential", "ev_permitted": false}, "geometry": {"type": "Polygon", "coordinates": [[[-73.9576540284391, 40.6281290731022], [-73.9575005421642, 40.6281457539772], [-73.9575541156246, 40.6284351085125], [-73.9577075078814, 40.6284179180987], [-73.9576540284391, 40.6281290731022]]]}}, {"type": "Feature", "properties": {"zone_id": "02040FB0AAC0MIS5H36XT8", "tract_id": "36047076400", "city": "BROOKLYN, NY", "zone_code": "R1-2", "zone_category": "Residential", "ev_permitted": false}, "geometry": {"type": "Polygon", "coordinates": [[[-73.9597116553136, 40.6341865288694], [-73.9593668366722, 40.6342235834685], [-73.9593922641265, 40.63435945076], [-73.9597372845401, 40.6343223736704], [-73.9597116553136, 40.6341865288694]]]}}, {"type": "Feature", "properties": {"zone_id": "0201QUSYA0XFGD2G5FK3ZB", "tract_id": "36047076400", "city": "BROOKLYN, NY", "zone_code": "R1-2", "zone_category": "Residential", "ev_permitted": false}, "geometry": {"type": "Polygon", "coordinates": [[[-73.9596860252694, 40.6340506833578], [-73.9593414093214, 40.6340877161693], [-73.9593668366722, 40.6342235834685], [-73.9597116553136, 40.6341865288694], [-73.9596860252694, 40.6340506833578]]]}}, {"type": "Feature", "properties": {"zone_id": "0202R1HOWLJP2L64WHP652", "tract_id": "36047076400", "city": "BROOKLYN, NY", "zone_code": "R1-2", "zone_category": "Residential", "ev_permitted": false}, "geometry": {"type": "Polygon", "coordinates": [[[-73.9599994924326, 40.633878396606], [-73.959660396252, 40.6339148378388], [-73.9596860252694, 40.6340506833578], [-73.9600251221264, 40.63401424205], [-73.9599994924326, 40.633878396606]]]}}, {"type": "Feature", "properties": {"zone_id": "0204ANKS8ZC8UKDM0C13VI", "tract_id": "36047076400", "city": "BROOKLYN, NY", "zone_code": "R1-2", "zone_category": "Residential", "ev_permitted": false}, "geometry": {"type": "Polygon", "coordinates": [[[-73.9596345522, 40.6337778553233], [-73.9592903416421, 40.6338148445594], [-73.9593159820733, 40.6339518502678], [-73.959660396252, 40.6339148378388], [-73.9596345522, 40.6337778553233]]]}}, {"type": "Feature", "properties": {"zone_id": "020140O0OCQX21FDXRXPBV", "tract_id": "36047076400", "city": "BROOKLYN, NY", "zone_code": "R1-2", "zone_category": "Residential", "ev_permitted": false}, "geometry": {"type": "Polygon", "coordinates": [[[-73.9590069469252, 40.6337060077527], [-73.9586433188156, 40.6337454102167], [-73.9586688754441, 40.6338800185453], [-73.9590325051948, 40.6338406152987], [-73.9590069469252, 40.6337060077527]]]}}, {"type": "Feature", "properties": {"zone_id": "0200UZ64ENFORS0JR4WPQD", "tract_id": "36047076400", "city": "", "zone_code": "R7A", "zone_category": "Residential", "ev_permitted": false}, "geometry": {"type": "Polygon", "coordinates": [[[-73.9586441847173, 40.6342666058165], [-73.9581906686056, 40.6343157464549], [-73.9582740321331, 40.6347548345914], [-73.9588174178992, 40.6346959559844], [-73.958791212509, 40.6345579395399], [-73.9587013468816, 40.6345676771619], [-73.9586441847173, 40.6342666058165]]]}}, {"type": "Feature", "properties": {"zone_id": "02034LFMTIX2CQZOY77VXU", "tract_id": "36047076400", "city": "BROOKLYN, NY", "zone_code": "R7A", "zone_category": "Residential", "ev_permitted": false}, "geometry": {"type": "Polygon", "coordinates": [[[-73.9586180206232, 40.6336121609291], [-73.9580683979558, 40.633671715801], [-73.9581192515383, 40.6339395736588], [-73.9586688754441, 40.6338800185453], [-73.9586180206232, 40.6336121609291]]]}}, {"type": "Feature", "properties": {"zone_id": "0203CE0ZXR3I7NHM2470WX", "tract_id": "36047076400", "city": "BROOKLYN, NY", "zone_code": "R7A", "zone_category": "Residential", "ev_permitted": false}, "geometry": {"type": "Polygon", "coordinates": [[[-73.9586688754441, 40.6338800185453], [-73.9581192515383, 40.6339395736588], [-73.9581906686056, 40.6343157464549], [-73.9586441847173, 40.6342666058165], [-73.9586253979971, 40.6341676581022], [-73.9587215105308, 40.6341572433044], [-73.9586688754441, 40.6338800185453]]]}}, {"type": "Feature", "properties": {"zone_id": "0204KOWVBUS0M2Y6CHK27I", "tract_id": "36047076400", "city": "BROOKLYN, NY", "zone_code": "R1-2", "zone_category": "Residential", "ev_permitted": false}, "geometry": {"type": "Polygon", "coordinates": [[[-73.9599482324359, 40.6336067056946], [-73.9596091385301, 40.6336431467776], [-73.9596345522, 40.6337778553233], [-73.9599736476988, 40.6337414141663], [-73.9599482324359, 40.6336067056946]]]}}, {"type": "Feature", "properties": {"zone_id": "020797YI7015O7005FCZ1F", "tract_id": "36047076400", "city": "BROOKLYN, NY", "zone_code": "R1-2", "zone_category": "Residential", "ev_permitted": false}, "geometry": {"type": "Polygon", "coordinates": [[[-73.9599226030548, 40.6334708609301], [-73.9595835089034, 40.6335073012351], [-73.9596091385301, 40.6336431467776], [-73.9599482324359, 40.6336067056946], [-73.9599226030548, 40.6334708609301]]]}}, {"type": "Feature", "properties": {"zone_id": "0201I93SC2C6SOQEAIPUSV", "tract_id": "36047076400", "city": "BROOKLYN, NY", "zone_code": "R1-2", "zone_category": "Residential", "ev_permitted": false}, "geometry": {"type": "Polygon", "coordinates": [[[-73.9595835089034, 40.6335073012351], [-73.9592397009533, 40.6335442475991], [-73.9592651278899, 40.6336801149287], [-73.9596091385301, 40.6336431467776], [-73.9595835089034, 40.6335073012351]]]}}, {"type": "Feature", "properties": {"zone_id": "0207IA51OXHM4GSE12X1L8", "tract_id": "36047076400", "city": "BROOKLYN, NY", "zone_code": "R1-2", "zone_category": "Residential", "ev_permitted": false}, "geometry": {"type": "Polygon", "coordinates": [[[-73.9596091385301, 40.6336431467776], [-73.9592651278899, 40.6336801149287], [-73.9592903416421, 40.6338148445594], [-73.9596345522, 40.6337778553233], [-73.9596091385301, 40.6336431467776]]]}}, {"type": "Feature", "properties": {"zone_id": "0200Z1SC26BSUAS3LIS9VO", "tract_id": "36047076400", "city": "BROOKLYN, NY", "zone_code": "R1-2", "zone_category": "Residential", "ev_permitted": false}, "geometry": {"type": "Polygon", "coordinates": [[[-73.9598966722142, 40.6333334181908], [-73.9595575796689, 40.6333698591228], [-73.9595835089034, 40.6335073012351], [-73.9599226030548, 40.6334708609301], [-73.9598966722142, 40.6333334181908]]]}}, {"type": "Feature", "properties": {"zone_id": "0205EJX6Q082TIS8BDX3WM", "tract_id": "36047076400", "city": "BROOKLYN, NY", "zone_code": "R1-2", "zone_category": "Residential", "ev_permitted": false}, "geometry": {"type": "Polygon", "coordinates": [[[-73.9598713436841, 40.6331991699725], [-73.9595322518071, 40.6332356108303], [-73.9595575796689, 40.6333698591228], [-73.9598966722142, 40.6333334181908], [-73.9598713436841, 40.6331991699725]]]}}, {"type": "Feature", "properties": {"zone_id": "0205CFAQPHMUBWPV5VJ36J", "tract_id": "36047076400", "city": "BROOKLYN, NY", "zone_code": "R1-2", "zone_category": "Residential", "ev_permitted": false}, "geometry": {"type": "Polygon", "coordinates": [[[-73.9595575796689, 40.6333698591228], [-73.9592139753385, 40.6334067836992], [-73.9592397009533, 40.6335442475991], [-73.9595835089034, 40.6335073012351], [-73.9595575796689, 40.6333698591228]]]}}, {"type": "Feature", "properties": {"zone_id": "02004PV8V365U0QDKIS4OE", "tract_id": "36047076400", "city": "BROOKLYN, NY", "zone_code": "R1-2", "zone_category": "Residential", "ev_permitted": false}, "geometry": {"type": "Polygon", "coordinates": [[[-73.9595322518071, 40.6332356108303], [-73.9591888473902, 40.6332725136196], [-73.9592139753385, 40.6334067836992], [-73.9595575796689, 40.6333698591228], [-73.9595322518071, 40.6332356108303]]]}}, {"type": "Feature", "properties": {"zone_id": "02004BIT4X6XF8NGSN1O2J", "tract_id": "36047076400", "city": "BROOKLYN, NY", "zone_code": "R1-2", "zone_category": "Residential", "ev_permitted": false}, "geometry": {"type": "Polygon", "coordinates": [[[-73.9589816470994, 40.6335727585442], [-73.9586180206232, 40.6336121609291], [-73.9586433188156, 40.6337454102167], [-73.9590069469252, 40.6337060077527], [-73.9589816470994, 40.6335727585442]]]}}, {"type": "Feature", "properties": {"zone_id": "0200J155XNQXNHA3D44Y8N", "tract_id": "36047076400", "city": "BROOKLYN, NY", "zone_code": "R1-2", "zone_category": "Residential", "ev_permitted": false}, "geometry": {"type": "Polygon", "coordinates": [[[-73.9589553756219, 40.633434385845], [-73.9585917489619, 40.6334737881471], [-73.9586180206232, 40.6336121609291], [-73.9589816470994, 40.6335727585442], [-73.9589553756219, 40.633434385845]]]}}, {"type": "Feature", "properties": {"zone_id": "0206XLC0P8VQE6HQWU4ESF", "tract_id": "36047076400", "city": "BROOKLYN, NY", "zone_code": "R1-2", "zone_category": "Residential", "ev_permitted": false}, "geometry": {"type": "Polygon", "coordinates": [[[-73.9589290564453, 40.633295764377], [-73.9585704962993, 40.6333346182346], [-73.9585771108335, 40.633369460193], [-73.9585720459782, 40.6333700099609], [-73.9585917489619, 40.6334737881471], [-73.9589553756219, 40.633434385845], [-73.9589290564453, 40.633295764377]]]}}, {"type": "Feature", "properties": {"zone_id": "0204IQB9IJ28FN6Z0BDTSK", "tract_id": "36047076400", "city": "BROOKLYN, NY", "zone_code": "R1-2", "zone_category": "Residential", "ev_permitted": false}, "geometry": {"type": "Polygon", "coordinates": [[[-73.9589034011475, 40.6331606353873], [-73.9585448407907, 40.6331994884623], [-73.9585704962993, 40.6333346182346], [-73.9589290564453, 40.633295764377], [-73.9589034011475, 40.6331606353873]]]}}, {"type": "Feature", "properties": {"zone_id": "0206H8AMR5GRF03AM3ZVG9", "tract_id": "36047076400", "city": "BROOKLYN, NY", "zone_code": "R1-2", "zone_category": "Residential", "ev_permitted": false}, "geometry": {"type": "Polygon", "coordinates": [[[-73.959845630952, 40.6330628803682], [-73.9595065388312, 40.6330993211504], [-73.9595322518071, 40.6332356108303], [-73.9598713436841, 40.6331991699725], [-73.959845630952, 40.6330628803682]]]}}, {"type": "Feature", "properties": {"zone_id": "0203YIWDFMR56H0VEFU921", "tract_id": "36047076400", "city": "BROOKLYN, NY", "zone_code": "R1-2", "zone_category": "Residential", "ev_permitted": false}, "geometry": {"type": "Polygon", "coordinates": [[[-73.9595065388312, 40.6330993211504], [-73.9591633371042, 40.6331362021526], [-73.9591888473902, 40.6332725136196], [-73.9595322518071, 40.6332356108303], [-73.9595065388312, 40.6330993211504]]]}}, {"type": "Feature", "properties": {"zone_id": "02055IJR75PYTXZJSF039F", "tract_id": "36047076400", "city": "BROOKLYN, NY", "zone_code": "R1-2", "zone_category": "Residential", "ev_permitted": false}, "geometry": {"type": "Polygon", "coordinates": [[[-73.959792070983, 40.6327789951994], [-73.9596265209734, 40.6327967863059], [-73.9596800793301, 40.633080671551], [-73.959845630952, 40.6330628803682], [-73.959792070983, 40.6327789951994]]]}}, {"type": "Feature", "properties": {"zone_id": "02002LU8INR91FISZ518AD", "tract_id": "36047076400", "city": "BROOKLYN, NY", "zone_code": "R1-2", "zone_category": "Residential", "ev_permitted": false}, "geometry": {"type": "Polygon", "coordinates": [[[-73.9596265209734, 40.6327967863059], [-73.9594529811973, 40.6328154365278], [-73.9595065388312, 40.6330993211504], [-73.9596800793301, 40.633080671551], [-73.9596265209734, 40.6327967863059]]]}}, {"type": "Feature", "properties": {"zone_id": "0200D39T0IYRKNFDN67RVO", "tract_id": "36047076400", "city": "BROOKLYN, NY", "zone_code": "R1-2", "zone_category": "Residential", "ev_permitted": false}, "geometry": {"type": "Polygon", "coordinates": [[[-73.9594529811973, 40.6328154365278], [-73.9592760718596, 40.6328344471672], [-73.9593296287562, 40.6331183318717], [-73.9595065388312, 40.6330993211504], [-73.9594529811973, 40.6328154365278]]]}}, {"type": "Feature", "properties": {"zone_id": "02033KH5FQ1W83M51S45QX", "tract_id": "36047076400", "city": "BROOKLYN, NY", "zone_code": "R1-2", "zone_category": "Residential", "ev_permitted": false}, "geometry": {"type": "Polygon", "coordinates": [[[-73.9592760718596, 40.6328344471672], [-73.9591102024301, 40.6328522718478], [-73.9591633371042, 40.6331362021526], [-73.9593296287562, 40.6331183318717], [-73.9592760718596, 40.6328344471672]]]}}, {"type": "Feature", "properties": {"zone_id": "02037ARRZ0YVOJH5QUX8NM", "tract_id": "36047076400", "city": "BROOKLYN, NY", "zone_code": "R1-2", "zone_category": "Residential", "ev_permitted": false}, "geometry": {"type": "Polygon", "coordinates": [[[-73.9588524429652, 40.6328922395751], [-73.9586840246352, 40.6329104892468], [-73.9587349830763, 40.6331788851335], [-73.9589034011475, 40.6331606353873], [-73.9588524429652, 40.6328922395751]]]}}, {"type": "Feature", "properties": {"zone_id": "02047PKOGR6SMIOBDOPI69", "tract_id": "36047076400", "city": "BROOKLYN, NY", "zone_code": "R1-2", "zone_category": "Residential", "ev_permitted": false}, "geometry": {"type": "Polygon", "coordinates": [[[-73.9586840246352, 40.6329104892468], [-73.9585259941244, 40.6329276132353], [-73.9585769510207, 40.6331960091911], [-73.9587349830763, 40.6331788851335], [-73.9586840246352, 40.6329104892468]]]}}, {"type": "Feature", "properties": {"zone_id": "02055FNZQKQQXET6XI5NF9", "tract_id": "36047076400", "city": "BROOKLYN, NY", "zone_code": "R7A", "zone_category": "Residential", "ev_permitted": false}, "geometry": {"type": "Polygon", "coordinates": [[[-73.9585720459782, 40.6333700099609], [-73.9580224252645, 40.6334295639119], [-73.9580683979558, 40.633671715801], [-73.9586180206232, 40.6336121609291], [-73.9585720459782, 40.6333700099609]]]}}, {"type": "Feature", "properties": {"zone_id": "0202S4DFTO0XDY3OFF9XRO", "tract_id": "36047076400", "city": "BROOKLYN, NY", "zone_code": "R7A", "zone_category": "Residential", "ev_permitted": false}, "geometry": {"type": "Polygon", "coordinates": [[[-73.9585259941244, 40.6329276132353], [-73.9583816434464, 40.6329432544154], [-73.9584648695366, 40.6333816228993], [-73.9585771108335, 40.633369460193], [-73.9585448407907, 40.6331994884623], [-73.9585769510207, 40.6331960091911], [-73.9585259941244, 40.6329276132353]]]}}, {"type": "Feature", "properties": {"zone_id": "02015JYH3ITQ4LIMB87275", "tract_id": "36047076400", "city": "BROOKLYN, NY", "zone_code": "R7A", "zone_category": "Residential", "ev_permitted": false}, "geometry": {"type": "Polygon", "coordinates": [[[-73.9583816434464, 40.6329432544154], [-73.9579392020209, 40.63299119511], [-73.9580224252645, 40.6334295639119], [-73.9584648695366, 40.6333816228993], [-73.9583816434464, 40.6329432544154]]]}}, {"type": "Feature", "properties": {"zone_id": "02022C88U72GDXYS4SLZ64", "tract_id": "36047076400", "city": "BROOKLYN, NY", "zone_code": "R2", "zone_category": "Residential", "ev_permitted": false}, "geometry": {"type": "Polygon", "coordinates": [[[-73.9595371448834, 40.6323120433369], [-73.9593619027529, 40.6323323279263], [-73.9594133827726, 40.6326052270979], [-73.9595888030437, 40.632585880552], [-73.9595371448834, 40.6323120433369]]]}}, {"type": "Feature", "properties": {"zone_id": "0204NADE8PTBYSBUAGYR3P", "tract_id": "36047076400", "city": "BROOKLYN, NY", "zone_code": "R2", "zone_category": "Residential", "ev_permitted": false}, "geometry": {"type": "Polygon", "coordinates": [[[-73.9593619027529, 40.6323323279263], [-73.9591829737571, 40.6323530402686], [-73.959234271951, 40.6326249789113], [-73.9594133827726, 40.6326052270979], [-73.9593619027529, 40.6323323279263]]]}}, {"type": "Feature", "properties": {"zone_id": "0205DC26SD6YCPU3KJA3S9", "tract_id": "36047076400", "city": "BROOKLYN, NY", "zone_code": "R2", "zone_category": "Residential", "ev_permitted": false}, "geometry": {"type": "Polygon", "coordinates": [[[-73.9597123168068, 40.6322917661852], [-73.9595371448834, 40.6323120433369], [-73.9595888030437, 40.632585880552], [-73.9597641531113, 40.6325665428485], [-73.9597123168068, 40.6322917661852]]]}}, {"type": "Feature", "properties": {"zone_id": "0206SA2VID4NUTAW02IBGE", "tract_id": "36047076400", "city": "BROOKLYN, NY", "zone_code": "R2", "zone_category": "Residential", "ev_permitted": false}, "geometry": {"type": "Polygon", "coordinates": [[[-73.9596875958336, 40.632160722983], [-73.9593371824523, 40.6322012853519], [-73.9593619027529, 40.6323323279263], [-73.9597123168068, 40.6322917661852], [-73.9596875958336, 40.632160722983]]]}}, {"type": "Feature", "properties": {"zone_id": "020669H0TRLXY08ACK4WOG", "tract_id": "36047076400", "city": "BROOKLYN, NY", "zone_code": "R2", "zone_category": "Residential", "ev_permitted": false}, "geometry": {"type": "Polygon", "coordinates": [[[-73.9591829737571, 40.6323530402686], [-73.9589940700135, 40.6323749060662], [-73.9590445978996, 40.6326458959196], [-73.959234271951, 40.6326249789113], [-73.9591829737571, 40.6323530402686]]]}}, {"type": "Feature", "properties": {"zone_id": "0206MJKP31EXSCTZNXDKI3", "tract_id": "36047076400", "city": "BROOKLYN, NY", "zone_code": "R2", "zone_category": "Residential", "ev_permitted": false}, "geometry": {"type": "Polygon", "coordinates": [[[-73.9587693907952, 40.6324021179628], [-73.9585777527465, 40.6324229533931], [-73.958629960394, 40.6326983666118], [-73.9588214971731, 40.6326769907086], [-73.9587693907952, 40.6324021179628]]]}}, {"type": "Feature", "properties": {"zone_id": "0206SQTZ2QY6BUU37ELMM1", "tract_id": "36047076400", "city": "BROOKLYN, NY", "zone_code": "R2", "zone_category": "Residential", "ev_permitted": false}, "geometry": {"type": "Polygon", "coordinates": [[[-73.959327916385, 40.6321521685403], [-73.9589604692498, 40.6321947010363], [-73.9589940700135, 40.6323749060662], [-73.9593619027529, 40.6323323279263], [-73.959327916385, 40.6321521685403]]]}}, {"type": "Feature", "properties": {"zone_id": "0203KR7915M312B727KZRA", "tract_id": "36047076400", "city": "BROOKLYN, NY", "zone_code": "R2", "zone_category": "Residential", "ev_permitted": false}, "geometry": {"type": "Polygon", "coordinates": [[[-73.9596622902405, 40.632026580812], [-73.9593118775481, 40.6320671431043], [-73.9593371824523, 40.6322012853519], [-73.9596875958336, 40.632160722983], [-73.9596622902405, 40.632026580812]]]}}, {"type": "Feature", "properties": {"zone_id": "0206WW9S1FFKLR4DRRA2S9", "tract_id": "36047076400", "city": "BROOKLYN, NY", "zone_code": "R2", "zone_category": "Residential", "ev_permitted": false}, "geometry": {"type": "Polygon", "coordinates": [[[-73.9596364450853, 40.6318895750804], [-73.959286031252, 40.631930137294], [-73.9593118775481, 40.6320671431043], [-73.9596622902405, 40.632026580812], [-73.9596364450853, 40.6318895750804]]]}}, {"type": "Feature", "properties": {"zone_id": "02065KKUKXRGSQNSFP4N75", "tract_id": "36047076400", "city": "BROOKLYN, NY", "zone_code": "R2", "zone_category": "Residential", "ev_permitted": false}, "geometry": {"type": "Polygon", "coordinates": [[[-73.9596109659384, 40.6317545130434], [-73.9592605546434, 40.6317950751806], [-73.959286031252, 40.631930137294], [-73.9596364450853, 40.6318895750804], [-73.9596109659384, 40.6317545130434]]]}}, {"type": "Feature", "properties": {"zone_id": "0206HRN4N44BMBTB01CICW", "tract_id": "36047076400", "city": "BROOKLYN, NY", "zone_code": "R2", "zone_category": "Residential", "ev_permitted": false}, "geometry": {"type": "Polygon", "coordinates": [[[-73.9595851081234, 40.6316174384306], [-73.9592346966101, 40.6316580004891], [-73.9592605546434, 40.6317950751806], [-73.9596109659384, 40.6317545130434], [-73.9595851081234, 40.6316174384306]]]}}, {"type": "Feature", "properties": {"zone_id": "0205RXVI00WNUSFWN6LXGN", "tract_id": "36047076400", "city": "BROOKLYN, NY", "zone_code": "R2", "zone_category": "Residential", "ev_permitted": false}, "geometry": {"type": "Polygon", "coordinates": [[[-73.9592958258805, 40.6319820509076], [-73.9589287412335, 40.632024541271], [-73.9589604692498, 40.6321947010363], [-73.959327916385, 40.6321521685403], [-73.9592958258805, 40.6319820509076]]]}}, {"type": "Feature", "properties": {"zone_id": "020756Y8KYH4B3GB0T96FP", "tract_id": "36047076400", "city": "BROOKLYN, NY", "zone_code": "R2", "zone_category": "Residential", "ev_permitted": false}, "geometry": {"type": "Polygon", "coordinates": [[[-73.9592702655676, 40.6318465538173], [-73.9589034703532, 40.631889010475], [-73.9589287412335, 40.632024541271], [-73.9592958258805, 40.6319820509076], [-73.9592702655676, 40.6318465538173]]]}}, {"type": "Feature", "properties": {"zone_id": "0205PJ7GWABJVJZNEZU3MK", "tract_id": "36047076400", "city": "BROOKLYN, NY", "zone_code": "R2", "zone_category": "Residential", "ev_permitted": false}, "geometry": {"type": "Polygon", "coordinates": [[[-73.9592445352852, 40.63171015022], [-73.9588780313514, 40.6317525738749], [-73.9589034703532, 40.631889010475], [-73.9592702655676, 40.6318465538173], [-73.9592445352852, 40.63171015022]]]}}, {"type": "Feature", "properties": {"zone_id": "0203U5Y3TRMKAJEU3ZR1J2", "tract_id": "36047076400", "city": "BROOKLYN, NY", "zone_code": "R7A", "zone_category": "Residential", "ev_permitted": false}, "geometry": {"type": "Polygon", "coordinates": [[[-73.9582801496143, 40.6321796025435], [-73.9578018676375, 40.632231600245], [-73.9578537884726, 40.632501661512], [-73.9583313556548, 40.6324497420348], [-73.9582801496143, 40.6321796025435]]]}}, {"type": "Feature", "properties": {"zone_id": "0204V4YGP2NIP2UOWH844O", "tract_id": "36047076400", "city": "BROOKLYN, NY", "zone_code": "R2", "zone_category": "Residential", "ev_permitted": false}, "geometry": {"type": "Polygon", "coordinates": [[[-73.9585777527465, 40.6324229533931], [-73.9584030024287, 40.6324419522249], [-73.9584553022177, 40.6327178581247], [-73.958629960394, 40.6326983666118], [-73.9585777527465, 40.6324229533931]]]}}, {"type": "Feature", "properties": {"zone_id": "02044K35F3QEMJIUJZUY59", "tract_id": "36047076400", "city": "BROOKLYN, NY", "zone_code": "R7A", "zone_category": "Residential", "ev_permitted": false}, "geometry": {"type": "Polygon", "coordinates": [[[-73.9584030024287, 40.6324419522249], [-73.9582217501529, 40.6324616581213], [-73.9582741466546, 40.6327380749763], [-73.9584553022177, 40.6327178581247], [-73.9584030024287, 40.6324419522249]]]}}, {"type": "Feature", "properties": {"zone_id": "02078WA6Y6AXL1KHH542ZP", "tract_id": "36047076400", "city": "BROOKLYN, NY", "zone_code": "R7A", "zone_category": "Residential", "ev_permitted": false}, "geometry": {"type": "Polygon", "coordinates": [[[-73.9582217501529, 40.6324616581213], [-73.9578537884726, 40.632501661512], [-73.9579071162687, 40.6327790337979], [-73.9582741466546, 40.6327380749763], [-73.9582217501529, 40.6324616581213]]]}}, {"type": "Feature", "properties": {"zone_id": "0202WDL4T5UHPJSOM0DY7P", "tract_id": "36047076400", "city": "BROOKLYN, NY", "zone_code": "R2", "zone_category": "Residential", "ev_permitted": false}, "geometry": {"type": "Polygon", "coordinates": [[[-73.9587438558044, 40.6322674105669], [-73.9583058215305, 40.6323150338396], [-73.9583313556548, 40.6324497420348], [-73.9587693907952, 40.6324021179628], [-73.9587438558044, 40.6322674105669]]]}}, {"type": "Feature", "properties": {"zone_id": "0204XJDODLYD0J4EBN62HG", "tract_id": "36047076400", "city": "BROOKLYN, NY", "zone_code": "R2", "zone_category": "Residential", "ev_permitted": false}, "geometry": {"type": "Polygon", "coordinates": [[[-73.9587131681669, 40.6321055250073], [-73.9582751349332, 40.6321531488667], [-73.9583058215305, 40.6323150338396], [-73.9587438558044, 40.6322674105669], [-73.9587131681669, 40.6321055250073]]]}}, {"type": "Feature", "properties": {"zone_id": "0204B8QGS01YNP6SHF8WK3", "tract_id": "36047076400", "city": "BROOKLYN, NY", "zone_code": "R7A", "zone_category": "Residential", "ev_permitted": false}, "geometry": {"type": "Polygon", "coordinates": [[[-73.9581769803783, 40.6316353278346], [-73.9576972587127, 40.6316874812735], [-73.9578018676375, 40.632231600245], [-73.9582801496143, 40.6321796025435], [-73.9581769803783, 40.6316353278346]]]}}, {"type": "Feature", "properties": {"zone_id": "0203WIOFP9VBVN35VU8IPL", "tract_id": "36047076400", "city": "BROOKLYN, NY", "zone_code": "R2", "zone_category": "Residential", "ev_permitted": false}, "geometry": {"type": "Polygon", "coordinates": [[[-73.9586872086833, 40.6319685759377], [-73.9582491754077, 40.6320161996985], [-73.9582751349332, 40.6321531488667], [-73.9587131681669, 40.6321055250073], [-73.9586872086833, 40.6319685759377]]]}}, {"type": "Feature", "properties": {"zone_id": "0205BLLJGZ6BEH7JRQJGME", "tract_id": "36047076400", "city": "BROOKLYN, NY", "zone_code": "R2", "zone_category": "Residential", "ev_permitted": false}, "geometry": {"type": "Polygon", "coordinates": [[[-73.958661433163, 40.631832603632], [-73.9582234016842, 40.631880226593], [-73.9582491754077, 40.6320161996985], [-73.9586872086833, 40.6319685759377], [-73.958661433163, 40.631832603632]]]}}, {"type": "Feature", "properties": {"zone_id": "0206YNUEFJSA33UGPR232A", "tract_id": "36047076400", "city": "BROOKLYN, NY", "zone_code": "R2", "zone_category": "Residential", "ev_permitted": false}, "geometry": {"type": "Polygon", "coordinates": [[[-73.9586356375257, 40.63169652029], [-73.9581976069217, 40.6317441431534], [-73.9582234016842, 40.631880226593], [-73.958661433163, 40.631832603632], [-73.9586356375257, 40.63169652029]]]}}, {"type": "Feature", "properties": {"zone_id": "0201HNNC0Y0D5P18W64HKC", "tract_id": "36047076400", "city": "BROOKLYN, NY", "zone_code": "R2", "zone_category": "Residential", "ev_permitted": false}, "geometry": {"type": "Polygon", "coordinates": [[[-73.9595597064104, 40.6314827846544], [-73.9592092955886, 40.6315233466361], [-73.9592346966101, 40.6316580004891], [-73.9595851081234, 40.6316174384306], [-73.9595597064104, 40.6314827846544]]]}}, {"type": "Feature", "properties": {"zone_id": "02070VLBMYHW8AR59TJ8BY", "tract_id": "36047076400", "city": "BROOKLYN, NY", "zone_code": "R2", "zone_category": "Residential", "ev_permitted": false}, "geometry": {"type": "Polygon", "coordinates": [[[-73.9595337035488, 40.6313449405556], [-73.9591832925127, 40.6313855024584], [-73.9592092955886, 40.6315233466361], [-73.9595597064104, 40.6314827846544], [-73.9595337035488, 40.6313449405556]]]}}, {"type": "Feature", "properties": {"zone_id": "0207LWS8YP5WH7IWQJV9ZI", "tract_id": "36047076400", "city": "BROOKLYN, NY", "zone_code": "R2", "zone_category": "Residential", "ev_permitted": false}, "geometry": {"type": "Polygon", "coordinates": [[[-73.9595082900921, 40.6312102228172], [-73.9591578806702, 40.6312507846435], [-73.9591832925127, 40.6313855024584], [-73.9595337035488, 40.6313449405556], [-73.9595082900921, 40.6312102228172]]]}}, {"type": "Feature", "properties": {"zone_id": "02063HD0KVDDTLXPDVWPQ4", "tract_id": "36047076400", "city": "BROOKLYN, NY", "zone_code": "R2", "zone_category": "Residential", "ev_permitted": false}, "geometry": {"type": "Polygon", "coordinates": [[[-73.9594825715158, 40.6310738895347], [-73.9591321627941, 40.6311144512832], [-73.9591578806702, 40.6312507846435], [-73.9595082900921, 40.6312102228172], [-73.9594825715158, 40.6310738895347]]]}}, {"type": "Feature", "properties": {"zone_id": "0202H9YQYECD9ERIZ8C21A", "tract_id": "36047076400", "city": "BROOKLYN, NY", "zone_code": "R2", "zone_category": "Residential", "ev_permitted": false}, "geometry": {"type": "Polygon", "coordinates": [[[-73.9592193962339, 40.6315768828227], [-73.9588531761841, 40.6316192734741], [-73.9588780313514, 40.6317525738749], [-73.9592445352852, 40.63171015022], [-73.9592193962339, 40.6315768828227]]]}}, {"type": "Feature", "properties": {"zone_id": "0200MWG1GF7ZI7DU33Z4RC", "tract_id": "36047076400", "city": "BROOKLYN, NY", "zone_code": "R2", "zone_category": "Residential", "ev_permitted": false}, "geometry": {"type": "Polygon", "coordinates": [[[-73.9591929968844, 40.6314369438603], [-73.9588270773561, 40.6314792994022], [-73.9588531761841, 40.6316192734741], [-73.9592193962339, 40.6315768828227], [-73.9591929968844, 40.6314369438603]]]}}, {"type": "Feature", "properties": {"zone_id": "0205FRZ2TC2GHOGH03QITJ", "tract_id": "36047076400", "city": "BROOKLYN, NY", "zone_code": "R2", "zone_category": "Residential", "ev_permitted": false}, "geometry": {"type": "Polygon", "coordinates": [[[-73.9591677633492, 40.631303174008], [-73.9588021295496, 40.6313454972498], [-73.9588270773561, 40.6314792994022], [-73.9591929968844, 40.6314369438603], [-73.9591677633492, 40.631303174008]]]}}, {"type": "Feature", "properties": {"zone_id": "020399CA55MANCD3BK3K47", "tract_id": "36047076400", "city": "BROOKLYN, NY", "zone_code": "R2", "zone_category": "Residential", "ev_permitted": false}, "geometry": {"type": "Polygon", "coordinates": [[[-73.9591416924162, 40.6311649679205], [-73.9587763535923, 40.6312072567548], [-73.9588021295496, 40.6313454972498], [-73.9591677633492, 40.631303174008], [-73.9591416924162, 40.6311649679205]]]}}, {"type": "Feature", "properties": {"zone_id": "0204RC8NYE9IMAYTJL6EXF", "tract_id": "36047076400", "city": "BROOKLYN, NY", "zone_code": "R2", "zone_category": "Residential", "ev_permitted": false}, "geometry": {"type": "Polygon", "coordinates": [[[-73.9594567905308, 40.6309372231588], [-73.9591063834333, 40.6309777848296], [-73.9591321627941, 40.6311144512832], [-73.9594825715158, 40.6310738895347], [-73.9594567905308, 40.6309372231588]]]}}, {"type": "Feature", "properties": {"zone_id": "0200VX79C4OOOP910GYAJZ", "tract_id": "36047076400", "city": "BROOKLYN, NY", "zone_code": "R2", "zone_category": "Residential", "ev_permitted": false}, "geometry": {"type": "Polygon", "coordinates": [[[-73.9591163956514, 40.6310308663721], [-73.9587513444011, 40.6310731215016], [-73.9587763535923, 40.6312072567548], [-73.9591416924162, 40.6311649679205], [-73.9591163956514, 40.6310308663721]]]}}, {"type": "Feature", "properties": {"zone_id": "020229GUBZLI5KAFBZC3LM", "tract_id": "36047076400", "city": "BROOKLYN, NY", "zone_code": "R2", "zone_category": "Residential", "ev_permitted": false}, "geometry": {"type": "Polygon", "coordinates": [[[-73.9590907901052, 40.6308951197653], [-73.9587260282799, 40.6309373425952], [-73.9587513444011, 40.6310731215016], [-73.9591163956514, 40.6310308663721], [-73.9590907901052, 40.6308951197653]]]}}, {"type": "Feature", "properties": {"zone_id": "0204DWSNS5J7XYQ3JO7QNZ", "tract_id": "36047076400", "city": "BROOKLYN, NY", "zone_code": "R2", "zone_category": "Residential", "ev_permitted": false}, "geometry": {"type": "Polygon", "coordinates": [[[-73.9594312358075, 40.6308017549003], [-73.9590808294057, 40.6308423164938], [-73.9591063834333, 40.6309777848296], [-73.9594567905308, 40.6309372231588], [-73.9594312358075, 40.6308017549003]]]}}, {"type": "Feature", "properties": {"zone_id": "0203RFGK67KFFUBUV1XCZM", "tract_id": "36047076400", "city": "BROOKLYN, NY", "zone_code": "R2", "zone_category": "Residential", "ev_permitted": false}, "geometry": {"type": "Polygon", "coordinates": [[[-73.9594074646864, 40.6306757388241], [-73.95905705801, 40.6307162996428], [-73.9590808294057, 40.6308423164938], [-73.9594312358075, 40.6308017549003], [-73.9594074646864, 40.6306757388241]]]}}, {"type": "Feature", "properties": {"zone_id": "0202GQKMJS96FNLYNJBBOH", "tract_id": "36047076400", "city": "BROOKLYN, NY", "zone_code": "R2", "zone_category": "Residential", "ev_permitted": false}, "geometry": {"type": "Polygon", "coordinates": [[[-73.9590649465593, 40.630758117402], [-73.9587004769332, 40.6308003051219], [-73.9587260282799, 40.6309373425952], [-73.9590907901052, 40.6308951197653], [-73.9590649465593, 40.630758117402]]]}}, {"type": "Feature", "properties": {"zone_id": "0206XX5ZZOYTWA61KM8AU9", "tract_id": "36047076400", "city": "BROOKLYN, NY", "zone_code": "R2", "zone_category": "Residential", "ev_permitted": false}, "geometry": {"type": "Polygon", "coordinates": [[[-73.9585795953474, 40.6314008745048], [-73.9581415666435, 40.6314484978589], [-73.9581721496328, 40.6316098431949], [-73.9586101802958, 40.6315622204281], [-73.9585795953474, 40.6314008745048]]]}}, {"type": "Feature", "properties": {"zone_id": "0206GR0AHH6K9CDUB9O8QX", "tract_id": "36047076400", "city": "BROOKLYN, NY", "zone_code": "R2", "zone_category": "Residential", "ev_permitted": false}, "geometry": {"type": "Polygon", "coordinates": [[[-73.9586101802958, 40.6315622204281], [-73.9581721496328, 40.6316098431949], [-73.9581976069217, 40.6317441431534], [-73.9586356375257, 40.63169652029], [-73.9586101802958, 40.6315622204281]]]}}, {"type": "Feature", "properties": {"zone_id": "0205H5KK5Y3MI9CPQEZ5BP", "tract_id": "36047076400", "city": "BROOKLYN, NY", "zone_code": "R7A", "zone_category": "Residential", "ev_permitted": false}, "geometry": {"type": "Polygon", "coordinates": [[[-73.9581514376846, 40.631500571106], [-73.9576713590886, 40.6315527636567], [-73.9576972587127, 40.6316874812735], [-73.9581769803783, 40.6316353278346], [-73.9581514376846, 40.631500571106]]]}}, {"type": "Feature", "properties": {"zone_id": "0200ZJSKOWKF9C3QN6OLAC", "tract_id": "36047076400", "city": "BROOKLYN, NY", "zone_code": "R2", "zone_category": "Residential", "ev_permitted": false}, "geometry": {"type": "Polygon", "coordinates": [[[-73.9585274633814, 40.6311258596633], [-73.9581536365677, 40.6311665027322], [-73.9581589949295, 40.6311947701232], [-73.9580947957037, 40.6312017488091], [-73.9581149099521, 40.6313078636159], [-73.9585529377515, 40.6312602410653], [-73.9585274633814, 40.6311258596633]]]}}, {"type": "Feature", "properties": {"zone_id": "0207GY5SLEK8QAPN1514BT", "tract_id": "36047076400", "city": "BROOKLYN, NY", "zone_code": "R2", "zone_category": "Residential", "ev_permitted": false}, "geometry": {"type": "Polygon", "coordinates": [[[-73.9585529377515, 40.6312602410653], [-73.9581149099521, 40.6313078636159], [-73.9581415666435, 40.6314484978589], [-73.9585795953474, 40.6314008745048], [-73.9585529377515, 40.6312602410653]]]}}, {"type": "Feature", "properties": {"zone_id": "0204S7F5HIN8H87K2KXPSY", "tract_id": "36047076400", "city": "BROOKLYN, NY", "zone_code": "R7A", "zone_category": "Residential", "ev_permitted": false}, "geometry": {"type": "Polygon", "coordinates": [[[-73.9581209366087, 40.6313396586347], [-73.9576404320908, 40.6313918972775], [-73.9576713590886, 40.6315527636567], [-73.9581514376846, 40.631500571106], [-73.9581209366087, 40.6313396586347]]]}}, {"type": "Feature", "properties": {"zone_id": "02006A4UUI08XXKBQIXOAO", "tract_id": "36047076400", "city": "BROOKLYN, NY", "zone_code": "R7A", "zone_category": "Residential", "ev_permitted": false}, "geometry": {"type": "Polygon", "coordinates": [[[-73.9580947957037, 40.6312017488091], [-73.9576139269019, 40.6312540272607], [-73.9576404320908, 40.6313918972775], [-73.9581209366087, 40.6313396586347], [-73.9580947957037, 40.6312017488091]]]}}, {"type": "Feature", "properties": {"zone_id": "02012UJPNXDVQTDTOZOE9N", "tract_id": "36047076400", "city": "BROOKLYN, NY", "zone_code": "R2", "zone_category": "Residential", "ev_permitted": false}, "geometry": {"type": "Polygon", "coordinates": [[[-73.9585013382726, 40.6309880286315], [-73.9581275103699, 40.6310286723181], [-73.9581536365677, 40.6311665027322], [-73.9585274633814, 40.6311258596633], [-73.9585013382726, 40.6309880286315]]]}}, {"type": "Feature", "properties": {"zone_id": "0200XI1XNQYPN1GS84DGEQ", "tract_id": "36047076400", "city": "BROOKLYN, NY", "zone_code": "R2", "zone_category": "Residential", "ev_permitted": false}, "geometry": {"type": "Polygon", "coordinates": [[[-73.9584764064902, 40.6308564988285], [-73.9581025802319, 40.6308971417324], [-73.9581275103699, 40.6310286723181], [-73.9585013382726, 40.6309880286315], [-73.9584764064902, 40.6308564988285]]]}}, {"type": "Feature", "properties": {"zone_id": "0200HHAD1LXD4NWRH3YSGN", "tract_id": "36047076400", "city": "BROOKLYN, NY", "zone_code": "R2", "zone_category": "Residential", "ev_permitted": false}, "geometry": {"type": "Polygon", "coordinates": [[[-73.95843515495, 40.6306388759953], [-73.9580570151048, 40.6306799879782], [-73.9580769213872, 40.6307850044549], [-73.9584550608929, 40.6307438924066], [-73.95843515495, 40.6306388759953]]]}}, {"type": "Feature", "properties": {"zone_id": "0204UP96IXZC3Y1G738SXT", "tract_id": "36047076400", "city": "BROOKLYN, NY", "zone_code": "R2", "zone_category": "Residential", "ev_permitted": false}, "geometry": {"type": "Polygon", "coordinates": [[[-73.9584550608929, 40.6307438924066], [-73.9580769213872, 40.6307850044549], [-73.9580882400968, 40.630844716921], [-73.9580266238019, 40.6308514175521], [-73.9580366490958, 40.6309043094746], [-73.9584764064902, 40.6308564988285], [-73.9584550608929, 40.6307438924066]]]}}, {"type": "Feature", "properties": {"zone_id": "02063L8H7J81GEH6VRATMH", "tract_id": "36047076400", "city": "BROOKLYN, NY", "zone_code": "R7A", "zone_category": "Residential", "ev_permitted": false}, "geometry": {"type": "Polygon", "coordinates": [[[-73.9580297420869, 40.6305361008379], [-73.9578990777139, 40.6305503066468], [-73.9579619589866, 40.6308820561629], [-73.9580310086026, 40.6308745502142], [-73.9580266238019, 40.6308514175521], [-73.9580882400968, 40.630844716921], [-73.9580297420869, 40.6305361008379]]]}}, {"type": "Feature", "properties": {"zone_id": "02014KI0VWXXA4J07077SC", "tract_id": "36047076400", "city": "BROOKLYN, NY", "zone_code": "R7A", "zone_category": "Residential", "ev_permitted": false}, "geometry": {"type": "Polygon", "coordinates": [[[-73.9580310086026, 40.6308745502142], [-73.9575510054374, 40.6309267345624], [-73.9576139269019, 40.6312540272607], [-73.9581589949295, 40.6311947701232], [-73.9581025802319, 40.6308971417324], [-73.9580366490958, 40.6309043094746], [-73.9580310086026, 40.6308745502142]]]}}, {"type": "Feature", "properties": {"zone_id": "02002Z75WORW6G49V5BCPQ", "tract_id": "36047076400", "city": "BROOKLYN, NY", "zone_code": "R7A", "zone_category": "Residential", "ev_permitted": false}, "geometry": {"type": "Polygon", "coordinates": [[[-73.9578990777139, 40.6305503066468], [-73.9574872453167, 40.6305950793572], [-73.9575510054374, 40.6309267345624], [-73.9579619589866, 40.6308820561629], [-73.9578990777139, 40.6305503066468]]]}}]}