{"type": "FeatureCollection", "features": [{"type": "Feature", "properties": {"zone_id": "0203M1EC69YY6GPFDO8ZF7", "tract_id": "36061015602", "city": "NEW YORK, NY", "zone_code": "R7-2", "zone_category": "Residential", "ev_permitted": false}, "geometry": {"type": "Polygon", "coordinates": [[[-73.9466629641722, 40.7851056247116], [-73.9459069863165, 40.7861439477255], [-73.9478255125338, 40.786955067651], [-73.9485796923695, 40.785916221967], [-73.9466629641722, 40.7851056247116]]]}}, {"type": "Feature", "properties": {"zone_id": "02043BCOGAXV2B58RKFLA5", "tract_id": "36061015602", "city": "NEW YORK, NY", "zone_code": "R7-2", "zone_category": "Residential", "ev_permitted": false}, "geometry": {"type": "Polygon", "coordinates": [[[-73.9480074023421, 40.7847886734671], [-73.9478296858601, 40.7850315856326], [-73.9475356797793, 40.7849073034152], [-73.9473545149476, 40.7851549259605], [-73.9481520396649, 40.7854920530845], [-73.9485109158121, 40.7850015163635], [-73.9480074023421, 40.7847886734671]]]}}, {"type": "Feature", "properties": {"zone_id": "02023QQHL9D4DMGKNP5VL7", "tract_id": "36061015602", "city": "NEW YORK, NY", "zone_code": "R7-2", "zone_category": "Residential", "ev_permitted": false}, "geometry": {"type": "Polygon", "coordinates": [[[-73.9485109158121, 40.7850015163635], [-73.9481520396649, 40.7854920530845], [-73.9487272693671, 40.7857352080306], [-73.9490861425874, 40.7852446688342], [-73.9485109158121, 40.7850015163635]]]}}, {"type": "Feature", "properties": {"zone_id": "02039JUFJRXP0JLSE2O57N", "tract_id": "36061015602", "city": "NEW YORK, NY", "zone_code": "R10A", "zone_category": "Residential", "ev_permitted": false}, "geometry": {"type": "Polygon", "coordinates": [[[-73.947913547589, 40.7847489994116], [-73.9477358308705, 40.7849919114339], [-73.9478296858601, 40.7850315856326], [-73.9480074023421, 40.7847886734671], [-73.947913547589, 40.7847489994116]]]}}, {"type": "Feature", "properties": {"zone_id": "0203DR97TKHMD8PFHW7PDS", "tract_id": "36061015602", "city": "NEW YORK, NY", "zone_code": "R10A", "zone_category": "Residential", "ev_permitted": false}, "geometry": {"type": "Polygon", "coordinates": [[[-73.9478275627566, 40.784712652386], [-73.9476498467464, 40.7849555635748], [-73.9477358308705, 40.7849919114339], [-73.947913547589, 40.7847489994116], [-73.9478275627566, 40.784712652386]]]}}, {"type": "Feature", "properties": {"zone_id": "0207ETJG0OZJROJI9SP393", "tract_id": "36061015602", "city": "NEW YORK, NY", "zone_code": "R10A", "zone_category": "Residential", "ev_permitted": false}, "geometry": {"type": "Polygon", "coordinates": [[[-73.9477396447609, 40.7846754872352], [-73.9475619285286, 40.7849183989924], [-73.9476498467464, 40.7849555635748], [-73.9478275627566, 40.784712652386], [-73.9477396447609, 40.7846754872352]]]}}, {"type": "Feature", "properties": {"zone_id": "0201E2JY0Z5PCH5TVA8U60", "tract_id": "36061015602", "city": "NEW YORK, NY", "zone_code": "R10A", "zone_category": "Residential", "ev_permitted": false}, "geometry": {"type": "Polygon", "coordinates": [[[-73.9476485746961, 40.7846369890599], [-73.9474708573099, 40.7848799006777], [-73.9475619285286, 40.7849183989924], [-73.9477396447609, 40.7846754872352], [-73.9476485746961, 40.7846369890599]]]}}, {"type": "Feature", "properties": {"zone_id": "020157EAUEAPL90SD51GLK", "tract_id": "36061015602", "city": "NEW YORK, NY", "zone_code": "TA", "zone_category": "Other", "ev_permitted": false}, "geometry": {"type": "Polygon", "coordinates": [[[-73.9469312385602, 40.784730341332], [-73.9467939674794, 40.7849179668999], [-73.9471950630942, 40.7850875213964], [-73.9473762274116, 40.7848398983961], [-73.9473011390377, 40.7848081569177], [-73.9472572458987, 40.7848681531468], [-73.9469312385602, 40.784730341332]]]}}, {"type": "Feature", "properties": {"zone_id": "0200X6YH7GGVDEVAXJCQO1", "tract_id": "36061015602", "city": "NEW YORK, NY", "zone_code": "R7-2", "zone_category": "Residential", "ev_permitted": false}, "geometry": {"type": "Polygon", "coordinates": [[[-73.9474559512451, 40.7848735995269], [-73.9472747862081, 40.7851212226509], [-73.9473545149476, 40.7851549259605], [-73.9475356797793, 40.7849073034152], [-73.9474559512451, 40.7848735995269]]]}}, {"type": "Feature", "properties": {"zone_id": "0204HHSS16JUW11KG2FKGO", "tract_id": "36061015602", "city": "NEW YORK, NY", "zone_code": "R7-2", "zone_category": "Residential", "ev_permitted": false}, "geometry": {"type": "Polygon", "coordinates": [[[-73.9473762274116, 40.7848398983961], [-73.9471950630942, 40.7850875213964], [-73.9472747862081, 40.7851212226509], [-73.9474559512451, 40.7848735995269], [-73.9473762274116, 40.7848398983961]]]}}, {"type": "Feature", "properties": {"zone_id": "0205HY4YORXAH5DVDKVJBH", "tract_id": "36061015602", "city": "NEW YORK, NY", "zone_code": "TA", "zone_category": "Other", "ev_permitted": false}, "geometry": {"type": "Polygon", "coordinates": [[[-73.9475598418277, 40.7845994805071], [-73.9473821251424, 40.7848423919899], [-73.9474708573099, 40.7848799006777], [-73.9476485746961, 40.7846369890599], [-73.9475598418277, 40.7845994805071]]]}}, {"type": "Feature", "properties": {"zone_id": "02018THY59WZSVY4H6P5ZY", "tract_id": "36061015602", "city": "NEW YORK, NY", "zone_code": "TA", "zone_category": "Other", "ev_permitted": false}, "geometry": {"type": "Polygon", "coordinates": [[[-73.9474788540789, 40.7845652448551], [-73.9473011390377, 40.7848081569177], [-73.9473821251424, 40.7848423919899], [-73.9475598418277, 40.7845994805071], [-73.9474788540789, 40.7845652448551]]]}}, {"type": "Feature", "properties": {"zone_id": "020766XUF6OKOMNSP03SIY", "tract_id": "36061015602", "city": "NEW YORK, NY", "zone_code": "TA", "zone_category": "Other", "ev_permitted": false}, "geometry": {"type": "Polygon", "coordinates": [[[-73.9470187808496, 40.7846106848577], [-73.9469751328271, 40.7846703445236], [-73.9473011390377, 40.7848081569177], [-73.9473447868584, 40.7847484971296], [-73.9470187808496, 40.7846106848577]]]}}, {"type": "Feature", "properties": {"zone_id": "02041ECLLASBML3J9D63QM", "tract_id": "36061015602", "city": "NEW YORK, NY", "zone_code": "TA", "zone_category": "Other", "ev_permitted": false}, "geometry": {"type": "Polygon", "coordinates": [[[-73.9469751328271, 40.7846703445236], [-73.9469312385602, 40.784730341332], [-73.9472572458987, 40.7848681531468], [-73.9473011390377, 40.7848081569177], [-73.9469751328271, 40.7846703445236]]]}}, {"type": "Feature", "properties": {"zone_id": "0205O9LSXAM642CYOGMJ7E", "tract_id": "36061015602", "city": "NEW YORK, NY", "zone_code": "R7-2", "zone_category": "Residential", "ev_permitted": false}, "geometry": {"type": "Polygon", "coordinates": [[[-73.9443306580935, 40.78408203806], [-73.9435403058894, 40.7851655981651], [-73.9455883353825, 40.7860271919589], [-73.9463735585654, 40.7849439816585], [-73.9443306580935, 40.78408203806]]]}}, {"type": "Feature", "properties": {"zone_id": "0206YJUB8T98WWRWDN11C3", "tract_id": "36061015602", "city": "NEW YORK, NY", "zone_code": "TA", "zone_category": "Other", "ev_permitted": false}, "geometry": {"type": "Polygon", "coordinates": [[[-73.9471528505381, 40.784427433662], [-73.9471075286571, 40.7844893804467], [-73.9474334019204, 40.7846273729913], [-73.9474788540789, 40.7845652448551], [-73.9471528505381, 40.784427433662]]]}}, {"type": "Feature", "properties": {"zone_id": "02047JZLLAA5YDAX21HCZF", "tract_id": "36061015602", "city": "NEW YORK, NY", "zone_code": "TA", "zone_category": "Other", "ev_permitted": false}, "geometry": {"type": "Polygon", "coordinates": [[[-73.9471075286571, 40.7844893804467], [-73.9470639113321, 40.7845489994075], [-73.9473899171329, 40.7846868108505], [-73.9474334019204, 40.7846273729913], [-73.9471075286571, 40.7844893804467]]]}}, {"type": "Feature", "properties": {"zone_id": "0202JO7VS4O0I1OMI689Y6", "tract_id": "36061015602", "city": "NEW YORK, NY", "zone_code": "TA", "zone_category": "Other", "ev_permitted": false}, "geometry": {"type": "Polygon", "coordinates": [[[-73.9470639113321, 40.7845489994075], [-73.9470187808496, 40.7846106848577], [-73.9473447868584, 40.7847484971296], [-73.9473899171329, 40.7846868108505], [-73.9470639113321, 40.7845489994075]]]}}, {"type": "Feature", "properties": {"zone_id": "0202GKDV632EIBON83M55I", "tract_id": "36061015602", "city": "NEW YORK, NY", "zone_code": "TA", "zone_category": "Other", "ev_permitted": false}, "geometry": {"type": "Polygon", "coordinates": [[[-73.9448005651037, 40.7834369498832], [-73.9444467339607, 40.783924202548], [-73.9464958825543, 40.7847901451017], [-73.9468497033038, 40.7843028855078], [-73.9448005651037, 40.7834369498832]]]}}]}