{"type": "FeatureCollection", "features": [{"type": "Feature", "properties": {"zone_id": "020696U95186TNM74NLF3S", "tract_id": "36005038301", "city": "BRONX, NY", "zone_code": "C", "zone_category": "Other", "ev_permitted": false}, "geometry": {"type": "Polygon", "coordinates": [[[-73.8995583815349, 40.8569158889474], [-73.8994189911163, 40.8571473483859], [-73.8996962721683, 40.8572413576051], [-73.8998358492258, 40.8570095860243], [-73.8995583815349, 40.8569158889474]]]}}, {"type": "Feature", "properties": {"zone_id": "0204OORI7DPAKYX736FNMT", "tract_id": "36005038301", "city": "BRONX, NY", "zone_code": "R8", "zone_category": "Residential", "ev_permitted": false}, "geometry": {"type": "Polygon", "coordinates": [[[-73.8994673285666, 40.8564339659668], [-73.8994389146897, 40.8565022944047], [-73.9000226400771, 40.8566994127289], [-73.9000616358728, 40.8566346585321], [-73.8994673285666, 40.8564339659668]]]}}, {"type": "Feature", "properties": {"zone_id": "02017C5E0ET5681ULES2ML", "tract_id": "36005038301", "city": "BRONX, NY", "zone_code": "C", "zone_category": "Other", "ev_permitted": false}, "geometry": {"type": "Polygon", "coordinates": [[[-73.8996857663256, 40.8565856545644], [-73.8995739527149, 40.8567713236878], [-73.8993574445942, 40.8566982104242], [-73.8993028138947, 40.8568295845652], [-73.8998358492258, 40.8570095860243], [-73.9000226400771, 40.8566994127289], [-73.8996857663256, 40.8565856545644]]]}}, {"type": "Feature", "properties": {"zone_id": "0202ET4YEJ71VX0RZPPV6C", "tract_id": "36005038301", "city": "BRONX, NY", "zone_code": "R8", "zone_category": "Residential", "ev_permitted": false}, "geometry": {"type": "Polygon", "coordinates": [[[-73.8997999274326, 40.8563960862867], [-73.8997247623837, 40.8565208997774], [-73.9000616358728, 40.8566346585321], [-73.9001368004192, 40.8565098441217], [-73.8997999274326, 40.8563960862867]]]}}, {"type": "Feature", "properties": {"zone_id": "0202AXJ94LGGR6MS536TXW", "tract_id": "36005038301", "city": "BRONX, NY", "zone_code": "R8", "zone_category": "Residential", "ev_permitted": false}, "geometry": {"type": "Polygon", "coordinates": [[[-73.8995220951477, 40.8563022644255], [-73.8994673285666, 40.8564339659668], [-73.8997247623837, 40.8565208997774], [-73.8997999274326, 40.8563960862867], [-73.8995220951477, 40.8563022644255]]]}}, {"type": "Feature", "properties": {"zone_id": "0200BPKE34B38I5ND0NQB0", "tract_id": "36005038301", "city": "BRONX, NY", "zone_code": "R8", "zone_category": "Residential", "ev_permitted": false}, "geometry": {"type": "Polygon", "coordinates": [[[-73.8994389146897, 40.8565022944047], [-73.8994204203734, 40.8565467696959], [-73.8996603830835, 40.8566278037729], [-73.8996857663256, 40.8565856545644], [-73.8994389146897, 40.8565022944047]]]}}, {"type": "Feature", "properties": {"zone_id": "0205RHRGDUUJRXZ8KIAHBB", "tract_id": "36005038301", "city": "BRONX, NY", "zone_code": "R8", "zone_category": "Residential", "ev_permitted": false}, "geometry": {"type": "Polygon", "coordinates": [[[-73.8999537695371, 40.8558567213311], [-73.8998474902721, 40.8561123036974], [-73.9002868531299, 40.8562606723289], [-73.9004327160409, 40.8560184564037], [-73.8999537695371, 40.8558567213311]]]}}, {"type": "Feature", "properties": {"zone_id": "02075GIL546IFHJ38J3H8A", "tract_id": "36005038301", "city": "BRONX, NY", "zone_code": "R8", "zone_category": "Residential", "ev_permitted": false}, "geometry": {"type": "Polygon", "coordinates": [[[-73.8998745411194, 40.8562721892163], [-73.8997999274326, 40.8563960862867], [-73.9001368004192, 40.8565098441217], [-73.9002114117551, 40.8563859468344], [-73.8998745411194, 40.8562721892163]]]}}, {"type": "Feature", "properties": {"zone_id": "02030ZL7DB0F2FJN98AKXY", "tract_id": "36005038301", "city": "BRONX, NY", "zone_code": "R8", "zone_category": "Residential", "ev_permitted": false}, "geometry": {"type": "Polygon", "coordinates": [[[-73.8999705964372, 40.8561538756279], [-73.8998879834382, 40.8562767287191], [-73.9002114117551, 40.8563859468344], [-73.9002868531299, 40.8562606723289], [-73.8999705964372, 40.8561538756279]]]}}, {"type": "Feature", "properties": {"zone_id": "02068KRL4NBILNGDFZNDQK", "tract_id": "36005038301", "city": "BRONX, NY", "zone_code": "R8", "zone_category": "Residential", "ev_permitted": false}, "geometry": {"type": "Polygon", "coordinates": [[[-73.899956517772, 40.8561491212763], [-73.8998879834382, 40.8562767287191], [-73.8999705964372, 40.8561538756279], [-73.899956517772, 40.8561491212763]]]}}, {"type": "Feature", "properties": {"zone_id": "02008Z6CFX678K0RK96VVS", "tract_id": "36005038301", "city": "BRONX, NY", "zone_code": "R8", "zone_category": "Residential", "ev_permitted": false}, "geometry": {"type": "Polygon", "coordinates": [[[-73.8996314279703, 40.8560393409879], [-73.8995764593457, 40.8561715293432], [-73.8998879834382, 40.8562767287191], [-73.899956517772, 40.8561491212763], [-73.8996314279703, 40.8560393409879]]]}}, {"type": "Feature", "properties": {"zone_id": "0207LSLGSKF2R2XSBNVBR8", "tract_id": "36005038301", "city": "BRONX, NY", "zone_code": "R8", "zone_category": "Residential", "ev_permitted": false}, "geometry": {"type": "Polygon", "coordinates": [[[-73.8995764593457, 40.8561715293432], [-73.8995220951477, 40.8563022644255], [-73.8997999274326, 40.8563960862867], [-73.8998745411194, 40.8562721892163], [-73.8995764593457, 40.8561715293432]]]}}, {"type": "Feature", "properties": {"zone_id": "02035BPLTSF48JOS5E847R", "tract_id": "36005038301", "city": "BRONX, NY", "zone_code": "R8", "zone_category": "Residential", "ev_permitted": false}, "geometry": {"type": "Polygon", "coordinates": [[[-73.8997377070247, 40.855783758114], [-73.8996314279703, 40.8560393409879], [-73.8998474902721, 40.8561123036974], [-73.8999537695371, 40.8558567213311], [-73.8997377070247, 40.855783758114]]]}}, {"type": "Feature", "properties": {"zone_id": "020729OQCOY7PQPI0UHJWV", "tract_id": "36005038301", "city": "BRONX, NY", "zone_code": "R8", "zone_category": "Residential", "ev_permitted": false}, "geometry": {"type": "Polygon", "coordinates": [[[-73.8984871039112, 40.8587864970917], [-73.8983719228404, 40.8590691134906], [-73.8985824117037, 40.8591393333032], [-73.8987414813973, 40.8588715866273], [-73.8984871039112, 40.8587864970917]]]}}, {"type": "Feature", "properties": {"zone_id": "0202JCPLFAT44B6GFIWMOG", "tract_id": "36005038301", "city": "BRONX, NY", "zone_code": "R8", "zone_category": "Residential", "ev_permitted": false}, "geometry": {"type": "Polygon", "coordinates": [[[-73.8985866334224, 40.8585422810405], [-73.8984871039112, 40.8587864970917], [-73.8987414813973, 40.8588715866273], [-73.8988790167651, 40.858640084288], [-73.8985866334224, 40.8585422810405]]]}}, {"type": "Feature", "properties": {"zone_id": "0205VG54FVK3MUUC1FO3YC", "tract_id": "36005038301", "city": "BRONX, NY", "zone_code": "R8", "zone_category": "Residential", "ev_permitted": false}, "geometry": {"type": "Polygon", "coordinates": [[[-73.8978799778967, 40.8587404686491], [-73.8978316387846, 40.8588565897122], [-73.8981777021127, 40.8589916633951], [-73.8982448522319, 40.858830351393], [-73.8978799778967, 40.8587404686491]]]}}, {"type": "Feature", "properties": {"zone_id": "020067UL4ZKDKYHND3ISDG", "tract_id": "36005038301", "city": "BRONX, NY", "zone_code": "R8", "zone_category": "Residential", "ev_permitted": false}, "geometry": {"type": "Polygon", "coordinates": [[[-73.8979344520827, 40.8586096101215], [-73.8978799778967, 40.8587404686491], [-73.8982448522319, 40.858830351393], [-73.898299326699, 40.858699492696], [-73.8979344520827, 40.8586096101215]]]}}, {"type": "Feature", "properties": {"zone_id": "0201IQK4VBRRIO6SQ2BSF3", "tract_id": "36005038301", "city": "BRONX, NY", "zone_code": "R8", "zone_category": "Residential", "ev_permitted": false}, "geometry": {"type": "Polygon", "coordinates": [[[-73.8979877946884, 40.8584814669854], [-73.8979344520827, 40.8586096101215], [-73.898299326699, 40.858699492696], [-73.8983526686727, 40.8585713500958], [-73.8979877946884, 40.8584814669854]]]}}, {"type": "Feature", "properties": {"zone_id": "0202EBUYENGBXEPVO32557", "tract_id": "36005038301", "city": "BRONX, NY", "zone_code": "R8", "zone_category": "Residential", "ev_permitted": false}, "geometry": {"type": "Polygon", "coordinates": [[[-73.8976174212354, 40.858455030078], [-73.8975885439681, 40.8585243982424], [-73.8979344520827, 40.8586096101215], [-73.8979633281007, 40.8585402418708], [-73.8976174212354, 40.858455030078]]]}}, {"type": "Feature", "properties": {"zone_id": "0203CDM0MT5UYOU1EKRLLN", "tract_id": "36005038301", "city": "BRONX, NY", "zone_code": "R8", "zone_category": "Residential", "ev_permitted": false}, "geometry": {"type": "Polygon", "coordinates": [[[-73.8975885439681, 40.8585243982424], [-73.8975035633781, 40.8587285363257], [-73.8978316387846, 40.8588565897122], [-73.8979344520827, 40.8586096101215], [-73.8975885439681, 40.8585243982424]]]}}, {"type": "Feature", "properties": {"zone_id": "020601K6JVRXWBIERG3I45", "tract_id": "36005038301", "city": "BRONX, NY", "zone_code": "R8", "zone_category": "Residential", "ev_permitted": false}, "geometry": {"type": "Polygon", "coordinates": [[[-73.8988073160555, 40.8580155475372], [-73.8986440390143, 40.8584100742701], [-73.8989554460275, 40.8585154263776], [-73.8991780651599, 40.858140849253], [-73.8988073160555, 40.8580155475372]]]}}, {"type": "Feature", "properties": {"zone_id": "0200C1FVD4PHDL5YVM9GSE", "tract_id": "36005038301", "city": "BRONX, NY", "zone_code": "C", "zone_category": "Other", "ev_permitted": false}, "geometry": {"type": "Polygon", "coordinates": [[[-73.8988350778119, 40.8579484701086], [-73.8988073160555, 40.8580155475372], [-73.8991780651599, 40.858140849253], [-73.8992159069529, 40.8580771764199], [-73.8988350778119, 40.8579484701086]]]}}, {"type": "Feature", "properties": {"zone_id": "0205Z7O1UUT9IC3EUM9IV5", "tract_id": "36005038301", "city": "BRONX, NY", "zone_code": "R8", "zone_category": "Residential", "ev_permitted": false}, "geometry": {"type": "Polygon", "coordinates": [[[-73.8980968228063, 40.8582195573347], [-73.8980435668858, 40.858347571317], [-73.8984084402119, 40.8584374535505], [-73.8984616945767, 40.858309439401], [-73.8980968228063, 40.8582195573347]]]}}, {"type": "Feature", "properties": {"zone_id": "0204PDH5R5NX0K2HPHYS54", "tract_id": "36005038301", "city": "BRONX, NY", "zone_code": "R8", "zone_category": "Residential", "ev_permitted": false}, "geometry": {"type": "Polygon", "coordinates": [[[-73.8980435668858, 40.858347571317], [-73.8979877946884, 40.8584814669854], [-73.8983526686727, 40.8585713500958], [-73.8984084402119, 40.8584374535505], [-73.8980435668858, 40.858347571317]]]}}, {"type": "Feature", "properties": {"zone_id": "0207B44SGUU1HVHYNXGW0O", "tract_id": "36005038301", "city": "BRONX, NY", "zone_code": "R8", "zone_category": "Residential", "ev_permitted": false}, "geometry": {"type": "Polygon", "coordinates": [[[-73.8982598501876, 40.8578279204115], [-73.8981784514516, 40.8580234632189], [-73.898543323182, 40.858113345031], [-73.8986247209552, 40.8579178019693], [-73.8982598501876, 40.8578279204115]]]}}, {"type": "Feature", "properties": {"zone_id": "0206FJ4RHNNCZ0FH7ALKLJ", "tract_id": "36005038301", "city": "BRONX, NY", "zone_code": "R8", "zone_category": "Residential", "ev_permitted": false}, "geometry": {"type": "Polygon", "coordinates": [[[-73.8981784514516, 40.8580234632189], [-73.8980968228063, 40.8582195573347], [-73.8984616945767, 40.858309439401], [-73.898543323182, 40.858113345031], [-73.8981784514516, 40.8580234632189]]]}}, {"type": "Feature", "properties": {"zone_id": "02071L8LWL127761AALERZ", "tract_id": "36005038301", "city": "BRONX, NY", "zone_code": "R8", "zone_category": "Residential", "ev_permitted": false}, "geometry": {"type": "Polygon", "coordinates": [[[-73.8991343961488, 40.8572273032066], [-73.8989713890352, 40.8576190967032], [-73.8992786205516, 40.8577228921593], [-73.8994287380853, 40.857470285659], [-73.8995518427029, 40.8575119226664], [-73.8996228525202, 40.8573923713064], [-73.8991343961488, 40.8572273032066]]]}}, {"type": "Feature", "properties": {"zone_id": "0207E6EP765XN700WXPH5Y", "tract_id": "36005038301", "city": "BRONX, NY", "zone_code": "R8", "zone_category": "Residential", "ev_permitted": false}, "geometry": {"type": "Polygon", "coordinates": [[[-73.8989713890352, 40.8576190967032], [-73.8988350778119, 40.8579484701086], [-73.8992159069529, 40.8580771764199], [-73.8994017181425, 40.8577645272106], [-73.8989713890352, 40.8576190967032]]]}}, {"type": "Feature", "properties": {"zone_id": "0200QN4QD2Q8NL7051LDCH", "tract_id": "36005038301", "city": "BRONX, NY", "zone_code": "R8", "zone_category": "Residential", "ev_permitted": false}, "geometry": {"type": "Polygon", "coordinates": [[[-73.8994287380853, 40.857470285659], [-73.8992786205516, 40.8577228921593], [-73.8994017181425, 40.8577645272106], [-73.8995518427029, 40.8575119226664], [-73.8994287380853, 40.857470285659]]]}}, {"type": "Feature", "properties": {"zone_id": "02072U6ZNKE4K4Q0L0IV6N", "tract_id": "36005038301", "city": "BRONX, NY", "zone_code": "R8", "zone_category": "Residential", "ev_permitted": false}, "geometry": {"type": "Polygon", "coordinates": [[[-73.8983144566363, 40.8576967385853], [-73.8982598501876, 40.8578279204115], [-73.8986247209552, 40.8579178019693], [-73.8986789087733, 40.8577876278992], [-73.8983144566363, 40.8576967385853]]]}}, {"type": "Feature", "properties": {"zone_id": "0205OZMQ0COHIK8JVJT4AH", "tract_id": "36005038301", "city": "BRONX, NY", "zone_code": "R8", "zone_category": "Residential", "ev_permitted": false}, "geometry": {"type": "Polygon", "coordinates": [[[-73.8983702062801, 40.8575628118054], [-73.8983144566363, 40.8576967385853], [-73.8986789087733, 40.8577876278992], [-73.8987346559086, 40.8576537009437], [-73.8983702062801, 40.8575628118054]]]}}, {"type": "Feature", "properties": {"zone_id": "0205TIOAUZNXNO4T5SHD8V", "tract_id": "36005038301", "city": "BRONX, NY", "zone_code": "R8", "zone_category": "Residential", "ev_permitted": false}, "geometry": {"type": "Polygon", "coordinates": [[[-73.8980247061522, 40.8574766487883], [-73.8979689558859, 40.8576105747006], [-73.8983144566363, 40.8576967385853], [-73.8983702062801, 40.8575628118054], [-73.8980247061522, 40.8574766487883]]]}}, {"type": "Feature", "properties": {"zone_id": "0205IXPR7VDMGVUZ3Q9Y0L", "tract_id": "36005038301", "city": "BRONX, NY", "zone_code": "R8", "zone_category": "Residential", "ev_permitted": false}, "geometry": {"type": "Polygon", "coordinates": [[[-73.8977253732639, 40.8581957118736], [-73.8977041009773, 40.8582468096428], [-73.8980500059453, 40.858332021178], [-73.8980712770691, 40.8582809226424], [-73.8977253732639, 40.8581957118736]]]}}, {"type": "Feature", "properties": {"zone_id": "0202KLQGL251XGJ5E1YI1W", "tract_id": "36005038301", "city": "BRONX, NY", "zone_code": "R8", "zone_category": "Residential", "ev_permitted": false}, "geometry": {"type": "Polygon", "coordinates": [[[-73.8977041009773, 40.8582468096428], [-73.8976820316732, 40.8582998242155], [-73.8980279378152, 40.8583850351143], [-73.8980500059453, 40.858332021178], [-73.8977041009773, 40.8582468096428]]]}}, {"type": "Feature", "properties": {"zone_id": "0201YW1X82IN8N6DLNUUN4", "tract_id": "36005038301", "city": "BRONX, NY", "zone_code": "R8", "zone_category": "Residential", "ev_permitted": false}, "geometry": {"type": "Polygon", "coordinates": [[[-73.8976820316732, 40.8582998242155], [-73.8976607630305, 40.8583509163579], [-73.8980066694099, 40.8584361280223], [-73.8980279378152, 40.8583850351143], [-73.8976820316732, 40.8582998242155]]]}}, {"type": "Feature", "properties": {"zone_id": "02019RDLC65T5HI40VIFZT", "tract_id": "36005038301", "city": "BRONX, NY", "zone_code": "R8", "zone_category": "Residential", "ev_permitted": false}, "geometry": {"type": "Polygon", "coordinates": [[[-73.8976607630305, 40.8583509163579], [-73.8976386982975, 40.8584039224937], [-73.8979846039989, 40.8584891342227], [-73.8980066694099, 40.8584361280223], [-73.8976607630305, 40.8583509163579]]]}}, {"type": "Feature", "properties": {"zone_id": "02073RV20NXQV0CF7JLW24", "tract_id": "36005038301", "city": "BRONX, NY", "zone_code": "R8", "zone_category": "Residential", "ev_permitted": false}, "geometry": {"type": "Polygon", "coordinates": [[[-73.8976386982975, 40.8584039224937], [-73.8976174212354, 40.858455030078], [-73.8979633281007, 40.8585402418708], [-73.8979846039989, 40.8584891342227], [-73.8976386982975, 40.8584039224937]]]}}, {"type": "Feature", "properties": {"zone_id": "02067FA644WYRMZLS8X13W", "tract_id": "36005038301", "city": "BRONX, NY", "zone_code": "R8", "zone_category": "Residential", "ev_permitted": false}, "geometry": {"type": "Polygon", "coordinates": [[[-73.8978325497736, 40.8579382527684], [-73.8977509183622, 40.8581343466408], [-73.8980968228063, 40.8582195573347], [-73.8981784514516, 40.8580234632189], [-73.8978325497736, 40.8579382527684]]]}}, {"type": "Feature", "properties": {"zone_id": "02073JNIKP4EHUBEOMHTDS", "tract_id": "36005038301", "city": "BRONX, NY", "zone_code": "R8", "zone_category": "Residential", "ev_permitted": false}, "geometry": {"type": "Polygon", "coordinates": [[[-73.8977509183622, 40.8581343466408], [-73.8977253732639, 40.8581957118736], [-73.8980712770691, 40.8582809226424], [-73.8980968228063, 40.8582195573347], [-73.8977509183622, 40.8581343466408]]]}}, {"type": "Feature", "properties": {"zone_id": "0201OPJJ10LKZTI86ZYQCY", "tract_id": "36005038301", "city": "BRONX, NY", "zone_code": "R7-1", "zone_category": "Residential", "ev_permitted": false}, "geometry": {"type": "Polygon", "coordinates": [[[-73.8972790155414, 40.8583144120363], [-73.8971616385526, 40.8585959123116], [-73.8972670619199, 40.8586370694312], [-73.8973901976388, 40.8583417566842], [-73.8972790155414, 40.8583144120363]]]}}, {"type": "Feature", "properties": {"zone_id": "0202IODMNOJXEYSSLXRDNO", "tract_id": "36005038301", "city": "BRONX, NY", "zone_code": "R7-1", "zone_category": "Residential", "ev_permitted": false}, "geometry": {"type": "Polygon", "coordinates": [[[-73.8972102317015, 40.8582974950553], [-73.89709641864, 40.8585704493748], [-73.8971616385526, 40.8585959123116], [-73.8972790155414, 40.8583144120363], [-73.8972102317015, 40.8582974950553]]]}}, {"type": "Feature", "properties": {"zone_id": "0202I9NDE7OXNCL28IK42N", "tract_id": "36005038301", "city": "BRONX, NY", "zone_code": "R7-1", "zone_category": "Residential", "ev_permitted": false}, "geometry": {"type": "Polygon", "coordinates": [[[-73.8971407605493, 40.858280408786], [-73.8970305458008, 40.8585447321638], [-73.89709641864, 40.8585704493748], [-73.8972102317015, 40.8582974950553], [-73.8971407605493, 40.858280408786]]]}}, {"type": "Feature", "properties": {"zone_id": "0202MD4OO5UAOURA3DB4VP", "tract_id": "36005038301", "city": "BRONX, NY", "zone_code": "R7-1", "zone_category": "Residential", "ev_permitted": false}, "geometry": {"type": "Polygon", "coordinates": [[[-73.8970716335702, 40.8582634063964], [-73.8969649995001, 40.8585191423852], [-73.8970305458008, 40.8585447321638], [-73.8971407605493, 40.858280408786], [-73.8970716335702, 40.8582634063964]]]}}, {"type": "Feature", "properties": {"zone_id": "0200DIPXJ0WKAS30KULCXQ", "tract_id": "36005038301", "city": "BRONX, NY", "zone_code": "R7-1", "zone_category": "Residential", "ev_permitted": false}, "geometry": {"type": "Polygon", "coordinates": [[[-73.8970034742759, 40.8582466430254], [-73.896900370743, 40.8584939110347], [-73.8969649995001, 40.8585191423852], [-73.8970716335702, 40.8582634063964], [-73.8970034742759, 40.8582466430254]]]}}, {"type": "Feature", "properties": {"zone_id": "02055TM7YZTPAWCGW2TPZG", "tract_id": "36005038301", "city": "BRONX, NY", "zone_code": "R7-1", "zone_category": "Residential", "ev_permitted": false}, "geometry": {"type": "Polygon", "coordinates": [[[-73.8969799640497, 40.8581284233059], [-73.8968377592259, 40.8584694663046], [-73.896900370743, 40.8584939110347], [-73.8970459964217, 40.8581446641343], [-73.8969799640497, 40.8581284233059]]]}}, {"type": "Feature", "properties": {"zone_id": "020727288QGTOF6E3MPU0U", "tract_id": "36005038301", "city": "BRONX, NY", "zone_code": "R7-1", "zone_category": "Residential", "ev_permitted": false}, "geometry": {"type": "Polygon", "coordinates": [[[-73.8969104940588, 40.8581113368982], [-73.8967718865868, 40.8584437489455], [-73.8968377592259, 40.8584694663046], [-73.8969799640497, 40.8581284233059], [-73.8969104940588, 40.8581113368982]]]}}, {"type": "Feature", "properties": {"zone_id": "02016UJRUD4XB6AWGXORTW", "tract_id": "36005038301", "city": "BRONX, NY", "zone_code": "R7-1", "zone_category": "Residential", "ev_permitted": false}, "geometry": {"type": "Polygon", "coordinates": [[[-73.896842845613, 40.8580946989588], [-73.8967077426197, 40.8584187062289], [-73.8967718865868, 40.8584437489455], [-73.8969104940588, 40.8581113368982], [-73.896842845613, 40.8580946989588]]]}}, {"type": "Feature", "properties": {"zone_id": "02049KGIFV3G8UV71F35XY", "tract_id": "36005038301", "city": "BRONX, NY", "zone_code": "R7-1", "zone_category": "Residential", "ev_permitted": false}, "geometry": {"type": "Polygon", "coordinates": [[[-73.8971132697072, 40.8579833247692], [-73.8970034742759, 40.8582466430254], [-73.8973901976388, 40.8583417566842], [-73.8974999916971, 40.8580784373617], [-73.8971132697072, 40.8579833247692]]]}}, {"type": "Feature", "properties": {"zone_id": "0200WB2B12AKHKZTXMHQID", "tract_id": "36005038301", "city": "BRONX, NY", "zone_code": "R7-1", "zone_category": "Residential", "ev_permitted": false}, "geometry": {"type": "Polygon", "coordinates": [[[-73.8966616596046, 40.8579333840641], [-73.8966400754088, 40.85798522265], [-73.8970685379268, 40.8580906038661], [-73.8970901505008, 40.8580387722531], [-73.8966616596046, 40.8579333840641]]]}}, {"type": "Feature", "properties": {"zone_id": "0203IAXNMLSZX7XJ9SI9B6", "tract_id": "36005038301", "city": "BRONX, NY", "zone_code": "R7-1", "zone_category": "Residential", "ev_permitted": false}, "geometry": {"type": "Polygon", "coordinates": [[[-73.8966400754088, 40.85798522265], [-73.8966175631933, 40.858039290591], [-73.8970459964217, 40.8581446641343], [-73.8970685379268, 40.8580906038661], [-73.8966400754088, 40.85798522265]]]}}, {"type": "Feature", "properties": {"zone_id": "0207C0CWCXOC7ZMSE2ABZR", "tract_id": "36005038301", "city": "BRONX, NY", "zone_code": "R8", "zone_category": "Residential", "ev_permitted": false}, "geometry": {"type": "Polygon", "coordinates": [[[-73.8979689558859, 40.8576105747006], [-73.8979139503478, 40.857742710203], [-73.8982598501876, 40.8578279204115], [-73.8983144566363, 40.8576967385853], [-73.8979689558859, 40.8576105747006]]]}}, {"type": "Feature", "properties": {"zone_id": "0203XEIUIZHW3M75W8BDT5", "tract_id": "36005038301", "city": "BRONX, NY", "zone_code": "R8", "zone_category": "Residential", "ev_permitted": false}, "geometry": {"type": "Polygon", "coordinates": [[[-73.8979139503478, 40.857742710203], [-73.8978325497736, 40.8579382527684], [-73.8981784514516, 40.8580234632189], [-73.8982598501876, 40.8578279204115], [-73.8979139503478, 40.857742710203]]]}}, {"type": "Feature", "properties": {"zone_id": "02051FAIU5ITTXWVFTFRPN", "tract_id": "36005038301", "city": "BRONX, NY", "zone_code": "R7-1", "zone_category": "Residential", "ev_permitted": false}, "geometry": {"type": "Polygon", "coordinates": [[[-73.8973257952288, 40.8574265782521], [-73.8973130343143, 40.8574571824917], [-73.8972980932381, 40.8574535077155], [-73.8972448154744, 40.8575812845368], [-73.8976642687358, 40.8576844478184], [-73.8977303065228, 40.8575260672246], [-73.8973257952288, 40.8574265782521]]]}}, {"type": "Feature", "properties": {"zone_id": "020502H1DAXW9UTCRPFQ0S", "tract_id": "36005038301", "city": "BRONX, NY", "zone_code": "R7-1", "zone_category": "Residential", "ev_permitted": false}, "geometry": {"type": "Polygon", "coordinates": [[[-73.8972218892284, 40.8577228257617], [-73.8971940793326, 40.857789520525], [-73.8971163550581, 40.8577704039731], [-73.8970916958311, 40.8578295431818], [-73.8971694210942, 40.8578486590483], [-73.8971399613825, 40.8579193117244], [-73.8970622360464, 40.8579001951356], [-73.8970355452294, 40.8579642081635], [-73.8974999916971, 40.8580784373617], [-73.8976086089325, 40.8578179386963], [-73.8972218892284, 40.8577228257617]]]}}, {"type": "Feature", "properties": {"zone_id": "0200HEM6WXX7MW9FBMZI09", "tract_id": "36005038301", "city": "BRONX, NY", "zone_code": "R7-1", "zone_category": "Residential", "ev_permitted": false}, "geometry": {"type": "Polygon", "coordinates": [[[-73.8968222358302, 40.8575477229359], [-73.8966847495294, 40.8578779289094], [-73.8970355452294, 40.8579642081635], [-73.8970622360464, 40.8579001951356], [-73.8971399613825, 40.8579193117244], [-73.8971694210942, 40.8578486590483], [-73.8970916958311, 40.8578295431818], [-73.8971163550581, 40.8577704039731], [-73.8971940793326, 40.857789520525], [-73.8972218892284, 40.8577228257617], [-73.8971891549165, 40.857714774512], [-73.8972182020603, 40.8576451114785], [-73.8968222358302, 40.8575477229359]]]}}, {"type": "Feature", "properties": {"zone_id": "0206CIC7HSCKP9H02RB1RU", "tract_id": "36005038301", "city": "BRONX, NY", "zone_code": "R7-1", "zone_category": "Residential", "ev_permitted": false}, "geometry": {"type": "Polygon", "coordinates": [[[-73.8972182020603, 40.8576451114785], [-73.8971891549165, 40.857714774512], [-73.8976086089325, 40.8578179386963], [-73.897637655683, 40.8577482748558], [-73.8972182020603, 40.8576451114785]]]}}, {"type": "Feature", "properties": {"zone_id": "0200T3JIWKMXYSFF50I5LF", "tract_id": "36005038301", "city": "BRONX, NY", "zone_code": "R7-1", "zone_category": "Residential", "ev_permitted": false}, "geometry": {"type": "Polygon", "coordinates": [[[-73.8966847495294, 40.8578779289094], [-73.8966616596046, 40.8579333840641], [-73.8970901505008, 40.8580387722531], [-73.8971132697072, 40.8579833247692], [-73.8966847495294, 40.8578779289094]]]}}, {"type": "Feature", "properties": {"zone_id": "0207FBNVZGEMUJTOX9N13W", "tract_id": "36005038301", "city": "BRONX, NY", "zone_code": "R7-1", "zone_category": "Residential", "ev_permitted": false}, "geometry": {"type": "Polygon", "coordinates": [[[-73.8972448154744, 40.8575812845368], [-73.8972182020603, 40.8576451114785], [-73.897637655683, 40.8577482748558], [-73.8976642687358, 40.8576844478184], [-73.8972448154744, 40.8575812845368]]]}}, {"type": "Feature", "properties": {"zone_id": "020620WBKPZ8E8VEBYUMBL", "tract_id": "36005038301", "city": "BRONX, NY", "zone_code": "R7-1", "zone_category": "Residential", "ev_permitted": false}, "geometry": {"type": "Polygon", "coordinates": [[[-73.8968747891989, 40.8574215027196], [-73.8968222358302, 40.8575477229359], [-73.8972182020603, 40.8576451114785], [-73.8972708241363, 40.8575189080092], [-73.8968747891989, 40.8574215027196]]]}}, {"type": "Feature", "properties": {"zone_id": "02038K6RSNS0F6K7KN5P2A", "tract_id": "36005038301", "city": "BRONX, NY", "zone_code": "R7-1", "zone_category": "Residential", "ev_permitted": false}, "geometry": {"type": "Polygon", "coordinates": [[[-73.8967689037895, 40.8580765130457], [-73.8966376313108, 40.8583913337852], [-73.8967077426197, 40.8584187062289], [-73.896842845613, 40.8580946989588], [-73.8967689037895, 40.8580765130457]]]}}, {"type": "Feature", "properties": {"zone_id": "0200CXVADTAMSHS4ZYMY89", "tract_id": "36005038301", "city": "BRONX, NY", "zone_code": "R7-1", "zone_category": "Residential", "ev_permitted": false}, "geometry": {"type": "Polygon", "coordinates": [[[-73.8967021842089, 40.8580601028086], [-73.8965743679394, 40.8583666346732], [-73.8966376313108, 40.8583913337852], [-73.8967689037895, 40.8580765130457], [-73.8967021842089, 40.8580601028086]]]}}, {"type": "Feature", "properties": {"zone_id": "02034TPAA3LP33ZZ0WRBHI", "tract_id": "36005038301", "city": "BRONX, NY", "zone_code": "R7-1", "zone_category": "Residential", "ev_permitted": false}, "geometry": {"type": "Polygon", "coordinates": [[[-73.8966175631933, 40.858039290591], [-73.8964942845932, 40.8583353689879], [-73.8965743679394, 40.8583666346732], [-73.8967021842089, 40.8580601028086], [-73.8966175631933, 40.858039290591]]]}}, {"type": "Feature", "properties": {"zone_id": "0200LCZBAXEGV7ZQDEKEI3", "tract_id": "36005038301", "city": "BRONX, NY", "zone_code": "R7-1", "zone_category": "Residential", "ev_permitted": false}, "geometry": {"type": "Polygon", "coordinates": [[[-73.898696834011, 40.855913633379], [-73.8983399450389, 40.8567704755098], [-73.8990047953644, 40.856998228412], [-73.8993049549835, 40.8562772506998], [-73.8989617897651, 40.8561928132776], [-73.8990426320588, 40.8559987196288], [-73.898696834011, 40.855913633379]]]}}, {"type": "Feature", "properties": {"zone_id": "0207A41997ME8WMSPL6Z80", "tract_id": "36005038301", "city": "BRONX, NY", "zone_code": "C", "zone_category": "Other", "ev_permitted": false}, "geometry": {"type": "Polygon", "coordinates": [[[-73.8993028138947, 40.8568295845652], [-73.8992013576373, 40.8570735607211], [-73.8994189911163, 40.8571473483859], [-73.8995583815349, 40.8569158889474], [-73.8993028138947, 40.8568295845652]]]}}, {"type": "Feature", "properties": {"zone_id": "02064A8PCSMVZWL3TIHHK9", "tract_id": "36005038301", "city": "BRONX, NY", "zone_code": "PARK", "zone_category": "Other", "ev_permitted": false}, "geometry": {"type": "Polygon", "coordinates": [[[-73.8982507701541, 40.8569335845361], [-73.8980247061522, 40.8574766487883], [-73.8987346559086, 40.8576537009437], [-73.8989371718258, 40.8571671873635], [-73.8982507701541, 40.8569335845361]]]}}, {"type": "Feature", "properties": {"zone_id": "0200UKQS9SY5D4GAW7N2EZ", "tract_id": "36005038301", "city": "BRONX, NY", "zone_code": "R8", "zone_category": "Residential", "ev_permitted": false}, "geometry": {"type": "Polygon", "coordinates": [[[-73.899378538721, 40.8566474845836], [-73.8993574445942, 40.8566982104242], [-73.8995739527149, 40.8567713236878], [-73.8996029032789, 40.8567232508024], [-73.899378538721, 40.8566474845836]]]}}, {"type": "Feature", "properties": {"zone_id": "0201FAXN0IM4LE31P69DUW", "tract_id": "36005038301", "city": "BRONX, NY", "zone_code": "R8", "zone_category": "Residential", "ev_permitted": false}, "geometry": {"type": "Polygon", "coordinates": [[[-73.8994204203734, 40.8565467696959], [-73.8993986640732, 40.8565990878612], [-73.899630524333, 40.8566773851625], [-73.8996603830835, 40.8566278037729], [-73.8994204203734, 40.8565467696959]]]}}, {"type": "Feature", "properties": {"zone_id": "0202TB9147BXYK1OV16WP1", "tract_id": "36005038301", "city": "BRONX, NY", "zone_code": "R8", "zone_category": "Residential", "ev_permitted": false}, "geometry": {"type": "Polygon", "coordinates": [[[-73.8993986640732, 40.8565990878612], [-73.899378538721, 40.8566474845836], [-73.8996029032789, 40.8567232508024], [-73.899630524333, 40.8566773851625], [-73.8993986640732, 40.8565990878612]]]}}, {"type": "Feature", "properties": {"zone_id": "0204JCC3OG1W1EEMCH3TC3", "tract_id": "36005038301", "city": "BRONX, NY", "zone_code": "R7-1", "zone_category": "Residential", "ev_permitted": false}, "geometry": {"type": "Polygon", "coordinates": [[[-73.8974242177354, 40.8571905289875], [-73.8973909697151, 40.8572702691733], [-73.897795480157, 40.8573697572174], [-73.8978287277422, 40.8572900169165], [-73.8974242177354, 40.8571905289875]]]}}, {"type": "Feature", "properties": {"zone_id": "0205L0FIA7XVEENJ5V5CCR", "tract_id": "36005038301", "city": "BRONX, NY", "zone_code": "R7-1", "zone_category": "Residential", "ev_permitted": false}, "geometry": {"type": "Polygon", "coordinates": [[[-73.8973909697151, 40.8572702691733], [-73.8973574810381, 40.8573505853022], [-73.8977619919184, 40.8574500734624], [-73.897795480157, 40.8573697572174], [-73.8973909697151, 40.8572702691733]]]}}, {"type": "Feature", "properties": {"zone_id": "0206W34UWQU2AI9QDXPIHQ", "tract_id": "36005038301", "city": "BRONX, NY", "zone_code": "R7-1", "zone_category": "Residential", "ev_permitted": false}, "geometry": {"type": "Polygon", "coordinates": [[[-73.8973574810381, 40.8573505853022], [-73.8973257952288, 40.8574265782521], [-73.8977303065228, 40.8575260672246], [-73.8977619919184, 40.8574500734624], [-73.8973574810381, 40.8573505853022]]]}}, {"type": "Feature", "properties": {"zone_id": "0205EN3LB1S3T604FL2JZ4", "tract_id": "36005038301", "city": "BRONX, NY", "zone_code": "R7-1", "zone_category": "Residential", "ev_permitted": false}, "geometry": {"type": "Polygon", "coordinates": [[[-73.8975654186409, 40.8569405820831], [-73.8974977117356, 40.857070026944], [-73.8978811338118, 40.8571643287115], [-73.8979363048747, 40.8570320071575], [-73.8975654186409, 40.8569405820831]]]}}, {"type": "Feature", "properties": {"zone_id": "0203DO1JMK2B83TMJB2QKS", "tract_id": "36005038301", "city": "BRONX, NY", "zone_code": "R7-1", "zone_category": "Residential", "ev_permitted": false}, "geometry": {"type": "Polygon", "coordinates": [[[-73.8974977117356, 40.857070026944], [-73.8974334916981, 40.8571928095827], [-73.8978287277422, 40.8572900169165], [-73.8978811338118, 40.8571643287115], [-73.8974977117356, 40.857070026944]]]}}, {"type": "Feature", "properties": {"zone_id": "020522UW8T870P893DSU1L", "tract_id": "36005038301", "city": "BRONX, NY", "zone_code": "R7-1", "zone_category": "Residential", "ev_permitted": false}, "geometry": {"type": "Polygon", "coordinates": [[[-73.897041222618, 40.8570963307765], [-73.8969534981235, 40.857232461375], [-73.8969020225724, 40.8573560933517], [-73.8973130343143, 40.8574571824917], [-73.8974242177354, 40.8571905289875], [-73.897041222618, 40.8570963307765]]]}}, {"type": "Feature", "properties": {"zone_id": "0204YY4NVYD7URWKW0UI6Y", "tract_id": "36005038301", "city": "BRONX, NY", "zone_code": "R7-1", "zone_category": "Residential", "ev_permitted": false}, "geometry": {"type": "Polygon", "coordinates": [[[-73.8969020225724, 40.8573560933517], [-73.8968747891989, 40.8574215027196], [-73.8972708241363, 40.8575189080092], [-73.8972980932381, 40.8574535077155], [-73.8969020225724, 40.8573560933517]]]}}, {"type": "Feature", "properties": {"zone_id": "0203O396G2KRAZNB165KQ0", "tract_id": "36005038301", "city": "BRONX, NY", "zone_code": "R7-1", "zone_category": "Residential", "ev_permitted": false}, "geometry": {"type": "Polygon", "coordinates": [[[-73.897199684256, 40.8568504258663], [-73.8971183055906, 40.856976711885], [-73.8974977117356, 40.857070026944], [-73.8975654186409, 40.8569405820831], [-73.897199684256, 40.8568504258663]]]}}, {"type": "Feature", "properties": {"zone_id": "0202K1GLRTJL20CU454REA", "tract_id": "36005038301", "city": "BRONX, NY", "zone_code": "R7-1", "zone_category": "Residential", "ev_permitted": false}, "geometry": {"type": "Polygon", "coordinates": [[[-73.8971183055906, 40.856976711885], [-73.897041222618, 40.8570963307765], [-73.8974334916981, 40.8571928095827], [-73.8974977117356, 40.857070026944], [-73.8971183055906, 40.856976711885]]]}}, {"type": "Feature", "properties": {"zone_id": "02023BF6WU8PKBTLCURQA9", "tract_id": "36005038301", "city": "BRONX, NY", "zone_code": "R7-1", "zone_category": "Residential", "ev_permitted": false}, "geometry": {"type": "Polygon", "coordinates": [[[-73.8977976583168, 40.8567701404384], [-73.8976801274266, 40.8569690011232], [-73.8979363048747, 40.8570320071575], [-73.898014519467, 40.8568444177094], [-73.8977976583168, 40.8567701404384]]]}}, {"type": "Feature", "properties": {"zone_id": "02028XDROX2VWUFMZF2QPJ", "tract_id": "36005038301", "city": "BRONX, NY", "zone_code": "R7-1", "zone_category": "Residential", "ev_permitted": false}, "geometry": {"type": "Polygon", "coordinates": [[[-73.8975966520432, 40.8567012928115], [-73.8974692390652, 40.8569168730583], [-73.8976801274266, 40.8569690011232], [-73.8977976583168, 40.8567701404384], [-73.8975966520432, 40.8567012928115]]]}}, {"type": "Feature", "properties": {"zone_id": "0205OPLV4COTMMH4CMZ9W7", "tract_id": "36005038301", "city": "BRONX, NY", "zone_code": "R7-1", "zone_category": "Residential", "ev_permitted": false}, "geometry": {"type": "Polygon", "coordinates": [[[-73.8980899240883, 40.856439963104], [-73.8979688200158, 40.8566519104904], [-73.8980831725304, 40.8566909752769], [-73.8981754607046, 40.8564691850023], [-73.8980899240883, 40.856439963104]]]}}, {"type": "Feature", "properties": {"zone_id": "020487BT8XB0TIU1C7TXTT", "tract_id": "36005038301", "city": "BRONX, NY", "zone_code": "R7-1", "zone_category": "Residential", "ev_permitted": false}, "geometry": {"type": "Polygon", "coordinates": [[[-73.8979863512376, 40.8564045805742], [-73.8978652468995, 40.8566165278531], [-73.8979688200158, 40.8566519104904], [-73.8980899240883, 40.856439963104], [-73.8979863512376, 40.8564045805742]]]}}, {"type": "Feature", "properties": {"zone_id": "0201YYJE9PX67K6KM280ZA", "tract_id": "36005038301", "city": "BRONX, NY", "zone_code": "R7-1", "zone_category": "Residential", "ev_permitted": false}, "geometry": {"type": "Polygon", "coordinates": [[[-73.8978798131467, 40.8563681849243], [-73.897758707611, 40.8565801313893], [-73.8978652468995, 40.8566165278531], [-73.8979863512376, 40.8564045805742], [-73.8978798131467, 40.8563681849243]]]}}, {"type": "Feature", "properties": {"zone_id": "0203W8AAL7H9CV31ASJC2X", "tract_id": "36005038301", "city": "BRONX, NY", "zone_code": "R7-1", "zone_category": "Residential", "ev_permitted": false}, "geometry": {"type": "Polygon", "coordinates": [[[-73.8977766225198, 40.8563329318303], [-73.8976555176438, 40.8565448788917], [-73.897758707611, 40.8565801313893], [-73.8978798131467, 40.8563681849243], [-73.8977766225198, 40.8563329318303]]]}}, {"type": "Feature", "properties": {"zone_id": "0205NTU6T8Q8V9XEWENOF3", "tract_id": "36005038301", "city": "BRONX, NY", "zone_code": "R7-1", "zone_category": "Residential", "ev_permitted": false}, "geometry": {"type": "Polygon", "coordinates": [[[-73.897666461684, 40.85629529893], [-73.8975453556011, 40.8565072451738], [-73.8976555176438, 40.8565448788917], [-73.8977766225198, 40.8563329318303], [-73.897666461684, 40.85629529893]]]}}, {"type": "Feature", "properties": {"zone_id": "02045BMWVW3MNYRSXU1R1U", "tract_id": "36005038301", "city": "BRONX, NY", "zone_code": "R7-1", "zone_category": "Residential", "ev_permitted": false}, "geometry": {"type": "Polygon", "coordinates": [[[-73.897350184574, 40.8566168738551], [-73.897199684256, 40.8568504258663], [-73.8974692390652, 40.8569168730583], [-73.8975966520432, 40.8567012928115], [-73.897350184574, 40.8566168738551]]]}}, {"type": "Feature", "properties": {"zone_id": "0206LFKZJF82Z5EQYFYF1I", "tract_id": "36005038301", "city": "BRONX, NY", "zone_code": "R7-1", "zone_category": "Residential", "ev_permitted": false}, "geometry": {"type": "Polygon", "coordinates": [[[-73.8990979198578, 40.8558659788214], [-73.8990426320588, 40.8559987196288], [-73.8993857630761, 40.8560831483527], [-73.899441028059, 40.8559504017423], [-73.8990979198578, 40.8558659788214]]]}}, {"type": "Feature", "properties": {"zone_id": "0207CQ5QWIQ8LJ7KOCSICA", "tract_id": "36005038301", "city": "BRONX, NY", "zone_code": "R7-1", "zone_category": "Residential", "ev_permitted": false}, "geometry": {"type": "Polygon", "coordinates": [[[-73.8990426320588, 40.8559987196288], [-73.8989617897651, 40.8561928132776], [-73.8993049549835, 40.8562772506998], [-73.8993857630761, 40.8560831483527], [-73.8990426320588, 40.8559987196288]]]}}, {"type": "Feature", "properties": {"zone_id": "0203OOLJDY6PJ8ZQK136QR", "tract_id": "36005038301", "city": "BRONX, NY", "zone_code": "R7-1", "zone_category": "Residential", "ev_permitted": false}, "geometry": {"type": "Polygon", "coordinates": [[[-73.8980942633222, 40.8559133387924], [-73.8980656830734, 40.8560097422987], [-73.8983313417777, 40.856094562402], [-73.8983782040301, 40.8559819375365], [-73.8980942633222, 40.8559133387924]]]}}, {"type": "Feature", "properties": {"zone_id": "0201ERZFVC54H9SR825HEE", "tract_id": "36005038301", "city": "BRONX, NY", "zone_code": "R7-1", "zone_category": "Residential", "ev_permitted": false}, "geometry": {"type": "Polygon", "coordinates": [[[-73.8981380501975, 40.855853607751], [-73.8981050570878, 40.8559159467035], [-73.8983782040301, 40.8559819375365], [-73.8984058775078, 40.855915432062], [-73.8981380501975, 40.855853607751]]]}}, {"type": "Feature", "properties": {"zone_id": "0202P3Z0RP5K10PQKKQ2E1", "tract_id": "36005038301", "city": "BRONX, NY", "zone_code": "R7-1", "zone_category": "Residential", "ev_permitted": false}, "geometry": {"type": "Polygon", "coordinates": [[[-73.8980656830734, 40.8560097422987], [-73.8980141082738, 40.8560956574816], [-73.8982914604889, 40.8561904072364], [-73.8983313417777, 40.856094562402], [-73.8980656830734, 40.8560097422987]]]}}, {"type": "Feature", "properties": {"zone_id": "020298I9XOZU5DXCUCD772", "tract_id": "36005038301", "city": "BRONX, NY", "zone_code": "R7-1", "zone_category": "Residential", "ev_permitted": false}, "geometry": {"type": "Polygon", "coordinates": [[[-73.8992083424768, 40.855600859549], [-73.8991520668772, 40.8557359751911], [-73.8994951522761, 40.8558203916098], [-73.8995394980492, 40.855713870756], [-73.8992083424768, 40.855600859549]]]}}, {"type": "Feature", "properties": {"zone_id": "0201QT14ULE20BHTFNTB22", "tract_id": "36005038301", "city": "BRONX, NY", "zone_code": "R7-1", "zone_category": "Residential", "ev_permitted": false}, "geometry": {"type": "Polygon", "coordinates": [[[-73.8991520668772, 40.8557359751911], [-73.8990979198578, 40.8558659788214], [-73.899441028059, 40.8559504017423], [-73.8994951522761, 40.8558203916098], [-73.8991520668772, 40.8557359751911]]]}}, {"type": "Feature", "properties": {"zone_id": "0204DEPG74SXYLRVPYN2U4", "tract_id": "36005038301", "city": "BRONX, NY", "zone_code": "R7-1", "zone_category": "Residential", "ev_permitted": false}, "geometry": {"type": "Polygon", "coordinates": [[[-73.8988062700555, 40.8556508892654], [-73.898696834011, 40.855913633379], [-73.8990426320588, 40.8559987196288], [-73.8991520668772, 40.8557359751911], [-73.8988062700555, 40.8556508892654]]]}}, {"type": "Feature", "properties": {"zone_id": "0203H9X9OO4M54A6L6KST7", "tract_id": "36005038301", "city": "BRONX, NY", "zone_code": "R7-1", "zone_category": "Residential", "ev_permitted": false}, "geometry": {"type": "Polygon", "coordinates": [[[-73.8983297299309, 40.8554914464886], [-73.8983053916502, 40.855537430657], [-73.898540858541, 40.855591031895], [-73.8985604426393, 40.8555439656415], [-73.8983297299309, 40.8554914464886]]]}}, {"type": "Feature", "properties": {"zone_id": "0202N1R2QVEB3STKYDQ22W", "tract_id": "36005038301", "city": "BRONX, NY", "zone_code": "R7-1", "zone_category": "Residential", "ev_permitted": false}, "geometry": {"type": "Polygon", "coordinates": [[[-73.8980738723495, 40.8554914610318], [-73.8980466452407, 40.8555335077868], [-73.8982772889848, 40.8555905285824], [-73.8983001182274, 40.8555473944196], [-73.8980738723495, 40.8554914610318]]]}}, {"type": "Feature", "properties": {"zone_id": "02056ATIYZGHRU9DZVJYNU", "tract_id": "36005038301", "city": "BRONX, NY", "zone_code": "R7-1", "zone_category": "Residential", "ev_permitted": false}, "geometry": {"type": "Polygon", "coordinates": [[[-73.8983745938088, 40.8554066775812], [-73.8983511419147, 40.85545098814], [-73.8985776730935, 40.8555025557077], [-73.8985965438127, 40.855457202569], [-73.8983745938088, 40.8554066775812]]]}}, {"type": "Feature", "properties": {"zone_id": "02027DJ43KEHRXNFNMQOSR", "tract_id": "36005038301", "city": "BRONX, NY", "zone_code": "R7-1", "zone_category": "Residential", "ev_permitted": false}, "geometry": {"type": "Polygon", "coordinates": [[[-73.8983511419147, 40.85545098814], [-73.8983297299309, 40.8554914464886], [-73.8985604426393, 40.8555439656415], [-73.8985776730935, 40.8555025557077], [-73.8983511419147, 40.85545098814]]]}}, {"type": "Feature", "properties": {"zone_id": "0205N97BHWBHJQH5JLERRC", "tract_id": "36005038301", "city": "BRONX, NY", "zone_code": "R7-1", "zone_category": "Residential", "ev_permitted": false}, "geometry": {"type": "Polygon", "coordinates": [[[-73.8981049081606, 40.8554435379085], [-73.8980738723495, 40.8554914610318], [-73.8983001182274, 40.8555473944196], [-73.8983258644316, 40.8554987491749], [-73.8981049081606, 40.8554435379085]]]}}, {"type": "Feature", "properties": {"zone_id": "0206IS1S24CFMYEYTHKP4B", "tract_id": "36005038301", "city": "BRONX, NY", "zone_code": "R7-1", "zone_category": "Residential", "ev_permitted": false}, "geometry": {"type": "Polygon", "coordinates": [[[-73.8981328411006, 40.8554004019614], [-73.8981049081606, 40.8554435379085], [-73.8983258644316, 40.8554987491749], [-73.8983492903739, 40.8554544870813], [-73.8981328411006, 40.8554004019614]]]}}, {"type": "Feature", "properties": {"zone_id": "0202XST5QB2924J4VNZIM1", "tract_id": "36005038301", "city": "BRONX, NY", "zone_code": "R7-1", "zone_category": "Residential", "ev_permitted": false}, "geometry": {"type": "Polygon", "coordinates": [[[-73.8979591525717, 40.8561992010952], [-73.8979291657816, 40.8562519150253], [-73.8982242080949, 40.8563520333299], [-73.8982470575039, 40.8562971207803], [-73.8979591525717, 40.8561992010952]]]}}, {"type": "Feature", "properties": {"zone_id": "02047ISWQD0JGHTACM4FGQ", "tract_id": "36005038301", "city": "BRONX, NY", "zone_code": "R7-1", "zone_category": "Residential", "ev_permitted": false}, "geometry": {"type": "Polygon", "coordinates": [[[-73.8988745529037, 40.8554869471004], [-73.8988062700555, 40.8556508892654], [-73.8991520668772, 40.8557359751911], [-73.8992083424768, 40.855600859549], [-73.8988745529037, 40.8554869471004]]]}}, {"type": "Feature", "properties": {"zone_id": "0203FT23C9594LFAF94S0C", "tract_id": "36005038301", "city": "BRONX, NY", "zone_code": "R7-1", "zone_category": "Residential", "ev_permitted": false}, "geometry": {"type": "Polygon", "coordinates": [[[-73.8982051703593, 40.8557267919677], [-73.8981705123639, 40.8557922773165], [-73.898432004443, 40.8558526393948], [-73.898461772313, 40.855781097089], [-73.8982051703593, 40.8557267919677]]]}}, {"type": "Feature", "properties": {"zone_id": "0206GZNLG8GT7I2YV2TCXH", "tract_id": "36005038301", "city": "BRONX, NY", "zone_code": "R7-1", "zone_category": "Residential", "ev_permitted": false}, "geometry": {"type": "Polygon", "coordinates": [[[-73.8981705123639, 40.8557922773165], [-73.8981380501975, 40.855853607751], [-73.8984058775078, 40.855915432062], [-73.898432004443, 40.8558526393948], [-73.8981705123639, 40.8557922773165]]]}}, {"type": "Feature", "properties": {"zone_id": "0200G4CVD49MIKKSHDL0I6", "tract_id": "36005038301", "city": "BRONX, NY", "zone_code": "R7-1", "zone_category": "Residential", "ev_permitted": false}, "geometry": {"type": "Polygon", "coordinates": [[[-73.8982735775361, 40.8555975412107], [-73.8982365381838, 40.8556675242133], [-73.898486976818, 40.8557205246539], [-73.8985152584539, 40.8556525574832], [-73.8982735775361, 40.8555975412107]]]}}, {"type": "Feature", "properties": {"zone_id": "0206XXVWJKIRKH7FHGL9QB", "tract_id": "36005038301", "city": "BRONX, NY", "zone_code": "R7-1", "zone_category": "Residential", "ev_permitted": false}, "geometry": {"type": "Polygon", "coordinates": [[[-73.8982365381838, 40.8556675242133], [-73.8982051703593, 40.8557267919677], [-73.898461772313, 40.855781097089], [-73.898486976818, 40.8557205246539], [-73.8982365381838, 40.8556675242133]]]}}, {"type": "Feature", "properties": {"zone_id": "0205AI46QBVISNCBY4813U", "tract_id": "36005038301", "city": "BRONX, NY", "zone_code": "R7-1", "zone_category": "Residential", "ev_permitted": false}, "geometry": {"type": "Polygon", "coordinates": [[[-73.8983053916502, 40.855537430657], [-73.8982735775361, 40.8555975412107], [-73.8985152584539, 40.8556525574832], [-73.898540858541, 40.855591031895], [-73.8983053916502, 40.855537430657]]]}}, {"type": "Feature", "properties": {"zone_id": "02027TCHGQJ45VDACVJ1BG", "tract_id": "36005038301", "city": "BRONX, NY", "zone_code": "R7-1", "zone_category": "Residential", "ev_permitted": false}, "geometry": {"type": "Polygon", "coordinates": [[[-73.8979291657816, 40.8562519150253], [-73.8978984904254, 40.8563058375881], [-73.8982008124899, 40.856408258634], [-73.8982242080949, 40.8563520333299], [-73.8979291657816, 40.8562519150253]]]}}, {"type": "Feature", "properties": {"zone_id": "0205INKT50MLK7NY7STWEU", "tract_id": "36005038301", "city": "BRONX, NY", "zone_code": "R7-1", "zone_category": "Residential", "ev_permitted": false}, "geometry": {"type": "Polygon", "coordinates": [[[-73.8978984904254, 40.8563058375881], [-73.8978657550181, 40.8563633825561], [-73.8981754607046, 40.8564691850023], [-73.8982008124899, 40.856408258634], [-73.8978984904254, 40.8563058375881]]]}}, {"type": "Feature", "properties": {"zone_id": "0200D661KV89AGUJUVOYU7", "tract_id": "36005038301", "city": "BRONX, NY", "zone_code": "R7-1", "zone_category": "Residential", "ev_permitted": false}, "geometry": {"type": "Polygon", "coordinates": [[[-73.8980174130638, 40.8560967874438], [-73.8979890622944, 40.8561466241042], [-73.8982680557111, 40.856246653627], [-73.8982914604889, 40.8561904072364], [-73.8980174130638, 40.8560967874438]]]}}, {"type": "Feature", "properties": {"zone_id": "02051XP50Y5U5P3TFXJG8C", "tract_id": "36005038301", "city": "BRONX, NY", "zone_code": "R7-1", "zone_category": "Residential", "ev_permitted": false}, "geometry": {"type": "Polygon", "coordinates": [[[-73.8979890622944, 40.8561466241042], [-73.8979591525717, 40.8561992010952], [-73.8982470575039, 40.8562971207803], [-73.8982680557111, 40.856246653627], [-73.8979890622944, 40.8561466241042]]]}}, {"type": "Feature", "properties": {"zone_id": "020076BC8WFY5FNZ9NXI4W", "tract_id": "36005038301", "city": "BRONX, NY", "zone_code": "R7-1", "zone_category": "Residential", "ev_permitted": false}, "geometry": {"type": "Polygon", "coordinates": [[[-73.8975738173892, 40.8562636490319], [-73.8974394872411, 40.8564710780719], [-73.8975453556011, 40.8565072451738], [-73.897666461684, 40.85629529893], [-73.8975738173892, 40.8562636490319]]]}}, {"type": "Feature", "properties": {"zone_id": "0207057B794J3STE23PJ4F", "tract_id": "36005038301", "city": "BRONX, NY", "zone_code": "R7-1", "zone_category": "Residential", "ev_permitted": false}, "geometry": {"type": "Polygon", "coordinates": [[[-73.8976294823858, 40.8561776913027], [-73.8975738173892, 40.8562636490319], [-73.8978657550181, 40.8563633825561], [-73.89791575541, 40.85627548881], [-73.8976294823858, 40.8561776913027]]]}}, {"type": "Feature", "properties": {"zone_id": "02040OX0HWQE8SZ7HXO82G", "tract_id": "36005038301", "city": "BRONX, NY", "zone_code": "R7-1", "zone_category": "Residential", "ev_permitted": false}, "geometry": {"type": "Polygon", "coordinates": [[[-73.8976820109436, 40.8560965783047], [-73.8976294823858, 40.8561776913027], [-73.89791575541, 40.85627548881], [-73.8979629366412, 40.8561925497009], [-73.8976820109436, 40.8560965783047]]]}}, {"type": "Feature", "properties": {"zone_id": "0203JRRDJ1R5YRR2TQLTVA", "tract_id": "36005038301", "city": "BRONX, NY", "zone_code": "R7-1", "zone_category": "Residential", "ev_permitted": false}, "geometry": {"type": "Polygon", "coordinates": [[[-73.8977339058118, 40.8560164413952], [-73.8976820109436, 40.8560965783047], [-73.8979629366412, 40.8561925497009], [-73.8980095507942, 40.8561106078246], [-73.8977339058118, 40.8560164413952]]]}}, {"type": "Feature", "properties": {"zone_id": "0200640L3XVGH0EUOPL42V", "tract_id": "36005038301", "city": "BRONX, NY", "zone_code": "R7-1", "zone_category": "Residential", "ev_permitted": false}, "geometry": {"type": "Polygon", "coordinates": [[[-73.897788649266, 40.8559319084336], [-73.8977339058118, 40.8560164413952], [-73.8980095507942, 40.8561106078246], [-73.8980174130638, 40.8560967874438], [-73.8980141082738, 40.8560956574816], [-73.8980544596368, 40.8560284374675], [-73.897788649266, 40.8559319084336]]]}}, {"type": "Feature", "properties": {"zone_id": "0204X11BJHNBQFIGK1ODLR", "tract_id": "36005038301", "city": "BRONX, NY", "zone_code": "R7-1", "zone_category": "Residential", "ev_permitted": false}, "geometry": {"type": "Polygon", "coordinates": [[[-73.8978403936029, 40.8558520039159], [-73.897788649266, 40.8559319084336], [-73.8980544596368, 40.8560284374675], [-73.8980656830734, 40.8560097422987], [-73.8980942633222, 40.8559133387924], [-73.8978403936029, 40.8558520039159]]]}}, {"type": "Feature", "properties": {"zone_id": "0202X33MEDEBSRPFDGKNMJ", "tract_id": "36005038301", "city": "BRONX, NY", "zone_code": "R7-1", "zone_category": "Residential", "ev_permitted": false}, "geometry": {"type": "Polygon", "coordinates": [[[-73.8979578359583, 40.8556706472209], [-73.8979300827473, 40.8557135057384], [-73.8981795585539, 40.8557751822425], [-73.8982028287699, 40.8557312151537], [-73.8979578359583, 40.8556706472209]]]}}, {"type": "Feature", "properties": {"zone_id": "0205KKBNLBLQIM69CJVON9", "tract_id": "36005038301", "city": "BRONX, NY", "zone_code": "R7-1", "zone_category": "Residential", "ev_permitted": false}, "geometry": {"type": "Polygon", "coordinates": [[[-73.8980171139204, 40.8555791113904], [-73.8979878682652, 40.855624272573], [-73.89822800805, 40.8556836409641], [-73.8982525292726, 40.8556373112736], [-73.8980171139204, 40.8555791113904]]]}}, {"type": "Feature", "properties": {"zone_id": "02044TFXX3793ZUD3HAVSB", "tract_id": "36005038301", "city": "BRONX, NY", "zone_code": "R7-1", "zone_category": "Residential", "ev_permitted": false}, "geometry": {"type": "Polygon", "coordinates": [[[-73.897869258208, 40.8558074319534], [-73.8978403936029, 40.8558520039159], [-73.8981050570878, 40.8559159467035], [-73.8981285612837, 40.8558715378742], [-73.897869258208, 40.8558074319534]]]}}, {"type": "Feature", "properties": {"zone_id": "020721JOXL6EKX9HIT9TI8", "tract_id": "36005038301", "city": "BRONX, NY", "zone_code": "R7-1", "zone_category": "Residential", "ev_permitted": false}, "geometry": {"type": "Polygon", "coordinates": [[[-73.8978991412964, 40.8557612855567], [-73.897869258208, 40.8558074319534], [-73.8981285612837, 40.8558715378742], [-73.8981536163063, 40.8558241975728], [-73.8978991412964, 40.8557612855567]]]}}, {"type": "Feature", "properties": {"zone_id": "0201F39U3VRQYYYCZD3H7R", "tract_id": "36005038301", "city": "BRONX, NY", "zone_code": "R7-1", "zone_category": "Residential", "ev_permitted": false}, "geometry": {"type": "Polygon", "coordinates": [[[-73.8979300827473, 40.8557135057384], [-73.8978991412964, 40.8557612855567], [-73.8981536163063, 40.8558241975728], [-73.8981795585539, 40.8557751822425], [-73.8979300827473, 40.8557135057384]]]}}, {"type": "Feature", "properties": {"zone_id": "020126BC4NPN1RT1NLMU4D", "tract_id": "36005038301", "city": "BRONX, NY", "zone_code": "R7-1", "zone_category": "Residential", "ev_permitted": false}, "geometry": {"type": "Polygon", "coordinates": [[[-73.8979878682652, 40.855624272573], [-73.8979578359583, 40.8556706472209], [-73.8982028287699, 40.8557312151537], [-73.89822800805, 40.8556836409641], [-73.8979878682652, 40.855624272573]]]}}, {"type": "Feature", "properties": {"zone_id": "0200CCVMI91IKLT82MCKB4", "tract_id": "36005038301", "city": "BRONX, NY", "zone_code": "R7-1", "zone_category": "Residential", "ev_permitted": false}, "geometry": {"type": "Polygon", "coordinates": [[[-73.8980466452407, 40.8555335077868], [-73.8980171139204, 40.8555791113904], [-73.8982525292726, 40.8556373112736], [-73.8982772889848, 40.8555905285824], [-73.8980466452407, 40.8555335077868]]]}}, {"type": "Feature", "properties": {"zone_id": "02030OK7LO3WYOXDGGN5TT", "tract_id": "36005038301", "city": "BRONX, NY", "zone_code": "R7-1", "zone_category": "Residential", "ev_permitted": false}, "geometry": {"type": "Polygon", "coordinates": [[[-73.898223710788, 40.8552600791188], [-73.8981328411006, 40.8554004019614], [-73.8983492903739, 40.8554544870813], [-73.8983745938088, 40.8554066775812], [-73.8985965438127, 40.855457202569], [-73.8986213171074, 40.8553976633117], [-73.898223710788, 40.8552600791188]]]}}]}