{"type": "FeatureCollection", "features": [{"type": "Feature", "properties": {"zone_id": "0203CD0Y1YSJZSBJ15N5XT", "tract_id": "36081028300", "city": "FLUSHING, NY", "zone_code": "R4", "zone_category": "Residential", "ev_permitted": false}, "geometry": {"type": "Polygon", "coordinates": [[[-73.8861193846812, 40.7550640168107], [-73.8857568218392, 40.7551024661739], [-73.8858073526256, 40.7553794953347], [-73.8861702693863, 40.7553429812753], [-73.8861193846812, 40.7550640168107]]]}}, {"type": "Feature", "properties": {"zone_id": "0204I8N4725UBLJEN9F3J4", "tract_id": "36081028300", "city": "FLUSHING, NY", "zone_code": "R7-1", "zone_category": "Residential", "ev_permitted": false}, "geometry": {"type": "Polygon", "coordinates": [[[-73.885940093761, 40.7540810716594], [-73.8855790721377, 40.7541193575682], [-73.8856192245848, 40.7543394986832], [-73.8852605182832, 40.7543775378553], [-73.8853984007776, 40.7551404751413], [-73.8861193846812, 40.7550640168107], [-73.885940093761, 40.7540810716594]]]}}, {"type": "Feature", "properties": {"zone_id": "0206HJ8BTKKG9S5WSZEABC", "tract_id": "36081028300", "city": "FLUSHING, NY", "zone_code": "R4", "zone_category": "Residential", "ev_permitted": false}, "geometry": {"type": "Polygon", "coordinates": [[[-73.8857568218392, 40.7551024661739], [-73.8853984007776, 40.7551404751413], [-73.8854481303414, 40.7554156360042], [-73.8858073526256, 40.7553794953347], [-73.8857568218392, 40.7551024661739]]]}}, {"type": "Feature", "properties": {"zone_id": "02060FBUZJFFOB6YITAGBC", "tract_id": "36081028300", "city": "FLUSHING, NY", "zone_code": "R4", "zone_category": "Residential", "ev_permitted": false}, "geometry": {"type": "Polygon", "coordinates": [[[-73.8851866111741, 40.7551594369027], [-73.8850400864481, 40.755174761134], [-73.8850915393597, 40.7554597638578], [-73.8852380400004, 40.7554442954927], [-73.8851866111741, 40.7551594369027]]]}}, {"type": "Feature", "properties": {"zone_id": "0200PFFEKV9NUGNXXFDXRJ", "tract_id": "36081028300", "city": "FLUSHING, NY", "zone_code": "R4", "zone_category": "Residential", "ev_permitted": false}, "geometry": {"type": "Polygon", "coordinates": [[[-73.8850400864481, 40.755174761134], [-73.884467145352, 40.7552352557182], [-73.8845185967817, 40.755520259399], [-73.8850915393597, 40.7554597638578], [-73.8850400864481, 40.755174761134]]]}}, {"type": "Feature", "properties": {"zone_id": "0201DHL7EJCV4HCTGWWI2T", "tract_id": "36081028300", "city": "FLUSHING, NY", "zone_code": "R4", "zone_category": "Residential", "ev_permitted": false}, "geometry": {"type": "Polygon", "coordinates": [[[-73.885167739074, 40.7550549023027], [-73.8848115076054, 40.7550925167346], [-73.8848303535361, 40.755196905917], [-73.8851866111741, 40.7551594369027], [-73.885167739074, 40.7550549023027]]]}}, {"type": "Feature", "properties": {"zone_id": "02050ATC50VU0D3G3686QJ", "tract_id": "36081028300", "city": "FLUSHING, NY", "zone_code": "R4", "zone_category": "Residential", "ev_permitted": false}, "geometry": {"type": "Polygon", "coordinates": [[[-73.8847951081921, 40.7550016764898], [-73.8844319010522, 40.7550400261809], [-73.8844482999796, 40.7551308664769], [-73.8848115076054, 40.7550925167346], [-73.8847951081921, 40.7550016764898]]]}}, {"type": "Feature", "properties": {"zone_id": "0204WNPYV39IILRYHADD2W", "tract_id": "36081028300", "city": "FLUSHING, NY", "zone_code": "R4", "zone_category": "Residential", "ev_permitted": false}, "geometry": {"type": "Polygon", "coordinates": [[[-73.8848115076054, 40.7550925167346], [-73.8844482999796, 40.7551308664769], [-73.884467145352, 40.7552352557182], [-73.8848303535361, 40.755196905917], [-73.8848115076054, 40.7550925167346]]]}}, {"type": "Feature", "properties": {"zone_id": "0204TJFLFNCN7B9388NOOX", "tract_id": "36081028300", "city": "FLUSHING, NY", "zone_code": "R7-1", "zone_category": "Residential", "ev_permitted": false}, "geometry": {"type": "Polygon", "coordinates": [[[-73.8850173785053, 40.7542220471779], [-73.884661152331, 40.7542596604477], [-73.8847720430968, 40.7548739169715], [-73.8851282734186, 40.7548363026605], [-73.8850173785053, 40.7542220471779]]]}}, {"type": "Feature", "properties": {"zone_id": "02070NZR82C1LAGTYE513E", "tract_id": "36081028300", "city": "FLUSHING, NY", "zone_code": "R7-1", "zone_category": "Residential", "ev_permitted": false}, "geometry": {"type": "Polygon", "coordinates": [[[-73.8851282734186, 40.7548363026605], [-73.8847720430968, 40.7548739169715], [-73.8847915909013, 40.7549821925507], [-73.885147820866, 40.7549445788816], [-73.8851282734186, 40.7548363026605]]]}}, {"type": "Feature", "properties": {"zone_id": "0205FSR4H5MM5KSK80GJ1E", "tract_id": "36081028300", "city": "FLUSHING, NY", "zone_code": "R7-1", "zone_category": "Residential", "ev_permitted": false}, "geometry": {"type": "Polygon", "coordinates": [[[-73.885147820866, 40.7549445788816], [-73.8847915909013, 40.7549821925507], [-73.8848115076054, 40.7550925167346], [-73.885167739074, 40.7550549023027], [-73.885147820866, 40.7549445788816]]]}}, {"type": "Feature", "properties": {"zone_id": "0200050XR1LUKH6MDLYWG2", "tract_id": "36081028300", "city": "FLUSHING, NY", "zone_code": "R5", "zone_category": "Residential", "ev_permitted": false}, "geometry": {"type": "Polygon", "coordinates": [[[-73.8847749984185, 40.7548902868827], [-73.8844117927984, 40.754928636512], [-73.8844222162047, 40.7549863785531], [-73.8847854230565, 40.7549480295949], [-73.8847749984185, 40.7548902868827]]]}}, {"type": "Feature", "properties": {"zone_id": "0207DGB0HQ1T43FPP6QGVK", "tract_id": "36081028300", "city": "FLUSHING, NY", "zone_code": "R5", "zone_category": "Residential", "ev_permitted": false}, "geometry": {"type": "Polygon", "coordinates": [[[-73.8847854230565, 40.7549480295949], [-73.8844222162047, 40.7549863785531], [-73.8844319010522, 40.7550400261809], [-73.8847951081921, 40.7550016764898], [-73.8847854230565, 40.7549480295949]]]}}, {"type": "Feature", "properties": {"zone_id": "0201YS8NAALWYQ8F0JTI5T", "tract_id": "36081028300", "city": "FLUSHING, NY", "zone_code": "R5", "zone_category": "Residential", "ev_permitted": false}, "geometry": {"type": "Polygon", "coordinates": [[[-73.8847631652472, 40.7548247383651], [-73.884399959056, 40.7548630865512], [-73.8844117927984, 40.754928636512], [-73.8847749984185, 40.7548902868827], [-73.8847631652472, 40.7548247383651]]]}}, {"type": "Feature", "properties": {"zone_id": "0205SAR5NUAAQC52A0N7CX", "tract_id": "36081028300", "city": "FLUSHING, NY", "zone_code": "R5", "zone_category": "Residential", "ev_permitted": false}, "geometry": {"type": "Polygon", "coordinates": [[[-73.884750724376, 40.7547558256256], [-73.8843875185511, 40.7547941751782], [-73.884399959056, 40.7548630865512], [-73.8847631652472, 40.7548247383651], [-73.884750724376, 40.7547558256256]]]}}, {"type": "Feature", "properties": {"zone_id": "0202DD9HP1LDZBU5Z38UA8", "tract_id": "36081028300", "city": "FLUSHING, NY", "zone_code": "R5", "zone_category": "Residential", "ev_permitted": false}, "geometry": {"type": "Polygon", "coordinates": [[[-73.8847409065987, 40.7547014457226], [-73.8843777019885, 40.7547397952454], [-73.8843875185511, 40.7547941751782], [-73.884750724376, 40.7547558256256], [-73.8847409065987, 40.7547014457226]]]}}, {"type": "Feature", "properties": {"zone_id": "02014RCLUTSXFJZIUXAWMF", "tract_id": "36081028300", "city": "FLUSHING, NY", "zone_code": "R5", "zone_category": "Residential", "ev_permitted": false}, "geometry": {"type": "Polygon", "coordinates": [[[-73.8847308774208, 40.7546458928746], [-73.884367673109, 40.7546842416635], [-73.8843777019885, 40.7547397952454], [-73.8847409065987, 40.7547014457226], [-73.8847308774208, 40.7546458928746]]]}}, {"type": "Feature", "properties": {"zone_id": "0205X8GCA1X6TBGGULS69Q", "tract_id": "36081028300", "city": "FLUSHING, NY", "zone_code": "R5", "zone_category": "Residential", "ev_permitted": false}, "geometry": {"type": "Polygon", "coordinates": [[[-73.8847209141582, 40.7545907040669], [-73.8843577101415, 40.7546290528246], [-73.884367673109, 40.7546842416635], [-73.8847308774208, 40.7546458928746], [-73.8847209141582, 40.7545907040669]]]}}, {"type": "Feature", "properties": {"zone_id": "0205EEKMMCFOI83I3F89SE", "tract_id": "36081028300", "city": "FLUSHING, NY", "zone_code": "R5", "zone_category": "Residential", "ev_permitted": false}, "geometry": {"type": "Polygon", "coordinates": [[[-73.8847092842708, 40.7545262835064], [-73.8843460805988, 40.7545646322278], [-73.8843577101415, 40.7546290528246], [-73.8847209141582, 40.7545907040669], [-73.8847092842708, 40.7545262835064]]]}}, {"type": "Feature", "properties": {"zone_id": "0206UG1Y19HV3EFW8CEH6R", "tract_id": "36081028300", "city": "FLUSHING, NY", "zone_code": "R7-1", "zone_category": "Residential", "ev_permitted": false}, "geometry": {"type": "Polygon", "coordinates": [[[-73.8858804588401, 40.7537541238565], [-73.885161630137, 40.7538303530727], [-73.8852605182832, 40.7543775378553], [-73.8856192245848, 40.7543394986832], [-73.8855790721377, 40.7541193575682], [-73.885940093761, 40.7540810716594], [-73.8858804588401, 40.7537541238565]]]}}, {"type": "Feature", "properties": {"zone_id": "0202ONXLN3FFB0OVVY73ZU", "tract_id": "36081028300", "city": "FLUSHING, NY", "zone_code": "R7-1", "zone_category": "Residential", "ev_permitted": false}, "geometry": {"type": "Polygon", "coordinates": [[[-73.8845931147733, 40.7538827826958], [-73.884229913619, 40.7539211310536], [-73.8842979482358, 40.7542980097196], [-73.884661152331, 40.7542596604477], [-73.8845931147733, 40.7538827826958]]]}}, {"type": "Feature", "properties": {"zone_id": "0201ZKW1DF7Z3GVPITS1N4", "tract_id": "36081028300", "city": "FLUSHING, NY", "zone_code": "R7-1", "zone_category": "Residential", "ev_permitted": false}, "geometry": {"type": "Polygon", "coordinates": [[[-73.8849493389719, 40.7538451689318], [-73.8845931147733, 40.7538827826958], [-73.884661152331, 40.7542596604477], [-73.8850173785053, 40.7542220471779], [-73.8849493389719, 40.7538451689318]]]}}, {"type": "Feature", "properties": {"zone_id": "0201SOK5W6NTKZT02D9S6S", "tract_id": "36081028300", "city": "FLUSHING, NY", "zone_code": "R5", "zone_category": "Residential", "ev_permitted": false}, "geometry": {"type": "Polygon", "coordinates": [[[-73.8846973111938, 40.7544599619173], [-73.8843341069525, 40.7544983106004], [-73.8843460805988, 40.7545646322278], [-73.8847092842708, 40.7545262835064], [-73.8846973111938, 40.7544599619173]]]}}, {"type": "Feature", "properties": {"zone_id": "0206R01W7J6YJJACZTD305", "tract_id": "36081028300", "city": "FLUSHING, NY", "zone_code": "R5", "zone_category": "Residential", "ev_permitted": false}, "geometry": {"type": "Polygon", "coordinates": [[[-73.8846870642711, 40.75440319817], [-73.8843238594082, 40.7544415475229], [-73.8843341069525, 40.7544983106004], [-73.8846973111938, 40.7544599619173], [-73.8846870642711, 40.75440319817]]]}}, {"type": "Feature", "properties": {"zone_id": "0205C196S5LV011LFY1C79", "tract_id": "36081028300", "city": "FLUSHING, NY", "zone_code": "R5", "zone_category": "Residential", "ev_permitted": false}, "geometry": {"type": "Polygon", "coordinates": [[[-73.8846771752164, 40.7543484190789], [-73.8843139715716, 40.7543867676992], [-73.8843238594082, 40.7544415475229], [-73.8846870642711, 40.75440319817], [-73.8846771752164, 40.7543484190789]]]}}, {"type": "Feature", "properties": {"zone_id": "0206JJW6C46OFTC2KT0M33", "tract_id": "36081028300", "city": "FLUSHING, NY", "zone_code": "R5", "zone_category": "Residential", "ev_permitted": false}, "geometry": {"type": "Polygon", "coordinates": [[[-73.884661152331, 40.7542596604477], [-73.8842979482358, 40.7542980097196], [-73.8843139715716, 40.7543867676992], [-73.8846771752164, 40.7543484190789], [-73.884661152331, 40.7542596604477]]]}}, {"type": "Feature", "properties": {"zone_id": "0201W6RONMTHAHZ1421Q7G", "tract_id": "36081028300", "city": "FLUSHING, NY", "zone_code": "R7-1", "zone_category": "Residential", "ev_permitted": false}, "geometry": {"type": "Polygon", "coordinates": [[[-73.8848650451861, 40.7533662565051], [-73.8844994601568, 40.7534036406917], [-73.8845460445669, 40.7536619751805], [-73.8849115746145, 40.7536245964125], [-73.8848650451861, 40.7533662565051]]]}}, {"type": "Feature", "properties": {"zone_id": "02040LJDQMH5PPTJJ0CA9B", "tract_id": "36081028300", "city": "FLUSHING, NY", "zone_code": "R7-1", "zone_category": "Residential", "ev_permitted": false}, "geometry": {"type": "Polygon", "coordinates": [[[-73.8844994601568, 40.7534036406917], [-73.8841396636429, 40.7534404301752], [-73.8841862457594, 40.7536987648073], [-73.8845460445669, 40.7536619751805], [-73.8844994601568, 40.7534036406917]]]}}, {"type": "Feature", "properties": {"zone_id": "020656EHNEETQH5LNXATM0", "tract_id": "36081028300", "city": "FLUSHING, NY", "zone_code": "R7-1", "zone_category": "Residential", "ev_permitted": false}, "geometry": {"type": "Polygon", "coordinates": [[[-73.8857511952158, 40.7530344032502], [-73.8853907624975, 40.7530719745524], [-73.8854789510682, 40.7535586948797], [-73.8858401703513, 40.7535230268728], [-73.8857511952158, 40.7530344032502]]]}}, {"type": "Feature", "properties": {"zone_id": "0206VYUJXMRUGIZLD0UAY4", "tract_id": "36081028300", "city": "FLUSHING, NY", "zone_code": "R7-1", "zone_category": "Residential", "ev_permitted": false}, "geometry": {"type": "Polygon", "coordinates": [[[-73.8854191175418, 40.7532284694271], [-73.8852367270006, 40.753247480194], [-73.8852963811563, 40.7535767211422], [-73.8854789510682, 40.7535586948797], [-73.8854191175418, 40.7532284694271]]]}}, {"type": "Feature", "properties": {"zone_id": "0204NQ1H6JOH1VRQOPDS5D", "tract_id": "36081028300", "city": "FLUSHING, NY", "zone_code": "R7-1", "zone_category": "Residential", "ev_permitted": false}, "geometry": {"type": "Polygon", "coordinates": [[[-73.8852367270006, 40.753247480194], [-73.8850569757473, 40.7532662157568], [-73.8851164532981, 40.7535944862545], [-73.8852963811563, 40.7535767211422], [-73.8852367270006, 40.753247480194]]]}}, {"type": "Feature", "properties": {"zone_id": "0201A0ZME6D1WO1EUMG08X", "tract_id": "36081028300", "city": "FLUSHING, NY", "zone_code": "R7-1", "zone_category": "Residential", "ev_permitted": false}, "geometry": {"type": "Polygon", "coordinates": [[[-73.8847752628904, 40.7528677667199], [-73.8840497776256, 40.7529419509627], [-73.8840691065828, 40.7530491471971], [-73.8844289010247, 40.7530123565265], [-73.8844994601568, 40.7534036406917], [-73.8848650451861, 40.7533662565051], [-73.8847752628904, 40.7528677667199]]]}}, {"type": "Feature", "properties": {"zone_id": "0203RA35QNE6FREWJJXHVA", "tract_id": "36081028300", "city": "FLUSHING, NY", "zone_code": "R7-1", "zone_category": "Residential", "ev_permitted": false}, "geometry": {"type": "Polygon", "coordinates": [[[-73.8856235057585, 40.7523331610205], [-73.8852636950165, 40.7523706664931], [-73.8853907624975, 40.7530719745524], [-73.8857511952158, 40.7530344032502], [-73.8856235057585, 40.7523331610205]]]}}, {"type": "Feature", "properties": {"zone_id": "02057ZCATR1ZH2ILNQ3RTH", "tract_id": "36081028300", "city": "FLUSHING, NY", "zone_code": "R7-1", "zone_category": "Residential", "ev_permitted": false}, "geometry": {"type": "Polygon", "coordinates": [[[-73.8853030227938, 40.7525877215932], [-73.8849408834917, 40.7526254682632], [-73.8850569757473, 40.7532662157568], [-73.8854191175418, 40.7532284694271], [-73.8853030227938, 40.7525877215932]]]}}, {"type": "Feature", "properties": {"zone_id": "0201MEDKILKA84FEGI2HRZ", "tract_id": "36081028300", "city": "FLUSHING, NY", "zone_code": "R7-1", "zone_category": "Residential", "ev_permitted": false}, "geometry": {"type": "Polygon", "coordinates": [[[-73.8847553482634, 40.7527571951608], [-73.8843895308593, 40.7527946019536], [-73.8844094689174, 40.7529051714915], [-73.8847752628904, 40.7528677667199], [-73.8847553482634, 40.7527571951608]]]}}, {"type": "Feature", "properties": {"zone_id": "0200202SL4FZC6AQ6G5QNT", "tract_id": "36081028300", "city": "FLUSHING, NY", "zone_code": "R7-1", "zone_category": "Residential", "ev_permitted": false}, "geometry": {"type": "Polygon", "coordinates": [[[-73.8847359379684, 40.7526494255896], [-73.884370098042, 40.7526868344061], [-73.8843895308593, 40.7527946019536], [-73.8847553482634, 40.7527571951608], [-73.8847359379684, 40.7526494255896]]]}}, {"type": "Feature", "properties": {"zone_id": "0207DJKKCMB379PY3KMPHX", "tract_id": "36081028300", "city": "FLUSHING, NY", "zone_code": "R7-1", "zone_category": "Residential", "ev_permitted": false}, "geometry": {"type": "Polygon", "coordinates": [[[-73.8847162074285, 40.7525398730552], [-73.8843503440643, 40.7525772845962], [-73.884370098042, 40.7526868344061], [-73.8847359379684, 40.7526494255896], [-73.8847162074285, 40.7525398730552]]]}}, {"type": "Feature", "properties": {"zone_id": "0207FOATN1JS7KXOG2XKMB", "tract_id": "36081028300", "city": "FLUSHING, NY", "zone_code": "R7-1", "zone_category": "Residential", "ev_permitted": false}, "geometry": {"type": "Polygon", "coordinates": [[[-73.8846968659053, 40.7524324808689], [-73.8843309790918, 40.7524698951355], [-73.8843503440643, 40.7525772845962], [-73.8847162074285, 40.7525398730552], [-73.8846968659053, 40.7524324808689]]]}}, {"type": "Feature", "properties": {"zone_id": "02075NCXVKKMQZ5FABSZHO", "tract_id": "36081028300", "city": "", "zone_code": "R7-1", "zone_category": "Residential", "ev_permitted": false}, "geometry": {"type": "Polygon", "coordinates": [[[-73.8844289010247, 40.7530123565265], [-73.8840691065828, 40.7530491471971], [-73.8841396636429, 40.7534404301752], [-73.8844994601568, 40.7534036406917], [-73.8844289010247, 40.7530123565265]]]}}, {"type": "Feature", "properties": {"zone_id": "0200O9DJUSLME2B1QIIGBP", "tract_id": "36081028300", "city": "FLUSHING, NY", "zone_code": "R5", "zone_category": "Residential", "ev_permitted": false}, "geometry": {"type": "Polygon", "coordinates": [[[-73.8843739582419, 40.7527082425803], [-73.8840142679938, 40.7527450219417], [-73.8840234945078, 40.7527961922989], [-73.8843831850272, 40.752759412909], [-73.8843739582419, 40.7527082425803]]]}}, {"type": "Feature", "properties": {"zone_id": "0202OHNBIXFEDT56VIEKB1", "tract_id": "36081028300", "city": "FLUSHING, NY", "zone_code": "R5", "zone_category": "Residential", "ev_permitted": false}, "geometry": {"type": "Polygon", "coordinates": [[[-73.8843920604023, 40.7528086323115], [-73.8840323696221, 40.7528454117288], [-73.8840497776256, 40.7529419509627], [-73.8844094689174, 40.7529051714915], [-73.8843920604023, 40.7528086323115]]]}}, {"type": "Feature", "properties": {"zone_id": "0203W2GNRA6ODPGAN47NVC", "tract_id": "36081028300", "city": "FLUSHING, NY", "zone_code": "R5", "zone_category": "Residential", "ev_permitted": false}, "geometry": {"type": "Polygon", "coordinates": [[[-73.8843831850272, 40.752759412909], [-73.8840234945078, 40.7527961922989], [-73.8840323696221, 40.7528454117288], [-73.8843920604023, 40.7528086323115], [-73.8843831850272, 40.752759412909]]]}}, {"type": "Feature", "properties": {"zone_id": "0200F40UZ05A6KXUWNDTXT", "tract_id": "36081028300", "city": "FLUSHING, NY", "zone_code": "R5", "zone_category": "Residential", "ev_permitted": false}, "geometry": {"type": "Polygon", "coordinates": [[[-73.8843643864442, 40.7526551627886], [-73.8840046964774, 40.7526919421203], [-73.8840142679938, 40.7527450219417], [-73.8843739582419, 40.7527082425803], [-73.8843643864442, 40.7526551627886]]]}}, {"type": "Feature", "properties": {"zone_id": "0206504SR7V8SS7L8IXNYC", "tract_id": "36081028300", "city": "FLUSHING, NY", "zone_code": "R5", "zone_category": "Residential", "ev_permitted": false}, "geometry": {"type": "Polygon", "coordinates": [[[-73.8843503440643, 40.7525772845962], [-73.8839906545102, 40.7526140638845], [-73.8840046964774, 40.7526919421203], [-73.8843643864442, 40.7526551627886], [-73.8843503440643, 40.7525772845962]]]}}, {"type": "Feature", "properties": {"zone_id": "0201UL3FGWD2A6W9RWB595", "tract_id": "36081028300", "city": "FLUSHING, NY", "zone_code": "R5", "zone_category": "Residential", "ev_permitted": false}, "geometry": {"type": "Polygon", "coordinates": [[[-73.8843273339861, 40.7524496781766], [-73.8839676460312, 40.7524864580973], [-73.8839765503402, 40.7525358440926], [-73.8843362394784, 40.7524990655506], [-73.8843273339861, 40.7524496781766]]]}}, {"type": "Feature", "properties": {"zone_id": "02028FTWAMT6KWBC746JUQ", "tract_id": "36081028300", "city": "FLUSHING, NY", "zone_code": "R5", "zone_category": "Residential", "ev_permitted": false}, "geometry": {"type": "Polygon", "coordinates": [[[-73.8843362394784, 40.7524990655506], [-73.8839765503402, 40.7525358440926], [-73.8839906545102, 40.7526140638845], [-73.8843503440643, 40.7525772845962], [-73.8843362394784, 40.7524990655506]]]}}, {"type": "Feature", "properties": {"zone_id": "0201ZN4KA1H9N4LVJZ6J8N", "tract_id": "36081028300", "city": "FLUSHING, NY", "zone_code": "R7-1", "zone_category": "Residential", "ev_permitted": false}, "geometry": {"type": "Polygon", "coordinates": [[[-73.8855269704181, 40.7518029935369], [-73.8848054947823, 40.7518781962394], [-73.8848620611961, 40.7521904188804], [-73.8852241981778, 40.7521526724559], [-73.8852636950165, 40.7523706664931], [-73.8856235057585, 40.7523331610205], [-73.8855269704181, 40.7518029935369]]]}}, {"type": "Feature", "properties": {"zone_id": "0205VNUNIGZRPGAXYBFX5N", "tract_id": "36081028300", "city": "", "zone_code": "R7-1", "zone_category": "Residential", "ev_permitted": false}, "geometry": {"type": "Polygon", "coordinates": [[[-73.8852241981778, 40.7521526724559], [-73.8848620611961, 40.7521904188804], [-73.8849408834917, 40.7526254682632], [-73.8853030227938, 40.7525877215932], [-73.8852241981778, 40.7521526724559]]]}}, {"type": "Feature", "properties": {"zone_id": "020264XM967EKEE32411AU", "tract_id": "36081028300", "city": "FLUSHING, NY", "zone_code": "R7-1", "zone_category": "Residential", "ev_permitted": false}, "geometry": {"type": "Polygon", "coordinates": [[[-73.8846767318924, 40.752320691367], [-73.8843108225773, 40.7523581083576], [-73.8843309790918, 40.7524698951355], [-73.8846968659053, 40.7524324808689], [-73.8846767318924, 40.752320691367]]]}}, {"type": "Feature", "properties": {"zone_id": "0200Z9CVQ96Y7AEUQWDLX4", "tract_id": "36081028300", "city": "FLUSHING, NY", "zone_code": "R7-1", "zone_category": "Residential", "ev_permitted": false}, "geometry": {"type": "Polygon", "coordinates": [[[-73.8846566464554, 40.7522091689175], [-73.8842907127906, 40.7522465879278], [-73.8843108225773, 40.7523581083576], [-73.8846767318924, 40.752320691367], [-73.8846566464554, 40.7522091689175]]]}}, {"type": "Feature", "properties": {"zone_id": "0206OKHDL8TDO1MBJW0Z93", "tract_id": "36081028300", "city": "FLUSHING, NY", "zone_code": "R7-1", "zone_category": "Residential", "ev_permitted": false}, "geometry": {"type": "Polygon", "coordinates": [[[-73.8846005774393, 40.7518978523972], [-73.8842344892146, 40.7519347897549], [-73.8842907127906, 40.7522465879278], [-73.8846566464554, 40.7522091689175], [-73.8846005774393, 40.7518978523972]]]}}, {"type": "Feature", "properties": {"zone_id": "020428TST86QMOFX5TUAE5", "tract_id": "36081028300", "city": "FLUSHING, NY", "zone_code": "R7-1", "zone_category": "Residential", "ev_permitted": false}, "geometry": {"type": "Polygon", "coordinates": [[[-73.8854216062145, 40.7512309739908], [-73.8850686595371, 40.7512681477044], [-73.8850787345551, 40.751323241059], [-73.8847141117049, 40.7513616429269], [-73.8847721983895, 40.7516785081995], [-73.8854896357011, 40.7516029475524], [-73.8854216062145, 40.7512309739908]]]}}, {"type": "Feature", "properties": {"zone_id": "02053LKVQ1DE44DWBLMASR", "tract_id": "36081028300", "city": "FLUSHING, NY", "zone_code": "R7-1", "zone_category": "Residential", "ev_permitted": false}, "geometry": {"type": "Polygon", "coordinates": [[[-73.8845387852034, 40.751569341731], [-73.8843023936065, 40.7515933524854], [-73.8843267180919, 40.7517279095123], [-73.8845631101575, 40.7517038987084], [-73.8845387852034, 40.751569341731]]]}}, {"type": "Feature", "properties": {"zone_id": "0201SA9VO8WNSGQAQMKKXX", "tract_id": "36081028300", "city": "FLUSHING, NY", "zone_code": "R5", "zone_category": "Residential", "ev_permitted": false}, "geometry": {"type": "Polygon", "coordinates": [[[-73.884317185708, 40.7523934014188], [-73.8839574971285, 40.7524301806045], [-73.8839676460312, 40.7524864580973], [-73.8843273339861, 40.7524496781766], [-73.884317185708, 40.7523934014188]]]}}, {"type": "Feature", "properties": {"zone_id": "02026RU869CG90XUB9T5M1", "tract_id": "36081028300", "city": "FLUSHING, NY", "zone_code": "R5", "zone_category": "Residential", "ev_permitted": false}, "geometry": {"type": "Polygon", "coordinates": [[[-73.8843081933021, 40.752343532636], [-73.8839485049881, 40.7523803110913], [-73.8839574971285, 40.7524301806045], [-73.884317185708, 40.7523934014188], [-73.8843081933021, 40.752343532636]]]}}, {"type": "Feature", "properties": {"zone_id": "0204ASB4G2ZREZTAXQ7N51", "tract_id": "36081028300", "city": "FLUSHING, NY", "zone_code": "R5", "zone_category": "Residential", "ev_permitted": false}, "geometry": {"type": "Polygon", "coordinates": [[[-73.8842907127906, 40.7522465879278], [-73.8839310249892, 40.7522833670316], [-73.8839485049881, 40.7523803110913], [-73.8843081933021, 40.752343532636], [-73.8842907127906, 40.7522465879278]]]}}, {"type": "Feature", "properties": {"zone_id": "0200HHAQ4P4QRU3WJ8G4J5", "tract_id": "36081028300", "city": "FLUSHING, NY", "zone_code": "R7-1", "zone_category": "Residential", "ev_permitted": false}, "geometry": {"type": "Polygon", "coordinates": [[[-73.8842344892146, 40.7519347897549], [-73.883874717049, 40.7519710886842], [-73.8839310249892, 40.7522833670316], [-73.8842907127906, 40.7522465879278], [-73.8842344892146, 40.7519347897549]]]}}, {"type": "Feature", "properties": {"zone_id": "0202LASB678AC9KQHNCN1O", "tract_id": "36081028300", "city": "FLUSHING, NY", "zone_code": "R7-1", "zone_category": "Residential", "ev_permitted": false}, "geometry": {"type": "Polygon", "coordinates": [[[-73.8863725207791, 40.7511919404615], [-73.8856310046375, 40.7512671067804], [-73.8856874554458, 40.7515802683762], [-73.8864293945615, 40.7515050599517], [-73.8863725207791, 40.7511919404615]]]}}, {"type": "Feature", "properties": {"zone_id": "0201N909JE9XN55GV3F8HH", "tract_id": "36081028300", "city": "FLUSHING, NY", "zone_code": "R7-1", "zone_category": "Residential", "ev_permitted": false}, "geometry": {"type": "Polygon", "coordinates": [[[-73.886340059234, 40.7510132279614], [-73.8859776554722, 40.7510499651023], [-73.8860101151391, 40.7512286777026], [-73.8863725207791, 40.7511919404615], [-73.886340059234, 40.7510132279614]]]}}, {"type": "Feature", "properties": {"zone_id": "02038UOU05LWGSRD711GOF", "tract_id": "36081028300", "city": "FLUSHING, NY", "zone_code": "R7-1", "zone_category": "Residential", "ev_permitted": false}, "geometry": {"type": "Polygon", "coordinates": [[[-73.8863091164408, 40.7508428750386], [-73.8859467145127, 40.7508796120839], [-73.8859776554722, 40.7510499651023], [-73.886340059234, 40.7510132279614], [-73.8863091164408, 40.7508428750386]]]}}, {"type": "Feature", "properties": {"zone_id": "020737FXE9STUV7ZOVCTSJ", "tract_id": "36081028300", "city": "FLUSHING, NY", "zone_code": "R7-1", "zone_category": "Residential", "ev_permitted": false}, "geometry": {"type": "Polygon", "coordinates": [[[-73.886277529416, 40.7506689639201], [-73.885915126571, 40.7507056994598], [-73.8859467145127, 40.7508796120839], [-73.8863091164408, 40.7508428750386], [-73.886277529416, 40.7506689639201]]]}}, {"type": "Feature", "properties": {"zone_id": "0205CXBV8AZ8PO1OVIMDSQ", "tract_id": "36081028300", "city": "FLUSHING, NY", "zone_code": "R7-1", "zone_category": "Residential", "ev_permitted": false}, "geometry": {"type": "Polygon", "coordinates": [[[-73.8862148437073, 40.750323845946], [-73.885852443628, 40.7503605819939], [-73.8858840120139, 40.7505343927397], [-73.8862464130213, 40.7504976565934], [-73.8862148437073, 40.750323845946]]]}}, {"type": "Feature", "properties": {"zone_id": "0204WQPIWSGG6S3CR5D49G", "tract_id": "36081028300", "city": "FLUSHING, NY", "zone_code": "R7-1", "zone_category": "Residential", "ev_permitted": false}, "geometry": {"type": "Polygon", "coordinates": [[[-73.8862464130213, 40.7504976565934], [-73.8858840120139, 40.7505343927397], [-73.885915126571, 40.7507056994598], [-73.886277529416, 40.7506689639201], [-73.8862464130213, 40.7504976565934]]]}}, {"type": "Feature", "properties": {"zone_id": "0200M5J0LGJPSOX5XNFIOC", "tract_id": "36081028300", "city": "FLUSHING, NY", "zone_code": "R7-1", "zone_category": "Residential", "ev_permitted": false}, "geometry": {"type": "Polygon", "coordinates": [[[-73.8861838640257, 40.7501532863547], [-73.8858214657811, 40.750190022307], [-73.885852443628, 40.7503605819939], [-73.8862148437073, 40.750323845946], [-73.8861838640257, 40.7501532863547]]]}}, {"type": "Feature", "properties": {"zone_id": "0204H7A31Y8GDIHTS0FU5F", "tract_id": "36081028300", "city": "FLUSHING, NY", "zone_code": "R7-1", "zone_category": "Residential", "ev_permitted": false}, "geometry": {"type": "Polygon", "coordinates": [[[-73.8861514273015, 40.7499746988711], [-73.8857890290867, 40.7500114347213], [-73.8858214657811, 40.750190022307], [-73.8861838640257, 40.7501532863547], [-73.8861514273015, 40.7499746988711]]]}}, {"type": "Feature", "properties": {"zone_id": "0204YC52Y55NT12OFL02L3", "tract_id": "36081028300", "city": "FLUSHING, NY", "zone_code": "R7-1", "zone_category": "Residential", "ev_permitted": false}, "geometry": {"type": "Polygon", "coordinates": [[[-73.8859970487619, 40.7491909034059], [-73.8856349030103, 40.7492283248133], [-73.885685017355, 40.7495050060391], [-73.886045787472, 40.7494683834383], [-73.8859970487619, 40.7491909034059]]]}}, {"type": "Feature", "properties": {"zone_id": "0202RMVYUZW959C2FDO9SP", "tract_id": "36081028300", "city": "FLUSHING, NY", "zone_code": "R7-1", "zone_category": "Residential", "ev_permitted": false}, "geometry": {"type": "Polygon", "coordinates": [[[-73.8853221867675, 40.7506873594633], [-73.8849692429136, 40.7507245335778], [-73.8850686595371, 40.7512681477044], [-73.8854216062145, 40.7512309739908], [-73.8853221867675, 40.7506873594633]]]}}, {"type": "Feature", "properties": {"zone_id": "02065VKHSCLMA9U4FYXIL5", "tract_id": "36081028300", "city": "FLUSHING, NY", "zone_code": "R7-1", "zone_category": "Residential", "ev_permitted": false}, "geometry": {"type": "Polygon", "coordinates": [[[-73.8850511090631, 40.7511721818273], [-73.8846864214105, 40.7512105905694], [-73.8847141117049, 40.7513616429269], [-73.8850787345551, 40.751323241059], [-73.8850511090631, 40.7511721818273]]]}}, {"type": "Feature", "properties": {"zone_id": "02062UWVPOFVYGT8K1M4AN", "tract_id": "36081028300", "city": "FLUSHING, NY", "zone_code": "R7-1", "zone_category": "Residential", "ev_permitted": false}, "geometry": {"type": "Polygon", "coordinates": [[[-73.8850246946604, 40.7510277477316], [-73.8846599467898, 40.7510661633564], [-73.8846864214105, 40.7512105905694], [-73.8850511090631, 40.7511721818273], [-73.8850246946604, 40.7510277477316]]]}}, {"type": "Feature", "properties": {"zone_id": "02069HMV5ZJW9SCCDTX9GB", "tract_id": "36081028300", "city": "FLUSHING, NY", "zone_code": "R7-1", "zone_category": "Residential", "ev_permitted": false}, "geometry": {"type": "Polygon", "coordinates": [[[-73.8849965467644, 40.7508738323651], [-73.8846317331844, 40.7509122541588], [-73.8846599467898, 40.7510661633564], [-73.8850246946604, 40.7510277477316], [-73.8849965467644, 40.7508738323651]]]}}, {"type": "Feature", "properties": {"zone_id": "0201RQRBKRCHXT57ANM4Q1", "tract_id": "36081028300", "city": "FLUSHING, NY", "zone_code": "R7-1", "zone_category": "Residential", "ev_permitted": false}, "geometry": {"type": "Polygon", "coordinates": [[[-73.8858770958673, 40.7504963096643], [-73.8854989708658, 40.750534638804], [-73.8856310046375, 40.7512671067804], [-73.8860101151391, 40.7512286777026], [-73.8858770958673, 40.7504963096643]]]}}, {"type": "Feature", "properties": {"zone_id": "0206EBYCNZDQC5IP99E8F9", "tract_id": "36081028300", "city": "FLUSHING, NY", "zone_code": "R7-1", "zone_category": "Residential", "ev_permitted": false}, "geometry": {"type": "Polygon", "coordinates": [[[-73.8848845752144, 40.7502615596213], [-73.8846629219109, 40.7502849042675], [-73.8846678937381, 40.7503120900873], [-73.8846106455291, 40.7503181191578], [-73.8846109786903, 40.7503199414786], [-73.8845248194166, 40.7503290149578], [-73.8846043663705, 40.7507629622486], [-73.8849692429136, 40.7507245335778], [-73.8848845752144, 40.7502615596213]]]}}, {"type": "Feature", "properties": {"zone_id": "020439HXUD4F25HHOKLPGS", "tract_id": "36081028300", "city": "FLUSHING, NY", "zone_code": "R7-1", "zone_category": "Residential", "ev_permitted": false}, "geometry": {"type": "Polygon", "coordinates": [[[-73.8852528410686, 40.7503081836223], [-73.8848998991874, 40.7503453561211], [-73.8849692429136, 40.7507245335778], [-73.8853221867675, 40.7506873594633], [-73.8852528410686, 40.7503081836223]]]}}, {"type": "Feature", "properties": {"zone_id": "02022HXS3XKI6B5ANGWCTC", "tract_id": "36081028300", "city": "FLUSHING, NY", "zone_code": "R7-1", "zone_category": "Residential", "ev_permitted": false}, "geometry": {"type": "Polygon", "coordinates": [[[-73.8849692429136, 40.7507245335778], [-73.8846043663705, 40.7507629622486], [-73.8846317331844, 40.7509122541588], [-73.8849965467644, 40.7508738323651], [-73.8849692429136, 40.7507245335778]]]}}, {"type": "Feature", "properties": {"zone_id": "0207HK50AGEC3X1JSF5M39", "tract_id": "36081028300", "city": "FLUSHING, NY", "zone_code": "R7-1", "zone_category": "Residential", "ev_permitted": false}, "geometry": {"type": "Polygon", "coordinates": [[[-73.8844043128674, 40.7508254835364], [-73.8836764457347, 40.7508994121892], [-73.8838343085452, 40.7517779222809], [-73.8843267180919, 40.7517279095123], [-73.8843023936065, 40.7515933524854], [-73.8845387852034, 40.751569341731], [-73.8844043128674, 40.7508254835364]]]}}, {"type": "Feature", "properties": {"zone_id": "0204VI9W87OIU390H6MWCT", "tract_id": "36081028300", "city": "FLUSHING, NY", "zone_code": "R7-1", "zone_category": "Residential", "ev_permitted": false}, "geometry": {"type": "Polygon", "coordinates": [[[-73.8839604130258, 40.7504867954881], [-73.8836087211917, 40.7505225157113], [-73.8836764457347, 40.7508994121892], [-73.8840285368942, 40.7508636514072], [-73.8839604130258, 40.7504867954881]]]}}, {"type": "Feature", "properties": {"zone_id": "02050944US3LTE4FHYQE3J", "tract_id": "36081028300", "city": "FLUSHING, NY", "zone_code": "R7-1", "zone_category": "Residential", "ev_permitted": false}, "geometry": {"type": "Polygon", "coordinates": [[[-73.8843700095641, 40.750635725677], [-73.8839942346428, 40.7506738927342], [-73.8840285368942, 40.7508636514072], [-73.8844043128674, 40.7508254835364], [-73.8843700095641, 40.750635725677]]]}}, {"type": "Feature", "properties": {"zone_id": "0205ZWS8DMRNHIMJ4MRU5F", "tract_id": "36081028300", "city": "FLUSHING, NY", "zone_code": "R7-1", "zone_category": "Residential", "ev_permitted": false}, "geometry": {"type": "Polygon", "coordinates": [[[-73.8843361878362, 40.7504486278384], [-73.8839604130258, 40.7504867954881], [-73.8839942346428, 40.7506738927342], [-73.8843700095641, 40.750635725677], [-73.8843361878362, 40.7504486278384]]]}}, {"type": "Feature", "properties": {"zone_id": "0204FJA3TZ9Y4RWLM8GGL9", "tract_id": "36081028300", "city": "FLUSHING, NY", "zone_code": "R7-1", "zone_category": "Residential", "ev_permitted": false}, "geometry": {"type": "Polygon", "coordinates": [[[-73.8857890290867, 40.7500114347213], [-73.8854115573573, 40.7500496981722], [-73.8854989708658, 40.750534638804], [-73.8858770958673, 40.7504963096643], [-73.8857890290867, 40.7500114347213]]]}}, {"type": "Feature", "properties": {"zone_id": "0205XJQZM3L9J95TI5ARDD", "tract_id": "36081028300", "city": "FLUSHING, NY", "zone_code": "C4-3", "zone_category": "Commercial", "ev_permitted": true}, "geometry": {"type": "Polygon", "coordinates": [[[-73.8851527195933, 40.74976070989], [-73.8844347596613, 40.7498377069544], [-73.8844844724414, 40.7501089110764], [-73.8852025668556, 40.7500332805022], [-73.8851527195933, 40.74976070989]]]}}, {"type": "Feature", "properties": {"zone_id": "0206FKLYZGT1O7XWZ4E74E", "tract_id": "36081028300", "city": "FLUSHING, NY", "zone_code": "R7-1", "zone_category": "Residential", "ev_permitted": false}, "geometry": {"type": "Polygon", "coordinates": [[[-73.8852025668556, 40.7500332805022], [-73.8848496264016, 40.7500704535511], [-73.8848998991874, 40.7503453561211], [-73.8852528410686, 40.7503081836223], [-73.8852025668556, 40.7500332805022]]]}}, {"type": "Feature", "properties": {"zone_id": "02063Q4H1NWJ48EKF4A5YS", "tract_id": "36081028300", "city": "FLUSHING, NY", "zone_code": "R7-1", "zone_category": "Residential", "ev_permitted": false}, "geometry": {"type": "Polygon", "coordinates": [[[-73.8848496264016, 40.7500704535511], [-73.8844844724414, 40.7501089110764], [-73.8845248194166, 40.7503290149578], [-73.8846109786903, 40.7503199414786], [-73.8846106455291, 40.7503181191578], [-73.8846678937381, 40.7503120900873], [-73.8846629219109, 40.7502849042675], [-73.8848845752144, 40.7502615596213], [-73.8848496264016, 40.7500704535511]]]}}, {"type": "Feature", "properties": {"zone_id": "02025BZ28PT5YAJLOQIQ0C", "tract_id": "36081028300", "city": "FLUSHING, NY", "zone_code": "R7-1", "zone_category": "Residential", "ev_permitted": false}, "geometry": {"type": "Polygon", "coordinates": [[[-73.8860939886231, 40.7496584595236], [-73.8853552949252, 40.7497375694616], [-73.8854115573573, 40.7500496981722], [-73.8861514273015, 40.7499746988711], [-73.8860939886231, 40.7496584595236]]]}}, {"type": "Feature", "properties": {"zone_id": "0203YUICFE82DTBXAAMNTV", "tract_id": "36081028300", "city": "FLUSHING, NY", "zone_code": "R7-1", "zone_category": "Residential", "ev_permitted": false}, "geometry": {"type": "Polygon", "coordinates": [[[-73.8856349030103, 40.7492283248133], [-73.8852682768154, 40.7492662085885], [-73.8853182716053, 40.7495422349793], [-73.885685017355, 40.7495050060391], [-73.8856349030103, 40.7492283248133]]]}}, {"type": "Feature", "properties": {"zone_id": "0200NWUA79WYJNGK7SWG2W", "tract_id": "36081028300", "city": "FLUSHING, NY", "zone_code": "C4-3", "zone_category": "Commercial", "ev_permitted": true}, "geometry": {"type": "Polygon", "coordinates": [[[-73.8850658814013, 40.7492865580937], [-73.8849888728412, 40.7492948048898], [-73.8850398086314, 40.7495709946546], [-73.8851158935285, 40.749563304812], [-73.8850658814013, 40.7492865580937]]]}}, {"type": "Feature", "properties": {"zone_id": "0202EX09D4DK3M6MCLR4M7", "tract_id": "36081028300", "city": "FLUSHING, NY", "zone_code": "C4-3", "zone_category": "Commercial", "ev_permitted": true}, "geometry": {"type": "Polygon", "coordinates": [[[-73.8849888728412, 40.7492948048898], [-73.8849191295898, 40.7493022733241], [-73.8849699900459, 40.7495780505853], [-73.8850398086314, 40.7495709946546], [-73.8849888728412, 40.7492948048898]]]}}, {"type": "Feature", "properties": {"zone_id": "0204W0IIPPWPDBDJMWBEUQ", "tract_id": "36081028300", "city": "FLUSHING, NY", "zone_code": "C4-3", "zone_category": "Commercial", "ev_permitted": true}, "geometry": {"type": "Polygon", "coordinates": [[[-73.8849191295898, 40.7493022733241], [-73.884848441887, 40.7493098419544], [-73.8848992251653, 40.7495852024947], [-73.8849699900459, 40.7495780505853], [-73.8849191295898, 40.7493022733241]]]}}, {"type": "Feature", "properties": {"zone_id": "0201S11VAZCY95N23Q5A7W", "tract_id": "36081028300", "city": "FLUSHING, NY", "zone_code": "C4-3", "zone_category": "Commercial", "ev_permitted": true}, "geometry": {"type": "Polygon", "coordinates": [[[-73.884848441887, 40.7493098419544], [-73.8847761536123, 40.749317583199], [-73.8848268578776, 40.7495925164772], [-73.8848992251653, 40.7495852024947], [-73.884848441887, 40.7493098419544]]]}}, {"type": "Feature", "properties": {"zone_id": "0200M2L8M7ZU8VICDHONOS", "tract_id": "36081028300", "city": "FLUSHING, NY", "zone_code": "C4-3", "zone_category": "Commercial", "ev_permitted": true}, "geometry": {"type": "Polygon", "coordinates": [[[-73.8847761536123, 40.749317583199], [-73.8847102481306, 40.7493246407788], [-73.8847608798128, 40.7495991840393], [-73.8848268578776, 40.7495925164772], [-73.8847761536123, 40.749317583199]]]}}, {"type": "Feature", "properties": {"zone_id": "0200B4LASJ5Z7JELR1U29S", "tract_id": "36081028300", "city": "FLUSHING, NY", "zone_code": "C4-3", "zone_category": "Commercial", "ev_permitted": true}, "geometry": {"type": "Polygon", "coordinates": [[[-73.8847102481306, 40.7493246407788], [-73.8843520814729, 40.7493629931556], [-73.8844023227042, 40.749635421187], [-73.8847608798128, 40.7495991840393], [-73.8847102481306, 40.7493246407788]]]}}, {"type": "Feature", "properties": {"zone_id": "0205ZOL9LSTQVT7ADSZMS0", "tract_id": "36081028300", "city": "FLUSHING, NY", "zone_code": "R7-1", "zone_category": "Residential", "ev_permitted": false}, "geometry": {"type": "Polygon", "coordinates": [[[-73.8842787973889, 40.7501311551888], [-73.8839030252604, 40.7501693226539], [-73.8839604130258, 40.7504867954881], [-73.8843361878362, 40.7504486278384], [-73.8842787973889, 40.7501311551888]]]}}, {"type": "Feature", "properties": {"zone_id": "02044P6ZLARL721JHQ0B97", "tract_id": "36081028300", "city": "FLUSHING, NY", "zone_code": "R7-1", "zone_category": "Residential", "ev_permitted": false}, "geometry": {"type": "Polygon", "coordinates": [[[-73.8839030252604, 40.7501693226539], [-73.8835516686765, 40.7502050086106], [-73.8836087211917, 40.7505225157113], [-73.8839604130258, 40.7504867954881], [-73.8839030252604, 40.7501693226539]]]}}, {"type": "Feature", "properties": {"zone_id": "0201DNMCRKCND54KQDENR4", "tract_id": "36081028300", "city": "FLUSHING, NY", "zone_code": "C4-3", "zone_category": "Commercial", "ev_permitted": true}, "geometry": {"type": "Polygon", "coordinates": [[[-73.8842287231673, 40.749854146676], [-73.8838529049797, 40.7498920546512], [-73.8839030252604, 40.7501693226539], [-73.8842787973889, 40.7501311551888], [-73.8842287231673, 40.749854146676]]]}}, {"type": "Feature", "properties": {"zone_id": "0206ACED0NJQBSI3UASKLF", "tract_id": "36081028300", "city": "FLUSHING, NY", "zone_code": "C4-3", "zone_category": "Commercial", "ev_permitted": true}, "geometry": {"type": "Polygon", "coordinates": [[[-73.8838529049797, 40.7498920546512], [-73.883501799769, 40.7499274701867], [-73.8835516686765, 40.7502050086106], [-73.8839030252604, 40.7501693226539], [-73.8838529049797, 40.7498920546512]]]}}, {"type": "Feature", "properties": {"zone_id": "0204Z6OY5P80XBZA62V70B", "tract_id": "36081028300", "city": "FLUSHING, NY", "zone_code": "C4-3", "zone_category": "Commercial", "ev_permitted": true}, "geometry": {"type": "Polygon", "coordinates": [[[-73.8841372568689, 40.7493869542547], [-73.8837757234453, 40.749425947194], [-73.8838245652379, 40.7496979201493], [-73.8841861001089, 40.7496589270582], [-73.8841372568689, 40.7493869542547]]]}}, {"type": "Feature", "properties": {"zone_id": "0205K7Q1JYIMZCMHX8PURP", "tract_id": "36081028300", "city": "FLUSHING, NY", "zone_code": "C4-3", "zone_category": "Commercial", "ev_permitted": true}, "geometry": {"type": "Polygon", "coordinates": [[[-73.8837757234453, 40.749425947194], [-73.8834110716429, 40.7494652752253], [-73.8834599119769, 40.749737247631], [-73.8838245652379, 40.7496979201493], [-73.8837757234453, 40.749425947194]]]}}, {"type": "Feature", "properties": {"zone_id": "02001VHS20E81OEL6G4CS7", "tract_id": "36081028300", "city": "FLUSHING, NY", "zone_code": "R7-1", "zone_category": "Residential", "ev_permitted": false}, "geometry": {"type": "Polygon", "coordinates": [[[-73.8855563321152, 40.7487945372111], [-73.885189708263, 40.7488324207386], [-73.8852682768154, 40.7492662085885], [-73.8856349030103, 40.7492283248133], [-73.8855563321152, 40.7487945372111]]]}}, {"type": "Feature", "properties": {"zone_id": "0203UDNSA6RPA7OME13U6R", "tract_id": "36081028300", "city": "FLUSHING, NY", "zone_code": "R7-1", "zone_category": "Residential", "ev_permitted": false}, "geometry": {"type": "Polygon", "coordinates": [[[-73.885901845476, 40.748648856804], [-73.8855367778678, 40.748686580664], [-73.8856349030103, 40.7492283248133], [-73.8859970487619, 40.7491909034059], [-73.885901845476, 40.748648856804]]]}}, {"type": "Feature", "properties": {"zone_id": "02021J17I5X4LGC9XCHGWS", "tract_id": "36081028300", "city": "FLUSHING, NY", "zone_code": "C4-3", "zone_category": "Commercial", "ev_permitted": true}, "geometry": {"type": "Polygon", "coordinates": [[[-73.884590432271, 40.7486749517479], [-73.8842318791215, 40.7487111876662], [-73.8843520814729, 40.7493629931556], [-73.8847102481306, 40.7493246407788], [-73.884590432271, 40.7486749517479]]]}}, {"type": "Feature", "properties": {"zone_id": "0204KCRIEK79JSKRUAYIQK", "tract_id": "36081028300", "city": "FLUSHING, NY", "zone_code": "R7-1", "zone_category": "Residential", "ev_permitted": false}, "geometry": {"type": "Polygon", "coordinates": [[[-73.8850066756899, 40.7489589361853], [-73.8846498511181, 40.7489971460808], [-73.8847102481306, 40.7493246407788], [-73.8850658814013, 40.7492865580937], [-73.8850066756899, 40.7489589361853]]]}}, {"type": "Feature", "properties": {"zone_id": "0204CX6VDIMY9BNBDPH415", "tract_id": "36081028300", "city": "FLUSHING, NY", "zone_code": "R7-1", "zone_category": "Residential", "ev_permitted": false}, "geometry": {"type": "Polygon", "coordinates": [[[-73.8858654320775, 40.7484415385689], [-73.8854992483627, 40.7484793771423], [-73.8855367778678, 40.748686580664], [-73.885901845476, 40.748648856804], [-73.8858654320775, 40.7484415385689]]]}}, {"type": "Feature", "properties": {"zone_id": "0204VPY0MDEZQNRI4R17ZC", "tract_id": "36081028300", "city": "FLUSHING, NY", "zone_code": "R7-1", "zone_category": "Residential", "ev_permitted": false}, "geometry": {"type": "Polygon", "coordinates": [[[-73.8855116855605, 40.7485480453356], [-73.8851450639645, 40.7485859280205], [-73.885189708263, 40.7488324207386], [-73.8855563321152, 40.7487945372111], [-73.8855116855605, 40.7485480453356]]]}}, {"type": "Feature", "properties": {"zone_id": "0200I97LL92AFQRN6II1S4", "tract_id": "36081028300", "city": "FLUSHING, NY", "zone_code": "R7-1", "zone_category": "Residential", "ev_permitted": false}, "geometry": {"type": "Polygon", "coordinates": [[[-73.8858299805701, 40.7482396914476], [-73.8854627102952, 40.7482776426581], [-73.8854992483627, 40.7484793771423], [-73.8858654320775, 40.7484415385689], [-73.8858299805701, 40.7482396914476]]]}}, {"type": "Feature", "properties": {"zone_id": "02064ACJK6NF1O85I61LWQ", "tract_id": "36081028300", "city": "FLUSHING, NY", "zone_code": "R7-1", "zone_category": "Residential", "ev_permitted": false}, "geometry": {"type": "Polygon", "coordinates": [[[-73.8854683279982, 40.74830866138], [-73.8851017067699, 40.74834654463], [-73.8851450639645, 40.7485859280205], [-73.8855116855605, 40.7485480453356], [-73.8854683279982, 40.74830866138]]]}}, {"type": "Feature", "properties": {"zone_id": "0205O5ZL14EV2G0JIF7YLY", "tract_id": "36081028300", "city": "FLUSHING, NY", "zone_code": "R7-1", "zone_category": "Residential", "ev_permitted": false}, "geometry": {"type": "Polygon", "coordinates": [[[-73.8848791811258, 40.74825341302], [-73.8845197903567, 40.748291897497], [-73.884590432271, 40.7486749517479], [-73.8849488122262, 40.748638732107], [-73.8848791811258, 40.74825341302]]]}}, {"type": "Feature", "properties": {"zone_id": "0207DDCKMRO88B4AUFV67M", "tract_id": "36081028300", "city": "FLUSHING, NY", "zone_code": "R7-1", "zone_category": "Residential", "ev_permitted": false}, "geometry": {"type": "Polygon", "coordinates": [[[-73.8849488122262, 40.748638732107], [-73.884590432271, 40.7486749517479], [-73.8846498511181, 40.7489971460808], [-73.8850066756899, 40.7489589361853], [-73.8849488122262, 40.748638732107]]]}}, {"type": "Feature", "properties": {"zone_id": "0200ZUQZAID130CPCH9VX4", "tract_id": "36081028300", "city": "FLUSHING, NY", "zone_code": "C4-3", "zone_category": "Commercial", "ev_permitted": true}, "geometry": {"type": "Polygon", "coordinates": [[[-73.883990538278, 40.7485699807768], [-73.8836290092034, 40.7486089725574], [-73.8837757234453, 40.749425947194], [-73.8841372568689, 40.7493869542547], [-73.883990538278, 40.7485699807768]]]}}, {"type": "Feature", "properties": {"zone_id": "0205ZKT1FGZPXFR9V5VMI1", "tract_id": "36081028300", "city": "FLUSHING, NY", "zone_code": "R7-1", "zone_category": "Residential", "ev_permitted": false}, "geometry": {"type": "Polygon", "coordinates": [[[-73.8837062241264, 40.7490389454096], [-73.8833415744015, 40.749078273223], [-73.8834110716429, 40.7494652752253], [-73.8837757234453, 40.749425947194], [-73.8837062241264, 40.7490389454096]]]}}, {"type": "Feature", "properties": {"zone_id": "0206IEV578TD9T4GMSB35S", "tract_id": "36081028300", "city": "FLUSHING, NY", "zone_code": "C4-3", "zone_category": "Commercial", "ev_permitted": true}, "geometry": {"type": "Polygon", "coordinates": [[[-73.8845714428888, 40.7485719844582], [-73.8842132801977, 40.7486103364077], [-73.8842318791215, 40.7487111876662], [-73.884590432271, 40.7486749517479], [-73.8845714428888, 40.7485719844582]]]}}, {"type": "Feature", "properties": {"zone_id": "0205CKSJRJA6SWTN33WEZD", "tract_id": "36081028300", "city": "FLUSHING, NY", "zone_code": "C4-3", "zone_category": "Commercial", "ev_permitted": true}, "geometry": {"type": "Polygon", "coordinates": [[[-73.8845552004565, 40.7484839084987], [-73.8841970382284, 40.7485222611007], [-73.8842132801977, 40.7486103364077], [-73.8845714428888, 40.7485719844582], [-73.8845552004565, 40.7484839084987]]]}}, {"type": "Feature", "properties": {"zone_id": "0200CGNTRCTZSZNEI0QIW7", "tract_id": "36081028300", "city": "FLUSHING, NY", "zone_code": "C4-3", "zone_category": "Commercial", "ev_permitted": true}, "geometry": {"type": "Polygon", "coordinates": [[[-73.8845147158294, 40.748264384122], [-73.8841565556822, 40.7483027366003], [-73.8841970382284, 40.7485222611007], [-73.8845552004565, 40.7484839084987], [-73.8845147158294, 40.748264384122]]]}}, {"type": "Feature", "properties": {"zone_id": "0202KNBRU2U3WGWO14AA7C", "tract_id": "36081028300", "city": "FLUSHING, NY", "zone_code": "C4-3", "zone_category": "Commercial", "ev_permitted": true}, "geometry": {"type": "Polygon", "coordinates": [[[-73.8839413681301, 40.7482961806108], [-73.88357984051, 40.748335173644], [-73.8835899130484, 40.7483912564911], [-73.8839514391178, 40.7483522641274], [-73.8839413681301, 40.7482961806108]]]}}, {"type": "Feature", "properties": {"zone_id": "0200HCFD0BO27VT3RPZ0O4", "tract_id": "36081028300", "city": "FLUSHING, NY", "zone_code": "C4-3", "zone_category": "Commercial", "ev_permitted": true}, "geometry": {"type": "Polygon", "coordinates": [[[-73.8839514391178, 40.7483522641274], [-73.8835899130484, 40.7483912564911], [-73.8835994795745, 40.7484445345247], [-73.8839610077753, 40.7484055421331], [-73.8839514391178, 40.7483522641274]]]}}, {"type": "Feature", "properties": {"zone_id": "0204548LHT4F5600V1R3J3", "tract_id": "36081028300", "city": "FLUSHING, NY", "zone_code": "C4-3", "zone_category": "Commercial", "ev_permitted": true}, "geometry": {"type": "Polygon", "coordinates": [[[-73.8839610077753, 40.7484055421331], [-73.8835994795745, 40.7484445345247], [-73.8836290092034, 40.7486089725574], [-73.883990538278, 40.7485699807768], [-73.8839610077753, 40.7484055421331]]]}}, {"type": "Feature", "properties": {"zone_id": "0200TMY95DPLHVVJL2GYY3", "tract_id": "36081028300", "city": "FLUSHING, NY", "zone_code": "R7-1", "zone_category": "Residential", "ev_permitted": false}, "geometry": {"type": "Polygon", "coordinates": [[[-73.8836094395837, 40.7484999989181], [-73.8832447927516, 40.7485393264282], [-73.8833415744015, 40.749078273223], [-73.8837062241264, 40.7490389454096], [-73.8836094395837, 40.7484999989181]]]}}, {"type": "Feature", "properties": {"zone_id": "02051T9JLS46G5M0DQYZX8", "tract_id": "36081028300", "city": "FLUSHING, NY", "zone_code": "R7-1", "zone_category": "Residential", "ev_permitted": false}, "geometry": {"type": "Polygon", "coordinates": [[[-73.8835899130484, 40.7483912564911], [-73.8832252640282, 40.7484305839371], [-73.8832348321161, 40.7484838620026], [-73.8835994795745, 40.7484445345247], [-73.8835899130484, 40.7483912564911]]]}}, {"type": "Feature", "properties": {"zone_id": "0200RXQ0BLJ14O1TPLV2PN", "tract_id": "36081028300", "city": "FLUSHING, NY", "zone_code": "R7-1", "zone_category": "Residential", "ev_permitted": false}, "geometry": {"type": "Polygon", "coordinates": [[[-73.88357984051, 40.748335173644], [-73.8832151936387, 40.7483745010603], [-73.8832252640282, 40.7484305839371], [-73.8835899130484, 40.7483912564911], [-73.88357984051, 40.748335173644]]]}}, {"type": "Feature", "properties": {"zone_id": "0202SAPXKB1YIC01N34KNP", "tract_id": "36081028300", "city": "FLUSHING, NY", "zone_code": "R7-1", "zone_category": "Residential", "ev_permitted": false}, "geometry": {"type": "Polygon", "coordinates": [[[-73.8835994795745, 40.7484445345247], [-73.8832348321161, 40.7484838620026], [-73.8832447927516, 40.7485393264282], [-73.8836094395837, 40.7484999989181], [-73.8835994795745, 40.7484445345247]]]}}, {"type": "Feature", "properties": {"zone_id": "0204HO0JPP84PWJLQ2Y5DU", "tract_id": "36081028300", "city": "FLUSHING, NY", "zone_code": "R7-1", "zone_category": "Residential", "ev_permitted": false}, "geometry": {"type": "Polygon", "coordinates": [[[-73.8835703737365, 40.7482824599416], [-73.8832057280721, 40.7483217873292], [-73.8832151936387, 40.7483745010603], [-73.88357984051, 40.748335173644], [-73.8835703737365, 40.7482824599416]]]}}, {"type": "Feature", "properties": {"zone_id": "0202PNITN763OUIPMG83Y0", "tract_id": "36081028300", "city": "FLUSHING, NY", "zone_code": "R7-1", "zone_category": "Residential", "ev_permitted": false}, "geometry": {"type": "Polygon", "coordinates": [[[-73.8857937588587, 40.7480334575657], [-73.8854253771045, 40.7480715234934], [-73.8854627102952, 40.7482776426581], [-73.8858299805701, 40.7482396914476], [-73.8857937588587, 40.7480334575657]]]}}, {"type": "Feature", "properties": {"zone_id": "0204H9OWICBLTSGUZCOEUV", "tract_id": "36081028300", "city": "FLUSHING, NY", "zone_code": "R7-1", "zone_category": "Residential", "ev_permitted": false}, "geometry": {"type": "Polygon", "coordinates": [[[-73.8854482468656, 40.748197792479], [-73.8850816262383, 40.7482356742604], [-73.8851017067699, 40.74834654463], [-73.8854683279982, 40.74830866138], [-73.8854482468656, 40.748197792479]]]}}, {"type": "Feature", "properties": {"zone_id": "02079QQBAGPS4ZX3SY68KJ", "tract_id": "36081028300", "city": "FLUSHING, NY", "zone_code": "R7-1", "zone_category": "Residential", "ev_permitted": false}, "geometry": {"type": "Polygon", "coordinates": [[[-73.8854286572764, 40.7480896377198], [-73.8850620381535, 40.7481275215483], [-73.8850816262383, 40.7482356742604], [-73.8854482468656, 40.748197792479], [-73.8854286572764, 40.7480896377198]]]}}, {"type": "Feature", "properties": {"zone_id": "0201J515I7LFBJWQ6MO68J", "tract_id": "36081028300", "city": "FLUSHING, NY", "zone_code": "R7-1", "zone_category": "Residential", "ev_permitted": false}, "geometry": {"type": "Polygon", "coordinates": [[[-73.8854088499317, 40.7479802776836], [-73.8850422314005, 40.7480181607469], [-73.8850620381535, 40.7481275215483], [-73.8854286572764, 40.7480896377198], [-73.8854088499317, 40.7479802776836]]]}}, {"type": "Feature", "properties": {"zone_id": "0201YBJ5NUVIW9CB78ULIC", "tract_id": "36081028300", "city": "FLUSHING, NY", "zone_code": "R6", "zone_category": "Residential", "ev_permitted": false}, "geometry": {"type": "Polygon", "coordinates": [[[-73.8857477380845, 40.7477734916622], [-73.8855924004783, 40.747789543535], [-73.8855896913741, 40.7477745883194], [-73.8853756026259, 40.747796710797], [-73.8853891360088, 40.7478714306741], [-73.8857585960002, 40.7478332542094], [-73.8857477380845, 40.7477734916622]]]}}, {"type": "Feature", "properties": {"zone_id": "0202VHHTUK4DW3094ZGGI1", "tract_id": "36081028300", "city": "FLUSHING, NY", "zone_code": "R7-1", "zone_category": "Residential", "ev_permitted": false}, "geometry": {"type": "Polygon", "coordinates": [[[-73.8857585960002, 40.7478332542094], [-73.8853891360088, 40.7478714306741], [-73.8854253771045, 40.7480715234934], [-73.8857937588587, 40.7480334575657], [-73.8857585960002, 40.7478332542094]]]}}, {"type": "Feature", "properties": {"zone_id": "0200SBBUIO57YYGN0REV28", "tract_id": "36081028300", "city": "FLUSHING, NY", "zone_code": "R7-1", "zone_category": "Residential", "ev_permitted": false}, "geometry": {"type": "Polygon", "coordinates": [[[-73.8853891360088, 40.7478714306741], [-73.8850225171415, 40.7479093136744], [-73.8850422314005, 40.7480181607469], [-73.8854088499317, 40.7479802776836], [-73.8853891360088, 40.7478714306741]]]}}, {"type": "Feature", "properties": {"zone_id": "0201WK56699K4YTPJLWY8M", "tract_id": "36081028300", "city": "", "zone_code": "R7-1", "zone_category": "Residential", "ev_permitted": false}, "geometry": {"type": "Polygon", "coordinates": [[[-73.884844911773, 40.7480637745419], [-73.8844848312488, 40.7481023332288], [-73.8845197903567, 40.748291897497], [-73.8848791811258, 40.74825341302], [-73.884844911773, 40.7480637745419]]]}}, {"type": "Feature", "properties": {"zone_id": "02052JIG1N4WIZNJSVXE6V", "tract_id": "36081028300", "city": "FLUSHING, NY", "zone_code": "C4-3", "zone_category": "Commercial", "ev_permitted": true}, "geometry": {"type": "Polygon", "coordinates": [[[-73.8844825613545, 40.7476831645407], [-73.8844089829335, 40.7476910426843], [-73.884444864693, 40.7478856146897], [-73.8845184433259, 40.7478777358208], [-73.8844825613545, 40.7476831645407]]]}}, {"type": "Feature", "properties": {"zone_id": "0207KSGF2B50F6MVKZF7GC", "tract_id": "36081028300", "city": "FLUSHING, NY", "zone_code": "C4-3", "zone_category": "Commercial", "ev_permitted": true}, "geometry": {"type": "Polygon", "coordinates": [[[-73.8848203433181, 40.7479278149833], [-73.8844597677407, 40.7479664266743], [-73.8844848312488, 40.7481023332288], [-73.884844911773, 40.7480637745419], [-73.8848203433181, 40.7479278149833]]]}}, {"type": "Feature", "properties": {"zone_id": "0203GTUEYCH4RIL29QY7UY", "tract_id": "36081028300", "city": "FLUSHING, NY", "zone_code": "C4-3", "zone_category": "Commercial", "ev_permitted": true}, "geometry": {"type": "Polygon", "coordinates": [[[-73.8848057337009, 40.7478469717192], [-73.884444864693, 40.7478856146897], [-73.8844597677407, 40.7479664266743], [-73.8848203433181, 40.7479278149833], [-73.8848057337009, 40.7478469717192]]]}}, {"type": "Feature", "properties": {"zone_id": "0203N0BK0JY8KZWIGLXG9D", "tract_id": "36081028300", "city": "FLUSHING, NY", "zone_code": "C2-3", "zone_category": "Commercial", "ev_permitted": true}, "geometry": {"type": "Polygon", "coordinates": [[[-73.8854836173682, 40.7475775037688], [-73.8854100978733, 40.7475851008451], [-73.8854470866125, 40.7477893239204], [-73.8855206063274, 40.7477817275233], [-73.8854836173682, 40.7475775037688]]]}}, {"type": "Feature", "properties": {"zone_id": "02015LOD2SS9F81JBZSIDC", "tract_id": "36081028300", "city": "FLUSHING, NY", "zone_code": "R6", "zone_category": "Residential", "ev_permitted": false}, "geometry": {"type": "Polygon", "coordinates": [[[-73.885552702206, 40.7475703652896], [-73.8854836173682, 40.7475775037688], [-73.8855206063274, 40.7477817275233], [-73.8855896913741, 40.7477745883194], [-73.885552702206, 40.7475703652896]]]}}, {"type": "Feature", "properties": {"zone_id": "0206GMW91UCOCM5ETL6XEN", "tract_id": "36081028300", "city": "FLUSHING, NY", "zone_code": "C2-3", "zone_category": "Commercial", "ev_permitted": true}, "geometry": {"type": "Polygon", "coordinates": [[[-73.8856311608519, 40.7475622579796], [-73.885552702206, 40.7475703652896], [-73.8855924004783, 40.747789543535], [-73.8856708603015, 40.7477814361991], [-73.8856311608519, 40.7475622579796]]]}}, {"type": "Feature", "properties": {"zone_id": "0200D579E1JWDSDLPMMW3J", "tract_id": "36081028300", "city": "FLUSHING, NY", "zone_code": "R6", "zone_category": "Residential", "ev_permitted": false}, "geometry": {"type": "Polygon", "coordinates": [[[-73.8857095778956, 40.7475541547909], [-73.8856311608519, 40.7475622579796], [-73.8856708603015, 40.7477814361991], [-73.8857477380845, 40.7477734916622], [-73.8857095778956, 40.7475541547909]]]}}, {"type": "Feature", "properties": {"zone_id": "02015ZRGOAVMTEZ2Q8LE78", "tract_id": "36081028300", "city": "FLUSHING, NY", "zone_code": "R6", "zone_category": "Residential", "ev_permitted": false}, "geometry": {"type": "Polygon", "coordinates": [[[-73.8852679250212, 40.747599791684], [-73.885122042861, 40.7476148658114], [-73.8851725638771, 40.7478938095833], [-73.8853184466367, 40.7478787353925], [-73.8852679250212, 40.747599791684]]]}}, {"type": "Feature", "properties": {"zone_id": "02024LNR68K13OKO8L1K6E", "tract_id": "36081028300", "city": "FLUSHING, NY", "zone_code": "R6", "zone_category": "Residential", "ev_permitted": false}, "geometry": {"type": "Polygon", "coordinates": [[[-73.8853386131777, 40.7475924876981], [-73.8852679250212, 40.747599791684], [-73.8853184466367, 40.7478787353925], [-73.8853891360088, 40.7478714306741], [-73.8853386131777, 40.7475924876981]]]}}, {"type": "Feature", "properties": {"zone_id": "02039RB9KYOH6TY2PSGBXE", "tract_id": "36081028300", "city": "FLUSHING, NY", "zone_code": "R6", "zone_category": "Residential", "ev_permitted": false}, "geometry": {"type": "Polygon", "coordinates": [[[-73.8854100978733, 40.7475851008451], [-73.8853386131777, 40.7475924876981], [-73.8853756026259, 40.747796710797], [-73.8854470866125, 40.7477893239204], [-73.8854100978733, 40.7475851008451]]]}}, {"type": "Feature", "properties": {"zone_id": "0205LQWCO1DMFWFKHXYMF1", "tract_id": "36081028300", "city": "FLUSHING, NY", "zone_code": "C2-3", "zone_category": "Commercial", "ev_permitted": true}, "geometry": {"type": "Polygon", "coordinates": [[[-73.885122042861, 40.7476148658114], [-73.8849719976659, 40.7476303698382], [-73.8850225171415, 40.7479093136744], [-73.8851725638771, 40.7478938095833], [-73.885122042861, 40.7476148658114]]]}}, {"type": "Feature", "properties": {"zone_id": "0203L2OUQAVRG59JM58GF5", "tract_id": "36081028300", "city": "FLUSHING, NY", "zone_code": "C4-3", "zone_category": "Commercial", "ev_permitted": true}, "geometry": {"type": "Polygon", "coordinates": [[[-73.8845529729212, 40.747675624667], [-73.8844825613545, 40.7476831645407], [-73.8845184433259, 40.7478777358208], [-73.8845888550942, 40.7478701959253], [-73.8845529729212, 40.747675624667]]]}}, {"type": "Feature", "properties": {"zone_id": "0203ZV2PVLW7FQAK3Q6YHJ", "tract_id": "36081028300", "city": "FLUSHING, NY", "zone_code": "C4-3", "zone_category": "Commercial", "ev_permitted": true}, "geometry": {"type": "Polygon", "coordinates": [[[-73.8846236154936, 40.747668059686], [-73.8845529729212, 40.747675624667], [-73.8845888550942, 40.7478701959253], [-73.8846594978677, 40.7478626316252], [-73.8846236154936, 40.747668059686]]]}}, {"type": "Feature", "properties": {"zone_id": "0205X6X0SZFXZXIGR1J9QZ", "tract_id": "36081028300", "city": "FLUSHING, NY", "zone_code": "C4-3", "zone_category": "Commercial", "ev_permitted": true}, "geometry": {"type": "Polygon", "coordinates": [[[-73.8846959879345, 40.7476603101895], [-73.8846236154936, 40.747668059686], [-73.8846594978677, 40.7478626316252], [-73.884731870517, 40.7478548814037], [-73.8846959879345, 40.7476603101895]]]}}, {"type": "Feature", "properties": {"zone_id": "0203FJZ57AJT8Z8CJQG7WR", "tract_id": "36081028300", "city": "FLUSHING, NY", "zone_code": "C4-3", "zone_category": "Commercial", "ev_permitted": true}, "geometry": {"type": "Polygon", "coordinates": [[[-73.8847705606046, 40.7476523239456], [-73.8846959879345, 40.7476603101895], [-73.884731870517, 40.7478548814037], [-73.8848057337009, 40.7478469717192], [-73.8847705606046, 40.7476523239456]]]}}, {"type": "Feature", "properties": {"zone_id": "0203WI03M6B6FAWNGP88PJ", "tract_id": "36081028300", "city": "FLUSHING, NY", "zone_code": "C4-3", "zone_category": "Commercial", "ev_permitted": true}, "geometry": {"type": "Polygon", "coordinates": [[[-73.8844743870752, 40.7480457016624], [-73.8841162280805, 40.7480840540165], [-73.8841565556822, 40.7483027366003], [-73.8845147158294, 40.748264384122], [-73.8844743870752, 40.7480457016624]]]}}, {"type": "Feature", "properties": {"zone_id": "02032SV43DDXDFPENOG9MG", "tract_id": "36081028300", "city": "FLUSHING, NY", "zone_code": "C4-3", "zone_category": "Commercial", "ev_permitted": true}, "geometry": {"type": "Polygon", "coordinates": [[[-73.8839216242327, 40.7481862392868], [-73.8835600972002, 40.7482252308534], [-73.8835703737365, 40.7482824599416], [-73.8839319010748, 40.7482434676405], [-73.8839216242327, 40.7481862392868]]]}}, {"type": "Feature", "properties": {"zone_id": "0207BWUQVJRH666UTWFYAW", "tract_id": "36081028300", "city": "FLUSHING, NY", "zone_code": "C4-3", "zone_category": "Commercial", "ev_permitted": true}, "geometry": {"type": "Polygon", "coordinates": [[[-73.8839319010748, 40.7482434676405], [-73.8835703737365, 40.7482824599416], [-73.88357984051, 40.748335173644], [-73.8839413681301, 40.7482961806108], [-73.8839319010748, 40.7482434676405]]]}}, {"type": "Feature", "properties": {"zone_id": "020094QTKSUXWY117U1KR3", "tract_id": "36081028300", "city": "FLUSHING, NY", "zone_code": "C4-3", "zone_category": "Commercial", "ev_permitted": true}, "geometry": {"type": "Polygon", "coordinates": [[[-73.8844242300538, 40.7477737177629], [-73.8840660715684, 40.7478120699615], [-73.8841016091638, 40.7480047789834], [-73.8844597677407, 40.7479664266743], [-73.8844242300538, 40.7477737177629]]]}}, {"type": "Feature", "properties": {"zone_id": "02049RSAFWTPZESBKSILX4", "tract_id": "36081028300", "city": "FLUSHING, NY", "zone_code": "C4-3", "zone_category": "Commercial", "ev_permitted": true}, "geometry": {"type": "Polygon", "coordinates": [[[-73.8844597677407, 40.7479664266743], [-73.8841016091638, 40.7480047789834], [-73.8841162280805, 40.7480840540165], [-73.8844743870752, 40.7480457016624], [-73.8844597677407, 40.7479664266743]]]}}, {"type": "Feature", "properties": {"zone_id": "0206V993320RQXN2R7LXIT", "tract_id": "36081028300", "city": "FLUSHING, NY", "zone_code": "C4-3", "zone_category": "Commercial", "ev_permitted": true}, "geometry": {"type": "Polygon", "coordinates": [[[-73.883842101198, 40.7477434182379], [-73.8836266638757, 40.7477666540312], [-73.8836773732371, 40.7480490339356], [-73.8838928114549, 40.7480257980483], [-73.883842101198, 40.7477434182379]]]}}, {"type": "Feature", "properties": {"zone_id": "0206YO6G1NJKJ4TX2K4TU0", "tract_id": "36081028300", "city": "FLUSHING, NY", "zone_code": "C4-3", "zone_category": "Commercial", "ev_permitted": true}, "geometry": {"type": "Polygon", "coordinates": [[[-73.8838928114549, 40.7480257980483], [-73.883531285275, 40.748064790228], [-73.8835406934283, 40.7481171764381], [-73.8839022189632, 40.7480781842283], [-73.8838928114549, 40.7480257980483]]]}}, {"type": "Feature", "properties": {"zone_id": "0201PEGUTD1OAJYEI1NJS6", "tract_id": "36081028300", "city": "FLUSHING, NY", "zone_code": "C4-3", "zone_category": "Commercial", "ev_permitted": true}, "geometry": {"type": "Polygon", "coordinates": [[[-73.8839022189632, 40.7480781842283], [-73.8835406934283, 40.7481171764381], [-73.8835507448349, 40.7481731538708], [-73.8839122715915, 40.7481341616306], [-73.8839022189632, 40.7480781842283]]]}}, {"type": "Feature", "properties": {"zone_id": "0200YMJ1RAN92YL3VXM6GI", "tract_id": "36081028300", "city": "FLUSHING, NY", "zone_code": "C4-3", "zone_category": "Commercial", "ev_permitted": true}, "geometry": {"type": "Polygon", "coordinates": [[[-73.8839122715915, 40.7481341616306], [-73.8835507448349, 40.7481731538708], [-73.8835600972002, 40.7482252308534], [-73.8839216242327, 40.7481862392868], [-73.8839122715915, 40.7481341616306]]]}}, {"type": "Feature", "properties": {"zone_id": "0200FHHQJSXOMKW8QVKG7I", "tract_id": "36081028300", "city": "FLUSHING, NY", "zone_code": "R7-1", "zone_category": "Residential", "ev_permitted": false}, "geometry": {"type": "Polygon", "coordinates": [[[-73.8835600972002, 40.7482252308534], [-73.8831954518416, 40.7482645589114], [-73.8832057280721, 40.7483217873292], [-73.8835703737365, 40.7482824599416], [-73.8835600972002, 40.7482252308534]]]}}, {"type": "Feature", "properties": {"zone_id": "0204H6IDPCHYLXNRN1NMYO", "tract_id": "36081028300", "city": "FLUSHING, NY", "zone_code": "R7-1", "zone_category": "Residential", "ev_permitted": false}, "geometry": {"type": "Polygon", "coordinates": [[[-73.8835507448349, 40.7481731538708], [-73.8831860997572, 40.7482124811968], [-73.8831954518416, 40.7482645589114], [-73.8835600972002, 40.7482252308534], [-73.8835507448349, 40.7481731538708]]]}}, {"type": "Feature", "properties": {"zone_id": "0204TK95LCYMH217AF3WSH", "tract_id": "36081028300", "city": "FLUSHING, NY", "zone_code": "C4-3", "zone_category": "Commercial", "ev_permitted": true}, "geometry": {"type": "Polygon", "coordinates": [[[-73.8835406934283, 40.7481171764381], [-73.8831760477272, 40.7481565037317], [-73.8831860997572, 40.7482124811968], [-73.8835507448349, 40.7481731538708], [-73.8835406934283, 40.7481171764381]]]}}, {"type": "Feature", "properties": {"zone_id": "0202G033WA0RF475IC3DGM", "tract_id": "36081028300", "city": "FLUSHING, NY", "zone_code": "C4-3", "zone_category": "Commercial", "ev_permitted": true}, "geometry": {"type": "Polygon", "coordinates": [[[-73.883531285275, 40.748064790228], [-73.883166640779, 40.748104117493], [-73.8831760477272, 40.7481565037317], [-73.8835406934283, 40.7481171764381], [-73.883531285275, 40.748064790228]]]}}, {"type": "Feature", "properties": {"zone_id": "0200VNKOZRWGJBDUMXMVP0", "tract_id": "36081028300", "city": "FLUSHING, NY", "zone_code": "C4-3", "zone_category": "Commercial", "ev_permitted": true}, "geometry": {"type": "Polygon", "coordinates": [[[-73.8834805765208, 40.7477824102599], [-73.8834090834401, 40.7477901205342], [-73.8834597918985, 40.7480724998308], [-73.883531285275, 40.748064790228], [-73.8834805765208, 40.7477824102599]]]}}, {"type": "Feature", "properties": {"zone_id": "0203ZMCCHVITZOIW47M0VZ", "tract_id": "36081028300", "city": "FLUSHING, NY", "zone_code": "C4-3", "zone_category": "Commercial", "ev_permitted": true}, "geometry": {"type": "Polygon", "coordinates": [[[-73.8835549471989, 40.7477743887631], [-73.8834805765208, 40.7477824102599], [-73.883531285275, 40.748064790228], [-73.8836056562611, 40.7480567694014], [-73.8835549471989, 40.7477743887631]]]}}, {"type": "Feature", "properties": {"zone_id": "0204ERUEP1WRMIP2QE95HQ", "tract_id": "36081028300", "city": "FLUSHING, NY", "zone_code": "C4-3", "zone_category": "Commercial", "ev_permitted": true}, "geometry": {"type": "Polygon", "coordinates": [[[-73.8836266638757, 40.7477666540312], [-73.8835549471989, 40.7477743887631], [-73.8836056562611, 40.7480567694014], [-73.8836773732371, 40.7480490339356], [-73.8836266638757, 40.7477666540312]]]}}, {"type": "Feature", "properties": {"zone_id": "0204LOPWF84ZM13OXF4I8A", "tract_id": "36081028300", "city": "FLUSHING, NY", "zone_code": "C4-3", "zone_category": "Commercial", "ev_permitted": true}, "geometry": {"type": "Polygon", "coordinates": [[[-73.8831914982305, 40.7478135873241], [-73.8831159335403, 40.747821737366], [-73.883166640779, 40.748104117493], [-73.8832422057819, 40.7480959681208], [-73.8831914982305, 40.7478135873241]]]}}, {"type": "Feature", "properties": {"zone_id": "0206W9FVBD94820523XIJN", "tract_id": "36081028300", "city": "FLUSHING, NY", "zone_code": "C4-3", "zone_category": "Commercial", "ev_permitted": true}, "geometry": {"type": "Polygon", "coordinates": [[[-73.8832665611199, 40.7478054922339], [-73.8831914982305, 40.7478135873241], [-73.8832422057819, 40.7480959681208], [-73.8833172689846, 40.7480878722952], [-73.8832665611199, 40.7478054922339]]]}}, {"type": "Feature", "properties": {"zone_id": "02008NMQ0YYF6P5I3EP8VL", "tract_id": "36081028300", "city": "FLUSHING, NY", "zone_code": "C4-3", "zone_category": "Commercial", "ev_permitted": true}, "geometry": {"type": "Polygon", "coordinates": [[[-73.8833353392607, 40.7477980737111], [-73.8832665611199, 40.7478054922339], [-73.8833172689846, 40.7480878722952], [-73.88338604741, 40.7480804544452], [-73.8833353392607, 40.7477980737111]]]}}, {"type": "Feature", "properties": {"zone_id": "02051NP0U3H5SQF1XUS2OB", "tract_id": "36081028300", "city": "FLUSHING, NY", "zone_code": "C4-3", "zone_category": "Commercial", "ev_permitted": true}, "geometry": {"type": "Polygon", "coordinates": [[[-73.8834090834401, 40.7477901205342], [-73.8833353392607, 40.7477980737111], [-73.88338604741, 40.7480804544452], [-73.8834597918985, 40.7480724998308], [-73.8834090834401, 40.7477901205342]]]}}, {"type": "Feature", "properties": {"zone_id": "0203EZBVVLCDNM9VAQJIUB", "tract_id": "36081028300", "city": "FLUSHING, NY", "zone_code": "C4-3", "zone_category": "Commercial", "ev_permitted": true}, "geometry": {"type": "Polygon", "coordinates": [[[-73.8844089829335, 40.7476910426843], [-73.8840508258078, 40.7477293948369], [-73.8840660715684, 40.7478120699615], [-73.8844242300538, 40.7477737177629], [-73.8844089829335, 40.7476910426843]]]}}]}