{"type": "FeatureCollection", "features": [{"type": "Feature", "properties": {"zone_id": "0205CRF29IMSVFM6HVB37A", "tract_id": "36061011800", "city": "NEW YORK, NY", "zone_code": "C1-9", "zone_category": "Commercial", "ev_permitted": true}, "geometry": {"type": "Polygon", "coordinates": [[[-73.9628763247022, 40.7658114862901], [-73.9625123706412, 40.7663019768003], [-73.9628185678325, 40.7664311654694], [-73.9631825203444, 40.7659406740013], [-73.9628763247022, 40.7658114862901]]]}}, {"type": "Feature", "properties": {"zone_id": "0207AU5ARSTBY3M0IAJSZ7", "tract_id": "36061011800", "city": "NEW YORK, NY", "zone_code": "R8B", "zone_category": "Residential", "ev_permitted": false}, "geometry": {"type": "Polygon", "coordinates": [[[-73.9616076676551, 40.7669011191343], [-73.9612484237529, 40.7673946215312], [-73.9619156711313, 40.7676761465012], [-73.9622749125324, 40.7671826413422], [-73.9616076676551, 40.7669011191343]]]}}, {"type": "Feature", "properties": {"zone_id": "0207G9SB2UBOPKOXGYIOQD", "tract_id": "36061011800", "city": "NEW YORK, NY", "zone_code": "R8B", "zone_category": "Residential", "ev_permitted": false}, "geometry": {"type": "Polygon", "coordinates": [[[-73.9618777148573, 40.7665278340561], [-73.9617013040867, 40.7667701756402], [-73.9623698351254, 40.767052240883], [-73.9625462442105, 40.7668098982855], [-73.9618777148573, 40.7665278340561]]]}}, {"type": "Feature", "properties": {"zone_id": "0202A1G5QYRHFQIKTSQQZV", "tract_id": "36061011800", "city": "NEW YORK, NY", "zone_code": "C1-9", "zone_category": "Commercial", "ev_permitted": true}, "geometry": {"type": "Polygon", "coordinates": [[[-73.9624059852166, 40.7664287795771], [-73.9623596093434, 40.7664924909176], [-73.9626791518235, 40.7666273104612], [-73.9627255284091, 40.7665635989937], [-73.9624059852166, 40.7664287795771]]]}}, {"type": "Feature", "properties": {"zone_id": "0206I6WFZ8JK2LO5PLLYNC", "tract_id": "36061011800", "city": "NEW YORK, NY", "zone_code": "C1-9", "zone_category": "Commercial", "ev_permitted": true}, "geometry": {"type": "Polygon", "coordinates": [[[-73.9623596093434, 40.7664924909176], [-73.9622266992754, 40.7666750776736], [-73.9625462442105, 40.7668098982855], [-73.9626791518235, 40.7666273104612], [-73.9623596093434, 40.7664924909176]]]}}, {"type": "Feature", "properties": {"zone_id": "0204YJZCLCRAY5SF2S2BM6", "tract_id": "36061011800", "city": "NEW YORK, NY", "zone_code": "R8B", "zone_category": "Residential", "ev_permitted": false}, "geometry": {"type": "Polygon", "coordinates": [[[-73.9618190552525, 40.7665044029104], [-73.961643380556, 40.7667457363424], [-73.9617013040867, 40.7667701756402], [-73.9618769786378, 40.7665288421207], [-73.9618190552525, 40.7665044029104]]]}}, {"type": "Feature", "properties": {"zone_id": "0205ZHCK44UCVPR1KRI299", "tract_id": "36061011800", "city": "NEW YORK, NY", "zone_code": "R8B", "zone_category": "Residential", "ev_permitted": false}, "geometry": {"type": "Polygon", "coordinates": [[[-73.9617619856393, 40.766480323713], [-73.9615863089516, 40.7667216563556], [-73.961643380556, 40.7667457363424], [-73.9618190552525, 40.7665044029104], [-73.9617619856393, 40.766480323713]]]}}, {"type": "Feature", "properties": {"zone_id": "0205HR41OJ3MSPHYB29AAO", "tract_id": "36061011800", "city": "NEW YORK, NY", "zone_code": "R8B", "zone_category": "Residential", "ev_permitted": false}, "geometry": {"type": "Polygon", "coordinates": [[[-73.9617049447095, 40.7664562571445], [-73.9615292697265, 40.7666975904042], [-73.9615863089516, 40.7667216563556], [-73.9617619856393, 40.766480323713], [-73.9617049447095, 40.7664562571445]]]}}, {"type": "Feature", "properties": {"zone_id": "0201PE2W40ZC5Y15Z322RT", "tract_id": "36061011800", "city": "NEW YORK, NY", "zone_code": "R8B", "zone_category": "Residential", "ev_permitted": false}, "geometry": {"type": "Polygon", "coordinates": [[[-73.9616459801609, 40.7664313783422], [-73.9614703041057, 40.7666727115126], [-73.9615292697265, 40.7666975904042], [-73.9617049447095, 40.7664562571445], [-73.9616459801609, 40.7664313783422]]]}}, {"type": "Feature", "properties": {"zone_id": "0207G92HDNKG6H3SXNNVER", "tract_id": "36061011800", "city": "NEW YORK, NY", "zone_code": "R8B", "zone_category": "Residential", "ev_permitted": false}, "geometry": {"type": "Polygon", "coordinates": [[[-73.9615908038413, 40.7664080979046], [-73.9614151276476, 40.7666494309917], [-73.9614703041057, 40.7666727115126], [-73.9616459801609, 40.7664313783422], [-73.9615908038413, 40.7664080979046]]]}}, {"type": "Feature", "properties": {"zone_id": "0203CT0K4UPUCMSDNJM3G8", "tract_id": "36061011800", "city": "NEW YORK, NY", "zone_code": "R8B", "zone_category": "Residential", "ev_permitted": false}, "geometry": {"type": "Polygon", "coordinates": [[[-73.9615325332619, 40.766383512282], [-73.9613568569223, 40.7666248445785], [-73.9614151276476, 40.7666494309917], [-73.9615908038413, 40.7664080979046], [-73.9615325332619, 40.766383512282]]]}}, {"type": "Feature", "properties": {"zone_id": "0202XYU86TIP6CL5V7S44O", "tract_id": "36061011800", "city": "NEW YORK, NY", "zone_code": "R8B", "zone_category": "Residential", "ev_permitted": false}, "geometry": {"type": "Polygon", "coordinates": [[[-73.9625414043715, 40.7659931031398], [-73.9623599354251, 40.7662376616811], [-73.9625123706412, 40.7663019768003], [-73.962693838279, 40.7660574180209], [-73.9625414043715, 40.7659931031398]]]}}, {"type": "Feature", "properties": {"zone_id": "0204ACAJT4Z2FD1RANOYQ6", "tract_id": "36061011800", "city": "NEW YORK, NY", "zone_code": "R8B", "zone_category": "Residential", "ev_permitted": false}, "geometry": {"type": "Polygon", "coordinates": [[[-73.96239774547, 40.7659324903931], [-73.9622162761612, 40.7661770487102], [-73.9623599354251, 40.7662376616811], [-73.9625414043715, 40.7659931031398], [-73.96239774547, 40.7659324903931]]]}}, {"type": "Feature", "properties": {"zone_id": "02077CPQERL83UY21E6JJD", "tract_id": "36061011800", "city": "NEW YORK, NY", "zone_code": "R8B", "zone_category": "Residential", "ev_permitted": false}, "geometry": {"type": "Polygon", "coordinates": [[[-73.9616967411228, 40.7661295337498], [-73.9615167189889, 40.766376839519], [-73.9622266992754, 40.7666750776736], [-73.9624059852166, 40.7664287795771], [-73.9616967411228, 40.7661295337498]]]}}, {"type": "Feature", "properties": {"zone_id": "02000FXJSIDL23K6NVXDKG", "tract_id": "36061011800", "city": "NEW YORK, NY", "zone_code": "R8B", "zone_category": "Residential", "ev_permitted": false}, "geometry": {"type": "Polygon", "coordinates": [[[-73.9614762510578, 40.7663597655607], [-73.961300575501, 40.7666010977726], [-73.9613568569223, 40.7666248445785], [-73.9615325332619, 40.766383512282], [-73.9614762510578, 40.7663597655607]]]}}, {"type": "Feature", "properties": {"zone_id": "02017I8YBBWXL51YATFL5H", "tract_id": "36061011800", "city": "NEW YORK, NY", "zone_code": "R8B", "zone_category": "Residential", "ev_permitted": false}, "geometry": {"type": "Polygon", "coordinates": [[[-73.9614195595864, 40.7663358451193], [-73.9612438829628, 40.7665771779479], [-73.961300575501, 40.7666010977726], [-73.9614762510578, 40.7663597655607], [-73.9614195595864, 40.7663358451193]]]}}, {"type": "Feature", "properties": {"zone_id": "0204DZ8VO5LQQABN3BFT1R", "tract_id": "36061011800", "city": "NEW YORK, NY", "zone_code": "R8B", "zone_category": "Residential", "ev_permitted": false}, "geometry": {"type": "Polygon", "coordinates": [[[-73.9615311797147, 40.7660596783631], [-73.9613511580787, 40.7663069845793], [-73.9615167189889, 40.766376839519], [-73.9616967411228, 40.7661295337498], [-73.9615311797147, 40.7660596783631]]]}}, {"type": "Feature", "properties": {"zone_id": "02059W9H52VPHMQTX2YA0F", "tract_id": "36061011800", "city": "NEW YORK, NY", "zone_code": "R8B", "zone_category": "Residential", "ev_permitted": false}, "geometry": {"type": "Polygon", "coordinates": [[[-73.9614441536302, 40.7660229595004], [-73.9612641299223, 40.7662702648786], [-73.9613511580787, 40.7663069845793], [-73.9615311797147, 40.7660596783631], [-73.9614441536302, 40.7660229595004]]]}}, {"type": "Feature", "properties": {"zone_id": "02073WG12FTFWTFQQZRNBS", "tract_id": "36061011800", "city": "NEW YORK, NY", "zone_code": "TA", "zone_category": "Other", "ev_permitted": false}, "geometry": {"type": "Polygon", "coordinates": [[[-73.9603435934541, 40.7663677660345], [-73.9599843430622, 40.7668612645291], [-73.9612484237529, 40.7673946215312], [-73.9616076676551, 40.7669011191343], [-73.9603435934541, 40.7663677660345]]]}}, {"type": "Feature", "properties": {"zone_id": "02034NMHT7JALL3P3XYMSX", "tract_id": "36061011800", "city": "NEW YORK, NY", "zone_code": "R8B", "zone_category": "Residential", "ev_permitted": false}, "geometry": {"type": "Polygon", "coordinates": [[[-73.9607942226927, 40.7657487311653], [-73.9604385186671, 40.7662373671507], [-73.9608040157039, 40.7663915840535], [-73.960980917092, 40.7661485708528], [-73.9610086944407, 40.766160291388], [-73.9611874951496, 40.7659146667407], [-73.9607942226927, 40.7657487311653]]]}}, {"type": "Feature", "properties": {"zone_id": "02057XZF7B9K5N7LF6KBW4", "tract_id": "36061011800", "city": "NEW YORK, NY", "zone_code": "R8B", "zone_category": "Residential", "ev_permitted": false}, "geometry": {"type": "Polygon", "coordinates": [[[-73.9613625512427, 40.7663117910394], [-73.9611868744755, 40.7665531244845], [-73.9612438829628, 40.7665771779479], [-73.9614195595864, 40.7663358451193], [-73.9613625512427, 40.7663117910394]]]}}, {"type": "Feature", "properties": {"zone_id": "0205HKMNG7QHAQOMZF120D", "tract_id": "36061011800", "city": "NEW YORK, NY", "zone_code": "R8B", "zone_category": "Residential", "ev_permitted": false}, "geometry": {"type": "Polygon", "coordinates": [[[-73.961307027718, 40.766288364197], [-73.9611313517356, 40.7665296975587], [-73.9611868744755, 40.7665531244845], [-73.9613625512427, 40.7663117910394], [-73.961307027718, 40.766288364197]]]}}, {"type": "Feature", "properties": {"zone_id": "02054P64HMKFUZ9131DB4B", "tract_id": "36061011800", "city": "NEW YORK, NY", "zone_code": "R8B", "zone_category": "Residential", "ev_permitted": false}, "geometry": {"type": "Polygon", "coordinates": [[[-73.9612475580691, 40.766263272819], [-73.9610718819378, 40.7665046053882], [-73.9611313517356, 40.7665296975587], [-73.961307027718, 40.766288364197], [-73.9612475580691, 40.766263272819]]]}}, {"type": "Feature", "properties": {"zone_id": "0202ODR6P5P0BMO40ZTN3X", "tract_id": "36061011800", "city": "NEW YORK, NY", "zone_code": "R8B", "zone_category": "Residential", "ev_permitted": false}, "geometry": {"type": "Polygon", "coordinates": [[[-73.9611944331812, 40.7662408578478], [-73.9610187569169, 40.7664821896341], [-73.9610718819378, 40.7665046053882], [-73.9612475580691, 40.766263272819], [-73.9611944331812, 40.7662408578478]]]}}, {"type": "Feature", "properties": {"zone_id": "02053F9A0FT5CSCULPN08G", "tract_id": "36061011800", "city": "NEW YORK, NY", "zone_code": "R8B", "zone_category": "Residential", "ev_permitted": false}, "geometry": {"type": "Polygon", "coordinates": [[[-73.9611415300752, 40.7662185363797], [-73.9609658527535, 40.7664598687886], [-73.9610187569169, 40.7664821896341], [-73.9611944331812, 40.7662408578478], [-73.9611415300752, 40.7662185363797]]]}}, {"type": "Feature", "properties": {"zone_id": "0206LNOBP3IGOBX7TCIMWI", "tract_id": "36061011800", "city": "NEW YORK, NY", "zone_code": "R8B", "zone_category": "Residential", "ev_permitted": false}, "geometry": {"type": "Polygon", "coordinates": [[[-73.9610926382028, 40.7661972786545], [-73.9609166102166, 40.7664390914859], [-73.9609658527535, 40.7664598687886], [-73.9611415300752, 40.7662185363797], [-73.9610926382028, 40.7661972786545]]]}}, {"type": "Feature", "properties": {"zone_id": "0200Y5Q9AESAF5OXTOCSS0", "tract_id": "36061011800", "city": "NEW YORK, NY", "zone_code": "R8B", "zone_category": "Residential", "ev_permitted": false}, "geometry": {"type": "Polygon", "coordinates": [[[-73.9610383658783, 40.7661728107718], [-73.9608614655595, 40.7664158240601], [-73.9609166102166, 40.7664390914859], [-73.9610935113201, 40.766196078114], [-73.9610383658783, 40.7661728107718]]]}}, {"type": "Feature", "properties": {"zone_id": "02037HSKI5RULYNPBP3IQ2", "tract_id": "36061011800", "city": "NEW YORK, NY", "zone_code": "R8B", "zone_category": "Residential", "ev_permitted": false}, "geometry": {"type": "Polygon", "coordinates": [[[-73.960980917092, 40.7661485708528], [-73.9608040157039, 40.7663915840535], [-73.9608614655595, 40.7664158240601], [-73.9610383658783, 40.7661728107718], [-73.960980917092, 40.7661485708528]]]}}, {"type": "Feature", "properties": {"zone_id": "0202RW8CO4DRWF8PMNLPC5", "tract_id": "36061011800", "city": "NEW YORK, NY", "zone_code": "R8B", "zone_category": "Residential", "ev_permitted": false}, "geometry": {"type": "Polygon", "coordinates": [[[-73.9613568754062, 40.7659861336837], [-73.9611768514733, 40.7662334396296], [-73.9612641299223, 40.7662702648786], [-73.9614441536302, 40.7660229595004], [-73.9613568754062, 40.7659861336837]]]}}, {"type": "Feature", "properties": {"zone_id": "0203D3TODNP83FS27LM48C", "tract_id": "36061011800", "city": "NEW YORK, NY", "zone_code": "R8B", "zone_category": "Residential", "ev_permitted": false}, "geometry": {"type": "Polygon", "coordinates": [[[-73.9612723108877, 40.7659504540387], [-73.9610926382028, 40.7661972786545], [-73.9611768514733, 40.7662334396296], [-73.9613568754062, 40.7659861336837], [-73.9612723108877, 40.7659504540387]]]}}, {"type": "Feature", "properties": {"zone_id": "0205FFVCPNNPWKRWC7STZZ", "tract_id": "36061011800", "city": "NEW YORK, NY", "zone_code": "R8B", "zone_category": "Residential", "ev_permitted": false}, "geometry": {"type": "Polygon", "coordinates": [[[-73.9611874951496, 40.7659146667407], [-73.9610086944407, 40.766160291388], [-73.9610935113201, 40.766196078114], [-73.9612723108877, 40.7659504540387], [-73.9611874951496, 40.7659146667407]]]}}, {"type": "Feature", "properties": {"zone_id": "0201E5CMUJSHKAF5085WE8", "tract_id": "36061011800", "city": "NEW YORK, NY", "zone_code": "R8B", "zone_category": "Residential", "ev_permitted": false}, "geometry": {"type": "Polygon", "coordinates": [[[-73.9633660304613, 40.7643775088223], [-73.9630109860095, 40.7648655431467], [-73.9637443501197, 40.7651754632532], [-73.9640987721359, 40.7646882774123], [-73.9633660304613, 40.7643775088223]]]}}, {"type": "Feature", "properties": {"zone_id": "0203D4NMOB2ZXC4CJZ5RMV", "tract_id": "36061011800", "city": "NEW YORK, NY", "zone_code": "R8B", "zone_category": "Residential", "ev_permitted": false}, "geometry": {"type": "Polygon", "coordinates": [[[-73.9629727353415, 40.7642107023196], [-73.9628009736936, 40.7644467998647], [-73.9631942697774, 40.764613606948], [-73.9633660304613, 40.7643775088223], [-73.9629727353415, 40.7642107023196]]]}}, {"type": "Feature", "properties": {"zone_id": "0200TO8PE07C1QO0FRV1FZ", "tract_id": "36061011800", "city": "NEW YORK, NY", "zone_code": "R8B", "zone_category": "Residential", "ev_permitted": false}, "geometry": {"type": "Polygon", "coordinates": [[[-73.9617079175227, 40.7644988864411], [-73.9614152273306, 40.7648933339109], [-73.9633529945646, 40.7657109247095], [-73.9636456777971, 40.7653164730676], [-73.9617079175227, 40.7644988864411]]]}}, {"type": "Feature", "properties": {"zone_id": "0205G49UKTQ151Z9NYTVVX", "tract_id": "36061011800", "city": "NEW YORK, NY", "zone_code": "R8B", "zone_category": "Residential", "ev_permitted": false}, "geometry": {"type": "Polygon", "coordinates": [[[-73.9615684555703, 40.765259663864], [-73.9613859667538, 40.7655055935437], [-73.962693838279, 40.7660574180209], [-73.9628763247022, 40.7658114862901], [-73.9615684555703, 40.765259663864]]]}}, {"type": "Feature", "properties": {"zone_id": "0201V9XZCR7P5FB5P99RMR", "tract_id": "36061011800", "city": "NEW YORK, NY", "zone_code": "R8B", "zone_category": "Residential", "ev_permitted": false}, "geometry": {"type": "Polygon", "coordinates": [[[-73.9612447475953, 40.7651230789577], [-73.9608921727473, 40.7656183701662], [-73.9618379841079, 40.7660174384753], [-73.9620194543709, 40.7657728807481], [-73.9613859667538, 40.7655055935437], [-73.9615684555703, 40.765259663864], [-73.9612447475953, 40.7651230789577]]]}}, {"type": "Feature", "properties": {"zone_id": "0205AGFRRKKYHYTWWB18P8", "tract_id": "36061011800", "city": "NEW YORK, NY", "zone_code": "R8B", "zone_category": "Residential", "ev_permitted": false}, "geometry": {"type": "Polygon", "coordinates": [[[-73.9620194543709, 40.7657728807481], [-73.9618379841079, 40.7660174384753], [-73.9622162761612, 40.7661770487102], [-73.96239774547, 40.7659324903931], [-73.9620194543709, 40.7657728807481]]]}}, {"type": "Feature", "properties": {"zone_id": "0203ECW3FRJ6II7P4SWK2Z", "tract_id": "36061011800", "city": "NEW YORK, NY", "zone_code": "C2-7", "zone_category": "Commercial", "ev_permitted": true}, "geometry": {"type": "Polygon", "coordinates": [[[-73.9599159882741, 40.7645560238408], [-73.959551843921, 40.7650522007416], [-73.960265843964, 40.7653528618575], [-73.9606299254475, 40.7648567649124], [-73.9599159882741, 40.7645560238408]]]}}, {"type": "Feature", "properties": {"zone_id": "0205R5S40OSCI3UOE4K8WM", "tract_id": "36061011800", "city": "NEW YORK, NY", "zone_code": "C2-8", "zone_category": "Commercial", "ev_permitted": true}, "geometry": {"type": "Polygon", "coordinates": [[[-73.9606299254475, 40.7648567649124], [-73.960265843964, 40.7653528618575], [-73.9605807138287, 40.7654854497909], [-73.9609455078575, 40.7649896999163], [-73.9606299254475, 40.7648567649124]]]}}, {"type": "Feature", "properties": {"zone_id": "0203Q59V05O2XKW7OGEIZH", "tract_id": "36061011800", "city": "NEW YORK, NY", "zone_code": "R8B", "zone_category": "Residential", "ev_permitted": false}, "geometry": {"type": "Polygon", "coordinates": [[[-73.9624849853478, 40.7640038328482], [-73.9621291928378, 40.7644928866015], [-73.9630109860095, 40.7648655431467], [-73.9631942697774, 40.764613606948], [-73.9628009736936, 40.7644467998647], [-73.9629727353415, 40.7642107023196], [-73.9624849853478, 40.7640038328482]]]}}, {"type": "Feature", "properties": {"zone_id": "0203JRJ0DYSB9CMP8KZDG7", "tract_id": "36061011800", "city": "NEW YORK, NY", "zone_code": "C2-8", "zone_category": "Commercial", "ev_permitted": true}, "geometry": {"type": "Polygon", "coordinates": [[[-73.9621486040482, 40.7638611606405], [-73.9617931938884, 40.7643508859326], [-73.9621291928378, 40.7644928866015], [-73.9624849853478, 40.7640038328482], [-73.9621486040482, 40.7638611606405]]]}}, {"type": "Feature", "properties": {"zone_id": "02010OFXZ0CY89HJ2A1174", "tract_id": "36061011800", "city": "NEW YORK, NY", "zone_code": "R8B", "zone_category": "Residential", "ev_permitted": false}, "geometry": {"type": "Polygon", "coordinates": [[[-73.9613984390829, 40.7637917249022], [-73.9611742262124, 40.764100685242], [-73.9612911687877, 40.7641499693976], [-73.9613767470188, 40.7640320463972], [-73.9615983041634, 40.7641261524334], [-73.9617367234154, 40.7639354124588], [-73.9613984390829, 40.7637917249022]]]}}, {"type": "Feature", "properties": {"zone_id": "02056RTO8XY8VWGK3UDSUA", "tract_id": "36061011800", "city": "NEW YORK, NY", "zone_code": "C2-8", "zone_category": "Commercial", "ev_permitted": true}, "geometry": {"type": "Polygon", "coordinates": [[[-73.9613767470188, 40.7640320463972], [-73.9612911687877, 40.7641499693976], [-73.9615131349993, 40.7642435136102], [-73.9615983041634, 40.7641261524334], [-73.9613767470188, 40.7640320463972]]]}}, {"type": "Feature", "properties": {"zone_id": "0206TPRZBHA6616G7LCMSN", "tract_id": "36061011800", "city": "NEW YORK, NY", "zone_code": "R8B", "zone_category": "Residential", "ev_permitted": false}, "geometry": {"type": "Polygon", "coordinates": [[[-73.9610855656722, 40.764227839221], [-73.9607200389387, 40.7647259179387], [-73.9610403301453, 40.7648608364778], [-73.9614064241778, 40.7643633071225], [-73.9610855656722, 40.764227839221]]]}}, {"type": "Feature", "properties": {"zone_id": "0205NRPB3N77CCFX6ZNO00", "tract_id": "36061011800", "city": "NEW YORK, NY", "zone_code": "R8B", "zone_category": "Residential", "ev_permitted": false}, "geometry": {"type": "Polygon", "coordinates": [[[-73.9608472129286, 40.7644539659786], [-73.9606647312883, 40.7647026201427], [-73.9607200389387, 40.7647259179387], [-73.9609025204364, 40.7644772636879], [-73.9608472129286, 40.7644539659786]]]}}, {"type": "Feature", "properties": {"zone_id": "0204FH6RQXYOZ2R7WRTXAG", "tract_id": "36061011800", "city": "NEW YORK, NY", "zone_code": "R8B", "zone_category": "Residential", "ev_permitted": false}, "geometry": {"type": "Polygon", "coordinates": [[[-73.9607269255615, 40.7644032960062], [-73.9605444426863, 40.7646519506839], [-73.9606647312883, 40.7647026201427], [-73.9608472129286, 40.7644539659786], [-73.9607269255615, 40.7644032960062]]]}}, {"type": "Feature", "properties": {"zone_id": "0202ZH5YNOR5L7KQZ29WMZ", "tract_id": "36061011800", "city": "NEW YORK, NY", "zone_code": "R8B", "zone_category": "Residential", "ev_permitted": false}, "geometry": {"type": "Polygon", "coordinates": [[[-73.9606091809874, 40.7643536976218], [-73.960426697809, 40.7646023514122], [-73.9605444426863, 40.7646519506839], [-73.9607269255615, 40.7644032960062], [-73.9606091809874, 40.7643536976218]]]}}, {"type": "Feature", "properties": {"zone_id": "0202C8W2U17HQOMEIHHZHM", "tract_id": "36061011800", "city": "NEW YORK, NY", "zone_code": "R8B", "zone_category": "Residential", "ev_permitted": false}, "geometry": {"type": "Polygon", "coordinates": [[[-73.9605487921633, 40.7643282591525], [-73.9603663088291, 40.7645769128482], [-73.960426697809, 40.7646023514122], [-73.9606091809874, 40.7643536976218], [-73.9605487921633, 40.7643282591525]]]}}, {"type": "Feature", "properties": {"zone_id": "0206C4ZC0XA952GYQB41P4", "tract_id": "36061011800", "city": "NEW YORK, NY", "zone_code": "R8B", "zone_category": "Residential", "ev_permitted": false}, "geometry": {"type": "Polygon", "coordinates": [[[-73.9604921692517, 40.7643044071304], [-73.9603096848473, 40.7645530607369], [-73.9603663088291, 40.7645769128482], [-73.9605487921633, 40.7643282591525], [-73.9604921692517, 40.7643044071304]]]}}, {"type": "Feature", "properties": {"zone_id": "0200IJJ0WKEROFG209ZEMY", "tract_id": "36061011800", "city": "NEW YORK, NY", "zone_code": "R8B", "zone_category": "Residential", "ev_permitted": false}, "geometry": {"type": "Polygon", "coordinates": [[[-73.9611033425885, 40.7637418362852], [-73.9609205181563, 40.763993762321], [-73.9611742262124, 40.764100685242], [-73.9613565829159, 40.7638494022819], [-73.9611033425885, 40.7637418362852]]]}}, {"type": "Feature", "properties": {"zone_id": "02074LU1V0OBMZNM87YBT4", "tract_id": "36061011800", "city": "NEW YORK, NY", "zone_code": "R8B", "zone_category": "Residential", "ev_permitted": false}, "geometry": {"type": "Polygon", "coordinates": [[[-73.9605258918388, 40.7639915387953], [-73.9603425408669, 40.7642413768428], [-73.9603336639344, 40.7642376377754], [-73.9602472103473, 40.7643554409476], [-73.960263435162, 40.7643622735311], [-73.9601674039566, 40.7644931258382], [-73.96024769389, 40.7645269470108], [-73.9604301775301, 40.7642782935012], [-73.9609025204364, 40.7644772636879], [-73.9610855656722, 40.764227839221], [-73.9605258918388, 40.7639915387953]]]}}, {"type": "Feature", "properties": {"zone_id": "02008AWJ9ADVSBEM2YABSH", "tract_id": "36061011800", "city": "NEW YORK, NY", "zone_code": "R8B", "zone_category": "Residential", "ev_permitted": false}, "geometry": {"type": "Polygon", "coordinates": [[[-73.9604301775301, 40.7642782935012], [-73.96024769389, 40.7645269470108], [-73.9603096848473, 40.7645530607369], [-73.9604921692517, 40.7643044071304], [-73.9604301775301, 40.7642782935012]]]}}, {"type": "Feature", "properties": {"zone_id": "0205T1F64CZ6RR9HKIVTMC", "tract_id": "36061011800", "city": "NEW YORK, NY", "zone_code": "R8B", "zone_category": "Residential", "ev_permitted": false}, "geometry": {"type": "Polygon", "coordinates": [[[-73.9602219881817, 40.7641905945279], [-73.9600395040042, 40.7644392484137], [-73.9601674039566, 40.7644931258382], [-73.960263435162, 40.7643622735311], [-73.9602472103473, 40.7643554409476], [-73.9603336639344, 40.7642376377754], [-73.9602219881817, 40.7641905945279]]]}}, {"type": "Feature", "properties": {"zone_id": "0202XH1OH189KRIU2BUPNJ", "tract_id": "36061011800", "city": "NEW YORK, NY", "zone_code": "R8B", "zone_category": "Residential", "ev_permitted": false}, "geometry": {"type": "Polygon", "coordinates": [[[-73.9601162274415, 40.7641460490468], [-73.9599337466907, 40.7643946978494], [-73.9600395040042, 40.7644392484137], [-73.9602219881817, 40.7641905945279], [-73.9601162274415, 40.7641460490468]]]}}, {"type": "Feature", "properties": {"zone_id": "0206GC0KY235K8NCOVLX2L", "tract_id": "36061011800", "city": "NEW YORK, NY", "zone_code": "R8B", "zone_category": "Residential", "ev_permitted": false}, "geometry": {"type": "Polygon", "coordinates": [[[-73.9600332725663, 40.7641110983937], [-73.9598507879025, 40.7643597512808], [-73.9599337466907, 40.7643946978494], [-73.9601162274415, 40.7641460490468], [-73.9600332725663, 40.7641110983937]]]}}, {"type": "Feature", "properties": {"zone_id": "0202WE856WRK8OEG2RJ6TR", "tract_id": "36061011800", "city": "NEW YORK, NY", "zone_code": "R8B", "zone_category": "Residential", "ev_permitted": false}, "geometry": {"type": "Polygon", "coordinates": [[[-73.9604688876806, 40.7639674709151], [-73.9602855051156, 40.7642173503185], [-73.9603425408669, 40.7642413768428], [-73.9605258918388, 40.7639915387953], [-73.9604688876806, 40.7639674709151]]]}}, {"type": "Feature", "properties": {"zone_id": "0204E84LGE2N484YWAR2V5", "tract_id": "36061011800", "city": "NEW YORK, NY", "zone_code": "R8B", "zone_category": "Residential", "ev_permitted": false}, "geometry": {"type": "Polygon", "coordinates": [[[-73.9604094527659, 40.7639423769989], [-73.9602260385997, 40.7641923005651], [-73.9602855051156, 40.7642173503185], [-73.9604688876806, 40.7639674709151], [-73.9604094527659, 40.7639423769989]]]}}, {"type": "Feature", "properties": {"zone_id": "02013ZO07YLB3OB2DETO2V", "tract_id": "36061011800", "city": "NEW YORK, NY", "zone_code": "R8B", "zone_category": "Residential", "ev_permitted": false}, "geometry": {"type": "Polygon", "coordinates": [[[-73.9603412795975, 40.7639135932186], [-73.9601578273348, 40.7641635672552], [-73.9602260385997, 40.7641923005651], [-73.9604094527659, 40.7639423769989], [-73.9603412795975, 40.7639135932186]]]}}, {"type": "Feature", "properties": {"zone_id": "0202P24CWVSIXY2KA7MRX6", "tract_id": "36061011800", "city": "NEW YORK, NY", "zone_code": "R8B", "zone_category": "Residential", "ev_permitted": false}, "geometry": {"type": "Polygon", "coordinates": [[[-73.9602799637095, 40.7638877038862], [-73.9600964724424, 40.7641377305117], [-73.9601578273348, 40.7641635672552], [-73.9603412795975, 40.7639135932186], [-73.9602799637095, 40.7638877038862]]]}}, {"type": "Feature", "properties": {"zone_id": "02037WX8T4VGDA7JMFDIJW", "tract_id": "36061011800", "city": "NEW YORK, NY", "zone_code": "R8B", "zone_category": "Residential", "ev_permitted": false}, "geometry": {"type": "Polygon", "coordinates": [[[-73.9602186654227, 40.763861822959], [-73.9600351471735, 40.7641118881245], [-73.9600964724424, 40.7641377305117], [-73.9602799637095, 40.7638877038862], [-73.9602186654227, 40.763861822959]]]}}, {"type": "Feature", "properties": {"zone_id": "0203YRXPNH4G7I6P9AXGPI", "tract_id": "36061011800", "city": "NEW YORK, NY", "zone_code": "R8B", "zone_category": "Residential", "ev_permitted": false}, "geometry": {"type": "Polygon", "coordinates": [[[-73.960166276384, 40.7638397035764], [-73.9599827293276, 40.7640898072953], [-73.9600351471735, 40.7641118881245], [-73.9602186654227, 40.763861822959], [-73.960166276384, 40.7638397035764]]]}}, {"type": "Feature", "properties": {"zone_id": "02077WT4YVZZLODGP60VP7", "tract_id": "36061011800", "city": "NEW YORK, NY", "zone_code": "R8B", "zone_category": "Residential", "ev_permitted": false}, "geometry": {"type": "Polygon", "coordinates": [[[-73.9600613293372, 40.7637953930101], [-73.9598777246655, 40.7640455738354], [-73.9599827293276, 40.7640898072953], [-73.960166276384, 40.7638397035764], [-73.9600613293372, 40.7637953930101]]]}}, {"type": "Feature", "properties": {"zone_id": "0206EWKK2RPZQ1VHD16L6E", "tract_id": "36061011800", "city": "NEW YORK, NY", "zone_code": "R8B", "zone_category": "Residential", "ev_permitted": false}, "geometry": {"type": "Polygon", "coordinates": [[[-73.961219345558, 40.7634784545918], [-73.9610343700853, 40.7637333544284], [-73.9610881560588, 40.7637627639242], [-73.9611033425885, 40.7637418362852], [-73.9613565829159, 40.7638494022819], [-73.9614437828738, 40.7637292411148], [-73.9617820669869, 40.7638729285396], [-73.9618694955738, 40.7637524523377], [-73.961219345558, 40.7634784545918]]]}}, {"type": "Feature", "properties": {"zone_id": "02060T5V94B86OOGD0VOLT", "tract_id": "36061011800", "city": "NEW YORK, NY", "zone_code": "R8B", "zone_category": "Residential", "ev_permitted": false}, "geometry": {"type": "Polygon", "coordinates": [[[-73.9614437828738, 40.7637292411148], [-73.9613984390829, 40.7637917249022], [-73.9617367234154, 40.7639354124588], [-73.9617820669869, 40.7638729285396], [-73.9614437828738, 40.7637292411148]]]}}, {"type": "Feature", "properties": {"zone_id": "02035G6IV5C4C9GZ7PBM87", "tract_id": "36061011800", "city": "NEW YORK, NY", "zone_code": "R8B", "zone_category": "Residential", "ev_permitted": false}, "geometry": {"type": "Polygon", "coordinates": [[[-73.960824183131, 40.7633119155406], [-73.9606488707389, 40.7635535027553], [-73.960805312265, 40.763619953382], [-73.9608244527251, 40.7635935787446], [-73.9610624448277, 40.7636946687605], [-73.961219345558, 40.7634784545918], [-73.960824183131, 40.7633119155406]]]}}, {"type": "Feature", "properties": {"zone_id": "0203BO63FQ2W2GK0TL4D2A", "tract_id": "36061011800", "city": "NEW YORK, NY", "zone_code": "R8B", "zone_category": "Residential", "ev_permitted": false}, "geometry": {"type": "Polygon", "coordinates": [[[-73.9608244527251, 40.7635935787446], [-73.9606245550949, 40.7638690303941], [-73.9609205181563, 40.763993762321], [-73.9610881560588, 40.7637627639242], [-73.9610343700853, 40.7637333544284], [-73.9610624448277, 40.7636946687605], [-73.9608244527251, 40.7635935787446]]]}}, {"type": "Feature", "properties": {"zone_id": "0204V8TVYHQ4Y9ABZCDVPD", "tract_id": "36061011800", "city": "NEW YORK, NY", "zone_code": "R8B", "zone_category": "Residential", "ev_permitted": false}, "geometry": {"type": "Polygon", "coordinates": [[[-73.9606869539435, 40.7635696796116], [-73.960505977269, 40.7638190563979], [-73.9606245550949, 40.7638690303941], [-73.960805312265, 40.763619953382], [-73.9606869539435, 40.7635696796116]]]}}, {"type": "Feature", "properties": {"zone_id": "0204T9VND5AP74Y93YQFZG", "tract_id": "36061011800", "city": "NEW YORK, NY", "zone_code": "R8B", "zone_category": "Residential", "ev_permitted": false}, "geometry": {"type": "Polygon", "coordinates": [[[-73.9604505223982, 40.7634692512536], [-73.96026911041, 40.7637192275889], [-73.960505977269, 40.7638190563979], [-73.9606869539435, 40.7635696796116], [-73.9604505223982, 40.7634692512536]]]}}, {"type": "Feature", "properties": {"zone_id": "0204RMG8XBJDBLOXW4L1AV", "tract_id": "36061011800", "city": "NEW YORK, NY", "zone_code": "R8B", "zone_category": "Residential", "ev_permitted": false}, "geometry": {"type": "Polygon", "coordinates": [[[-73.9603350887475, 40.7634202183088], [-73.960153462809, 40.7636704880997], [-73.96026911041, 40.7637192275889], [-73.9604505223982, 40.7634692512536], [-73.9603350887475, 40.7634202183088]]]}}, {"type": "Feature", "properties": {"zone_id": "0205NCRVQDU3Z6HCJJ44C0", "tract_id": "36061011800", "city": "NEW YORK, NY", "zone_code": "R8B", "zone_category": "Residential", "ev_permitted": false}, "geometry": {"type": "Polygon", "coordinates": [[[-73.9602479837664, 40.7633832188433], [-73.9600661975935, 40.7636337097788], [-73.960153462809, 40.7636704880997], [-73.9603350887475, 40.7634202183088], [-73.9602479837664, 40.7633832188433]]]}}, {"type": "Feature", "properties": {"zone_id": "0207G00Q5HOTX4Y4KS0KWZ", "tract_id": "36061011800", "city": "NEW YORK, NY", "zone_code": "R8B", "zone_category": "Residential", "ev_permitted": false}, "geometry": {"type": "Polygon", "coordinates": [[[-73.9601611865394, 40.7633463494091], [-73.9599792392086, 40.7635970614891], [-73.9600661975935, 40.7636337097788], [-73.9602479837664, 40.7633832188433], [-73.9601611865394, 40.7633463494091]]]}}, {"type": "Feature", "properties": {"zone_id": "0206C2W87YYA7V06MPRE3O", "tract_id": "36061011800", "city": "NEW YORK, NY", "zone_code": "R8B", "zone_category": "Residential", "ev_permitted": false}, "geometry": {"type": "Polygon", "coordinates": [[[-73.9600767028393, 40.7633104630214], [-73.9598946008289, 40.7635613899277], [-73.9599792392086, 40.7635970614891], [-73.9601611865394, 40.7633463494091], [-73.9600767028393, 40.7633104630214]]]}}, {"type": "Feature", "properties": {"zone_id": "0206CBY0IVO80ILTQP5M4A", "tract_id": "36061011800", "city": "NEW YORK, NY", "zone_code": "R8B", "zone_category": "Residential", "ev_permitted": false}, "geometry": {"type": "Polygon", "coordinates": [[[-73.9604275712404, 40.7631447626196], [-73.9602529894363, 40.7633853446937], [-73.9606488707389, 40.7635535027553], [-73.960824183131, 40.7633119155406], [-73.9604275712404, 40.7631447626196]]]}}, {"type": "Feature", "properties": {"zone_id": "02002ZBCN1C6A37QIWF0DA", "tract_id": "36061011800", "city": "NEW YORK, NY", "zone_code": "R8B", "zone_category": "Residential", "ev_permitted": false}, "geometry": {"type": "Polygon", "coordinates": [[[-73.960113912024, 40.7630125695286], [-73.9599399084162, 40.763252355929], [-73.9602529894363, 40.7633853446937], [-73.9604275712404, 40.7631447626196], [-73.960113912024, 40.7630125695286]]]}}, {"type": "Feature", "properties": {"zone_id": "0205QZKVIR8FRI4R17H416", "tract_id": "36061011800", "city": "NEW YORK, NY", "zone_code": "TA", "zone_category": "Other", "ev_permitted": false}, "geometry": {"type": "Polygon", "coordinates": [[[-73.9595705648415, 40.7664431289111], [-73.9595202302521, 40.7665122727473], [-73.9597637414815, 40.7666151935355], [-73.9598140768196, 40.7665460502971], [-73.9595705648415, 40.7664431289111]]]}}, {"type": "Feature", "properties": {"zone_id": "0204VOJUXMU5YIC1ZYF33G", "tract_id": "36061011800", "city": "NEW YORK, NY", "zone_code": "TA", "zone_category": "Other", "ev_permitted": false}, "geometry": {"type": "Polygon", "coordinates": [[[-73.9595202302521, 40.7665122727473], [-73.9594709352006, 40.7665799870259], [-73.9597144475251, 40.7666829086203], [-73.9597637414815, 40.7666151935355], [-73.9595202302521, 40.7665122727473]]]}}, {"type": "Feature", "properties": {"zone_id": "0202756N1WT9WVC1C90ULC", "tract_id": "36061011800", "city": "NEW YORK, NY", "zone_code": "TA", "zone_category": "Other", "ev_permitted": false}, "geometry": {"type": "Polygon", "coordinates": [[[-73.9594709352006, 40.7665799870259], [-73.9594318968114, 40.7666336187946], [-73.9596754055759, 40.7667365390641], [-73.9597144475251, 40.7666829086203], [-73.9594709352006, 40.7665799870259]]]}}, {"type": "Feature", "properties": {"zone_id": "0205CFUQ991L2DKR18R7UD", "tract_id": "36061011800", "city": "NEW YORK, NY", "zone_code": "TA", "zone_category": "Other", "ev_permitted": false}, "geometry": {"type": "Polygon", "coordinates": [[[-73.959514919902, 40.7664196105205], [-73.9593762480663, 40.7666100982284], [-73.9594318968114, 40.7666336187946], [-73.9595705648415, 40.7664431289111], [-73.959514919902, 40.7664196105205]]]}}, {"type": "Feature", "properties": {"zone_id": "0207IIA4NGNJDJT7OK27KC", "tract_id": "36061011800", "city": "NEW YORK, NY", "zone_code": "R8B", "zone_category": "Residential", "ev_permitted": false}, "geometry": {"type": "Polygon", "coordinates": [[[-73.9594632479207, 40.7663977707354], [-73.9593245759823, 40.7665882590843], [-73.9593762480663, 40.7666100982284], [-73.959514919902, 40.7664196105205], [-73.9594632479207, 40.7663977707354]]]}}, {"type": "Feature", "properties": {"zone_id": "02049VNFC7HD2RRRMYS10W", "tract_id": "36061011800", "city": "NEW YORK, NY", "zone_code": "TA", "zone_category": "Other", "ev_permitted": false}, "geometry": {"type": "Polygon", "coordinates": [[[-73.9592366020131, 40.7659086408955], [-73.9590176336918, 40.7662094276417], [-73.9598140768196, 40.7665460502971], [-73.9600333182819, 40.7662448813096], [-73.9592366020131, 40.7659086408955]]]}}, {"type": "Feature", "properties": {"zone_id": "0203LC5VH1Y2DPKEV2PMY0", "tract_id": "36061011800", "city": "NEW YORK, NY", "zone_code": "TA", "zone_category": "Other", "ev_permitted": false}, "geometry": {"type": "Polygon", "coordinates": [[[-73.9594136234104, 40.7663767973177], [-73.9592749522983, 40.7665672849052], [-73.9593245759823, 40.7665882590843], [-73.9594632479207, 40.7663977707354], [-73.9594136234104, 40.7663767973177]]]}}, {"type": "Feature", "properties": {"zone_id": "0201674FCEGMLVA86XH948", "tract_id": "36061011800", "city": "NEW YORK, NY", "zone_code": "R8B", "zone_category": "Residential", "ev_permitted": false}, "geometry": {"type": "Polygon", "coordinates": [[[-73.9593628144492, 40.7663553224688], [-73.9592241432365, 40.7665458099957], [-73.9592749522983, 40.7665672849052], [-73.9594136234104, 40.7663767973177], [-73.9593628144492, 40.7663553224688]]]}}, {"type": "Feature", "properties": {"zone_id": "02061O48MLV1JCHQT07ZCL", "tract_id": "36061011800", "city": "NEW YORK, NY", "zone_code": "R8B", "zone_category": "Residential", "ev_permitted": false}, "geometry": {"type": "Polygon", "coordinates": [[[-73.9592522769841, 40.766308602622], [-73.9591136055525, 40.7664990900172], [-73.9591712211685, 40.7665234426473], [-73.9593098934106, 40.7663329544811], [-73.9592522769841, 40.766308602622]]]}}, {"type": "Feature", "properties": {"zone_id": "020280O6DJ6S1J2ZHU37SG", "tract_id": "36061011800", "city": "NEW YORK, NY", "zone_code": "R8B", "zone_category": "Residential", "ev_permitted": false}, "geometry": {"type": "Polygon", "coordinates": [[[-73.9592018829723, 40.7662873028093], [-73.9590632105168, 40.7664777901442], [-73.9591136055525, 40.7664990900172], [-73.9592522769841, 40.766308602622], [-73.9592018829723, 40.7662873028093]]]}}, {"type": "Feature", "properties": {"zone_id": "0204CH83TFAAOS0VZT6XSS", "tract_id": "36061011800", "city": "NEW YORK, NY", "zone_code": "R8B", "zone_category": "Residential", "ev_permitted": false}, "geometry": {"type": "Polygon", "coordinates": [[[-73.9591490636743, 40.7662649776454], [-73.9590103911137, 40.76645546562], [-73.9590632105168, 40.7664777901442], [-73.9592018829723, 40.7662873028093], [-73.9591490636743, 40.7662649776454]]]}}, {"type": "Feature", "properties": {"zone_id": "0200YO6XT5T62KNPRFFP22", "tract_id": "36061011800", "city": "NEW YORK, NY", "zone_code": "R8B", "zone_category": "Residential", "ev_permitted": false}, "geometry": {"type": "Polygon", "coordinates": [[[-73.9590962915314, 40.7662426735535], [-73.958957619791, 40.7664331607629], [-73.9590103911137, 40.76645546562], [-73.9591490636743, 40.7662649776454], [-73.9590962915314, 40.7662426735535]]]}}, {"type": "Feature", "properties": {"zone_id": "02032CR91EK167MJ52CW4D", "tract_id": "36061011800", "city": "NEW YORK, NY", "zone_code": "R8B", "zone_category": "Residential", "ev_permitted": false}, "geometry": {"type": "Polygon", "coordinates": [[[-73.9590414341154, 40.7662194868655], [-73.9590256997665, 40.7662410998209], [-73.9590291709711, 40.7662425667912], [-73.9589062316282, 40.7664114416855], [-73.958957619791, 40.7664331607629], [-73.9590962915314, 40.7662426735535], [-73.9590414341154, 40.7662194868655]]]}}, {"type": "Feature", "properties": {"zone_id": "02023YDM6XAJLC4E246TWA", "tract_id": "36061011800", "city": "NEW YORK, NY", "zone_code": "R8B", "zone_category": "Residential", "ev_permitted": false}, "geometry": {"type": "Polygon", "coordinates": [[[-73.9589901237005, 40.7661978001746], [-73.9588514508257, 40.766388287257], [-73.9589062316282, 40.7664114416855], [-73.9590291709711, 40.7662425667912], [-73.9590256997665, 40.7662410998209], [-73.9590414341154, 40.7662194868655], [-73.9589901237005, 40.7661978001746]]]}}, {"type": "Feature", "properties": {"zone_id": "0204GXK0BY24G5WGW9BUNH", "tract_id": "36061011800", "city": "NEW YORK, NY", "zone_code": "R8B", "zone_category": "Residential", "ev_permitted": false}, "geometry": {"type": "Polygon", "coordinates": [[[-73.9593098934106, 40.7663329544811], [-73.9591712211685, 40.7665234426473], [-73.9592241432365, 40.7665458099957], [-73.9593628144492, 40.7663553224688], [-73.9593098934106, 40.7663329544811]]]}}, {"type": "Feature", "properties": {"zone_id": "0205SRX1Y1Y638YFQET8UY", "tract_id": "36061011800", "city": "NEW YORK, NY", "zone_code": "R8B", "zone_category": "Residential", "ev_permitted": false}, "geometry": {"type": "Polygon", "coordinates": [[[-73.958938948213, 40.766176169721], [-73.9588002752364, 40.7663666574452], [-73.9588514508257, 40.766388287257], [-73.9589901237005, 40.7661978001746], [-73.958938948213, 40.766176169721]]]}}, {"type": "Feature", "properties": {"zone_id": "02013GDWFMCO3XNZXXGADT", "tract_id": "36061011800", "city": "NEW YORK, NY", "zone_code": "R8B", "zone_category": "Residential", "ev_permitted": false}, "geometry": {"type": "Polygon", "coordinates": [[[-73.9588848586899, 40.7661533085606], [-73.9587461865308, 40.7663437955179], [-73.9588002752364, 40.7663666574452], [-73.958938948213, 40.766176169721], [-73.9588848586899, 40.7661533085606]]]}}, {"type": "Feature", "properties": {"zone_id": "0202V7JI042IF4B5D55UQE", "tract_id": "36061011800", "city": "NEW YORK, NY", "zone_code": "R8B", "zone_category": "Residential", "ev_permitted": false}, "geometry": {"type": "Polygon", "coordinates": [[[-73.9593373924461, 40.7634897276607], [-73.9590837378698, 40.763835354204], [-73.9594135561416, 40.7639742935265], [-73.959483209834, 40.7638793831565], [-73.9594546058787, 40.7638673331162], [-73.959638441947, 40.7636168403582], [-73.9593373924461, 40.7634897276607]]]}}, {"type": "Feature", "properties": {"zone_id": "02007N6L05YX1YQAJZ5MZJ", "tract_id": "36061011800", "city": "NEW YORK, NY", "zone_code": "R8B", "zone_category": "Residential", "ev_permitted": false}, "geometry": {"type": "Polygon", "coordinates": [[[-73.95989666796, 40.7637258693207], [-73.9597129731462, 40.7639761721166], [-73.9597961817623, 40.7640112242719], [-73.9599798310408, 40.7637609824598], [-73.95989666796, 40.7637258693207]]]}}, {"type": "Feature", "properties": {"zone_id": "02063XBYK9H3N6YWZPVSY5", "tract_id": "36061011800", "city": "NEW YORK, NY", "zone_code": "R8B", "zone_category": "Residential", "ev_permitted": false}, "geometry": {"type": "Polygon", "coordinates": [[[-73.9598089640022, 40.7636888383997], [-73.9596252208661, 40.7639392063871], [-73.9597129731462, 40.7639761721166], [-73.95989666796, 40.7637258693207], [-73.9598089640022, 40.7636888383997]]]}}, {"type": "Feature", "properties": {"zone_id": "0201LNRZBZAYRMIIA4OU7T", "tract_id": "36061011800", "city": "NEW YORK, NY", "zone_code": "R8B", "zone_category": "Residential", "ev_permitted": false}, "geometry": {"type": "Polygon", "coordinates": [[[-73.9597268903777, 40.7636541850534], [-73.9595431026334, 40.7639046133239], [-73.9596252208661, 40.7639392063871], [-73.9598089640022, 40.7636888383997], [-73.9597268903777, 40.7636541850534]]]}}, {"type": "Feature", "properties": {"zone_id": "0201CVABTIBM47PH2ROWQU", "tract_id": "36061011800", "city": "NEW YORK, NY", "zone_code": "R8B", "zone_category": "Residential", "ev_permitted": false}, "geometry": {"type": "Polygon", "coordinates": [[[-73.959638441947, 40.7636168403582], [-73.9594546058787, 40.7638673331162], [-73.9595431026334, 40.7639046133239], [-73.9597268903777, 40.7636541850534], [-73.959638441947, 40.7636168403582]]]}}, {"type": "Feature", "properties": {"zone_id": "0205UB38I0G31QR10SWD06", "tract_id": "36061011800", "city": "NEW YORK, NY", "zone_code": "R8B", "zone_category": "Residential", "ev_permitted": false}, "geometry": {"type": "Polygon", "coordinates": [[[-73.9599903908454, 40.7632738002066], [-73.9598081286033, 40.7635249454474], [-73.9598946008289, 40.7635613899277], [-73.9600767028393, 40.7633104630214], [-73.9599903908454, 40.7632738002066]]]}}, {"type": "Feature", "properties": {"zone_id": "0204MXAS8AC48YEAGYJM5P", "tract_id": "36061011800", "city": "NEW YORK, NY", "zone_code": "R8B", "zone_category": "Residential", "ev_permitted": false}, "geometry": {"type": "Polygon", "coordinates": [[[-73.9597079819697, 40.7629998690354], [-73.9594396311323, 40.763369637954], [-73.9597208776262, 40.7634881753008], [-73.9599032973292, 40.7632368131312], [-73.9599399084162, 40.763252355929], [-73.9600259031639, 40.7631338599923], [-73.9597079819697, 40.7629998690354]]]}}, {"type": "Feature", "properties": {"zone_id": "0200FOWS1YXDK6J4VX1NHR", "tract_id": "36061011800", "city": "NEW YORK, NY", "zone_code": "R8B", "zone_category": "Residential", "ev_permitted": false}, "geometry": {"type": "Polygon", "coordinates": [[[-73.9599032973292, 40.7632368131312], [-73.9597208776262, 40.7634881753008], [-73.9598081286033, 40.7635249454474], [-73.9599903908454, 40.7632738002066], [-73.9599032973292, 40.7632368131312]]]}}, {"type": "Feature", "properties": {"zone_id": "02078WEFNPWPL2WSZJG5PJ", "tract_id": "36061011800", "city": "NEW YORK, NY", "zone_code": "R8B", "zone_category": "Residential", "ev_permitted": false}, "geometry": {"type": "Polygon", "coordinates": [[[-73.9597960013946, 40.7628785830316], [-73.9597079819697, 40.7629998690354], [-73.9600259031639, 40.7631338599923], [-73.960113912024, 40.7630125695286], [-73.9597960013946, 40.7628785830316]]]}}, {"type": "Feature", "properties": {"zone_id": "02054LPI6CELM22M5UD2BQ", "tract_id": "36061011800", "city": "NEW YORK, NY", "zone_code": "R8B", "zone_category": "Residential", "ev_permitted": false}, "geometry": {"type": "Polygon", "coordinates": [[[-73.9588337008248, 40.7661316864982], [-73.9586950276411, 40.766322171989], [-73.9587461865308, 40.7663437955179], [-73.9588848586899, 40.7661533085606], [-73.9588337008248, 40.7661316864982]]]}}, {"type": "Feature", "properties": {"zone_id": "0200N29X551SAATN536QLJ", "tract_id": "36061011800", "city": "NEW YORK, NY", "zone_code": "R8B", "zone_category": "Residential", "ev_permitted": false}, "geometry": {"type": "Polygon", "coordinates": [[[-73.9587817715152, 40.7661097367005], [-73.9586430982274, 40.7663002242373], [-73.9586950276411, 40.766322171989], [-73.9588337008248, 40.7661316864982], [-73.9587817715152, 40.7661097367005]]]}}, {"type": "Feature", "properties": {"zone_id": "0202RF5G15RRMIBKE4KPBL", "tract_id": "36061011800", "city": "NEW YORK, NY", "zone_code": "R8B", "zone_category": "Residential", "ev_permitted": false}, "geometry": {"type": "Polygon", "coordinates": [[[-73.9587280415076, 40.7660870266653], [-73.9585893681134, 40.7662775141382], [-73.9586430982274, 40.7663002242373], [-73.9587817715152, 40.7661097367005], [-73.9587280415076, 40.7660870266653]]]}}, {"type": "Feature", "properties": {"zone_id": "02039FRYN9GIWFIUBG9I1P", "tract_id": "36061011800", "city": "NEW YORK, NY", "zone_code": "R8B", "zone_category": "Residential", "ev_permitted": false}, "geometry": {"type": "Polygon", "coordinates": [[[-73.9586742274592, 40.7660642814422], [-73.9585355548826, 40.7662547688512], [-73.9585893681134, 40.7662775141382], [-73.9587280415076, 40.7660870266653], [-73.9586742274592, 40.7660642814422]]]}}, {"type": "Feature", "properties": {"zone_id": "0202739BLLHR6JYO3NINLT", "tract_id": "36061011800", "city": "NEW YORK, NY", "zone_code": "R8B", "zone_category": "Residential", "ev_permitted": false}, "geometry": {"type": "Polygon", "coordinates": [[[-73.9586213447649, 40.7660419279066], [-73.9584826702348, 40.7662324159546], [-73.9585355548826, 40.7662547688512], [-73.9586742274592, 40.7660642814422], [-73.9586213447649, 40.7660419279066]]]}}, {"type": "Feature", "properties": {"zone_id": "0202XCAFPFYOCDWP7QNFYQ", "tract_id": "36061011800", "city": "NEW YORK, NY", "zone_code": "R8B", "zone_category": "Residential", "ev_permitted": false}, "geometry": {"type": "Polygon", "coordinates": [[[-73.9585189102237, 40.7659986335931], [-73.9583802373396, 40.7661891208171], [-73.9584826702348, 40.7662324159546], [-73.9586213447649, 40.7660419279066], [-73.9585189102237, 40.7659986335931]]]}}, {"type": "Feature", "properties": {"zone_id": "020617RLCCQ522WDCC0Y5L", "tract_id": "36061011800", "city": "NEW YORK, NY", "zone_code": "R8B", "zone_category": "Residential", "ev_permitted": false}, "geometry": {"type": "Polygon", "coordinates": [[[-73.9584643266906, 40.7659755626658], [-73.9583256527747, 40.7661660491218], [-73.9583802373396, 40.7661891208171], [-73.9585189102237, 40.7659986335931], [-73.9584643266906, 40.7659755626658]]]}}, {"type": "Feature", "properties": {"zone_id": "02015HBQ45HA6A517B9Y36", "tract_id": "36061011800", "city": "NEW YORK, NY", "zone_code": "R8B", "zone_category": "Residential", "ev_permitted": false}, "geometry": {"type": "Polygon", "coordinates": [[[-73.9584109221199, 40.7659529903198], [-73.9582722480982, 40.7661434767121], [-73.9583256527747, 40.7661660491218], [-73.9584643266906, 40.7659755626658], [-73.9584109221199, 40.7659529903198]]]}}, {"type": "Feature", "properties": {"zone_id": "0201WGEWYO9NYS2KYZDFYO", "tract_id": "36061011800", "city": "NEW YORK, NY", "zone_code": "R8B", "zone_category": "Residential", "ev_permitted": false}, "geometry": {"type": "Polygon", "coordinates": [[[-73.9583602597848, 40.7659315769135], [-73.9582215865865, 40.7661220639485], [-73.9582722480982, 40.7661434767121], [-73.9584109221199, 40.7659529903198], [-73.9583602597848, 40.7659315769135]]]}}, {"type": "Feature", "properties": {"zone_id": "0203VSNUINDU9KNFG7RJ8U", "tract_id": "36061011800", "city": "NEW YORK, NY", "zone_code": "R8B", "zone_category": "Residential", "ev_permitted": false}, "geometry": {"type": "Polygon", "coordinates": [[[-73.9583025544334, 40.7659071851971], [-73.9581638801962, 40.7660976728656], [-73.9582215865865, 40.7661220639485], [-73.9583602597848, 40.7659315769135], [-73.9583025544334, 40.7659071851971]]]}}, {"type": "Feature", "properties": {"zone_id": "0206B5751KT94BNUVS95G9", "tract_id": "36061011800", "city": "NEW YORK, NY", "zone_code": "R8B", "zone_category": "Residential", "ev_permitted": false}, "geometry": {"type": "Polygon", "coordinates": [[[-73.9582527366305, 40.7658861296999], [-73.9581140632198, 40.766076615904], [-73.9581638801962, 40.7660976728656], [-73.9583025544334, 40.7659071851971], [-73.9582527366305, 40.7658861296999]]]}}, {"type": "Feature", "properties": {"zone_id": "02077R89VU74SS040FQMQS", "tract_id": "36061011800", "city": "NEW YORK, NY", "zone_code": "PARK", "zone_category": "Other", "ev_permitted": false}, "geometry": {"type": "Polygon", "coordinates": [[[-73.9584195814321, 40.7647482434237], [-73.9580648885024, 40.7652366603209], [-73.959022311476, 40.7656407399249], [-73.9593781660698, 40.7651519108734], [-73.9584195814321, 40.7647482434237]]]}}, {"type": "Feature", "properties": {"zone_id": "0204OG8TO9R2HV6IQ6Z0DD", "tract_id": "36061011800", "city": "NEW YORK, NY", "zone_code": "R8B", "zone_category": "Residential", "ev_permitted": false}, "geometry": {"type": "Polygon", "coordinates": [[[-73.9593781660698, 40.7651519108734], [-73.959022311476, 40.7656407399249], [-73.9601754288613, 40.7661273948043], [-73.9605318815615, 40.7656377318965], [-73.9593781660698, 40.7651519108734]]]}}, {"type": "Feature", "properties": {"zone_id": "02063FQPZY6RDJ2QPCMBGZ", "tract_id": "36061011800", "city": "NEW YORK, NY", "zone_code": "R8B", "zone_category": "Residential", "ev_permitted": false}, "geometry": {"type": "Polygon", "coordinates": [[[-73.9587653942823, 40.7657097718352], [-73.9585465891279, 40.7660103336073], [-73.9590176336918, 40.7662094276417], [-73.9592366020131, 40.7659086408955], [-73.9587653942823, 40.7657097718352]]]}}, {"type": "Feature", "properties": {"zone_id": "0201RNQR8MRCD1GQAXDFAJ", "tract_id": "36061011800", "city": "NEW YORK, NY", "zone_code": "R8B", "zone_category": "Residential", "ev_permitted": false}, "geometry": {"type": "Polygon", "coordinates": [[[-73.9585212752538, 40.7656067418991], [-73.9583025544334, 40.7659071851971], [-73.9585465891279, 40.7660103336073], [-73.9587653942823, 40.7657097718352], [-73.9585212752538, 40.7656067418991]]]}}, {"type": "Feature", "properties": {"zone_id": "0207E6O21RZI287M4ENQ3N", "tract_id": "36061011800", "city": "NEW YORK, NY", "zone_code": "R8B", "zone_category": "Residential", "ev_permitted": false}, "geometry": {"type": "Polygon", "coordinates": [[[-73.9582890071221, 40.7655087137121], [-73.9580703669716, 40.7658090462865], [-73.9583025544334, 40.7659071851971], [-73.9585212752538, 40.7656067418991], [-73.9582890071221, 40.7655087137121]]]}}, {"type": "Feature", "properties": {"zone_id": "0206Z27H7DD79CYTYSRF35", "tract_id": "36061011800", "city": "NEW YORK, NY", "zone_code": "R8B", "zone_category": "Residential", "ev_permitted": false}, "geometry": {"type": "Polygon", "coordinates": [[[-73.9582021455393, 40.7658647457612], [-73.9580634711038, 40.7660552326073], [-73.9581140632198, 40.766076615904], [-73.9582527366305, 40.7658861296999], [-73.9582021455393, 40.7658647457612]]]}}, {"type": "Feature", "properties": {"zone_id": "0206KGA1UGQOPXB4B6J5GK", "tract_id": "36061011800", "city": "NEW YORK, NY", "zone_code": "R8B", "zone_category": "Residential", "ev_permitted": false}, "geometry": {"type": "Polygon", "coordinates": [[[-73.9581511073033, 40.7658431733265], [-73.9580124327672, 40.7660336594092], [-73.9580634711038, 40.7660552326073], [-73.9582021455393, 40.7658647457612], [-73.9581511073033, 40.7658431733265]]]}}, {"type": "Feature", "properties": {"zone_id": "0205K2HCATPPK7E048S69Z", "tract_id": "36061011800", "city": "NEW YORK, NY", "zone_code": "R8B", "zone_category": "Residential", "ev_permitted": false}, "geometry": {"type": "Polygon", "coordinates": [[[-73.9580959271738, 40.7658198497546], [-73.9579572525285, 40.7660103357715], [-73.9580124327672, 40.7660336594092], [-73.9581511073033, 40.7658431733265], [-73.9580959271738, 40.7658198497546]]]}}, {"type": "Feature", "properties": {"zone_id": "0203HPI4OOP9CYHRG7S0Y4", "tract_id": "36061011800", "city": "NEW YORK, NY", "zone_code": "R8B", "zone_category": "Residential", "ev_permitted": false}, "geometry": {"type": "Polygon", "coordinates": [[[-73.9580464393413, 40.7657989320081], [-73.9579077645975, 40.7659894186686], [-73.9579572525285, 40.7660103357715], [-73.9580959271738, 40.7658198497546], [-73.9580464393413, 40.7657989320081]]]}}, {"type": "Feature", "properties": {"zone_id": "02023WB7Q28Y0M8DLC7JLR", "tract_id": "36061011800", "city": "NEW YORK, NY", "zone_code": "C2-8", "zone_category": "Commercial", "ev_permitted": true}, "geometry": {"type": "Polygon", "coordinates": [[[-73.9579909118914, 40.7657754628099], [-73.9578522388864, 40.7659659487023], [-73.9579077645975, 40.7659894186686], [-73.9580464393413, 40.7657989320081], [-73.9579909118914, 40.7657754628099]]]}}, {"type": "Feature", "properties": {"zone_id": "0206MJR9E77M3TKSA4NNXN", "tract_id": "36061011800", "city": "NEW YORK, NY", "zone_code": "C2-8", "zone_category": "Commercial", "ev_permitted": true}, "geometry": {"type": "Polygon", "coordinates": [[[-73.9579184878423, 40.7654377781617], [-73.957875717485, 40.7654966702243], [-73.9581204401806, 40.7656001092891], [-73.9581632889203, 40.7655412508925], [-73.9579184878423, 40.7654377781617]]]}}, {"type": "Feature", "properties": {"zone_id": "02075MM9CUZ8GQECP3BXRU", "tract_id": "36061011800", "city": "NEW YORK, NY", "zone_code": "C2-8", "zone_category": "Commercial", "ev_permitted": true}, "geometry": {"type": "Polygon", "coordinates": [[[-73.957875717485, 40.7654966702243], [-73.9577897649284, 40.765615027515], [-73.9580343262398, 40.7657183985443], [-73.9581204401806, 40.7656001092891], [-73.957875717485, 40.7654966702243]]]}}, {"type": "Feature", "properties": {"zone_id": "0205GERWECZYK0T5Y2BEUA", "tract_id": "36061011800", "city": "NEW YORK, NY", "zone_code": "R8B", "zone_category": "Residential", "ev_permitted": false}, "geometry": {"type": "Polygon", "coordinates": [[[-73.9577897649284, 40.765615027515], [-73.9577478601147, 40.7656727288474], [-73.9580703669716, 40.7658090462865], [-73.9581123501257, 40.765751376486], [-73.9577897649284, 40.765615027515]]]}}, {"type": "Feature", "properties": {"zone_id": "0202N3YXRWL9GLC2CQJJQI", "tract_id": "36061011800", "city": "NEW YORK, NY", "zone_code": "R8B", "zone_category": "Residential", "ev_permitted": false}, "geometry": {"type": "Polygon", "coordinates": [[[-73.9582109566094, 40.7654757724172], [-73.9580343262398, 40.7657183985443], [-73.9581123501257, 40.765751376486], [-73.9582890071221, 40.7655087137121], [-73.9582109566094, 40.7654757724172]]]}}, {"type": "Feature", "properties": {"zone_id": "0205U80WP9LMJV1N55W2WY", "tract_id": "36061011800", "city": "NEW YORK, NY", "zone_code": "C2-8", "zone_category": "Commercial", "ev_permitted": true}, "geometry": {"type": "Polygon", "coordinates": [[[-73.9577478601147, 40.7656727288474], [-73.9576094444001, 40.7658633248617], [-73.9578522388864, 40.7659659487023], [-73.9579909118914, 40.7657754628099], [-73.9577478601147, 40.7656727288474]]]}}, {"type": "Feature", "properties": {"zone_id": "02057ES0DWP2RIPKJ3M3H5", "tract_id": "36061011800", "city": "NEW YORK, NY", "zone_code": "C2-8", "zone_category": "Commercial", "ev_permitted": true}, "geometry": {"type": "Polygon", "coordinates": [[[-73.9579659809821, 40.7653723791228], [-73.9579184878423, 40.7654377781617], [-73.9581632889203, 40.7655412508925], [-73.9582109566094, 40.7654757724172], [-73.9579659809821, 40.7653723791228]]]}}, {"type": "Feature", "properties": {"zone_id": "02013XNXU7PZKC2DPATFR6", "tract_id": "36061011800", "city": "NEW YORK, NY", "zone_code": "R8B", "zone_category": "Residential", "ev_permitted": false}, "geometry": {"type": "Polygon", "coordinates": [[[-73.959125305175, 40.7642229459051], [-73.9589440765591, 40.7644698812151], [-73.9594970813065, 40.7647027552026], [-73.9596782622602, 40.7644558822539], [-73.959125305175, 40.7642229459051]]]}}, {"type": "Feature", "properties": {"zone_id": "0206WHUSZXP81WORAAKGDY", "tract_id": "36061011800", "city": "NEW YORK, NY", "zone_code": "R8B", "zone_category": "Residential", "ev_permitted": false}, "geometry": {"type": "Polygon", "coordinates": [[[-73.9595788364853, 40.7647371823404], [-73.9593958517263, 40.7649865123707], [-73.959551843921, 40.7650522007416], [-73.9597348273524, 40.7648028704657], [-73.9595788364853, 40.7647371823404]]]}}, {"type": "Feature", "properties": {"zone_id": "020500TEQX60FQGMEFZKXF", "tract_id": "36061011800", "city": "NEW YORK, NY", "zone_code": "R8B", "zone_category": "Residential", "ev_permitted": false}, "geometry": {"type": "Polygon", "coordinates": [[[-73.9594454993093, 40.764681033481], [-73.9592625142054, 40.7649303633015], [-73.9593958517263, 40.7649865123707], [-73.9595788364853, 40.7647371823404], [-73.9594454993093, 40.764681033481]]]}}, {"type": "Feature", "properties": {"zone_id": "02022YRNTVX91Q278X9DZP", "tract_id": "36061011800", "city": "NEW YORK, NY", "zone_code": "R8B", "zone_category": "Residential", "ev_permitted": false}, "geometry": {"type": "Polygon", "coordinates": [[[-73.9593157794658, 40.7646264076926], [-73.9591327931022, 40.7648757373088], [-73.9592625142054, 40.7649303633015], [-73.9594454993093, 40.764681033481], [-73.9593157794658, 40.7646264076926]]]}}, {"type": "Feature", "properties": {"zone_id": "0206D0XPRX4SF0D9YAKNI8", "tract_id": "36061011800", "city": "NEW YORK, NY", "zone_code": "R8B", "zone_category": "Residential", "ev_permitted": false}, "geometry": {"type": "Polygon", "coordinates": [[[-73.9596782622602, 40.7644558822539], [-73.9594970813065, 40.7647027552026], [-73.9597348273524, 40.7648028704657], [-73.9599159882741, 40.7645560238408], [-73.9596782622602, 40.7644558822539]]]}}, {"type": "Feature", "properties": {"zone_id": "0206Y925ABDXSNSAFTQB5U", "tract_id": "36061011800", "city": "NEW YORK, NY", "zone_code": "R8B", "zone_category": "Residential", "ev_permitted": false}, "geometry": {"type": "Polygon", "coordinates": [[[-73.9591855276631, 40.7645715588279], [-73.9590025418871, 40.764820887537], [-73.9591327931022, 40.7648757373088], [-73.9593157794658, 40.7646264076926], [-73.9591855276631, 40.7645715588279]]]}}, {"type": "Feature", "properties": {"zone_id": "0202IBNH6D0QQ018YDICKU", "tract_id": "36061011800", "city": "NEW YORK, NY", "zone_code": "R8B", "zone_category": "Residential", "ev_permitted": false}, "geometry": {"type": "Polygon", "coordinates": [[[-73.9589440765591, 40.7644698812151], [-73.9587610901581, 40.7647192102471], [-73.9590025418871, 40.764820887537], [-73.9591855276631, 40.7645715588279], [-73.9589440765591, 40.7644698812151]]]}}, {"type": "Feature", "properties": {"zone_id": "0201B3IUATZ92AOMJL8DGL", "tract_id": "36061011800", "city": "NEW YORK, NY", "zone_code": "C1-9", "zone_category": "Commercial", "ev_permitted": true}, "geometry": {"type": "Polygon", "coordinates": [[[-73.9586950233959, 40.7643650018883], [-73.95860583913, 40.7644865198882], [-73.9588548926072, 40.764591399406], [-73.9589440765591, 40.7644698812151], [-73.9586950233959, 40.7643650018883]]]}}, {"type": "Feature", "properties": {"zone_id": "0200AY8SBKY9CLVILDSS6T", "tract_id": "36061011800", "city": "NEW YORK, NY", "zone_code": "C1-9", "zone_category": "Commercial", "ev_permitted": true}, "geometry": {"type": "Polygon", "coordinates": [[[-73.95860583913, 40.7644865198882], [-73.9585120354266, 40.7646143305282], [-73.9587610901581, 40.7647192102471], [-73.9588548926072, 40.764591399406], [-73.95860583913, 40.7644865198882]]]}}, {"type": "Feature", "properties": {"zone_id": "0202GV0EHPBTJT8RDIF00C", "tract_id": "36061011800", "city": "NEW YORK, NY", "zone_code": "R8B", "zone_category": "Residential", "ev_permitted": false}, "geometry": {"type": "Polygon", "coordinates": [[[-73.9596410935075, 40.7639458927833], [-73.9594586087564, 40.7641945450556], [-73.9598507879025, 40.7643597512808], [-73.9600332725663, 40.7641110983937], [-73.9596410935075, 40.7639458927833]]]}}, {"type": "Feature", "properties": {"zone_id": "0203EUP4USBYJ88X70UM3I", "tract_id": "36061011800", "city": "NEW YORK, NY", "zone_code": "R8B", "zone_category": "Residential", "ev_permitted": false}, "geometry": {"type": "Polygon", "coordinates": [[[-73.9599798310408, 40.7637609824598], [-73.9597961817623, 40.7640112242719], [-73.9598777246655, 40.7640455738354], [-73.9600613293372, 40.7637953930101], [-73.9599798310408, 40.7637609824598]]]}}, {"type": "Feature", "properties": {"zone_id": "0204LE3L461J5L5RK26HEK", "tract_id": "36061011800", "city": "NEW YORK, NY", "zone_code": "R8B", "zone_category": "Residential", "ev_permitted": false}, "geometry": {"type": "Polygon", "coordinates": [[[-73.959483209834, 40.7638793831565], [-73.9593007246757, 40.7641280351812], [-73.9594586087564, 40.7641945450556], [-73.9596410935075, 40.7639458927833], [-73.959483209834, 40.7638793831565]]]}}, {"type": "Feature", "properties": {"zone_id": "0206AZD1S10NRMCTI8K1BU", "tract_id": "36061011800", "city": "NEW YORK, NY", "zone_code": "C1-9", "zone_category": "Commercial", "ev_permitted": true}, "geometry": {"type": "Polygon", "coordinates": [[[-73.9588762729982, 40.7641180388673], [-73.9587834378008, 40.7642445326042], [-73.9590324906528, 40.7643494117418], [-73.959125305175, 40.7642229459051], [-73.9588762729982, 40.7641180388673]]]}}, {"type": "Feature", "properties": {"zone_id": "02045VR7B2AB8KS59QO9N4", "tract_id": "36061011800", "city": "NEW YORK, NY", "zone_code": "C1-9", "zone_category": "Commercial", "ev_permitted": true}, "geometry": {"type": "Polygon", "coordinates": [[[-73.9587834378008, 40.7642445326042], [-73.9586950233959, 40.7643650018883], [-73.9589440765591, 40.7644698812151], [-73.9590324906528, 40.7643494117418], [-73.9587834378008, 40.7642445326042]]]}}, {"type": "Feature", "properties": {"zone_id": "0205P1QQJMENGM77WHBMUY", "tract_id": "36061011800", "city": "NEW YORK, NY", "zone_code": "R8B", "zone_category": "Residential", "ev_permitted": false}, "geometry": {"type": "Polygon", "coordinates": [[[-73.9590837378698, 40.763835354204], [-73.9589709049534, 40.7639890962412], [-73.9593007246757, 40.7641280351812], [-73.9594135561416, 40.7639742935265], [-73.9590837378698, 40.763835354204]]]}}]}