{"type": "FeatureCollection", "features": [{"type": "Feature", "properties": {"zone_id": "0206PR4Q2X6AQD5WYXES9O", "tract_id": "36061011600", "city": "NEW YORK, NY", "zone_code": "R8", "zone_category": "Residential", "ev_permitted": false}, "geometry": {"type": "Polygon", "coordinates": [[[-73.9571304746749, 40.7654025053137], [-73.9570585834408, 40.7655014445332], [-73.957404759991, 40.765647167142], [-73.9574766517923, 40.7655482277089], [-73.9571304746749, 40.7654025053137]]]}}, {"type": "Feature", "properties": {"zone_id": "0205L7TJ5RMFOUSF3EGMBF", "tract_id": "36061011600", "city": "NEW YORK, NY", "zone_code": "R9", "zone_category": "Residential", "ev_permitted": false}, "geometry": {"type": "Polygon", "coordinates": [[[-73.957344409077, 40.765108080676], [-73.9572679944386, 40.7652132452745], [-73.9576141588618, 40.7653589630403], [-73.957690569425, 40.7652537968078], [-73.957344409077, 40.765108080676]]]}}, {"type": "Feature", "properties": {"zone_id": "0200ZVULF7RIAS9TKRQN7B", "tract_id": "36061011600", "city": "NEW YORK, NY", "zone_code": "R9", "zone_category": "Residential", "ev_permitted": false}, "geometry": {"type": "Polygon", "coordinates": [[[-73.9572679944386, 40.7652132452745], [-73.9571987129687, 40.7653085928825], [-73.9575448888235, 40.7654543143717], [-73.9576141588618, 40.7653589630403], [-73.9572679944386, 40.7652132452745]]]}}, {"type": "Feature", "properties": {"zone_id": "0204VFK40XQRZN9AZ48Z4B", "tract_id": "36061011600", "city": "NEW YORK, NY", "zone_code": "R8", "zone_category": "Residential", "ev_permitted": false}, "geometry": {"type": "Polygon", "coordinates": [[[-73.9571987129687, 40.7653085928825], [-73.9571304746749, 40.7654025053137], [-73.9574766517923, 40.7655482277089], [-73.9575448888235, 40.7654543143717], [-73.9571987129687, 40.7653085928825]]]}}, {"type": "Feature", "properties": {"zone_id": "02030DVUAPFY6IUK2Y8YJK", "tract_id": "36061011600", "city": "NEW YORK, NY", "zone_code": "R9", "zone_category": "Residential", "ev_permitted": false}, "geometry": {"type": "Polygon", "coordinates": [[[-73.9578245104307, 40.7644609550211], [-73.9574388784304, 40.7649916893677], [-73.957777455866, 40.7651342123906], [-73.9581631053954, 40.7646034853609], [-73.9578245104307, 40.7644609550211]]]}}, {"type": "Feature", "properties": {"zone_id": "0206VYUYVC1QQS7SO4OETK", "tract_id": "36061011600", "city": "NEW YORK, NY", "zone_code": "R8", "zone_category": "Residential", "ev_permitted": false}, "geometry": {"type": "Polygon", "coordinates": [[[-73.9580395394241, 40.7640887351123], [-73.9578638469846, 40.7643290039642], [-73.9582183566611, 40.7644779622216], [-73.9583928911287, 40.7642392677669], [-73.9580395394241, 40.7640887351123]]]}}, {"type": "Feature", "properties": {"zone_id": "020163RAS58I6CX50K9JN0", "tract_id": "36061011600", "city": "NEW YORK, NY", "zone_code": "R8", "zone_category": "Residential", "ev_permitted": false}, "geometry": {"type": "Polygon", "coordinates": [[[-73.9580631071482, 40.7637712361054], [-73.957704287198, 40.7642619579756], [-73.9578638469846, 40.7643290039642], [-73.9580395394241, 40.7640887351123], [-73.9583928911287, 40.7642392677669], [-73.9585771739874, 40.763987238766], [-73.9580631071482, 40.7637712361054]]]}}, {"type": "Feature", "properties": {"zone_id": "0202V3NLWKT34S07KX7A6X", "tract_id": "36061011600", "city": "NEW YORK, NY", "zone_code": "R8", "zone_category": "Residential", "ev_permitted": false}, "geometry": {"type": "Polygon", "coordinates": [[[-73.9574011876578, 40.7638359768165], [-73.9572341391209, 40.7640644060847], [-73.957704287198, 40.7642619579756], [-73.9578698010741, 40.7640356157594], [-73.9574011876578, 40.7638359768165]]]}}, {"type": "Feature", "properties": {"zone_id": "02059UR7NMY1Q5F6FY5O3Y", "tract_id": "36061011600", "city": "NEW YORK, NY", "zone_code": "R8", "zone_category": "Residential", "ev_permitted": false}, "geometry": {"type": "Polygon", "coordinates": [[[-73.9561993808987, 40.7646260716937], [-73.9560182829782, 40.7648753148749], [-73.9564104124107, 40.765040387328], [-73.9562334858756, 40.7652838868093], [-73.9567522488792, 40.7655022637765], [-73.956865034069, 40.7653470385157], [-73.9568896127387, 40.7653573851597], [-73.9570497977923, 40.7651369198624], [-73.9570308503725, 40.7651289432963], [-73.9570623430096, 40.7650855991812], [-73.9570819242192, 40.7650938415815], [-73.9571354801844, 40.7650201320408], [-73.9561993808987, 40.7646260716937]]]}}, {"type": "Feature", "properties": {"zone_id": "02059YBGBZJC6246X4QTWH", "tract_id": "36061011600", "city": "NEW YORK, NY", "zone_code": "R8", "zone_category": "Residential", "ev_permitted": false}, "geometry": {"type": "Polygon", "coordinates": [[[-73.9570585834408, 40.7655014445332], [-73.956986374724, 40.7656008199359], [-73.9573325516327, 40.7657465427596], [-73.957404759991, 40.765647167142], [-73.9570585834408, 40.7655014445332]]]}}, {"type": "Feature", "properties": {"zone_id": "0206D0NFF09FME42230JF9", "tract_id": "36061011600", "city": "NEW YORK, NY", "zone_code": "R8", "zone_category": "Residential", "ev_permitted": false}, "geometry": {"type": "Polygon", "coordinates": [[[-73.9571354801844, 40.7650201320408], [-73.9570819242192, 40.7650938415815], [-73.9570623430096, 40.7650855991812], [-73.9570308503725, 40.7651289432963], [-73.9570497977923, 40.7651369198624], [-73.9568896127387, 40.7653573851597], [-73.956865034069, 40.7653470385157], [-73.9567522488792, 40.7655022637765], [-73.956986374724, 40.7656008199359], [-73.957344409077, 40.765108080676], [-73.9571354801844, 40.7650201320408]]]}}, {"type": "Feature", "properties": {"zone_id": "0207GC6Q7GLOTRXUPI4QYU", "tract_id": "36061011600", "city": "NEW YORK, NY", "zone_code": "R9", "zone_category": "Residential", "ev_permitted": false}, "geometry": {"type": "Polygon", "coordinates": [[[-73.9561560041201, 40.763758579594], [-73.9557703619677, 40.7642893070051], [-73.9574388784304, 40.7649916893677], [-73.9578245104307, 40.7644609550211], [-73.9561560041201, 40.763758579594]]]}}, {"type": "Feature", "properties": {"zone_id": "0204OB54P5ES1DYZKU3OQQ", "tract_id": "36061011600", "city": "NEW YORK, NY", "zone_code": "R8", "zone_category": "Residential", "ev_permitted": false}, "geometry": {"type": "Polygon", "coordinates": [[[-73.9556834702541, 40.7644088878144], [-73.955325428297, 40.7649016205588], [-73.9562334858756, 40.7652838868093], [-73.9564104124107, 40.765040387328], [-73.9560182829782, 40.7648753148749], [-73.9561993808987, 40.7646260716937], [-73.9556834702541, 40.7644088878144]]]}}, {"type": "Feature", "properties": {"zone_id": "0202G0VAXIJGMK9ENCOEN5", "tract_id": "36061011600", "city": "NEW YORK, NY", "zone_code": "R9", "zone_category": "Residential", "ev_permitted": false}, "geometry": {"type": "Polygon", "coordinates": [[[-73.9537493973857, 40.7635062935981], [-73.952751158942, 40.7646332955758], [-73.9546162379801, 40.7654144831233], [-73.9554773059173, 40.7642328293274], [-73.9537493973857, 40.7635062935981]]]}}, {"type": "Feature", "properties": {"zone_id": "0204J7EZITP5D67F84UB9U", "tract_id": "36061011600", "city": "NEW YORK, NY", "zone_code": "R9", "zone_category": "Residential", "ev_permitted": false}, "geometry": {"type": "Polygon", "coordinates": [[[-73.952339398377, 40.7645326232606], [-73.9518167724256, 40.7651210623368], [-73.9518227414202, 40.7651241025817], [-73.9523456602716, 40.7645353762144], [-73.952339398377, 40.7645326232606]]]}}, {"type": "Feature", "properties": {"zone_id": "0207HI2PY2WOWJ950LGTXN", "tract_id": "36061011600", "city": "NEW YORK, NY", "zone_code": "R9", "zone_category": "Residential", "ev_permitted": false}, "geometry": {"type": "Polygon", "coordinates": [[[-73.9568542832451, 40.7608877193242], [-73.9568221852211, 40.760889885527], [-73.9567869540437, 40.7608998921685], [-73.9562296665365, 40.7611296183973], [-73.9561422845623, 40.7611718435001], [-73.9560717935087, 40.7612121742982], [-73.9559983898549, 40.7612675119349], [-73.9559732484642, 40.7612917270406], [-73.9553733966686, 40.761822740143], [-73.9551366274771, 40.7620224247405], [-73.9549055646539, 40.7622255273848], [-73.954789908181, 40.7623315152166], [-73.9537493973857, 40.7635062935981], [-73.9554773059173, 40.7642328293274], [-73.9576724298686, 40.7612203284534], [-73.9568977187713, 40.7608958997246], [-73.956877322013, 40.7608903650122], [-73.9568542832451, 40.7608877193242]]]}}, {"type": "Feature", "properties": {"zone_id": "0207F4EFFHUUM9GZNDGZTK", "tract_id": "36061011600", "city": "NEW YORK, NY", "zone_code": "R8B", "zone_category": "Residential", "ev_permitted": false}, "geometry": {"type": "Polygon", "coordinates": [[[-73.9586900693301, 40.7632143092079], [-73.958503113246, 40.7634699954716], [-73.9588490830001, 40.7636153658988], [-73.9590360381646, 40.7633596783764], [-73.9586900693301, 40.7632143092079]]]}}, {"type": "Feature", "properties": {"zone_id": "0202G7GAKSKAB6R0A3M8PM", "tract_id": "36061011600", "city": "NEW YORK, NY", "zone_code": "R8B", "zone_category": "Residential", "ev_permitted": false}, "geometry": {"type": "Polygon", "coordinates": [[[-73.9585331285821, 40.7634826076777], [-73.9583542115251, 40.7637273000471], [-73.9586701676714, 40.7638600587543], [-73.9588490830001, 40.7636153658988], [-73.9585331285821, 40.7634826076777]]]}}, {"type": "Feature", "properties": {"zone_id": "02062CBWW1ZFLHN2IJOLF9", "tract_id": "36061011600", "city": "NEW YORK, NY", "zone_code": "R8", "zone_category": "Residential", "ev_permitted": false}, "geometry": {"type": "Polygon", "coordinates": [[[-73.9575929614708, 40.7635736856644], [-73.9574011876578, 40.7638359768165], [-73.9578698010741, 40.7640356157594], [-73.9580631071482, 40.7637712361054], [-73.9575929614708, 40.7635736856644]]]}}, {"type": "Feature", "properties": {"zone_id": "02067DK8JQ07FJO7HP01V8", "tract_id": "36061011600", "city": "NEW YORK, NY", "zone_code": "R8B", "zone_category": "Residential", "ev_permitted": false}, "geometry": {"type": "Polygon", "coordinates": [[[-73.9582469714461, 40.7630281246001], [-73.9578810968461, 40.7635285024966], [-73.9583542115251, 40.7637273000471], [-73.9585331285821, 40.7634826076777], [-73.9581852625448, 40.7633364395031], [-73.9583722231704, 40.763080754454], [-73.9582469714461, 40.7630281246001]]]}}, {"type": "Feature", "properties": {"zone_id": "02068EBNU1H7YB4QT9EX3Z", "tract_id": "36061011600", "city": "NEW YORK, NY", "zone_code": "R8B", "zone_category": "Residential", "ev_permitted": false}, "geometry": {"type": "Polygon", "coordinates": [[[-73.9583722231704, 40.763080754454], [-73.9581852625448, 40.7633364395031], [-73.958503113246, 40.7634699954716], [-73.9586900693301, 40.7632143092079], [-73.9583722231704, 40.763080754454]]]}}, {"type": "Feature", "properties": {"zone_id": "020325HL4YB4RII9T29B0A", "tract_id": "36061011600", "city": "NEW YORK, NY", "zone_code": "R8B", "zone_category": "Residential", "ev_permitted": false}, "geometry": {"type": "Polygon", "coordinates": [[[-73.9581264141576, 40.7629774672607], [-73.9579394528784, 40.7632331519147], [-73.9580600151068, 40.7632838115575], [-73.9582469714461, 40.7630281246001], [-73.9581264141576, 40.7629774672607]]]}}, {"type": "Feature", "properties": {"zone_id": "0205ZWJCMW2R0H32DS453W", "tract_id": "36061011600", "city": "NEW YORK, NY", "zone_code": "R8B", "zone_category": "Residential", "ev_permitted": false}, "geometry": {"type": "Polygon", "coordinates": [[[-73.958012193017, 40.7629294723529], [-73.9578252360529, 40.7631851596356], [-73.9579394528784, 40.7632331519147], [-73.9581264141576, 40.7629774672607], [-73.958012193017, 40.7629294723529]]]}}, {"type": "Feature", "properties": {"zone_id": "0205AXJ6D2WWFGO3TPZO1K", "tract_id": "36061011600", "city": "NEW YORK, NY", "zone_code": "R8B", "zone_category": "Residential", "ev_permitted": false}, "geometry": {"type": "Polygon", "coordinates": [[[-73.9574142346545, 40.7626782120995], [-73.9572272687099, 40.7629338942028], [-73.9575840589083, 40.7630838179288], [-73.9577703522461, 40.7628278525391], [-73.9574142346545, 40.7626782120995]]]}}, {"type": "Feature", "properties": {"zone_id": "0202ZMD2HXZ9B8NEB9OW19", "tract_id": "36061011600", "city": "NEW YORK, NY", "zone_code": "R8B", "zone_category": "Residential", "ev_permitted": false}, "geometry": {"type": "Polygon", "coordinates": [[[-73.9579015385685, 40.7632172215451], [-73.9577226199049, 40.7634619115378], [-73.9578810968461, 40.7635285024966], [-73.9580600151068, 40.7632838115575], [-73.9579015385685, 40.7632172215451]]]}}, {"type": "Feature", "properties": {"zone_id": "0200GTPWWNDQHBLS6NL0HH", "tract_id": "36061011600", "city": "NEW YORK, NY", "zone_code": "R8B", "zone_category": "Residential", "ev_permitted": false}, "geometry": {"type": "Polygon", "coordinates": [[[-73.9578252360529, 40.7631851596356], [-73.9576463171951, 40.7634298495111], [-73.9577226199049, 40.7634619115378], [-73.9579015385685, 40.7632172215451], [-73.9578252360529, 40.7631851596356]]]}}, {"type": "Feature", "properties": {"zone_id": "0200PIB331DM12MQI78537", "tract_id": "36061011600", "city": "NEW YORK, NY", "zone_code": "R8B", "zone_category": "Residential", "ev_permitted": false}, "geometry": {"type": "Polygon", "coordinates": [[[-73.9577405614022, 40.7631495792261], [-73.9575616423284, 40.7633942696739], [-73.9576463171951, 40.7634298495111], [-73.9578252360529, 40.7631851596356], [-73.9577405614022, 40.7631495792261]]]}}, {"type": "Feature", "properties": {"zone_id": "0202JP7VQIV72PEWP8GHQ7", "tract_id": "36061011600", "city": "NEW YORK, NY", "zone_code": "R8B", "zone_category": "Residential", "ev_permitted": false}, "geometry": {"type": "Polygon", "coordinates": [[[-73.9576561704724, 40.7631141190123], [-73.957477252108, 40.7633588093307], [-73.9575616423284, 40.7633942696739], [-73.9577405614022, 40.7631495792261], [-73.9576561704724, 40.7631141190123]]]}}, {"type": "Feature", "properties": {"zone_id": "02067GXI5RPA7M2TONV1HW", "tract_id": "36061011600", "city": "NEW YORK, NY", "zone_code": "R8B", "zone_category": "Residential", "ev_permitted": false}, "geometry": {"type": "Polygon", "coordinates": [[[-73.9575732495239, 40.7630792762081], [-73.9573940861202, 40.7633238630183], [-73.957477252108, 40.7633588093307], [-73.9576561704724, 40.7631141190123], [-73.9575732495239, 40.7630792762081]]]}}, {"type": "Feature", "properties": {"zone_id": "0204BG99WYXUFKWSFI0W47", "tract_id": "36061011600", "city": "NEW YORK, NY", "zone_code": "R8B", "zone_category": "Residential", "ev_permitted": false}, "geometry": {"type": "Polygon", "coordinates": [[[-73.9574871375884, 40.7630430915024], [-73.9573082178697, 40.7632877815605], [-73.9573940861202, 40.7633238630183], [-73.9575732495239, 40.7630792762081], [-73.9574871375884, 40.7630430915024]]]}}, {"type": "Feature", "properties": {"zone_id": "02020GB6M9F84U3ESFZGPU", "tract_id": "36061011600", "city": "NEW YORK, NY", "zone_code": "R8B", "zone_category": "Residential", "ev_permitted": false}, "geometry": {"type": "Polygon", "coordinates": [[[-73.9574038842212, 40.7630081086251], [-73.9572249652147, 40.7632527985555], [-73.9573082178697, 40.7632877815605], [-73.9574871375884, 40.7630430915024], [-73.9574038842212, 40.7630081086251]]]}}, {"type": "Feature", "properties": {"zone_id": "0206VYUDYMDHIKJGBGXX4N", "tract_id": "36061011600", "city": "NEW YORK, NY", "zone_code": "R8B", "zone_category": "Residential", "ev_permitted": false}, "geometry": {"type": "Polygon", "coordinates": [[[-73.9578879664416, 40.7628772739105], [-73.9577007541568, 40.7631328526913], [-73.9578252360529, 40.7631851596356], [-73.958012193017, 40.7629294723529], [-73.9578879664416, 40.7628772739105]]]}}, {"type": "Feature", "properties": {"zone_id": "0204QOG4TH12PTNDFJ1UFK", "tract_id": "36061011600", "city": "NEW YORK, NY", "zone_code": "R8B", "zone_category": "Residential", "ev_permitted": false}, "geometry": {"type": "Polygon", "coordinates": [[[-73.9577703522461, 40.7628278525391], [-73.9575840589083, 40.7630838179288], [-73.9577007541568, 40.7631328526913], [-73.9578879664416, 40.7628772739105], [-73.9577703522461, 40.7628278525391]]]}}, {"type": "Feature", "properties": {"zone_id": "0205VJ72GDHSCKB6RZRX4V", "tract_id": "36061011600", "city": "NEW YORK, NY", "zone_code": "R8B", "zone_category": "Residential", "ev_permitted": false}, "geometry": {"type": "Polygon", "coordinates": [[[-73.9573197957575, 40.7629727747535], [-73.9571406326334, 40.7632173618764], [-73.9572249652147, 40.7632527985555], [-73.9574038842212, 40.7630081086251], [-73.9573197957575, 40.7629727747535]]]}}, {"type": "Feature", "properties": {"zone_id": "020573IOS7STMYTSDDD3VZ", "tract_id": "36061011600", "city": "NEW YORK, NY", "zone_code": "R8B", "zone_category": "Residential", "ev_permitted": false}, "geometry": {"type": "Polygon", "coordinates": [[[-73.9588085073545, 40.762459838052], [-73.9584545777949, 40.762945628655], [-73.9591396400916, 40.7632338768402], [-73.9594935671104, 40.7627480841536], [-73.9588085073545, 40.762459838052]]]}}, {"type": "Feature", "properties": {"zone_id": "0205AY7I79P5KYPRN632MB", "tract_id": "36061011600", "city": "NEW YORK, NY", "zone_code": "R8B", "zone_category": "Residential", "ev_permitted": false}, "geometry": {"type": "Polygon", "coordinates": [[[-73.9576860067865, 40.7623010529762], [-73.9575069060954, 40.7625468731701], [-73.9584545777949, 40.762945628655], [-73.9586330905934, 40.7627006099258], [-73.9576860067865, 40.7623010529762]]]}}, {"type": "Feature", "properties": {"zone_id": "0205LQ2JBJ3A6G6D93RBR7", "tract_id": "36061011600", "city": "NEW YORK, NY", "zone_code": "R8B", "zone_category": "Residential", "ev_permitted": false}, "geometry": {"type": "Polygon", "coordinates": [[[-73.957860840448, 40.76206108545], [-73.9576860067865, 40.7623010529762], [-73.9586330905934, 40.7627006099258], [-73.9588085073545, 40.762459838052], [-73.957860840448, 40.76206108545]]]}}, {"type": "Feature", "properties": {"zone_id": "0206Z2FUER34H4JED33IEG", "tract_id": "36061011600", "city": "NEW YORK, NY", "zone_code": "R10", "zone_category": "Residential", "ev_permitted": false}, "geometry": {"type": "Polygon", "coordinates": [[[-73.9575449980381, 40.761928184698], [-73.9571910611636, 40.7624139721595], [-73.9575069060954, 40.7625468731701], [-73.957860840448, 40.76206108545], [-73.9575449980381, 40.761928184698]]]}}, {"type": "Feature", "properties": {"zone_id": "0201KCDUB3FPF9RGFOC1YK", "tract_id": "36061011600", "city": "NEW YORK, NY", "zone_code": "R9", "zone_category": "Residential", "ev_permitted": false}, "geometry": {"type": "Polygon", "coordinates": [[[-73.9557666895749, 40.7614653818356], [-73.9557588806956, 40.7614722943609], [-73.9557577378512, 40.761471536812], [-73.955752984981, 40.7614756688777], [-73.9557541347604, 40.7614764202811], [-73.9556459115524, 40.7615721785557], [-73.9556447684765, 40.7615714211813], [-73.9556400167469, 40.7615755539453], [-73.9556411669887, 40.7615763051744], [-73.9555329716289, 40.7616720819726], [-73.9555318287836, 40.7616713245972], [-73.9555270770398, 40.7616754573566], [-73.9555282270511, 40.7616762085866], [-73.9554200315977, 40.7617719852775], [-73.9554189023905, 40.7617712159611], [-73.9551828307866, 40.7619715480694], [-73.9551839773319, 40.7619723021122], [-73.9550753428358, 40.7620677914462], [-73.9550741946721, 40.7620670386314], [-73.9550694715064, 40.7620711903544], [-73.9550706351584, 40.7620719292979], [-73.9549619767583, 40.7621674392427], [-73.954960820041, 40.7621666941526], [-73.954956144663, 40.7621708769821], [-73.9549573083155, 40.7621716157511], [-73.9548486731694, 40.7622671048685], [-73.9548475219996, 40.7622663548609], [-73.9548428156632, 40.762270517648], [-73.9548439825524, 40.7622712537844], [-73.9547817471957, 40.7623282864794], [-73.9547354548273, 40.7623805535049], [-73.9546949780248, 40.7624200056828], [-73.9546938157581, 40.7624192653307], [-73.9546891791416, 40.7624234731088], [-73.9546903414083, 40.7624242134608], [-73.9545971399802, 40.7625219027958], [-73.9545958678965, 40.7625212757026], [-73.954591940025, 40.7625258818096], [-73.9545932123398, 40.7625265089029], [-73.9545164746371, 40.7626277414691], [-73.9545152171186, 40.7626270975171], [-73.9545111841528, 40.762631650705], [-73.9545124416714, 40.7626322946571], [-73.9544317050137, 40.7627234505791], [-73.9544304474942, 40.762722806626], [-73.9544264145168, 40.762727359811], [-73.9544276720364, 40.762728003764], [-73.9543273759653, 40.7628412427936], [-73.9543261182135, 40.7628405988394], [-73.9541313118025, 40.7630605426682], [-73.9541325545281, 40.763061203131], [-73.9540397986651, 40.7631659273331], [-73.9540385559384, 40.7631652668695], [-73.9540344192115, 40.7631697658946], [-73.9540356619382, 40.7631704263583], [-73.9539333463437, 40.7632701488555], [-73.9539320888187, 40.7632695048971], [-73.9539280557742, 40.7632740580642], [-73.9539293135303, 40.7632747020227], [-73.9538365771659, 40.7633794034054], [-73.9538353196397, 40.763378759446], [-73.953831286813, 40.7633833126097], [-73.9538325443392, 40.7633839565692], [-73.9537397674392, 40.763488703353], [-73.9537385205479, 40.763488047276], [-73.9537344121872, 40.7634925614086], [-73.953735599725, 40.7634931860181], [-73.9537307686141, 40.7634984782254], [-73.9537493973857, 40.7635062935981], [-73.954789908181, 40.7623315152166], [-73.9549055531014, 40.7622255289613], [-73.9551366180021, 40.7620224289527], [-73.9553734898736, 40.7618225892841], [-73.955772640533, 40.7614692685691], [-73.9557666895749, 40.7614653818356]]]}}, {"type": "Feature", "properties": {"zone_id": "0203BNP3A5XMQU0BGF74BT", "tract_id": "36061011600", "city": "NEW YORK, NY", "zone_code": "R8", "zone_category": "Residential", "ev_permitted": false}, "geometry": {"type": "Polygon", "coordinates": [[[-73.9572138143891, 40.7634143683259], [-73.9570339769467, 40.7636603434617], [-73.9569111563875, 40.7636080180185], [-73.9567317668786, 40.7638533098638], [-73.9572341391209, 40.7640644060847], [-73.9575929614708, 40.7635736856644], [-73.9572138143891, 40.7634143683259]]]}}, {"type": "Feature", "properties": {"zone_id": "0205FUOC40SC0PVZ8220M4", "tract_id": "36061011600", "city": "NEW YORK, NY", "zone_code": "R8", "zone_category": "Residential", "ev_permitted": false}, "geometry": {"type": "Polygon", "coordinates": [[[-73.9566364589421, 40.76317175435], [-73.9562776317102, 40.7636624718202], [-73.9567317668786, 40.7638533098638], [-73.9569111563875, 40.7636080180185], [-73.9570339769467, 40.7636603434617], [-73.9572138143891, 40.7634143683259], [-73.9566364589421, 40.76317175435]]]}}, {"type": "Feature", "properties": {"zone_id": "02066OB4QFCDSVBO0FXB52", "tract_id": "36061011600", "city": "NEW YORK, NY", "zone_code": "R8B", "zone_category": "Residential", "ev_permitted": false}, "geometry": {"type": "Polygon", "coordinates": [[[-73.957095331162, 40.7625442079368], [-73.9567294524184, 40.7630445794017], [-73.9570540357184, 40.7631809736003], [-73.957232956084, 40.762936283933], [-73.9572272687099, 40.7629338942028], [-73.9574142346545, 40.7626782120995], [-73.957095331162, 40.7625442079368]]]}}, {"type": "Feature", "properties": {"zone_id": "020072GM4O5RZELULS0J7E", "tract_id": "36061011600", "city": "NEW YORK, NY", "zone_code": "R8B", "zone_category": "Residential", "ev_permitted": false}, "geometry": {"type": "Polygon", "coordinates": [[[-73.957232956084, 40.762936283933], [-73.9570540357184, 40.7631809736003], [-73.9571406326334, 40.7632173618764], [-73.9573197957575, 40.7629727747535], [-73.957232956084, 40.762936283933]]]}}, {"type": "Feature", "properties": {"zone_id": "02015WLOGRIIV26CJQ7DFE", "tract_id": "36061011600", "city": "NEW YORK, NY", "zone_code": "R9", "zone_category": "Residential", "ev_permitted": false}, "geometry": {"type": "Polygon", "coordinates": [[[-73.9545643230718, 40.7621786019812], [-73.9545346383885, 40.7622162736178], [-73.9545454762653, 40.7622212110542], [-73.9545751611757, 40.7621835394149], [-73.9545643230718, 40.7621786019812]]]}}, {"type": "Feature", "properties": {"zone_id": "02029JYH72QJ2R4T8DLY5Q", "tract_id": "36061011600", "city": "NEW YORK, NY", "zone_code": "R9", "zone_category": "Residential", "ev_permitted": false}, "geometry": {"type": "Polygon", "coordinates": [[[-73.9548203977897, 40.7619612614076], [-73.9547822699209, 40.7619942483636], [-73.9547917599345, 40.7620005902052], [-73.9548298880334, 40.7619676032462], [-73.9548203977897, 40.7619612614076]]]}}, {"type": "Feature", "properties": {"zone_id": "0201AYDXR7U0ZDEYPTQKXW", "tract_id": "36061011600", "city": "NEW YORK, NY", "zone_code": "R9", "zone_category": "Residential", "ev_permitted": false}, "geometry": {"type": "Polygon", "coordinates": [[[-73.9552761412589, 40.761564876782], [-73.9552381650972, 40.7615979646047], [-73.955247684224, 40.7616042813006], [-73.9552856603845, 40.7615711934747], [-73.9552761412589, 40.761564876782]]]}}, {"type": "Feature", "properties": {"zone_id": "0203FGKEUY5DGD0CCKRDSR", "tract_id": "36061011600", "city": "NEW YORK, NY", "zone_code": "R9", "zone_category": "Residential", "ev_permitted": false}, "geometry": {"type": "Polygon", "coordinates": [[[-73.955501964069, 40.7613654783807], [-73.9554643329027, 40.7613987933695], [-73.9554739174413, 40.7614050524545], [-73.9555115483752, 40.7613717376382], [-73.955501964069, 40.7613654783807]]]}}, {"type": "Feature", "properties": {"zone_id": "0204HR7JNR4M8JWT0VCONC", "tract_id": "36061011600", "city": "NEW YORK, NY", "zone_code": "R9", "zone_category": "Residential", "ev_permitted": false}, "geometry": {"type": "Polygon", "coordinates": [[[-73.9550502413576, 40.7617577143732], [-73.9550115668969, 40.7617903312452], [-73.9550209505695, 40.7617967640204], [-73.9550596250294, 40.7617641469696], [-73.9550502413576, 40.7617577143732]]]}}, {"type": "Feature", "properties": {"zone_id": "02069F00W9A87B9AN5EJCU", "tract_id": "36061011600", "city": "NEW YORK, NY", "zone_code": "", "zone_category": "Other", "ev_permitted": false}, "geometry": {"type": "Polygon", "coordinates": [[[-73.9563719237328, 40.7604461090849], [-73.9562862389576, 40.760522411575], [-73.9562889315349, 40.7605241597469], [-73.9563750733073, 40.7604474500639], [-73.9563719237328, 40.7604461090849]]]}}, {"type": "Feature", "properties": {"zone_id": "0204APE878KA2EQ2CR3PV7", "tract_id": "36061011600", "city": "NEW YORK, NY", "zone_code": "R9", "zone_category": "Residential", "ev_permitted": false}, "geometry": {"type": "Polygon", "coordinates": [[[-73.9562862389576, 40.760522411575], [-73.9544234937999, 40.7621811329998], [-73.952339398377, 40.7645326232606], [-73.9523456602716, 40.7645353762144], [-73.9544265893231, 40.7621825228449], [-73.9562889315349, 40.7605241597469], [-73.9562862389576, 40.760522411575]]]}}, {"type": "Feature", "properties": {"zone_id": "0201OEZCRRFRKPEL1OAB2Q", "tract_id": "36061011600", "city": "NEW YORK, NY", "zone_code": "R9", "zone_category": "Residential", "ev_permitted": false}, "geometry": {"type": "Polygon", "coordinates": [[[-73.9539184851261, 40.7628424958155], [-73.9538862223396, 40.7628789216742], [-73.9538967018816, 40.7628842878224], [-73.953928964896, 40.762847861961], [-73.9539184851261, 40.7628424958155]]]}}, {"type": "Feature", "properties": {"zone_id": "0200RJGRMROGQ8FF8UA938", "tract_id": "36061011600", "city": "NEW YORK, NY", "zone_code": "R9", "zone_category": "Residential", "ev_permitted": false}, "geometry": {"type": "Polygon", "coordinates": [[[-73.9535430077121, 40.7632688123581], [-73.9535078447145, 40.763307053827], [-73.9535181992083, 40.7633125583818], [-73.9535533624339, 40.7632743169098], [-73.9535430077121, 40.7632688123581]]]}}, {"type": "Feature", "properties": {"zone_id": "02075DBMJ8TJKYV3UYMB6P", "tract_id": "36061011600", "city": "NEW YORK, NY", "zone_code": "R9", "zone_category": "Residential", "ev_permitted": false}, "geometry": {"type": "Polygon", "coordinates": [[[-73.9537181490929, 40.7630706324925], [-73.9536829863005, 40.7631088740161], [-73.95369334124, 40.7631143785554], [-73.9537285037984, 40.7630761370286], [-73.9537181490929, 40.7630706324925]]]}}, {"type": "Feature", "properties": {"zone_id": "0205ROQFUIVQLGEBX3B6C3", "tract_id": "36061011600", "city": "NEW YORK, NY", "zone_code": "R9", "zone_category": "Residential", "ev_permitted": false}, "geometry": {"type": "Polygon", "coordinates": [[[-73.9541157375184, 40.7626255678758], [-73.9540822153642, 40.762661330159], [-73.9540925041435, 40.7626669057802], [-73.9541260260642, 40.7626311433183], [-73.9541157375184, 40.7626255678758]]]}}, {"type": "Feature", "properties": {"zone_id": "0203OFNSIA561ADEU8OGOG", "tract_id": "36061011600", "city": "NEW YORK, NY", "zone_code": "R9", "zone_category": "Residential", "ev_permitted": false}, "geometry": {"type": "Polygon", "coordinates": [[[-73.9543248100372, 40.7624152205956], [-73.9542886912002, 40.7624494899997], [-73.9542985504151, 40.7624554975646], [-73.9543346692502, 40.7624212281574], [-73.9543248100372, 40.7624152205956]]]}}]}