{"type": "FeatureCollection", "features": [{"type": "Feature", "properties": {"zone_id": "02024Q5DQ9FCA9Z0GL2I2X", "tract_id": "36081039902", "city": "FLUSHING, NY", "zone_code": "R3-2", "zone_category": "Residential", "ev_permitted": false}, "geometry": {"type": "Polygon", "coordinates": [[[-73.8525461029009, 40.7526991999264], [-73.8491701951055, 40.7536897464545], [-73.849401408937, 40.7536463521959], [-73.8497552656288, 40.7536233308106], [-73.8498709157059, 40.7536172117964], [-73.8500983237757, 40.7536300869039], [-73.8503160210117, 40.7536633962355], [-73.8505793015159, 40.7537356527921], [-73.8508459272074, 40.7538224678942], [-73.85105714043, 40.7538766117181], [-73.8511434966276, 40.7542028091362], [-73.8511425254843, 40.7546373907634], [-73.8510782556694, 40.7549822140873], [-73.85095044042, 40.7553476497759], [-73.8507955021624, 40.75567166164], [-73.850595221105, 40.7559887165107], [-73.8500768484139, 40.7565674860241], [-73.8497951511216, 40.7567809610995], [-73.8494499510487, 40.7569943525077], [-73.8490322240807, 40.7571869532365], [-73.8485963980978, 40.7573588347489], [-73.8481334334482, 40.7574961882794], [-73.8483791737487, 40.7580006611007], [-73.848261003322, 40.7581556863027], [-73.8480669321745, 40.7583032530924], [-73.8477674422906, 40.7584685277457], [-73.8463550464006, 40.7592332259989], [-73.8456112558936, 40.7596081656544], [-73.8456926247324, 40.7597633514472], [-73.8460170269169, 40.7596479752386], [-73.8464541835109, 40.7593760794621], [-73.8472050285099, 40.7589890151807], [-73.8473339041404, 40.7589139808172], [-73.8483851139726, 40.7584332525294], [-73.8495913829324, 40.7579745725934], [-73.8508330846789, 40.7575587668195], [-73.8507734362885, 40.7577406562999], [-73.8506456960739, 40.757974323306], [-73.8519994413871, 40.7575602824484], [-73.8535395982689, 40.7570691123881], [-73.8547433979276, 40.7569956175706], [-73.8539641334635, 40.7555034162441], [-73.8538670357419, 40.755212192631], [-73.8525461029009, 40.7526991999264]]]}}, {"type": "Feature", "properties": {"zone_id": "0201OWPTUGK62EXVAGUHN0", "tract_id": "36081039902", "city": "FLUSHING, NY", "zone_code": "C2-4", "zone_category": "Commercial", "ev_permitted": true}, "geometry": {"type": "Polygon", "coordinates": [[[-73.8545746505975, 40.7542675824124], [-73.8537334626188, 40.7545184014342], [-73.853899530992, 40.7548371076606], [-73.8547412252358, 40.754587252994], [-73.8545746505975, 40.7542675824124]]]}}, {"type": "Feature", "properties": {"zone_id": "02038742EQV2F8I2NZMNT1", "tract_id": "36081039902", "city": "FLUSHING, NY", "zone_code": "R6", "zone_category": "Residential", "ev_permitted": false}, "geometry": {"type": "Polygon", "coordinates": [[[-73.8556409813963, 40.7542707748265], [-73.8554780767521, 40.7543171940628], [-73.8555057464266, 40.7543702928226], [-73.8556730589332, 40.7543345294017], [-73.8556409813963, 40.7542707748265]]]}}, {"type": "Feature", "properties": {"zone_id": "0200LLRA04JXRQYP16UI59", "tract_id": "36081039902", "city": "FLUSHING, NY", "zone_code": "R6", "zone_category": "Residential", "ev_permitted": false}, "geometry": {"type": "Polygon", "coordinates": [[[-73.8553342043567, 40.7540410982219], [-73.8551661894851, 40.7540911972604], [-73.8553331198662, 40.7544115455014], [-73.8553855124942, 40.7543959926524], [-73.8555057464266, 40.7543702928226], [-73.8553342043567, 40.7540410982219]]]}}, {"type": "Feature", "properties": {"zone_id": "0205Y2AYCHQV0A925K8NV4", "tract_id": "36081039902", "city": "FLUSHING, NY", "zone_code": "R6", "zone_category": "Residential", "ev_permitted": false}, "geometry": {"type": "Polygon", "coordinates": [[[-73.8555816502708, 40.7541528531118], [-73.8554169018069, 40.754199797645], [-73.8554474892525, 40.7542584958582], [-73.8556113158073, 40.7542118139732], [-73.8555816502708, 40.7541528531118]]]}}, {"type": "Feature", "properties": {"zone_id": "0206DUNYCQ23JJUFTOZFWC", "tract_id": "36081039902", "city": "FLUSHING, NY", "zone_code": "R6", "zone_category": "Residential", "ev_permitted": false}, "geometry": {"type": "Polygon", "coordinates": [[[-73.8556113158073, 40.7542118139732], [-73.8554474892525, 40.7542584958582], [-73.8554780767521, 40.7543171940628], [-73.8556409813963, 40.7542707748265], [-73.8556113158073, 40.7542118139732]]]}}, {"type": "Feature", "properties": {"zone_id": "0203IH2TN0P2ADLSW2FXM3", "tract_id": "36081039902", "city": "FLUSHING, NY", "zone_code": "R6", "zone_category": "Residential", "ev_permitted": false}, "geometry": {"type": "Polygon", "coordinates": [[[-73.855500476107, 40.7539915181224], [-73.8553342043567, 40.7540410982219], [-73.8553863144152, 40.7541410994231], [-73.8555519845558, 40.7540938922419], [-73.855500476107, 40.7539915181224]]]}}, {"type": "Feature", "properties": {"zone_id": "0201G3BX4US6XZFJ81GO51", "tract_id": "36081039902", "city": "FLUSHING, NY", "zone_code": "R6", "zone_category": "Residential", "ev_permitted": false}, "geometry": {"type": "Polygon", "coordinates": [[[-73.8555519845558, 40.7540938922419], [-73.8553863144152, 40.7541410994231], [-73.8554169018069, 40.754199797645], [-73.8555816502708, 40.7541528531118], [-73.8555519845558, 40.7540938922419]]]}}, {"type": "Feature", "properties": {"zone_id": "02009FSXDDZV2G08UAG92W", "tract_id": "36081039902", "city": "FLUSHING, NY", "zone_code": "R5A", "zone_category": "Other", "ev_permitted": false}, "geometry": {"type": "Polygon", "coordinates": [[[-73.8544972859377, 40.7539255793525], [-73.854410001568, 40.7539516064641], [-73.8547412252358, 40.754587252994], [-73.8553331198662, 40.7544115455014], [-73.8551661894851, 40.7540911972604], [-73.8546619353154, 40.7542415558799], [-73.8544972859377, 40.7539255793525]]]}}, {"type": "Feature", "properties": {"zone_id": "0203AX6FK1T84Q07CGZXJH", "tract_id": "36081039902", "city": "FLUSHING, NY", "zone_code": "R5A", "zone_category": "Other", "ev_permitted": false}, "geometry": {"type": "Polygon", "coordinates": [[[-73.8542430818837, 40.7540013774013], [-73.8541709700923, 40.7540228787504], [-73.8543263109027, 40.7543209936985], [-73.854148214466, 40.7543740971122], [-73.8541575216856, 40.7543919591677], [-73.8544077293205, 40.7543173535847], [-73.8542430818837, 40.7540013774013]]]}}, {"type": "Feature", "properties": {"zone_id": "020772U2J0WK98H8SFEKSP", "tract_id": "36081039902", "city": "FLUSHING, NY", "zone_code": "R5A", "zone_category": "Other", "ev_permitted": false}, "geometry": {"type": "Polygon", "coordinates": [[[-73.8547468238764, 40.7538511731443], [-73.8546628164908, 40.7538762222665], [-73.8548274656077, 40.7541921985584], [-73.8549114733314, 40.7541671486146], [-73.8547468238764, 40.7538511731443]]]}}, {"type": "Feature", "properties": {"zone_id": "0201I48S44N1EYUA8470JW", "tract_id": "36081039902", "city": "FLUSHING, NY", "zone_code": "R6", "zone_category": "Residential", "ev_permitted": false}, "geometry": {"type": "Polygon", "coordinates": [[[-73.8546628164908, 40.7538762222665], [-73.8545855290489, 40.7538992674041], [-73.8547501787802, 40.7542152438066], [-73.8548274656077, 40.7541921985584], [-73.8546628164908, 40.7538762222665]]]}}, {"type": "Feature", "properties": {"zone_id": "0206BFYPFLLZLSDT3IOL7O", "tract_id": "36081039902", "city": "FLUSHING, NY", "zone_code": "R5A", "zone_category": "Other", "ev_permitted": false}, "geometry": {"type": "Polygon", "coordinates": [[[-73.8545855290489, 40.7538992674041], [-73.8544972859377, 40.7539255793525], [-73.8546619353154, 40.7542415558799], [-73.8547501787802, 40.7542152438066], [-73.8545855290489, 40.7538992674041]]]}}, {"type": "Feature", "properties": {"zone_id": "0206IA7HWKFM3VCRA09BL8", "tract_id": "36081039902", "city": "", "zone_code": "R5A", "zone_category": "Other", "ev_permitted": false}, "geometry": {"type": "Polygon", "coordinates": [[[-73.854410001568, 40.7539516064641], [-73.8542430818837, 40.7540013774013], [-73.8544077293205, 40.7543173535847], [-73.8545746505975, 40.7542675824124], [-73.854410001568, 40.7539516064641]]]}}, {"type": "Feature", "properties": {"zone_id": "0205O75SY3X3STASK05DK3", "tract_id": "36081039902", "city": "FLUSHING, NY", "zone_code": "R5A", "zone_category": "Other", "ev_permitted": false}, "geometry": {"type": "Polygon", "coordinates": [[[-73.855253560214, 40.753700073155], [-73.8551695522841, 40.7537251233488], [-73.8553342043567, 40.7540410982219], [-73.8554182116977, 40.7540160486106], [-73.855253560214, 40.753700073155]]]}}, {"type": "Feature", "properties": {"zone_id": "02071L9X9VHTCC4O49AP9H", "tract_id": "36081039902", "city": "FLUSHING, NY", "zone_code": "R5A", "zone_category": "Other", "ev_permitted": false}, "geometry": {"type": "Polygon", "coordinates": [[[-73.8553407570112, 40.7536740719951], [-73.855253560214, 40.753700073155], [-73.8554182116977, 40.7540160486106], [-73.855500476107, 40.7539915181224], [-73.8553407570112, 40.7536740719951]]]}}, {"type": "Feature", "properties": {"zone_id": "02052ZBME3D8DETE82TCDQ", "tract_id": "36081039902", "city": "", "zone_code": "R5A", "zone_category": "Other", "ev_permitted": false}, "geometry": {"type": "Polygon", "coordinates": [[[-73.8550855452164, 40.7537501727798], [-73.8550015380856, 40.7537752221495], [-73.8551661894851, 40.7540911972604], [-73.8552501969525, 40.7540661477718], [-73.8550855452164, 40.7537501727798]]]}}, {"type": "Feature", "properties": {"zone_id": "0200O0LBEYLDHSH1A74B8E", "tract_id": "36081039902", "city": "FLUSHING, NY", "zone_code": "R5A", "zone_category": "Other", "ev_permitted": false}, "geometry": {"type": "Polygon", "coordinates": [[[-73.8550015380856, 40.7537752221495], [-73.8549175308931, 40.7538002707551], [-73.855082181029, 40.7541162473891], [-73.8551661894851, 40.7540911972604], [-73.8550015380856, 40.7537752221495]]]}}, {"type": "Feature", "properties": {"zone_id": "0204XU306Z0SF1FU6EA9BK", "tract_id": "36081039902", "city": "FLUSHING, NY", "zone_code": "R5A", "zone_category": "Other", "ev_permitted": false}, "geometry": {"type": "Polygon", "coordinates": [[[-73.8549175308931, 40.7538002707551], [-73.8548308311988, 40.7538261239607], [-73.8549954819144, 40.7541420993132], [-73.855082181029, 40.7541162473891], [-73.8549175308931, 40.7538002707551]]]}}, {"type": "Feature", "properties": {"zone_id": "0205ZQHRJ7CA3QGS29SMYC", "tract_id": "36081039902", "city": "FLUSHING, NY", "zone_code": "R6", "zone_category": "Residential", "ev_permitted": false}, "geometry": {"type": "Polygon", "coordinates": [[[-73.8551695522841, 40.7537251233488], [-73.8550855452164, 40.7537501727798], [-73.8552501969525, 40.7540661477718], [-73.8553342043567, 40.7540410982219], [-73.8551695522841, 40.7537251233488]]]}}, {"type": "Feature", "properties": {"zone_id": "0205DVBANX6XMIPEPHHP37", "tract_id": "36081039902", "city": "FLUSHING, NY", "zone_code": "R5A", "zone_category": "Other", "ev_permitted": false}, "geometry": {"type": "Polygon", "coordinates": [[[-73.8548308311988, 40.7538261239607], [-73.8547468238764, 40.7538511731443], [-73.8549114733314, 40.7541671486146], [-73.8549954819144, 40.7541420993132], [-73.8548308311988, 40.7538261239607]]]}}, {"type": "Feature", "properties": {"zone_id": "0201PKSB100B4LXN15C0LT", "tract_id": "36081039902", "city": "FLUSHING, NY", "zone_code": "R5A", "zone_category": "Other", "ev_permitted": false}, "geometry": {"type": "Polygon", "coordinates": [[[-73.8546689360162, 40.7533299381284], [-73.8545891044805, 40.7533538548663], [-73.854758519881, 40.7536820747561], [-73.8548385311717, 40.7536585052401], [-73.8546689360162, 40.7533299381284]]]}}, {"type": "Feature", "properties": {"zone_id": "02025Q3OFBEZZ8H5K0C02A", "tract_id": "36081039902", "city": "FLUSHING, NY", "zone_code": "R5A", "zone_category": "Other", "ev_permitted": false}, "geometry": {"type": "Polygon", "coordinates": [[[-73.8545891044805, 40.7533538548663], [-73.8545070778935, 40.7533784285703], [-73.8546763098545, 40.7537062921022], [-73.854758519881, 40.7536820747561], [-73.8545891044805, 40.7533538548663]]]}}, {"type": "Feature", "properties": {"zone_id": "02045ZXNDK4I3J9XMF3WK0", "tract_id": "36081039902", "city": "", "zone_code": "R5A", "zone_category": "Other", "ev_permitted": false}, "geometry": {"type": "Polygon", "coordinates": [[[-73.8543393094978, 40.7534286890311], [-73.8541646941823, 40.7534810000641], [-73.8543331573557, 40.7538073770062], [-73.8545081644367, 40.7537558243801], [-73.8543393094978, 40.7534286890311]]]}}, {"type": "Feature", "properties": {"zone_id": "02058T38VQ0S9EOUD7XXMS", "tract_id": "36081039902", "city": "FLUSHING, NY", "zone_code": "R5A", "zone_category": "Other", "ev_permitted": false}, "geometry": {"type": "Polygon", "coordinates": [[[-73.8545070778935, 40.7533784285703], [-73.8544294079533, 40.7534016972683], [-73.8545984647684, 40.7537292234176], [-73.8546763098545, 40.7537062921022], [-73.8545070778935, 40.7533784285703]]]}}, {"type": "Feature", "properties": {"zone_id": "0207DNEI0WY8WAW0JBZOTW", "tract_id": "36081039902", "city": "FLUSHING, NY", "zone_code": "R5A", "zone_category": "Other", "ev_permitted": false}, "geometry": {"type": "Polygon", "coordinates": [[[-73.8544294079533, 40.7534016972683], [-73.8543393094978, 40.7534286890311], [-73.8545081644367, 40.7537558243801], [-73.8545984647684, 40.7537292234176], [-73.8544294079533, 40.7534016972683]]]}}, {"type": "Feature", "properties": {"zone_id": "020549VL50GAZYI0SDJGEV", "tract_id": "36081039902", "city": "FLUSHING, NY", "zone_code": "R5A", "zone_category": "Other", "ev_permitted": false}, "geometry": {"type": "Polygon", "coordinates": [[[-73.8539928743288, 40.7540759819262], [-73.8535688174234, 40.7542024234172], [-73.8537334626188, 40.7545184014342], [-73.8541575216856, 40.7543919591677], [-73.8539928743288, 40.7540759819262]]]}}, {"type": "Feature", "properties": {"zone_id": "0206AU43NQIEOYYORCA88X", "tract_id": "36081039902", "city": "FLUSHING, NY", "zone_code": "R5A", "zone_category": "Other", "ev_permitted": false}, "geometry": {"type": "Polygon", "coordinates": [[[-73.8541709700923, 40.7540228787504], [-73.8540668012363, 40.754053939835], [-73.854222140732, 40.7543520535159], [-73.8543263109027, 40.7543209936985], [-73.8541709700923, 40.7540228787504]]]}}, {"type": "Feature", "properties": {"zone_id": "0206DPJ94TDV8ESHWOEVE0", "tract_id": "36081039902", "city": "FLUSHING, NY", "zone_code": "R5A", "zone_category": "Other", "ev_permitted": false}, "geometry": {"type": "Polygon", "coordinates": [[[-73.8540668012363, 40.754053939835], [-73.8539928743288, 40.7540759819262], [-73.854148214466, 40.7543740971122], [-73.854222140732, 40.7543520535159], [-73.8540668012363, 40.754053939835]]]}}, {"type": "Feature", "properties": {"zone_id": "0202D3MQAJSYDVHSKTGFQQ", "tract_id": "36081039902", "city": "FLUSHING, NY", "zone_code": "R5A", "zone_category": "Other", "ev_permitted": false}, "geometry": {"type": "Polygon", "coordinates": [[[-73.8537841276395, 40.7536645896122], [-73.8537001734952, 40.7536897399859], [-73.8538364179543, 40.7539537026539], [-73.8539205610013, 40.7539289163969], [-73.8537841276395, 40.7536645896122]]]}}, {"type": "Feature", "properties": {"zone_id": "0202VQ3DKTZGZC7KL1FG15", "tract_id": "36081039902", "city": "FLUSHING, NY", "zone_code": "R6", "zone_category": "Residential", "ev_permitted": false}, "geometry": {"type": "Polygon", "coordinates": [[[-73.8537001734952, 40.7536897399859], [-73.8536162192874, 40.7537148902984], [-73.8537522757687, 40.7539784888507], [-73.8538364179543, 40.7539537026539], [-73.8537001734952, 40.7536897399859]]]}}, {"type": "Feature", "properties": {"zone_id": "02031XD0PDA1RB49A08CE9", "tract_id": "36081039902", "city": "FLUSHING, NY", "zone_code": "R6", "zone_category": "Residential", "ev_permitted": false}, "geometry": {"type": "Polygon", "coordinates": [[[-73.8536162192874, 40.7537148902984], [-73.8535289872839, 40.7537410229109], [-73.8536648484192, 40.7540042418832], [-73.8537522757687, 40.7539784888507], [-73.8536162192874, 40.7537148902984]]]}}, {"type": "Feature", "properties": {"zone_id": "0207F8J2EGCPLWC8LBSWQH", "tract_id": "36081039902", "city": "FLUSHING, NY", "zone_code": "R6", "zone_category": "Residential", "ev_permitted": false}, "geometry": {"type": "Polygon", "coordinates": [[[-73.8535289872839, 40.7537410229109], [-73.8534376739945, 40.7537683778046], [-73.853573329644, 40.7540312003248], [-73.8536648484192, 40.7540042418832], [-73.8535289872839, 40.7537410229109]]]}}, {"type": "Feature", "properties": {"zone_id": "0206XAMLIEY1TXN62Q1JH4", "tract_id": "36081039902", "city": "FLUSHING, NY", "zone_code": "R5A", "zone_category": "Other", "ev_permitted": false}, "geometry": {"type": "Polygon", "coordinates": [[[-73.8539183359192, 40.7535548033572], [-73.8538372463844, 40.7535790960075], [-73.8540049730414, 40.7539040517218], [-73.8540862450909, 40.7538801112159], [-73.8539183359192, 40.7535548033572]]]}}, {"type": "Feature", "properties": {"zone_id": "02017PD8NWI8N9JQKSOHFI", "tract_id": "36081039902", "city": "FLUSHING, NY", "zone_code": "R5A", "zone_category": "Other", "ev_permitted": false}, "geometry": {"type": "Polygon", "coordinates": [[[-73.8538372463844, 40.7535790960075], [-73.8537530233084, 40.7536043268841], [-73.8539205610013, 40.7539289163969], [-73.8540049730414, 40.7539040517218], [-73.8538372463844, 40.7535790960075]]]}}, {"type": "Feature", "properties": {"zone_id": "020360TZC7W6U3VVRMEOZ6", "tract_id": "36081039902", "city": "FLUSHING, NY", "zone_code": "R5A", "zone_category": "Other", "ev_permitted": false}, "geometry": {"type": "Polygon", "coordinates": [[[-73.8541646941823, 40.7534810000641], [-73.8540867318291, 40.7535043559927], [-73.8542550189372, 40.7538303941453], [-73.8543331573557, 40.7538073770062], [-73.8541646941823, 40.7534810000641]]]}}, {"type": "Feature", "properties": {"zone_id": "0207I4Y89UOY57OS4CQICL", "tract_id": "36081039902", "city": "", "zone_code": "R5A", "zone_category": "Other", "ev_permitted": false}, "geometry": {"type": "Polygon", "coordinates": [[[-73.8540867318291, 40.7535043559927], [-73.8540022898111, 40.753529652824], [-73.854170387952, 40.7538553247761], [-73.8542550189372, 40.7538303941453], [-73.8540867318291, 40.7535043559927]]]}}, {"type": "Feature", "properties": {"zone_id": "0202DRYW3XQ0NMIHK4ISI6", "tract_id": "36081039902", "city": "FLUSHING, NY", "zone_code": "R5A", "zone_category": "Other", "ev_permitted": false}, "geometry": {"type": "Polygon", "coordinates": [[[-73.8540022898111, 40.753529652824], [-73.8539183359192, 40.7535548033572], [-73.8540862450909, 40.7538801112159], [-73.854170387952, 40.7538553247761], [-73.8540022898111, 40.753529652824]]]}}, {"type": "Feature", "properties": {"zone_id": "0206B6IRV6EA4YGFP7IAIO", "tract_id": "36081039902", "city": "FLUSHING, NY", "zone_code": "R5A", "zone_category": "Other", "ev_permitted": false}, "geometry": {"type": "Polygon", "coordinates": [[[-73.8537512910238, 40.7536009705563], [-73.853312714875, 40.7537323553588], [-73.8533455858093, 40.7537959642185], [-73.8537841276395, 40.7536645896122], [-73.8537512910238, 40.7536009705563]]]}}, {"type": "Feature", "properties": {"zone_id": "0203DPUZHFZZEMKW0MY4L5", "tract_id": "36081039902", "city": "FLUSHING, NY", "zone_code": "R6", "zone_category": "Residential", "ev_permitted": false}, "geometry": {"type": "Polygon", "coordinates": [[[-73.8534376739945, 40.7537683778046], [-73.8533455858093, 40.7537959642185], [-73.8534811755927, 40.7540583461974], [-73.853573329644, 40.7540312003248], [-73.8534376739945, 40.7537683778046]]]}}, {"type": "Feature", "properties": {"zone_id": "0202PKK186OD2LTDG6XMP5", "tract_id": "36081039902", "city": "FLUSHING, NY", "zone_code": "R6", "zone_category": "Residential", "ev_permitted": false}, "geometry": {"type": "Polygon", "coordinates": [[[-73.8537184374464, 40.7535373198493], [-73.8532798279025, 40.7536687152005], [-73.853312714875, 40.7537323553588], [-73.8537512910238, 40.7536009705563], [-73.8537184374464, 40.7535373198493]]]}}, {"type": "Feature", "properties": {"zone_id": "0207M2ZUXOC9PLTZA7DPRJ", "tract_id": "36081039902", "city": "FLUSHING, NY", "zone_code": "R5A", "zone_category": "Other", "ev_permitted": false}, "geometry": {"type": "Polygon", "coordinates": [[[-73.8550950216009, 40.7532022886727], [-73.8546689360162, 40.7533299381284], [-73.8548385311717, 40.7536585052401], [-73.8552655736189, 40.7535327057539], [-73.8550950216009, 40.7532022886727]]]}}, {"type": "Feature", "properties": {"zone_id": "02027VT2H5ZZ84CKKLUZ0W", "tract_id": "36081039902", "city": "FLUSHING, NY", "zone_code": "R5A", "zone_category": "Other", "ev_permitted": false}, "geometry": {"type": "Polygon", "coordinates": [[[-73.8549259507995, 40.7528747386181], [-73.8548339190147, 40.7529023108357], [-73.8550029894336, 40.7532298610241], [-73.8550950216009, 40.7532022886727], [-73.8549259507995, 40.7528747386181]]]}}, {"type": "Feature", "properties": {"zone_id": "02078MIHEDID69ZL14SGPU", "tract_id": "36081039902", "city": "FLUSHING, NY", "zone_code": "R5A", "zone_category": "Other", "ev_permitted": false}, "geometry": {"type": "Polygon", "coordinates": [[[-73.8542603399187, 40.7530741462461], [-73.8541702427617, 40.7531011378792], [-73.8543393094978, 40.7534286890311], [-73.8544294079533, 40.7534016972683], [-73.8542603399187, 40.7530741462461]]]}}, {"type": "Feature", "properties": {"zone_id": "020162TFBSFJBD9NBKA28V", "tract_id": "36081039902", "city": "FLUSHING, NY", "zone_code": "R5A", "zone_category": "Other", "ev_permitted": false}, "geometry": {"type": "Polygon", "coordinates": [[[-73.8548339190147, 40.7529023108357], [-73.8546708508376, 40.7529511639602], [-73.8548399205801, 40.753278713683], [-73.8550029894336, 40.7532298610241], [-73.8548339190147, 40.7529023108357]]]}}, {"type": "Feature", "properties": {"zone_id": "020194WIOH6C6LZ0YNQFK8", "tract_id": "36081039902", "city": "FLUSHING, NY", "zone_code": "R5A", "zone_category": "Other", "ev_permitted": false}, "geometry": {"type": "Polygon", "coordinates": [[[-73.8546708508376, 40.7529511639602], [-73.8545849710777, 40.7529768922417], [-73.8547540395362, 40.7533044434934], [-73.8548399205801, 40.753278713683], [-73.8546708508376, 40.7529511639602]]]}}, {"type": "Feature", "properties": {"zone_id": "0203FBVNAED78SJWGDAW9N", "tract_id": "36081039902", "city": "FLUSHING, NY", "zone_code": "R5A", "zone_category": "Other", "ev_permitted": false}, "geometry": {"type": "Polygon", "coordinates": [[[-73.8545849710777, 40.7529768922417], [-73.8544998669844, 40.7530023881571], [-73.8546689360162, 40.7533299381284], [-73.8547540395362, 40.7533044434934], [-73.8545849710777, 40.7529768922417]]]}}, {"type": "Feature", "properties": {"zone_id": "02059VER2DNHGSCNVZPKDJ", "tract_id": "36081039902", "city": "FLUSHING, NY", "zone_code": "R5A", "zone_category": "Other", "ev_permitted": false}, "geometry": {"type": "Polygon", "coordinates": [[[-73.8544998669844, 40.7530023881571], [-73.8544200357805, 40.7530263047789], [-73.8545891044805, 40.7533538548663], [-73.8546689360162, 40.7533299381284], [-73.8544998669844, 40.7530023881571]]]}}, {"type": "Feature", "properties": {"zone_id": "02057UYIQH9B8HQZHQB1FM", "tract_id": "36081039902", "city": "FLUSHING, NY", "zone_code": "R5A", "zone_category": "Other", "ev_permitted": false}, "geometry": {"type": "Polygon", "coordinates": [[[-73.8544200357805, 40.7530263047789], [-73.854338009536, 40.7530508776611], [-73.8545070778935, 40.7533784285703], [-73.8545891044805, 40.7533538548663], [-73.8544200357805, 40.7530263047789]]]}}, {"type": "Feature", "properties": {"zone_id": "0201F963NLRGU6VORQ4KHK", "tract_id": "36081039902", "city": "", "zone_code": "R5A", "zone_category": "Other", "ev_permitted": false}, "geometry": {"type": "Polygon", "coordinates": [[[-73.854338009536, 40.7530508776611], [-73.8542603399187, 40.7530741462461], [-73.8544294079533, 40.7534016972683], [-73.8545070778935, 40.7533784285703], [-73.854338009536, 40.7530508776611]]]}}, {"type": "Feature", "properties": {"zone_id": "020040AL14RTQ81SBUZBF8", "tract_id": "36081039902", "city": "FLUSHING, NY", "zone_code": "R5A", "zone_category": "Other", "ev_permitted": false}, "geometry": {"type": "Polygon", "coordinates": [[[-73.8541790029386, 40.7525596611038], [-73.8540956128816, 40.7525844625592], [-73.8542611248946, 40.7529058238683], [-73.8543445152938, 40.7528810215916], [-73.8541790029386, 40.7525596611038]]]}}, {"type": "Feature", "properties": {"zone_id": "0206M1UXMJ1KDFR2ZK35H9", "tract_id": "36081039902", "city": "FLUSHING, NY", "zone_code": "R5A", "zone_category": "Other", "ev_permitted": false}, "geometry": {"type": "Polygon", "coordinates": [[[-73.8547507371248, 40.752539164651], [-73.8545005896741, 40.7526135630791], [-73.8545993118112, 40.7528052416265], [-73.8548494598714, 40.7527308429861], [-73.8547507371248, 40.752539164651]]]}}, {"type": "Feature", "properties": {"zone_id": "0201R047LJ1ANDXMRPOCI8", "tract_id": "36081039902", "city": "FLUSHING, NY", "zone_code": "R5A", "zone_category": "Other", "ev_permitted": false}, "geometry": {"type": "Polygon", "coordinates": [[[-73.854683945455, 40.7524094825142], [-73.8544337984151, 40.7524838815014], [-73.8545005896741, 40.7526135630791], [-73.8547507371248, 40.752539164651], [-73.854683945455, 40.7524094825142]]]}}, {"type": "Feature", "properties": {"zone_id": "0200W364GFJMB767RBEBGA", "tract_id": "36081039902", "city": "FLUSHING, NY", "zone_code": "R5A", "zone_category": "Other", "ev_permitted": false}, "geometry": {"type": "Polygon", "coordinates": [[[-73.8544337984151, 40.7524838815014], [-73.8543503271856, 40.7525087069289], [-73.8545158402423, 40.7528300664702], [-73.8545993118112, 40.7528052416265], [-73.8544337984151, 40.7524838815014]]]}}, {"type": "Feature", "properties": {"zone_id": "0203SZJ79VI3MW4A1GE7DX", "tract_id": "36081039902", "city": "FLUSHING, NY", "zone_code": "R5A", "zone_category": "Other", "ev_permitted": false}, "geometry": {"type": "Polygon", "coordinates": [[[-73.8543503271856, 40.7525087069289], [-73.8542641311491, 40.7525343425243], [-73.8544296447745, 40.7528557035948], [-73.8545158402423, 40.7528300664702], [-73.8543503271856, 40.7525087069289]]]}}, {"type": "Feature", "properties": {"zone_id": "0207LN5JGVTVCS4J45PR2R", "tract_id": "36081039902", "city": "FLUSHING, NY", "zone_code": "R5A", "zone_category": "Other", "ev_permitted": false}, "geometry": {"type": "Polygon", "coordinates": [[[-73.8542641311491, 40.7525343425243], [-73.8541790029386, 40.7525596611038], [-73.8543445152938, 40.7528810215916], [-73.8544296447745, 40.7528557035948], [-73.8542641311491, 40.7525343425243]]]}}, {"type": "Feature", "properties": {"zone_id": "0206KYPW524465F9OQ4L7J", "tract_id": "36081039902", "city": "FLUSHING, NY", "zone_code": "R5A", "zone_category": "Other", "ev_permitted": false}, "geometry": {"type": "Polygon", "coordinates": [[[-73.853995628172, 40.7531534486584], [-73.8539176652204, 40.7531768037699], [-73.8540867318291, 40.7535043559927], [-73.8541646941823, 40.7534810000641], [-73.853995628172, 40.7531534486584]]]}}, {"type": "Feature", "properties": {"zone_id": "0202FW7FWF3AZR3Q6CYQ1B", "tract_id": "36081039902", "city": "FLUSHING, NY", "zone_code": "R5A", "zone_category": "Other", "ev_permitted": false}, "geometry": {"type": "Polygon", "coordinates": [[[-73.8539176652204, 40.7531768037699], [-73.8538332244744, 40.7532021018848], [-73.8540022898111, 40.753529652824], [-73.8540867318291, 40.7535043559927], [-73.8539176652204, 40.7531768037699]]]}}, {"type": "Feature", "properties": {"zone_id": "0207MXI610XA0875T6WC6N", "tract_id": "36081039902", "city": "FLUSHING, NY", "zone_code": "R5A", "zone_category": "Other", "ev_permitted": false}, "geometry": {"type": "Polygon", "coordinates": [[[-73.8538332244744, 40.7532021018848], [-73.8537492700074, 40.7532272522949], [-73.8539183359192, 40.7535548033572], [-73.8540022898111, 40.753529652824], [-73.8538332244744, 40.7532021018848]]]}}, {"type": "Feature", "properties": {"zone_id": "020410QSNOFA5J9JQ0CO70", "tract_id": "36081039902", "city": "FLUSHING, NY", "zone_code": "R5A", "zone_category": "Other", "ev_permitted": false}, "geometry": {"type": "Polygon", "coordinates": [[[-73.8541702427617, 40.7531011378792], [-73.8540862885493, 40.7531262885352], [-73.8542553558604, 40.7534538398104], [-73.8543393094978, 40.7534286890311], [-73.8541702427617, 40.7531011378792]]]}}, {"type": "Feature", "properties": {"zone_id": "02048MX65X4DR011WTG7K5", "tract_id": "36081039902", "city": "FLUSHING, NY", "zone_code": "R5A", "zone_category": "Other", "ev_permitted": false}, "geometry": {"type": "Polygon", "coordinates": [[[-73.8540862885493, 40.7531262885352], [-73.853995628172, 40.7531534486584], [-73.8541646941823, 40.7534810000641], [-73.8542553558604, 40.7534538398104], [-73.8540862885493, 40.7531262885352]]]}}, {"type": "Feature", "properties": {"zone_id": "02003CISDKYZNQ1QZ7CPV2", "tract_id": "36081039902", "city": "FLUSHING, NY", "zone_code": "R5A", "zone_category": "Other", "ev_permitted": false}, "geometry": {"type": "Polygon", "coordinates": [[[-73.8537492700074, 40.7532272522949], [-73.8535839580839, 40.7532767755815], [-73.8537530233084, 40.7536043268841], [-73.8539183359192, 40.7535548033572], [-73.8537492700074, 40.7532272522949]]]}}, {"type": "Feature", "properties": {"zone_id": "02013O72M1YNPY6GRNUJ28", "tract_id": "36081039902", "city": "", "zone_code": "R6", "zone_category": "Residential", "ev_permitted": false}, "geometry": {"type": "Polygon", "coordinates": [[[-73.8535839580839, 40.7532767755815], [-73.8531452103763, 40.7534082117043], [-73.8532798279025, 40.7536687152005], [-73.8537184374464, 40.7535373198493], [-73.8535839580839, 40.7532767755815]]]}}, {"type": "Feature", "properties": {"zone_id": "0205IQFWYQFSAYTPDCHR4G", "tract_id": "36081039902", "city": "FLUSHING, NY", "zone_code": "R5A", "zone_category": "Other", "ev_permitted": false}, "geometry": {"type": "Polygon", "coordinates": [[[-73.853510356099, 40.7527585237335], [-73.8529148647032, 40.7529356247169], [-73.8530765126227, 40.7532581351399], [-73.8536758657227, 40.7530798851727], [-73.853510356099, 40.7527585237335]]]}}, {"type": "Feature", "properties": {"zone_id": "02010ZK1RM5VGVGR6NKBWQ", "tract_id": "36081039902", "city": "FLUSHING, NY", "zone_code": "C2-4", "zone_category": "Commercial", "ev_permitted": true}, "geometry": {"type": "Polygon", "coordinates": [[[-73.8538380419412, 40.752289229129], [-73.8535917266023, 40.752362158384], [-73.8537579598122, 40.7526848844997], [-73.8540041298719, 40.7526116708341], [-73.8538380419412, 40.752289229129]]]}}, {"type": "Feature", "properties": {"zone_id": "0200K9HX6K1TVQY57V9VJF", "tract_id": "36081039902", "city": "FLUSHING, NY", "zone_code": "R5A", "zone_category": "Other", "ev_permitted": false}, "geometry": {"type": "Polygon", "coordinates": [[[-73.8540956128816, 40.7525844625592], [-73.8540041298719, 40.7526116708341], [-73.8541696415127, 40.7529330315708], [-73.8542611248946, 40.7529058238683], [-73.8540956128816, 40.7525844625592]]]}}, {"type": "Feature", "properties": {"zone_id": "0205ZWAOKUPAA1LTN7G5II", "tract_id": "36081039902", "city": "FLUSHING, NY", "zone_code": "R5A", "zone_category": "Other", "ev_permitted": false}, "geometry": {"type": "Polygon", "coordinates": [[[-73.8540041298719, 40.7526116708341], [-73.8539237482862, 40.7526355772809], [-73.8540892595987, 40.7529569381319], [-73.8541696415127, 40.7529330315708], [-73.8540041298719, 40.7526116708341]]]}}, {"type": "Feature", "properties": {"zone_id": "02017CSWIZMG649BU6JRV2", "tract_id": "36081039902", "city": "FLUSHING, NY", "zone_code": "R5A", "zone_category": "Other", "ev_permitted": false}, "geometry": {"type": "Polygon", "coordinates": [[[-73.8539237482862, 40.7526355772809], [-73.853859882062, 40.7526545718042], [-73.8540253931136, 40.7529759327461], [-73.8540892595987, 40.7529569381319], [-73.8539237482862, 40.7526355772809]]]}}, {"type": "Feature", "properties": {"zone_id": "0204X206YCFFRD6GEQGZ2K", "tract_id": "36081039902", "city": "FLUSHING, NY", "zone_code": "R5A", "zone_category": "Other", "ev_permitted": false}, "geometry": {"type": "Polygon", "coordinates": [[[-73.853859882062, 40.7526545718042], [-73.8537579598122, 40.7526848844997], [-73.8539234713714, 40.7530062455878], [-73.8540253931136, 40.7529759327461], [-73.853859882062, 40.7526545718042]]]}}, {"type": "Feature", "properties": {"zone_id": "0204I68HGAWKP268D3LY09", "tract_id": "36081039902", "city": "FLUSHING, NY", "zone_code": "R5A", "zone_category": "Other", "ev_permitted": false}, "geometry": {"type": "Polygon", "coordinates": [[[-73.8537579598122, 40.7526848844997], [-73.8536781152363, 40.7527086305486], [-73.8538436255437, 40.7530299924518], [-73.8539234713714, 40.7530062455878], [-73.8537579598122, 40.7526848844997]]]}}, {"type": "Feature", "properties": {"zone_id": "0207BNMDF608J0AE7UOW5H", "tract_id": "36081039902", "city": "FLUSHING, NY", "zone_code": "R5A", "zone_category": "Other", "ev_permitted": false}, "geometry": {"type": "Polygon", "coordinates": [[[-73.8536781152363, 40.7527086305486], [-73.8535792647651, 40.752738029846], [-73.8537447746702, 40.7530593911873], [-73.8538436255437, 40.7530299924518], [-73.8536781152363, 40.7527086305486]]]}}, {"type": "Feature", "properties": {"zone_id": "02074KJL0DRDWC89LH386F", "tract_id": "36081039902", "city": "FLUSHING, NY", "zone_code": "R5A", "zone_category": "Other", "ev_permitted": false}, "geometry": {"type": "Polygon", "coordinates": [[[-73.8535792647651, 40.752738029846], [-73.853510356099, 40.7527585237335], [-73.8536758657227, 40.7530798851727], [-73.8537447746702, 40.7530593911873], [-73.8535792647651, 40.752738029846]]]}}, {"type": "Feature", "properties": {"zone_id": "0203YUW08KCWVBHU27Y6M8", "tract_id": "36081039902", "city": "FLUSHING, NY", "zone_code": "R6B", "zone_category": "Residential", "ev_permitted": false}, "geometry": {"type": "Polygon", "coordinates": [[[-73.8535917266023, 40.752362158384], [-73.8533962498018, 40.7524200341801], [-73.853562599059, 40.7527429862764], [-73.8537579598122, 40.7526848844997], [-73.8535917266023, 40.752362158384]]]}}, {"type": "Feature", "properties": {"zone_id": "02031BEHGCKK2V0X77DN1P", "tract_id": "36081039902", "city": "FLUSHING, NY", "zone_code": "R6B", "zone_category": "Residential", "ev_permitted": false}, "geometry": {"type": "Polygon", "coordinates": [[[-73.8533962498018, 40.7524200341801], [-73.8530153102881, 40.752532819699], [-73.8531818843104, 40.7528562124913], [-73.853562599059, 40.7527429862764], [-73.8533962498018, 40.7524200341801]]]}}, {"type": "Feature", "properties": {"zone_id": "0206MC5OK8373TU8P481QL", "tract_id": "36081039902", "city": "FLUSHING, NY", "zone_code": "C2-4", "zone_category": "Commercial", "ev_permitted": true}, "geometry": {"type": "Polygon", "coordinates": [[[-73.8531177368261, 40.7527316579928], [-73.8528522136323, 40.7528106250929], [-73.8529148647032, 40.7529356247169], [-73.8531818843104, 40.7528562124913], [-73.8531177368261, 40.7527316579928]]]}}, {"type": "Feature", "properties": {"zone_id": "0203X0F3S9DE7COJ8CLS0W", "tract_id": "36081039902", "city": "FLUSHING, NY", "zone_code": "C2-4", "zone_category": "Commercial", "ev_permitted": true}, "geometry": {"type": "Polygon", "coordinates": [[[-73.8530890378899, 40.7526759344912], [-73.8528241842893, 40.752754702124], [-73.8528522136323, 40.7528106250929], [-73.8531177368261, 40.7527316579928], [-73.8530890378899, 40.7526759344912]]]}}, {"type": "Feature", "properties": {"zone_id": "0201DF37G92A8T496OE4MN", "tract_id": "36081039902", "city": "FLUSHING, NY", "zone_code": "C2-4", "zone_category": "Commercial", "ev_permitted": true}, "geometry": {"type": "Polygon", "coordinates": [[[-73.8530153102881, 40.752532819699], [-73.8529460597669, 40.7525533226504], [-73.8530198277211, 40.7526965176409], [-73.8530890378899, 40.7526759344912], [-73.8530153102881, 40.752532819699]]]}}, {"type": "Feature", "properties": {"zone_id": "02074JYMXM33XUTG33IX34", "tract_id": "36081039902", "city": "FLUSHING, NY", "zone_code": "C2-4", "zone_category": "Commercial", "ev_permitted": true}, "geometry": {"type": "Polygon", "coordinates": [[[-73.8529460597669, 40.7525533226504], [-73.852885711119, 40.7525711900239], [-73.852959515769, 40.7527144546627], [-73.8530198277211, 40.7526965176409], [-73.8529460597669, 40.7525533226504]]]}}, {"type": "Feature", "properties": {"zone_id": "0201D1Z09QRSJEXAEZENMS", "tract_id": "36081039902", "city": "FLUSHING, NY", "zone_code": "C2-4", "zone_category": "Commercial", "ev_permitted": true}, "geometry": {"type": "Polygon", "coordinates": [[[-73.852885711119, 40.7525711900239], [-73.8528179833118, 40.7525912423325], [-73.8528918283213, 40.7527345850607], [-73.852959515769, 40.7527144546627], [-73.852885711119, 40.7525711900239]]]}}, {"type": "Feature", "properties": {"zone_id": "0204QNIDZ0IJLUTRJRYZHY", "tract_id": "36081039902", "city": "FLUSHING, NY", "zone_code": "C2-4", "zone_category": "Commercial", "ev_permitted": true}, "geometry": {"type": "Polygon", "coordinates": [[[-73.8546132519911, 40.7522722242914], [-73.8544483201665, 40.7523212785217], [-73.8545190133427, 40.7524585368447], [-73.854683945455, 40.7524094825142], [-73.8546132519911, 40.7522722242914]]]}}, {"type": "Feature", "properties": {"zone_id": "0203VHZY2MZTC3BBQ75UST", "tract_id": "36081039902", "city": "FLUSHING, NY", "zone_code": "R6B", "zone_category": "Residential", "ev_permitted": false}, "geometry": {"type": "Polygon", "coordinates": [[[-73.8541844439309, 40.7521866657904], [-73.8540981967216, 40.7522122021231], [-73.8542641311491, 40.7525343425243], [-73.8543503271856, 40.7525087069289], [-73.8541844439309, 40.7521866657904]]]}}, {"type": "Feature", "properties": {"zone_id": "02053MUAUO55LZ4349ZDVV", "tract_id": "36081039902", "city": "FLUSHING, NY", "zone_code": "R6B", "zone_category": "Residential", "ev_permitted": false}, "geometry": {"type": "Polygon", "coordinates": [[[-73.8542679654266, 40.7521619368098], [-73.8541844439309, 40.7521866657904], [-73.8543503271856, 40.7525087069289], [-73.8544337984151, 40.7524838815014], [-73.8542679654266, 40.7521619368098]]]}}, {"type": "Feature", "properties": {"zone_id": "0205ZB15V0ISMM8TVNI2GM", "tract_id": "36081039902", "city": "FLUSHING, NY", "zone_code": "R6B", "zone_category": "Residential", "ev_permitted": false}, "geometry": {"type": "Polygon", "coordinates": [[[-73.8543532296848, 40.7521366907094], [-73.8542679654266, 40.7521619368098], [-73.8544337984151, 40.7524838815014], [-73.8545190133427, 40.7524585368447], [-73.8543532296848, 40.7521366907094]]]}}, {"type": "Feature", "properties": {"zone_id": "02028NILM46JW2QWM2IPLL", "tract_id": "36081039902", "city": "FLUSHING, NY", "zone_code": "R6B", "zone_category": "Residential", "ev_permitted": false}, "geometry": {"type": "Polygon", "coordinates": [[[-73.8544581484561, 40.7521056260927], [-73.8543532296848, 40.7521366907094], [-73.8544483201665, 40.7523212785217], [-73.8545531766192, 40.7522900921806], [-73.8544581484561, 40.7521056260927]]]}}, {"type": "Feature", "properties": {"zone_id": "0205BAHSJSBJF04OU2YHR6", "tract_id": "36081039902", "city": "FLUSHING, NY", "zone_code": "R6B", "zone_category": "Residential", "ev_permitted": false}, "geometry": {"type": "Polygon", "coordinates": [[[-73.85451825957, 40.7520878278608], [-73.8544581484561, 40.7521056260927], [-73.8545531766192, 40.7522900921806], [-73.8546132519911, 40.7522722242914], [-73.85451825957, 40.7520878278608]]]}}, {"type": "Feature", "properties": {"zone_id": "0205O0MM3CLOFY5P6AMM4L", "tract_id": "36081039902", "city": "FLUSHING, NY", "zone_code": "R6B", "zone_category": "Residential", "ev_permitted": false}, "geometry": {"type": "Polygon", "coordinates": [[[-73.8539295788578, 40.7522621271546], [-73.8538380419412, 40.752289229129], [-73.8540041298719, 40.7526116708341], [-73.8540956128816, 40.7525844625592], [-73.8539295788578, 40.7522621271546]]]}}, {"type": "Feature", "properties": {"zone_id": "02026ENBDIEH5OY9GSUBTX", "tract_id": "36081039902", "city": "FLUSHING, NY", "zone_code": "R6B", "zone_category": "Residential", "ev_permitted": false}, "geometry": {"type": "Polygon", "coordinates": [[[-73.8540981967216, 40.7522122021231], [-73.8539295788578, 40.7522621271546], [-73.8540956128816, 40.7525844625592], [-73.8542641311491, 40.7525343425243], [-73.8540981967216, 40.7522122021231]]]}}, {"type": "Feature", "properties": {"zone_id": "0207LWLLL8P7VZDJ1XNFPF", "tract_id": "36081039902", "city": "FLUSHING, NY", "zone_code": "C2-4", "zone_category": "Commercial", "ev_permitted": true}, "geometry": {"type": "Polygon", "coordinates": [[[-73.8528179833118, 40.7525912423325], [-73.8527521083366, 40.7526107460874], [-73.8528241842893, 40.752754702124], [-73.8528918283213, 40.7527345850607], [-73.8528179833118, 40.7525912423325]]]}}]}