{"type": "FeatureCollection", "features": [{"type": "Feature", "properties": {"zone_id": "0205DNVP7VSEQ44W8P1G5Z", "tract_id": "36005041100", "city": "BRONX, NY", "zone_code": "R8", "zone_category": "Residential", "ev_permitted": false}, "geometry": {"type": "Polygon", "coordinates": [[[-73.8857522026243, 40.87798407699], [-73.8856601265992, 40.8781966001538], [-73.8857376245333, 40.8786158115758], [-73.8861649317892, 40.8782464463812], [-73.8858143372391, 40.878000234591], [-73.8857522026243, 40.87798407699]]]}}, {"type": "Feature", "properties": {"zone_id": "0206HUCHZKCHTXUIXW9HC4", "tract_id": "36005041100", "city": "BRONX, NY", "zone_code": "R6", "zone_category": "Residential", "ev_permitted": false}, "geometry": {"type": "Polygon", "coordinates": [[[-73.8853461076899, 40.8779578880298], [-73.8853329500065, 40.8779591783572], [-73.8853214979794, 40.8779623408092], [-73.8853117866934, 40.8779668920039], [-73.8853000067653, 40.8779760687379], [-73.8852929161989, 40.8779859864999], [-73.8849862501395, 40.8786691517395], [-73.8852320099731, 40.8790993720807], [-73.8855417310822, 40.8788309496061], [-73.8854039651125, 40.8779945861332], [-73.885401176707, 40.8779866020613], [-73.8853971213747, 40.8779800037452], [-73.8853893850206, 40.8779719943828], [-73.8853824374847, 40.8779671490947], [-73.8853666023909, 40.8779605109723], [-73.8853556510345, 40.877958390062], [-73.8853461076899, 40.8779578880298]]]}}, {"type": "Feature", "properties": {"zone_id": "0204OQ97VS6TQQHYMBJX4O", "tract_id": "36005041100", "city": "BRONX, NY", "zone_code": "R8", "zone_category": "Residential", "ev_permitted": false}, "geometry": {"type": "Polygon", "coordinates": [[[-73.8868004313911, 40.8776083255107], [-73.8861728491963, 40.8777334957944], [-73.886187861974, 40.8777851969001], [-73.8864750806137, 40.8779783499231], [-73.8868422166483, 40.8776609887073], [-73.8868004313911, 40.8776083255107]]]}}, {"type": "Feature", "properties": {"zone_id": "0206RY340ZU9V683WCC7IR", "tract_id": "36005041100", "city": "BRONX, NY", "zone_code": "R8", "zone_category": "Residential", "ev_permitted": false}, "geometry": {"type": "Polygon", "coordinates": [[[-73.8862971598004, 40.8774275154212], [-73.8856322226992, 40.8775500904525], [-73.8856001788196, 40.8777632358762], [-73.8855996272467, 40.8778147944511], [-73.8856020230709, 40.8778610320335], [-73.8856069998869, 40.8779066889814], [-73.8856138049305, 40.8779480897341], [-73.8858143372391, 40.878000234591], [-73.8858912924442, 40.8778342449334], [-73.886187861974, 40.8777851969001], [-73.8861728491963, 40.8777334957944], [-73.8863872229073, 40.8776907004615], [-73.8862971598004, 40.8774275154212]]]}}, {"type": "Feature", "properties": {"zone_id": "0201SJRLEDMZ39VWWP8NCX", "tract_id": "36005041100", "city": "BRONX, NY", "zone_code": "R8", "zone_category": "Residential", "ev_permitted": false}, "geometry": {"type": "Polygon", "coordinates": [[[-73.886187861974, 40.8777851969001], [-73.8858912924442, 40.8778342449334], [-73.8858143372391, 40.878000234591], [-73.8861649317892, 40.8782464463812], [-73.8864750806137, 40.8779783499231], [-73.886187861974, 40.8777851969001]]]}}, {"type": "Feature", "properties": {"zone_id": "02017MSMEO2YU3LFO4LHVB", "tract_id": "36005041100", "city": "BRONX, NY", "zone_code": "C8-2", "zone_category": "Commercial", "ev_permitted": true}, "geometry": {"type": "Polygon", "coordinates": [[[-73.8873332636114, 40.8772365095069], [-73.8866110568352, 40.8773696497612], [-73.8868422166483, 40.8776609887073], [-73.8873332636114, 40.8772365095069]]]}}, {"type": "Feature", "properties": {"zone_id": "0203O944GAID8GRR26VO2J", "tract_id": "36005041100", "city": "BRONX, NY", "zone_code": "R8", "zone_category": "Residential", "ev_permitted": false}, "geometry": {"type": "Polygon", "coordinates": [[[-73.8866110568352, 40.8773696497612], [-73.8862971598004, 40.8774275154212], [-73.8863872229073, 40.8776907004615], [-73.8868004313911, 40.8776083255107], [-73.8866110568352, 40.8773696497612]]]}}, {"type": "Feature", "properties": {"zone_id": "0204VXIC370Q08JIJA5KEV", "tract_id": "36005041100", "city": "BRONX, NY", "zone_code": "R8", "zone_category": "Residential", "ev_permitted": false}, "geometry": {"type": "Polygon", "coordinates": [[[-73.8873603608378, 40.8765913319134], [-73.8871827012943, 40.8769913379988], [-73.8876210220828, 40.8769109288597], [-73.8877184238402, 40.8766858776601], [-73.8873603608378, 40.8765913319134]]]}}, {"type": "Feature", "properties": {"zone_id": "0200PYMT94JNSWQ2TI65Y6", "tract_id": "36005041100", "city": "BRONX, NY", "zone_code": "R8", "zone_category": "Residential", "ev_permitted": false}, "geometry": {"type": "Polygon", "coordinates": [[[-73.8874181209865, 40.8764612815494], [-73.8873603608378, 40.8765913319134], [-73.8877184238402, 40.8766858776601], [-73.8877748592774, 40.8765554780241], [-73.8874181209865, 40.8764612815494]]]}}, {"type": "Feature", "properties": {"zone_id": "020091UI7BWANUAN4TVV4E", "tract_id": "36005041100", "city": "BRONX, NY", "zone_code": "R8", "zone_category": "Residential", "ev_permitted": false}, "geometry": {"type": "Polygon", "coordinates": [[[-73.8874737771027, 40.8763359698248], [-73.8874181209865, 40.8764612815494], [-73.8877748592774, 40.8765554780241], [-73.8878292406755, 40.8764298297311], [-73.8874737771027, 40.8763359698248]]]}}, {"type": "Feature", "properties": {"zone_id": "0205BN7SCTOG22PYC3QAAD", "tract_id": "36005041100", "city": "BRONX, NY", "zone_code": "R8", "zone_category": "Residential", "ev_permitted": false}, "geometry": {"type": "Polygon", "coordinates": [[[-73.8870979110673, 40.8763103237897], [-73.8869820801134, 40.8765711187815], [-73.88732868921, 40.8766626415942], [-73.8874445189638, 40.8764018462588], [-73.8870979110673, 40.8763103237897]]]}}, {"type": "Feature", "properties": {"zone_id": "0200UCR7FIWE9DFD00G6UT", "tract_id": "36005041100", "city": "BRONX, NY", "zone_code": "R8", "zone_category": "Residential", "ev_permitted": false}, "geometry": {"type": "Polygon", "coordinates": [[[-73.8875319512495, 40.8762049852887], [-73.8874737771027, 40.8763359698248], [-73.8878292406755, 40.8764298297311], [-73.8878860817902, 40.8762984924029], [-73.8875319512495, 40.8762049852887]]]}}, {"type": "Feature", "properties": {"zone_id": "0204LG39RK2ZWK6I0UKPID", "tract_id": "36005041100", "city": "BRONX, NY", "zone_code": "R8", "zone_category": "Residential", "ev_permitted": false}, "geometry": {"type": "Polygon", "coordinates": [[[-73.887589710727, 40.8760749348298], [-73.8875319512495, 40.8762049852887], [-73.8878860817902, 40.8762984924029], [-73.8879425174942, 40.8761680933792], [-73.887589710727, 40.8760749348298]]]}}, {"type": "Feature", "properties": {"zone_id": "020674IST6WJ4Q57YMED9R", "tract_id": "36005041100", "city": "BRONX, NY", "zone_code": "R8", "zone_category": "Residential", "ev_permitted": false}, "geometry": {"type": "Polygon", "coordinates": [[[-73.8871271695094, 40.8762444474424], [-73.8870979110673, 40.8763103237897], [-73.8874445189638, 40.8764018462588], [-73.8874737771027, 40.8763359698248], [-73.8871271695094, 40.8762444474424]]]}}, {"type": "Feature", "properties": {"zone_id": "0205MF0F5ZRRKYWAL0WE32", "tract_id": "36005041100", "city": "BRONX, NY", "zone_code": "R8", "zone_category": "Residential", "ev_permitted": false}, "geometry": {"type": "Polygon", "coordinates": [[[-73.8872022277535, 40.8760754491067], [-73.8871271695094, 40.8762444474424], [-73.8874737771027, 40.8763359698248], [-73.8875488345692, 40.8761669712665], [-73.8872022277535, 40.8760754491067]]]}}, {"type": "Feature", "properties": {"zone_id": "0201OW25ZT9K9U59VW2SWB", "tract_id": "36005041100", "city": "BRONX, NY", "zone_code": "R8", "zone_category": "Residential", "ev_permitted": false}, "geometry": {"type": "Polygon", "coordinates": [[[-73.8869820801134, 40.8765711187815], [-73.8869253635102, 40.8766988168016], [-73.8872719731944, 40.8767903397825], [-73.88732868921, 40.8766626415942], [-73.8869820801134, 40.8765711187815]]]}}, {"type": "Feature", "properties": {"zone_id": "0206P9IATJ7LU2GYATPE6W", "tract_id": "36005041100", "city": "BRONX, NY", "zone_code": "R8", "zone_category": "Residential", "ev_permitted": false}, "geometry": {"type": "Polygon", "coordinates": [[[-73.887018053598, 40.8767232920524], [-73.8868738370598, 40.8770479973896], [-73.8871827012943, 40.8769913379988], [-73.8872719731944, 40.8767903397825], [-73.887018053598, 40.8767232920524]]]}}, {"type": "Feature", "properties": {"zone_id": "0204NVLEIJNJ44SIYM95Z6", "tract_id": "36005041100", "city": "BRONX, NY", "zone_code": "R8", "zone_category": "Residential", "ev_permitted": false}, "geometry": {"type": "Polygon", "coordinates": [[[-73.8869253635102, 40.8766988168016], [-73.8867610891269, 40.8770686793809], [-73.8868738370598, 40.8770479973896], [-73.887018053598, 40.8767232920524], [-73.8869253635102, 40.8766988168016]]]}}, {"type": "Feature", "properties": {"zone_id": "0205BTNNW4271FMONDR35K", "tract_id": "36005041100", "city": "BRONX, NY", "zone_code": "R8", "zone_category": "Residential", "ev_permitted": false}, "geometry": {"type": "Polygon", "coordinates": [[[-73.8859308105368, 40.8766930622025], [-73.8858137445395, 40.8769541217917], [-73.8860949145171, 40.8770213782417], [-73.8860208594312, 40.877203954666], [-73.8865291408311, 40.8771111328095], [-73.886630817499, 40.8768846287542], [-73.8862105850824, 40.8767778212006], [-73.8862175926788, 40.8767610560572], [-73.8859308105368, 40.8766930622025]]]}}, {"type": "Feature", "properties": {"zone_id": "0203DM1C9J17ZLWMGE68JZ", "tract_id": "36005041100", "city": "BRONX, NY", "zone_code": "R8", "zone_category": "Residential", "ev_permitted": false}, "geometry": {"type": "Polygon", "coordinates": [[[-73.8858137445395, 40.8769541217917], [-73.8856732459141, 40.8772674345635], [-73.8860208594312, 40.877203954666], [-73.8860949145171, 40.8770213782417], [-73.8858137445395, 40.8769541217917]]]}}, {"type": "Feature", "properties": {"zone_id": "0203C6282SYRXIXJRQV6GR", "tract_id": "36005041100", "city": "BRONX, NY", "zone_code": "R8", "zone_category": "Residential", "ev_permitted": false}, "geometry": {"type": "Polygon", "coordinates": [[[-73.8863019484287, 40.8765592639641], [-73.8862502677751, 40.8766828934024], [-73.8866731293771, 40.8767903687972], [-73.886728234806, 40.8766676102964], [-73.8863019484287, 40.8765592639641]]]}}, {"type": "Feature", "properties": {"zone_id": "0204L9URBW0KCBRUSRV0JX", "tract_id": "36005041100", "city": "BRONX, NY", "zone_code": "R8", "zone_category": "Residential", "ev_permitted": false}, "geometry": {"type": "Polygon", "coordinates": [[[-73.8862502677751, 40.8766828934024], [-73.8862303297506, 40.8767306020787], [-73.8866518628819, 40.8768377403779], [-73.8866731293771, 40.8767903687972], [-73.8862502677751, 40.8766828934024]]]}}, {"type": "Feature", "properties": {"zone_id": "0206B90QIK8TXKTAODPKJW", "tract_id": "36005041100", "city": "BRONX, NY", "zone_code": "C", "zone_category": "Other", "ev_permitted": false}, "geometry": {"type": "Polygon", "coordinates": [[[-73.8862303297506, 40.8767306020787], [-73.8862105850824, 40.8767778212006], [-73.886630817499, 40.8768846287542], [-73.8866518628819, 40.8768377403779], [-73.8862303297506, 40.8767306020787]]]}}, {"type": "Feature", "properties": {"zone_id": "0201R47DOISUQ5MM750MIG", "tract_id": "36005041100", "city": "BRONX, NY", "zone_code": "R8", "zone_category": "Residential", "ev_permitted": false}, "geometry": {"type": "Polygon", "coordinates": [[[-73.885960706698, 40.8766263927997], [-73.8859308105368, 40.8766930622025], [-73.8862175926788, 40.8767610560572], [-73.8862439694181, 40.8766979581521], [-73.885960706698, 40.8766263927997]]]}}, {"type": "Feature", "properties": {"zone_id": "0201SL6N5407JQ5XPAJNTT", "tract_id": "36005041100", "city": "BRONX, NY", "zone_code": "C", "zone_category": "Other", "ev_permitted": false}, "geometry": {"type": "Polygon", "coordinates": [[[-73.8863848973365, 40.87636083326], [-73.886359294212, 40.8764220805022], [-73.8867879452929, 40.876534589989], [-73.8868152385687, 40.8764737869751], [-73.8863848973365, 40.87636083326]]]}}, {"type": "Feature", "properties": {"zone_id": "02051766406B24D223C4VR", "tract_id": "36005041100", "city": "BRONX, NY", "zone_code": "R8", "zone_category": "Residential", "ev_permitted": false}, "geometry": {"type": "Polygon", "coordinates": [[[-73.886359294212, 40.8764220805022], [-73.8863019484287, 40.8765592639641], [-73.886728234806, 40.8766676102964], [-73.8867879452929, 40.876534589989], [-73.886359294212, 40.8764220805022]]]}}, {"type": "Feature", "properties": {"zone_id": "02066N4FMSFBOKRHWGY45T", "tract_id": "36005041100", "city": "BRONX, NY", "zone_code": "C", "zone_category": "Other", "ev_permitted": false}, "geometry": {"type": "Polygon", "coordinates": [[[-73.8865287852985, 40.8762552237582], [-73.8864991985014, 40.8763211347633], [-73.8868432287091, 40.8764114339075], [-73.8868728152066, 40.8763455221126], [-73.8865287852985, 40.8762552237582]]]}}, {"type": "Feature", "properties": {"zone_id": "0200JLSBUL8DSVNR55E8GP", "tract_id": "36005041100", "city": "BRONX, NY", "zone_code": "R8", "zone_category": "Residential", "ev_permitted": false}, "geometry": {"type": "Polygon", "coordinates": [[[-73.8864991985014, 40.8763211347633], [-73.8864712090008, 40.876383488452], [-73.8868152385687, 40.8764737869751], [-73.8868432287091, 40.8764114339075], [-73.8864991985014, 40.8763211347633]]]}}, {"type": "Feature", "properties": {"zone_id": "0203Z5DBI93LJ4QPGW4YWQ", "tract_id": "36005041100", "city": "BRONX, NY", "zone_code": "R8", "zone_category": "Residential", "ev_permitted": false}, "geometry": {"type": "Polygon", "coordinates": [[[-73.8866183519067, 40.8760556941277], [-73.8865608456468, 40.8761838036556], [-73.8869048752288, 40.8762741019157], [-73.8869623799771, 40.8761459929201], [-73.8866183519067, 40.8760556941277]]]}}, {"type": "Feature", "properties": {"zone_id": "0200WE9IV0VNPTQYE3OBNU", "tract_id": "36005041100", "city": "BRONX, NY", "zone_code": "R8", "zone_category": "Residential", "ev_permitted": false}, "geometry": {"type": "Polygon", "coordinates": [[[-73.8865608456468, 40.8761838036556], [-73.8865287852985, 40.8762552237582], [-73.8868728152066, 40.8763455221126], [-73.8869048752288, 40.8762741019157], [-73.8865608456468, 40.8761838036556]]]}}, {"type": "Feature", "properties": {"zone_id": "0202GU17W65MUVYZSNB5FJ", "tract_id": "36005041100", "city": "BRONX, NY", "zone_code": "C", "zone_category": "Other", "ev_permitted": false}, "geometry": {"type": "Polygon", "coordinates": [[[-73.886265036026, 40.8759477186363], [-73.8861078411753, 40.8762982773195], [-73.886381067794, 40.8763699933409], [-73.8863848973365, 40.87636083326], [-73.8864712090008, 40.876383488452], [-73.8866183519067, 40.8760556941277], [-73.8865216385941, 40.8760303088908], [-73.8865277584966, 40.8760166773377], [-73.886265036026, 40.8759477186363]]]}}, {"type": "Feature", "properties": {"zone_id": "0205MEMFLN9G15A71POLPQ", "tract_id": "36005041100", "city": "BRONX, NY", "zone_code": "R8", "zone_category": "Residential", "ev_permitted": false}, "geometry": {"type": "Polygon", "coordinates": [[[-73.8860773022665, 40.8763663809237], [-73.8860195705137, 40.8764951244387], [-73.8862992249757, 40.8765657782811], [-73.8863523945115, 40.8764385864867], [-73.8860773022665, 40.8763663809237]]]}}, {"type": "Feature", "properties": {"zone_id": "0203MO5A4P8N0FKO6UC9P1", "tract_id": "36005041100", "city": "BRONX, NY", "zone_code": "R8", "zone_category": "Residential", "ev_permitted": false}, "geometry": {"type": "Polygon", "coordinates": [[[-73.8860195705137, 40.8764951244387], [-73.8859907133783, 40.8765594782756], [-73.886272136339, 40.8766305787017], [-73.8862992249757, 40.8765657782811], [-73.8860195705137, 40.8764951244387]]]}}, {"type": "Feature", "properties": {"zone_id": "0206Y8TSU2U86EDAORZ4PV", "tract_id": "36005041100", "city": "BRONX, NY", "zone_code": "R8", "zone_category": "Residential", "ev_permitted": false}, "geometry": {"type": "Polygon", "coordinates": [[[-73.8859907133783, 40.8765594782756], [-73.885960706698, 40.8766263927997], [-73.8862439694181, 40.8766979581521], [-73.886272136339, 40.8766305787017], [-73.8859907133783, 40.8765594782756]]]}}, {"type": "Feature", "properties": {"zone_id": "0204CUZATMH1ILGUOV47EH", "tract_id": "36005041100", "city": "BRONX, NY", "zone_code": "C", "zone_category": "Other", "ev_permitted": false}, "geometry": {"type": "Polygon", "coordinates": [[[-73.8861078411753, 40.8762982773195], [-73.8860773022665, 40.8763663809237], [-73.8863523945115, 40.8764385864867], [-73.886381067794, 40.8763699933409], [-73.8861078411753, 40.8762982773195]]]}}, {"type": "Feature", "properties": {"zone_id": "0203E522NCV8COU77CGRNW", "tract_id": "36005041100", "city": "BRONX, NY", "zone_code": "C", "zone_category": "Other", "ev_permitted": false}, "geometry": {"type": "Polygon", "coordinates": [[[-73.8856138049305, 40.8779480897341], [-73.8856601265992, 40.8781966001538], [-73.8857522026243, 40.87798407699], [-73.8856138049305, 40.8779480897341]]]}}, {"type": "Feature", "properties": {"zone_id": "0205CBWBEJIOQUWDVRK0M4", "tract_id": "36005041100", "city": "BRONX, NY", "zone_code": "R8", "zone_category": "Residential", "ev_permitted": false}, "geometry": {"type": "Polygon", "coordinates": [[[-73.8884431855985, 40.8741734091103], [-73.8883256272098, 40.8744368830464], [-73.8885672481438, 40.8744990348072], [-73.8886478146291, 40.8744745187071], [-73.8887114703503, 40.8744530539779], [-73.8887957746819, 40.8742641049327], [-73.8884431855985, 40.8741734091103]]]}}, {"type": "Feature", "properties": {"zone_id": "0205OH9QVMTAOOJ9WAFRI4", "tract_id": "36005041100", "city": "BRONX, NY", "zone_code": "R8", "zone_category": "Residential", "ev_permitted": false}, "geometry": {"type": "Polygon", "coordinates": [[[-73.8885303577247, 40.8739780331458], [-73.8884431855985, 40.8741734091103], [-73.8887957746819, 40.8742641049327], [-73.8888829468166, 40.874068728706], [-73.8885303577247, 40.8739780331458]]]}}, {"type": "Feature", "properties": {"zone_id": "0203C5JMDQKV3UT1JHA4JY", "tract_id": "36005041100", "city": "BRONX, NY", "zone_code": "C8-2", "zone_category": "Commercial", "ev_permitted": true}, "geometry": {"type": "Polygon", "coordinates": [[[-73.8886458657131, 40.8737191494696], [-73.8885891529509, 40.87384625745], [-73.888557778721, 40.8739140089073], [-73.8885303577247, 40.8739780331458], [-73.8888829468166, 40.874068728706], [-73.8889984535908, 40.8738098439785], [-73.8886458657131, 40.8737191494696]]]}}, {"type": "Feature", "properties": {"zone_id": "0204JBJ0TRYBB757HI024C", "tract_id": "36005041100", "city": "BRONX, NY", "zone_code": "C8-2", "zone_category": "Commercial", "ev_permitted": true}, "geometry": {"type": "Polygon", "coordinates": [[[-73.88876066201, 40.8734618564644], [-73.8886458657131, 40.8737191494696], [-73.8889984535908, 40.8738098439785], [-73.8891132486789, 40.8735525513294], [-73.88876066201, 40.8734618564644]]]}}, {"type": "Feature", "properties": {"zone_id": "02024O6CUEGGXY8FAE74SL", "tract_id": "36005041100", "city": "BRONX, NY", "zone_code": "R8", "zone_category": "Residential", "ev_permitted": false}, "geometry": {"type": "Polygon", "coordinates": [[[-73.888596283842, 40.8729724820474], [-73.8884448232698, 40.8733109445048], [-73.8887885456219, 40.8733993608575], [-73.8888852337968, 40.8731826545344], [-73.8887980719209, 40.8731096862308], [-73.888596283842, 40.8729724820474]]]}}, {"type": "Feature", "properties": {"zone_id": "02077Z9DJ8QJSPYN2114B8", "tract_id": "36005041100", "city": "BRONX, NY", "zone_code": "R8", "zone_category": "Residential", "ev_permitted": false}, "geometry": {"type": "Polygon", "coordinates": [[[-73.8888852337968, 40.8731826545344], [-73.88876066201, 40.8734618564644], [-73.8891132486789, 40.8735525513294], [-73.8891713984843, 40.8734222193397], [-73.8888852337968, 40.8731826545344]]]}}, {"type": "Feature", "properties": {"zone_id": "0200VQSYMR6BCV61OPPYPK", "tract_id": "36005041100", "city": "BRONX, NY", "zone_code": "R8", "zone_category": "Residential", "ev_permitted": false}, "geometry": {"type": "Polygon", "coordinates": [[[-73.8884448232698, 40.8733109445048], [-73.888387172665, 40.873439773664], [-73.8887310492014, 40.8735282289798], [-73.8887885456219, 40.8733993608575], [-73.8884448232698, 40.8733109445048]]]}}, {"type": "Feature", "properties": {"zone_id": "0203ZTYQCWWQZVG8RPBQER", "tract_id": "36005041100", "city": "BRONX, NY", "zone_code": "R8", "zone_category": "Residential", "ev_permitted": false}, "geometry": {"type": "Polygon", "coordinates": [[[-73.8878543123976, 40.8754891266229], [-73.8877635316774, 40.875691620493], [-73.8881104121919, 40.8757825931795], [-73.8882011919798, 40.8755800990398], [-73.8878543123976, 40.8754891266229]]]}}, {"type": "Feature", "properties": {"zone_id": "0202WVMN9LNV7SWTF3JLX9", "tract_id": "36005041100", "city": "BRONX, NY", "zone_code": "R8", "zone_category": "Residential", "ev_permitted": false}, "geometry": {"type": "Polygon", "coordinates": [[[-73.8876948857675, 40.8758381247519], [-73.887589710727, 40.8760749348298], [-73.8879425174942, 40.8761680933792], [-73.888045281986, 40.8759306468638], [-73.8876948857675, 40.8758381247519]]]}}, {"type": "Feature", "properties": {"zone_id": "02027SW8YD0U2P4TGRLB13", "tract_id": "36005041100", "city": "BRONX, NY", "zone_code": "R8", "zone_category": "Residential", "ev_permitted": false}, "geometry": {"type": "Polygon", "coordinates": [[[-73.8872716051564, 40.8759192416772], [-73.8872487578531, 40.8759706850439], [-73.8875953641867, 40.8760622070657], [-73.8876182103276, 40.8760107636304], [-73.8872716051564, 40.8759192416772]]]}}, {"type": "Feature", "properties": {"zone_id": "0201HSWUT5XJ02W0KDM9UK", "tract_id": "36005041100", "city": "BRONX, NY", "zone_code": "R8", "zone_category": "Residential", "ev_permitted": false}, "geometry": {"type": "Polygon", "coordinates": [[[-73.8872487578531, 40.8759706850439], [-73.8872247944928, 40.8760246399613], [-73.8875714010746, 40.8761161620542], [-73.8875953641867, 40.8760622070657], [-73.8872487578531, 40.8759706850439]]]}}, {"type": "Feature", "properties": {"zone_id": "02052TBJ0IPIAZX7DU0O8S", "tract_id": "36005041100", "city": "BRONX, NY", "zone_code": "R8", "zone_category": "Residential", "ev_permitted": false}, "geometry": {"type": "Polygon", "coordinates": [[[-73.8872247944928, 40.8760246399613], [-73.8872022277535, 40.8760754491067], [-73.8875488345692, 40.8761669712665], [-73.8875714010746, 40.8761161620542], [-73.8872247944928, 40.8760246399613]]]}}, {"type": "Feature", "properties": {"zone_id": "0200NHM511IGBKE2T6GOZW", "tract_id": "36005041100", "city": "BRONX, NY", "zone_code": "R8", "zone_category": "Residential", "ev_permitted": false}, "geometry": {"type": "Polygon", "coordinates": [[[-73.8873482804651, 40.8757466030253], [-73.8872716051564, 40.8759192416772], [-73.8876182103276, 40.8760107636304], [-73.8876948857675, 40.8758381247519], [-73.8873482804651, 40.8757466030253]]]}}, {"type": "Feature", "properties": {"zone_id": "0204AC513U1QH3ROSSEYDR", "tract_id": "36005041100", "city": "BRONX, NY", "zone_code": "R8", "zone_category": "Residential", "ev_permitted": false}, "geometry": {"type": "Polygon", "coordinates": [[[-73.8879124383823, 40.8753594698222], [-73.8878934514781, 40.8754018220769], [-73.8882403306584, 40.8754927943776], [-73.8882593173676, 40.8754504420666], [-73.8879124383823, 40.8753594698222]]]}}, {"type": "Feature", "properties": {"zone_id": "02030F5ANO6HNL4K6MN37M", "tract_id": "36005041100", "city": "BRONX, NY", "zone_code": "R8", "zone_category": "Residential", "ev_permitted": false}, "geometry": {"type": "Polygon", "coordinates": [[[-73.8879415607561, 40.8752945093709], [-73.8879124383823, 40.8753594698222], [-73.8882593173676, 40.8754504420666], [-73.8882884394424, 40.8753854815288], [-73.8879415607561, 40.8752945093709]]]}}, {"type": "Feature", "properties": {"zone_id": "0201X2Y3ECN7W17ZN3O21I", "tract_id": "36005041100", "city": "BRONX, NY", "zone_code": "R8", "zone_category": "Residential", "ev_permitted": false}, "geometry": {"type": "Polygon", "coordinates": [[[-73.8878934514781, 40.8754018220769], [-73.8878729527681, 40.8754475462418], [-73.888219832159, 40.8755385186034], [-73.8882403306584, 40.8754927943776], [-73.8878934514781, 40.8754018220769]]]}}, {"type": "Feature", "properties": {"zone_id": "0201VS80OYXAZ4JZOVTBW1", "tract_id": "36005041100", "city": "BRONX, NY", "zone_code": "R8", "zone_category": "Residential", "ev_permitted": false}, "geometry": {"type": "Polygon", "coordinates": [[[-73.8878729527681, 40.8754475462418], [-73.8878543123976, 40.8754891266229], [-73.8882011919798, 40.8755800990398], [-73.888219832159, 40.8755385186034], [-73.8878729527681, 40.8754475462418]]]}}, {"type": "Feature", "properties": {"zone_id": "0201XD8PVGTO2JQ9H4BG1S", "tract_id": "36005041100", "city": "BRONX, NY", "zone_code": "R8", "zone_category": "Residential", "ev_permitted": false}, "geometry": {"type": "Polygon", "coordinates": [[[-73.8880014722755, 40.8751608695739], [-73.8879415607561, 40.8752945093709], [-73.8882884394424, 40.8753854815288], [-73.8883512976608, 40.8752452676793], [-73.8880014722755, 40.8751608695739]]]}}, {"type": "Feature", "properties": {"zone_id": "0206BC6PL35YLZVMJIOR9A", "tract_id": "36005041100", "city": "BRONX, NY", "zone_code": "R8", "zone_category": "Residential", "ev_permitted": false}, "geometry": {"type": "Polygon", "coordinates": [[[-73.8876346755696, 40.8751179835203], [-73.8874760146809, 40.8754650688231], [-73.8878241640309, 40.8755563752593], [-73.8880014722755, 40.8751608695739], [-73.8879203171838, 40.8751412903699], [-73.8876346755696, 40.8751179835203]]]}}, {"type": "Feature", "properties": {"zone_id": "0204H6ZUHO9F1EGY6HLOPO", "tract_id": "36005041100", "city": "BRONX, NY", "zone_code": "R8", "zone_category": "Residential", "ev_permitted": false}, "geometry": {"type": "Polygon", "coordinates": [[[-73.8874760146809, 40.8754650688231], [-73.8874463810248, 40.8755298944523], [-73.8877950414278, 40.8756213356779], [-73.8878241640309, 40.8755563752593], [-73.8874760146809, 40.8754650688231]]]}}, {"type": "Feature", "properties": {"zone_id": "020440IH42AMQGB3PH95ON", "tract_id": "36005041100", "city": "BRONX, NY", "zone_code": "R8", "zone_category": "Residential", "ev_permitted": false}, "geometry": {"type": "Polygon", "coordinates": [[[-73.8874463810248, 40.8755298944523], [-73.8874143176309, 40.875600034592], [-73.8877635316774, 40.875691620493], [-73.8877950414278, 40.8756213356779], [-73.8874463810248, 40.8755298944523]]]}}, {"type": "Feature", "properties": {"zone_id": "02036MFE53B95E6Y24HQZB", "tract_id": "36005041100", "city": "BRONX, NY", "zone_code": "R8", "zone_category": "Residential", "ev_permitted": false}, "geometry": {"type": "Polygon", "coordinates": [[[-73.8873492870919, 40.8750562972178], [-73.887250292176, 40.8752754992308], [-73.8873430973974, 40.8752997607381], [-73.8874430203478, 40.8750784635717], [-73.8873492870919, 40.8750562972178]]]}}, {"type": "Feature", "properties": {"zone_id": "0202NMG56QM5BIAS94B9SY", "tract_id": "36005041100", "city": "BRONX, NY", "zone_code": "R8", "zone_category": "Residential", "ev_permitted": false}, "geometry": {"type": "Polygon", "coordinates": [[[-73.8872543833893, 40.8750338478848], [-73.8871563322369, 40.8752509603814], [-73.887250292176, 40.8752754992308], [-73.8873492870919, 40.8750562972178], [-73.8872543833893, 40.8750338478848]]]}}, {"type": "Feature", "properties": {"zone_id": "0206REL0X8516MC9MJZEZO", "tract_id": "36005041100", "city": "BRONX, NY", "zone_code": "R8", "zone_category": "Residential", "ev_permitted": false}, "geometry": {"type": "Polygon", "coordinates": [[[-73.886459837912, 40.8755132928788], [-73.886265036026, 40.8759477186363], [-73.8865277584966, 40.8760166773377], [-73.8865216385941, 40.8760303088908], [-73.8866183519067, 40.8760556941277], [-73.8868194557378, 40.8756076834703], [-73.886459837912, 40.8755132928788]]]}}, {"type": "Feature", "properties": {"zone_id": "0204N78Z3HEQK7AE161HAP", "tract_id": "36005041100", "city": "BRONX, NY", "zone_code": "R8", "zone_category": "Residential", "ev_permitted": false}, "geometry": {"type": "Polygon", "coordinates": [[[-73.8867060976335, 40.8758602189834], [-73.8866183519067, 40.8760556941277], [-73.8869623799771, 40.8761459929201], [-73.8870508876926, 40.8759488192768], [-73.8867060976335, 40.8758602189834]]]}}, {"type": "Feature", "properties": {"zone_id": "0204UTB3UKJWQUCXVEMX3H", "tract_id": "36005041100", "city": "BRONX, NY", "zone_code": "R8", "zone_category": "Residential", "ev_permitted": false}, "geometry": {"type": "Polygon", "coordinates": [[[-73.8868194557378, 40.8756076834703], [-73.8867940184661, 40.8756643525664], [-73.8871380456771, 40.8757546501399], [-73.887163482689, 40.8756979816715], [-73.8868194557378, 40.8756076834703]]]}}, {"type": "Feature", "properties": {"zone_id": "0201FAVVI0GOWRILSJFOHV", "tract_id": "36005041100", "city": "BRONX, NY", "zone_code": "R8", "zone_category": "Residential", "ev_permitted": false}, "geometry": {"type": "Polygon", "coordinates": [[[-73.8867940184661, 40.8756643525664], [-73.8867336285834, 40.875798888531], [-73.8870784174343, 40.8758874894449], [-73.8871380456771, 40.8757546501399], [-73.8867940184661, 40.8756643525664]]]}}, {"type": "Feature", "properties": {"zone_id": "02020NVFTSSDVPQ0XRL5WM", "tract_id": "36005041100", "city": "BRONX, NY", "zone_code": "R8", "zone_category": "Residential", "ev_permitted": false}, "geometry": {"type": "Polygon", "coordinates": [[[-73.8867336285834, 40.875798888531], [-73.8867060976335, 40.8758602189834], [-73.8870508876926, 40.8759488192768], [-73.8870784174343, 40.8758874894449], [-73.8867336285834, 40.875798888531]]]}}, {"type": "Feature", "properties": {"zone_id": "02030LSMIJL8H4ZRAB9EIK", "tract_id": "36005041100", "city": "BRONX, NY", "zone_code": "R8", "zone_category": "Residential", "ev_permitted": false}, "geometry": {"type": "Polygon", "coordinates": [[[-73.8868825158417, 40.8751793488874], [-73.8868234288025, 40.8753102057501], [-73.8872840120834, 40.8754306178347], [-73.8873430973974, 40.8752997607381], [-73.8868825158417, 40.8751793488874]]]}}, {"type": "Feature", "properties": {"zone_id": "0204BWJW25T6BGT83M22M9", "tract_id": "36005041100", "city": "BRONX, NY", "zone_code": "C", "zone_category": "Other", "ev_permitted": false}, "geometry": {"type": "Polygon", "coordinates": [[[-73.8867342073488, 40.8749108399576], [-73.8865257317428, 40.8753676508868], [-73.886871362092, 40.8754580119681], [-73.8868973663814, 40.8754004215429], [-73.886794800449, 40.875373607243], [-73.8868825158417, 40.8751793488874], [-73.8869865674987, 40.8752065524237], [-73.8870828787878, 40.8749932965725], [-73.8867342073488, 40.8749108399576]]]}}, {"type": "Feature", "properties": {"zone_id": "0200KOATGELJQ63AZ5A5O2", "tract_id": "36005041100", "city": "BRONX, NY", "zone_code": "R8", "zone_category": "Residential", "ev_permitted": false}, "geometry": {"type": "Polygon", "coordinates": [[[-73.8868973663814, 40.8754004215429], [-73.886871362092, 40.8754580119681], [-73.8872293801025, 40.8755516092427], [-73.8872553841184, 40.8754940187377], [-73.8868973663814, 40.8754004215429]]]}}, {"type": "Feature", "properties": {"zone_id": "0203FPUWYGVA4YWB2H1T7N", "tract_id": "36005041100", "city": "BRONX, NY", "zone_code": "R8", "zone_category": "Residential", "ev_permitted": false}, "geometry": {"type": "Polygon", "coordinates": [[[-73.8868234288025, 40.8753102057501], [-73.886794800449, 40.875373607243], [-73.8872553841184, 40.8754940187377], [-73.8872840120834, 40.8754306178347], [-73.8868234288025, 40.8753102057501]]]}}, {"type": "Feature", "properties": {"zone_id": "02049B6KB8HV7LR86YYOK2", "tract_id": "36005041100", "city": "BRONX, NY", "zone_code": "R8", "zone_category": "Residential", "ev_permitted": false}, "geometry": {"type": "Polygon", "coordinates": [[[-73.8871737489535, 40.875014785808], [-73.8870765236065, 40.8752300693661], [-73.8871563322369, 40.8752509603814], [-73.8872543833893, 40.8750338478848], [-73.8871737489535, 40.875014785808]]]}}, {"type": "Feature", "properties": {"zone_id": "0205OAUQQ6X3A8A320K6R6", "tract_id": "36005041100", "city": "BRONX, NY", "zone_code": "R8", "zone_category": "Residential", "ev_permitted": false}, "geometry": {"type": "Polygon", "coordinates": [[[-73.8870828787878, 40.8749932965725], [-73.8869865674987, 40.8752065524237], [-73.8870765236065, 40.8752300693661], [-73.8871737489535, 40.875014785808], [-73.8870828787878, 40.8749932965725]]]}}, {"type": "Feature", "properties": {"zone_id": "02038GCOBNVZIV25IQT9U0", "tract_id": "36005041100", "city": "BRONX, NY", "zone_code": "R8", "zone_category": "Residential", "ev_permitted": false}, "geometry": {"type": "Polygon", "coordinates": [[[-73.8887114703503, 40.8744530539779], [-73.8886478146291, 40.8744745187071], [-73.8885979437846, 40.8744900488464], [-73.8885020784758, 40.874516859715], [-73.88840204041, 40.8745407533161], [-73.8883473194164, 40.8745521260438], [-73.888287121524, 40.8745632924884], [-73.8881834734858, 40.8745792931437], [-73.8880728985809, 40.8745919810583], [-73.8879775247695, 40.8745993702468], [-73.8878662211778, 40.8746038876403], [-73.8878070184482, 40.8747361839158], [-73.8878834182955, 40.8747362546521], [-73.8880016731558, 40.8747316617793], [-73.8880850434496, 40.87472617844], [-73.8882182988939, 40.8747105754424], [-73.8883304257151, 40.8746938444845], [-73.8883844591422, 40.8746835194414], [-73.888497465912, 40.874657573323], [-73.8886364092399, 40.8746210689357], [-73.8887114703503, 40.8744530539779]]]}}, {"type": "Feature", "properties": {"zone_id": "0205NTHRSN4O7GGZXKZQCJ", "tract_id": "36005041100", "city": "BRONX, NY", "zone_code": "R8", "zone_category": "Residential", "ev_permitted": false}, "geometry": {"type": "Polygon", "coordinates": [[[-73.8881448878813, 40.8748393905879], [-73.888114778588, 40.8749068733251], [-73.8884683991022, 40.8749978346229], [-73.8884985090059, 40.8749303503902], [-73.8881448878813, 40.8748393905879]]]}}, {"type": "Feature", "properties": {"zone_id": "02052AK46AB0URZ8MLCPES", "tract_id": "36005041100", "city": "BRONX, NY", "zone_code": "R8", "zone_category": "Residential", "ev_permitted": false}, "geometry": {"type": "Polygon", "coordinates": [[[-73.888114778588, 40.8749068733251], [-73.8880883766916, 40.8749660459923], [-73.8884439171657, 40.87505270414], [-73.8884683991022, 40.8749978346229], [-73.888114778588, 40.8749068733251]]]}}, {"type": "Feature", "properties": {"zone_id": "0204CXEDRS2RDMN9VMEG1T", "tract_id": "36005041100", "city": "BRONX, NY", "zone_code": "R8", "zone_category": "Residential", "ev_permitted": false}, "geometry": {"type": "Polygon", "coordinates": [[[-73.8881740223953, 40.8747740963292], [-73.8881448878813, 40.8748393905879], [-73.8884985090059, 40.8749303503902], [-73.8885276422857, 40.874865056745], [-73.8881740223953, 40.8747740963292]]]}}, {"type": "Feature", "properties": {"zone_id": "0203BAWDPWUE2GG5UH7GZ2", "tract_id": "36005041100", "city": "BRONX, NY", "zone_code": "C8-2", "zone_category": "Commercial", "ev_permitted": true}, "geometry": {"type": "Polygon", "coordinates": [[[-73.8886364092399, 40.8746210689357], [-73.888497465912, 40.874657573323], [-73.8883844591422, 40.8746835194414], [-73.8883304257151, 40.8746938444845], [-73.8882073614173, 40.8747120256398], [-73.8885551689716, 40.874803364687], [-73.8886364092399, 40.8746210689357]]]}}, {"type": "Feature", "properties": {"zone_id": "02074VEYGN6RNTAK474849", "tract_id": "36005041100", "city": "BRONX, NY", "zone_code": "R8", "zone_category": "Residential", "ev_permitted": false}, "geometry": {"type": "Polygon", "coordinates": [[[-73.8882073614173, 40.8747120256398], [-73.8882013728292, 40.8747127990681], [-73.8881740223953, 40.8747740963292], [-73.8885276422857, 40.874865056745], [-73.8885551689716, 40.874803364687], [-73.8882073614173, 40.8747120256398]]]}}, {"type": "Feature", "properties": {"zone_id": "0201DA1O5A159JTOQ96IFG", "tract_id": "36005041100", "city": "BRONX, NY", "zone_code": "R8", "zone_category": "Residential", "ev_permitted": false}, "geometry": {"type": "Polygon", "coordinates": [[[-73.8882013728292, 40.8747127990681], [-73.8880850434496, 40.87472617844], [-73.8880016731558, 40.8747316617793], [-73.8878834182955, 40.8747362546521], [-73.8878070184482, 40.8747361839158], [-73.8877622150849, 40.8748362942007], [-73.88800419549, 40.8749455272904], [-73.8880883766916, 40.8749660459923], [-73.8882013728292, 40.8747127990681]]]}}, {"type": "Feature", "properties": {"zone_id": "0201Z8FCO3MEBM70FEBJBN", "tract_id": "36005041100", "city": "BRONX, NY", "zone_code": "R8", "zone_category": "Residential", "ev_permitted": false}, "geometry": {"type": "Polygon", "coordinates": [[[-73.8873560585132, 40.8745683268684], [-73.8872923123303, 40.8747285723462], [-73.8875676069066, 40.8747955904435], [-73.8876536843532, 40.874601986156], [-73.8875497736152, 40.8745931159812], [-73.8874909946756, 40.8745867398336], [-73.8874354463849, 40.8745798011807], [-73.8873560585132, 40.8745683268684]]]}}, {"type": "Feature", "properties": {"zone_id": "0204NTUBVMJ4NV3U2XWF3V", "tract_id": "36005041100", "city": "BRONX, NY", "zone_code": "R8", "zone_category": "Residential", "ev_permitted": false}, "geometry": {"type": "Polygon", "coordinates": [[[-73.8881859452505, 40.8738894397067], [-73.8879806676454, 40.8743481493516], [-73.8883256272098, 40.8744368830464], [-73.8885303577247, 40.8739780331458], [-73.8881859452505, 40.8738894397067]]]}}, {"type": "Feature", "properties": {"zone_id": "020283LE9DWGK7HTVT26CG", "tract_id": "36005041100", "city": "BRONX, NY", "zone_code": "R8", "zone_category": "Residential", "ev_permitted": false}, "geometry": {"type": "Polygon", "coordinates": [[[-73.8879806676454, 40.8743481493516], [-73.8879515892013, 40.8744131274322], [-73.8884264605977, 40.8745352787568], [-73.8885020784758, 40.874516859715], [-73.8885672481438, 40.8744990348072], [-73.8879806676454, 40.8743481493516]]]}}, {"type": "Feature", "properties": {"zone_id": "02023WC6BIGL696VZ0GF3A", "tract_id": "36005041100", "city": "BRONX, NY", "zone_code": "R8", "zone_category": "Residential", "ev_permitted": false}, "geometry": {"type": "Polygon", "coordinates": [[[-73.8879515892013, 40.8744131274322], [-73.8879305666436, 40.8744601046196], [-73.8883133501653, 40.8745585687198], [-73.8884264605977, 40.8745352787568], [-73.8879515892013, 40.8744131274322]]]}}, {"type": "Feature", "properties": {"zone_id": "0206J8SCGAHXN71C36H4Z1", "tract_id": "36005041100", "city": "BRONX, NY", "zone_code": "R8", "zone_category": "Residential", "ev_permitted": false}, "geometry": {"type": "Polygon", "coordinates": [[[-73.8879305666436, 40.8744601046196], [-73.8879073642138, 40.8745119503981], [-73.8881739776641, 40.8745805318343], [-73.8882347100951, 40.8745718877477], [-73.8883133501653, 40.8745585687198], [-73.8879305666436, 40.8744601046196]]]}}, {"type": "Feature", "properties": {"zone_id": "0204D2RCX18IU81NZY6R8Q", "tract_id": "36005041100", "city": "BRONX, NY", "zone_code": "R8", "zone_category": "Residential", "ev_permitted": false}, "geometry": {"type": "Polygon", "coordinates": [[[-73.8879073642138, 40.8745119503981], [-73.8878872503287, 40.874556897122], [-73.8880361743357, 40.8745952042866], [-73.8880978552862, 40.8745895066666], [-73.8881739776641, 40.8745805318343], [-73.8879073642138, 40.8745119503981]]]}}, {"type": "Feature", "properties": {"zone_id": "0205K3NVGIRYMBNZ4LODWZ", "tract_id": "36005041100", "city": "BRONX, NY", "zone_code": "R8", "zone_category": "Residential", "ev_permitted": false}, "geometry": {"type": "Polygon", "coordinates": [[[-73.8878872503287, 40.874556897122], [-73.8878662211778, 40.8746038876403], [-73.8879387650369, 40.874601444757], [-73.8880361743357, 40.8745952042866], [-73.8878872503287, 40.874556897122]]]}}, {"type": "Feature", "properties": {"zone_id": "0201DFHM47RVGCRZ234LDQ", "tract_id": "36005041100", "city": "BRONX, NY", "zone_code": "R8", "zone_category": "Residential", "ev_permitted": false}, "geometry": {"type": "Polygon", "coordinates": [[[-73.8870818130003, 40.8740919269843], [-73.886966406423, 40.8743514450742], [-73.8873924395147, 40.8744611561022], [-73.8874931254544, 40.8741978472453], [-73.8870818130003, 40.8740919269843]]]}}, {"type": "Feature", "properties": {"zone_id": "0206X7HSTOGZXAZHWN2P0M", "tract_id": "36005041100", "city": "BRONX, NY", "zone_code": "R8", "zone_category": "Residential", "ev_permitted": false}, "geometry": {"type": "Polygon", "coordinates": [[[-73.8874677673885, 40.8742641631499], [-73.8874425933709, 40.8743299972155], [-73.8877405028039, 40.8744067130419], [-73.8877693526588, 40.8743418247301], [-73.8874677673885, 40.8742641631499]]]}}, {"type": "Feature", "properties": {"zone_id": "0202URFM9PQC5U8OXV1R7L", "tract_id": "36005041100", "city": "BRONX, NY", "zone_code": "R8", "zone_category": "Residential", "ev_permitted": false}, "geometry": {"type": "Polygon", "coordinates": [[[-73.8874425933709, 40.8743299972155], [-73.8873924395147, 40.8744611561022], [-73.8876830277883, 40.8745359867691], [-73.8877405028039, 40.8744067130419], [-73.8874425933709, 40.8743299972155]]]}}, {"type": "Feature", "properties": {"zone_id": "0203ME0LBQVSPNC6HUNQ5H", "tract_id": "36005041100", "city": "BRONX, NY", "zone_code": "R8", "zone_category": "Residential", "ev_permitted": false}, "geometry": {"type": "Polygon", "coordinates": [[[-73.8873924395147, 40.8744611561022], [-73.8873517191703, 40.8745676459886], [-73.8874354463849, 40.8745798011807], [-73.8874909946756, 40.8745867398336], [-73.8875497736152, 40.8745931159812], [-73.8876536843532, 40.874601986156], [-73.8876830277883, 40.8745359867691], [-73.8873924395147, 40.8744611561022]]]}}, {"type": "Feature", "properties": {"zone_id": "0201GBM8ZOX4MA63UD1SZ1", "tract_id": "36005041100", "city": "BRONX, NY", "zone_code": "R8", "zone_category": "Residential", "ev_permitted": false}, "geometry": {"type": "Polygon", "coordinates": [[[-73.8875436731458, 40.874065654404], [-73.8875199971587, 40.8741275720176], [-73.8878292070141, 40.8742071977325], [-73.887856340471, 40.8741461701505], [-73.8875436731458, 40.874065654404]]]}}, {"type": "Feature", "properties": {"zone_id": "020172XRGNQ6TPTVD3ATBY", "tract_id": "36005041100", "city": "BRONX, NY", "zone_code": "R8", "zone_category": "Residential", "ev_permitted": false}, "geometry": {"type": "Polygon", "coordinates": [[[-73.8875199971587, 40.8741275720176], [-73.8874677673885, 40.8742641631499], [-73.8877693526588, 40.8743418247301], [-73.8878292070141, 40.8742071977325], [-73.8875199971587, 40.8741275720176]]]}}, {"type": "Feature", "properties": {"zone_id": "020091NUG6IMKQAPB4WSLY", "tract_id": "36005041100", "city": "BRONX, NY", "zone_code": "R8", "zone_category": "Residential", "ev_permitted": false}, "geometry": {"type": "Polygon", "coordinates": [[[-73.886966406423, 40.8743514450742], [-73.8868469149731, 40.8746201425602], [-73.8872923123303, 40.8747285723462], [-73.8873560585132, 40.8745683268684], [-73.8873517191703, 40.8745676459886], [-73.8873924395147, 40.8744611561022], [-73.886966406423, 40.8743514450742]]]}}, {"type": "Feature", "properties": {"zone_id": "02028BXK9QHTKA5UEJB6LG", "tract_id": "36005041100", "city": "BRONX, NY", "zone_code": "R8", "zone_category": "Residential", "ev_permitted": false}, "geometry": {"type": "Polygon", "coordinates": [[[-73.888387172665, 40.873439773664], [-73.8882448974508, 40.8737577043862], [-73.8885891529509, 40.87384625745], [-73.8887310492014, 40.8735282289798], [-73.888387172665, 40.873439773664]]]}}, {"type": "Feature", "properties": {"zone_id": "0206HZJP416J4HA5TTS6YN", "tract_id": "36005041100", "city": "BRONX, NY", "zone_code": "R8", "zone_category": "Residential", "ev_permitted": false}, "geometry": {"type": "Polygon", "coordinates": [[[-73.8882448974508, 40.8737577043862], [-73.8882144694591, 40.8738256990794], [-73.888557778721, 40.8739140089073], [-73.8885891529509, 40.87384625745], [-73.8882448974508, 40.8737577043862]]]}}, {"type": "Feature", "properties": {"zone_id": "0204E48N2P45LNKO74GGCI", "tract_id": "36005041100", "city": "BRONX, NY", "zone_code": "R8", "zone_category": "Residential", "ev_permitted": false}, "geometry": {"type": "Polygon", "coordinates": [[[-73.8882144694591, 40.8738256990794], [-73.8881859452505, 40.8738894397067], [-73.8885303577247, 40.8739780331458], [-73.888557778721, 40.8739140089073], [-73.8882144694591, 40.8738256990794]]]}}, {"type": "Feature", "properties": {"zone_id": "0203OMDYDY2TGPIWXUKA14", "tract_id": "36005041100", "city": "BRONX, NY", "zone_code": "R8", "zone_category": "Residential", "ev_permitted": false}, "geometry": {"type": "Polygon", "coordinates": [[[-73.8876208959376, 40.8738637032362], [-73.8875436731458, 40.874065654404], [-73.887856340471, 40.8741461701505], [-73.8879448358494, 40.8739471217973], [-73.8876208959376, 40.8738637032362]]]}}, {"type": "Feature", "properties": {"zone_id": "0206I7IW9CWOH59YZ1UVYG", "tract_id": "36005041100", "city": "BRONX, NY", "zone_code": "R8", "zone_category": "Residential", "ev_permitted": false}, "geometry": {"type": "Polygon", "coordinates": [[[-73.8873418849755, 40.8735070905796], [-73.887285109698, 40.8736347648971], [-73.8876754198936, 40.873735276849], [-73.8877267086369, 40.873606189613], [-73.8873418849755, 40.8735070905796]]]}}, {"type": "Feature", "properties": {"zone_id": "0206S6M3QCLMDKXY6OF2PP", "tract_id": "36005041100", "city": "BRONX, NY", "zone_code": "R8", "zone_category": "Residential", "ev_permitted": false}, "geometry": {"type": "Polygon", "coordinates": [[[-73.8879966528296, 40.8729535956911], [-73.8878236720454, 40.8733426955261], [-73.8881735065376, 40.8734327821028], [-73.888346493141, 40.8730436845678], [-73.8879966528296, 40.8729535956911]]]}}, {"type": "Feature", "properties": {"zone_id": "0205BYHFIHF3AM48SE2ST9", "tract_id": "36005041100", "city": "BRONX, NY", "zone_code": "C", "zone_category": "Other", "ev_permitted": false}, "geometry": {"type": "Polygon", "coordinates": [[[-73.8874569801289, 40.8732482659838], [-73.8873418849755, 40.8735070905796], [-73.8877267086369, 40.873606189613], [-73.8876754198936, 40.873735276849], [-73.8880016687076, 40.8738192905302], [-73.8881735065376, 40.8734327821028], [-73.8874569801289, 40.8732482659838]]]}}, {"type": "Feature", "properties": {"zone_id": "02020M2X96HG708W16RY4X", "tract_id": "36005041100", "city": "BRONX, NY", "zone_code": "C", "zone_category": "Other", "ev_permitted": false}, "geometry": {"type": "Polygon", "coordinates": [[[-73.8875741520053, 40.8729864373829], [-73.8875181098663, 40.8731107967732], [-73.8878847881583, 40.8732052225977], [-73.8879401514791, 40.8730806888204], [-73.8875741520053, 40.8729864373829]]]}}, {"type": "Feature", "properties": {"zone_id": "0203TT0C7EM3EETUW4WJ5J", "tract_id": "36005041100", "city": "BRONX, NY", "zone_code": "C", "zone_category": "Other", "ev_permitted": false}, "geometry": {"type": "Polygon", "coordinates": [[[-73.8875181098663, 40.8731107967732], [-73.8874569801289, 40.8732482659838], [-73.8878236720454, 40.8733426955261], [-73.8878847881583, 40.8732052225977], [-73.8875181098663, 40.8731107967732]]]}}, {"type": "Feature", "properties": {"zone_id": "0201M90D4P0AMVRG7ZWCVB", "tract_id": "36005041100", "city": "BRONX, NY", "zone_code": "C", "zone_category": "Other", "ev_permitted": false}, "geometry": {"type": "Polygon", "coordinates": [[[-73.887285109698, 40.8736347648971], [-73.8870818130003, 40.8740919269843], [-73.8874931254544, 40.8741978472453], [-73.8876208959376, 40.8738637032362], [-73.8879448358494, 40.8739471217973], [-73.8880016687076, 40.8738192905302], [-73.887285109698, 40.8736347648971]]]}}, {"type": "Feature", "properties": {"zone_id": "0206FTZ577IVDRLVHQL5JL", "tract_id": "36005041100", "city": "BRONX, NY", "zone_code": "C", "zone_category": "Other", "ev_permitted": false}, "geometry": {"type": "Polygon", "coordinates": [[[-73.8879519350559, 40.8724209756396], [-73.8878854872962, 40.8724990666781], [-73.8878394645004, 40.8725569976521], [-73.8877933918585, 40.8726186385086], [-73.887754831213, 40.8726734436226], [-73.8877157673318, 40.8727324078741], [-73.8876727299995, 40.8728020701845], [-73.8876386351803, 40.8728614004034], [-73.8880436760229, 40.8729657049807], [-73.8881953237139, 40.8726246047881], [-73.8879519350559, 40.8724209756396]]]}}, {"type": "Feature", "properties": {"zone_id": "0203GJZBJH9IAE0YGJ5MK8", "tract_id": "36005041100", "city": "BRONX, NY", "zone_code": "R8", "zone_category": "Residential", "ev_permitted": false}, "geometry": {"type": "Polygon", "coordinates": [[[-73.8883718932467, 40.8727723291371], [-73.8882610366122, 40.8730216787222], [-73.888346493141, 40.8730436845678], [-73.8884413112982, 40.8728304070906], [-73.8883718932467, 40.8727723291371]]]}}, {"type": "Feature", "properties": {"zone_id": "0202B14CWIS6O6L1K10OJM", "tract_id": "36005041100", "city": "BRONX, NY", "zone_code": "R8", "zone_category": "Residential", "ev_permitted": false}, "geometry": {"type": "Polygon", "coordinates": [[[-73.8882991097509, 40.872711436613], [-73.8881714396306, 40.8729986057037], [-73.8882610366122, 40.8730216787222], [-73.8883718932467, 40.8727723291371], [-73.8882991097509, 40.872711436613]]]}}, {"type": "Feature", "properties": {"zone_id": "0201VMYQ4XBO034ZLLW7P4", "tract_id": "36005041100", "city": "BRONX, NY", "zone_code": "R8", "zone_category": "Residential", "ev_permitted": false}, "geometry": {"type": "Polygon", "coordinates": [[[-73.8881953237139, 40.8726246047881], [-73.8880436760229, 40.8729657049807], [-73.8881714396306, 40.8729986057037], [-73.8882991097509, 40.872711436613], [-73.8881953237139, 40.8726246047881]]]}}, {"type": "Feature", "properties": {"zone_id": "0204YSPCV92NRLGNPJEDZ9", "tract_id": "36005041100", "city": "BRONX, NY", "zone_code": "R8", "zone_category": "Residential", "ev_permitted": false}, "geometry": {"type": "Polygon", "coordinates": [[[-73.8876386351803, 40.8728614004034], [-73.8876074080568, 40.872919586693], [-73.8875741520053, 40.8729864373829], [-73.8879401514791, 40.8730806888204], [-73.8879966528296, 40.8729535956911], [-73.8876386351803, 40.8728614004034]]]}}]}