{"type": "FeatureCollection", "features": [{"type": "Feature", "properties": {"zone_id": "0201TUROULQ89QN0KK4ZZM", "tract_id": "12086006721", "city": "MIAMI, FL", "zone_code": "", "zone_category": "Other", "ev_permitted": false}, "geometry": {"type": "Polygon", "coordinates": [[[-80.1897854043937, 25.7651749741822], [-80.1896269565869, 25.7657878765323], [-80.1896248742793, 25.765804859107], [-80.1896273234651, 25.765821801568], [-80.1896341628496, 25.7658377265944], [-80.1896449979786, 25.7658517159838], [-80.1896517267469, 25.765857727], [-80.1896673212104, 25.7658673480518], [-80.1896849993245, 25.7658733249328], [-80.1900017646898, 25.7659424412368], [-80.1904919092197, 25.7660290468241], [-80.1905017141872, 25.7660305595363], [-80.1905215766647, 25.766030649195], [-80.1905409889326, 25.766026840356], [-80.1905590289329, 25.7660193137756], [-80.1905748398718, 25.7660084273431], [-80.1905876707937, 25.7659946977359], [-80.1905969120603, 25.7659787772301], [-80.1906000422578, 25.7659702285117], [-80.1907601032757, 25.7653609717131], [-80.1897854043937, 25.7651749741822]]]}}, {"type": "Feature", "properties": {"zone_id": "0203ZS5V9KTJ1C8PD0JXCA", "tract_id": "12086006721", "city": "MIAMI, FL", "zone_code": "", "zone_category": "Other", "ev_permitted": false}, "geometry": {"type": "Polygon", "coordinates": [[[-80.1907335844283, 25.7643182383098], [-80.1907009883416, 25.7643192788239], [-80.1906848256119, 25.7643213096844], [-80.1906767649895, 25.7643513312577], [-80.1906395255705, 25.7643437359646], [-80.1906089000461, 25.7644551053605], [-80.1906241639103, 25.7644584649532], [-80.1906079574413, 25.7645188300328], [-80.1905971220486, 25.764516444429], [-80.1905710690932, 25.7645900009849], [-80.1905579518307, 25.7646621573609], [-80.1905687872368, 25.7646645427959], [-80.1905492701899, 25.7647421290095], [-80.1905655073764, 25.7647457044949], [-80.190538714281, 25.7648455005752], [-80.1905780698633, 25.7648541646734], [-80.1905758586686, 25.7648623979789], [-80.1906127460398, 25.7648742128363], [-80.1906507654138, 25.7648825824915], [-80.1906895258003, 25.7648874206835], [-80.1906917965298, 25.764879200088], [-80.190731151002, 25.7648878632792], [-80.1907579439539, 25.7647880663008], [-80.1907741822998, 25.7647916407378], [-80.1907961786258, 25.7647146008208], [-80.1908070140478, 25.7647169853785], [-80.1908330200534, 25.7646434185451], [-80.1908461373366, 25.764571262313], [-80.190835301744, 25.7645688767257], [-80.1908515090476, 25.7645085128276], [-80.1908667717868, 25.7645118723889], [-80.1908978419286, 25.7644012167862], [-80.190861770514, 25.7643920574018], [-80.1908698310932, 25.7643620358174], [-80.1908425600404, 25.7643458349409], [-80.1908131029445, 25.7643331543855], [-80.1907820107969, 25.76432423176], [-80.1907660323695, 25.7643212344763], [-80.1907335844283, 25.7643182383098]]]}}, {"type": "Feature", "properties": {"zone_id": "0201GPAVY0FTFX837ZEENV", "tract_id": "12086006721", "city": "MIAMI, FL", "zone_code": "", "zone_category": "Other", "ev_permitted": false}, "geometry": {"type": "Polygon", "coordinates": [[[-80.1900640203865, 25.7640689678256], [-80.1900039074969, 25.7643297710459], [-80.1897854043937, 25.7651749741822], [-80.1907601032757, 25.7653609717131], [-80.1910424356636, 25.7642863374924], [-80.1900640203865, 25.7640689678256]], [[-80.1907335844283, 25.7643182383098], [-80.1907660323695, 25.7643212344763], [-80.1907820107969, 25.76432423176], [-80.1908131029445, 25.7643331543855], [-80.1908425600404, 25.7643458349409], [-80.1908698310932, 25.7643620358174], [-80.190861770514, 25.7643920574018], [-80.1908978419286, 25.7644012167862], [-80.1908667717868, 25.7645118723889], [-80.1908515090476, 25.7645085128276], [-80.190835301744, 25.7645688767257], [-80.1908461373366, 25.764571262313], [-80.1908330200534, 25.7646434185451], [-80.1908070140478, 25.7647169853785], [-80.1907961786258, 25.7647146008208], [-80.1907741822998, 25.7647916407378], [-80.1907579439539, 25.7647880663008], [-80.190731151002, 25.7648878632792], [-80.1906917965298, 25.764879200088], [-80.1906895258003, 25.7648874206835], [-80.1906507654138, 25.7648825824915], [-80.1906127460398, 25.7648742128363], [-80.1905758586686, 25.7648623979789], [-80.1905780698633, 25.7648541646734], [-80.190538714281, 25.7648455005752], [-80.1905655073764, 25.7647457044949], [-80.1905492701899, 25.7647421290095], [-80.1905687872368, 25.7646645427959], [-80.1905579518307, 25.7646621573609], [-80.1905710690932, 25.7645900009849], [-80.1905971220486, 25.764516444429], [-80.1906079574413, 25.7645188300328], [-80.1906241639103, 25.7644584649532], [-80.1906089000461, 25.7644551053605], [-80.1906395255705, 25.7643437359646], [-80.1906767649895, 25.7643513312577], [-80.1906848256119, 25.7643213096844], [-80.1907009883416, 25.7643192788239], [-80.1907335844283, 25.7643182383098]], [[-80.1903622704311, 25.7646513040512], [-80.1903954603369, 25.7646527678359], [-80.1903952607559, 25.7646821894853], [-80.1903620621647, 25.7646820048278], [-80.1903622704311, 25.7646513040512]], [[-80.189954468939, 25.7648347726867], [-80.1900769903953, 25.7648617452486], [-80.1900732801649, 25.7648755658025], [-80.1901399430782, 25.7648902418565], [-80.1901425776639, 25.7648804303007], [-80.190226692952, 25.7648932799247], [-80.1903035061488, 25.7649158574902], [-80.1903008727146, 25.7649256690556], [-80.1903859528367, 25.7649455871921], [-80.190382005159, 25.7649602911437], [-80.1904922154458, 25.7649845526161], [-80.1904826481525, 25.7650201883899], [-80.1904917120027, 25.7650221839572], [-80.1904872810047, 25.7650528516188], [-80.1904839405135, 25.7650680213378], [-80.1904752601194, 25.7650972623821], [-80.1904640790946, 25.765125107685], [-80.1904550152383, 25.7651231119439], [-80.1904454481115, 25.7651587477151], [-80.1903352367259, 25.765134486199], [-80.1903312892249, 25.7651491901496], [-80.1902456065661, 25.7651315171147], [-80.1902429719884, 25.7651413278124], [-80.1901632850391, 25.7651294496192], [-80.1900820422649, 25.7651059015766], [-80.1900795412211, 25.765096061274], [-80.1900128770566, 25.7650813860435], [-80.1900091666144, 25.7650952076257], [-80.1898866439863, 25.7650682351689], [-80.1898954942957, 25.7650352726195], [-80.1898623399154, 25.7650279734417], [-80.1898602358469, 25.7650144866256], [-80.1898590745043, 25.7650009063541], [-80.1898595948547, 25.7649736823637], [-80.1898638976584, 25.764946704515], [-80.1898674533674, 25.7649334390385], [-80.1898719270079, 25.7649204034165], [-80.1898835535671, 25.7648952285267], [-80.1898906600375, 25.764883189766], [-80.1899073173923, 25.7648604499037], [-80.1899456184723, 25.7648677352403], [-80.189954468939, 25.7648347726867]]]}}, {"type": "Feature", "properties": {"zone_id": "02061LK5B0CREPQB1TLMHP", "tract_id": "12086006721", "city": "MIAMI, FL", "zone_code": "", "zone_category": "Other", "ev_permitted": false}, "geometry": {"type": "Polygon", "coordinates": [[[-80.189954468939, 25.7648347726867], [-80.1899456184723, 25.7648677352403], [-80.1899073173923, 25.7648604499037], [-80.1898906600375, 25.764883189766], [-80.1898835535671, 25.7648952285267], [-80.1898719270079, 25.7649204034165], [-80.1898674533674, 25.7649334390385], [-80.1898638976584, 25.764946704515], [-80.1898595948547, 25.7649736823637], [-80.1898590745043, 25.7650009063541], [-80.1898602358469, 25.7650144866256], [-80.1898623399154, 25.7650279734417], [-80.1898954942957, 25.7650352726195], [-80.1898866439863, 25.7650682351689], [-80.1900091666144, 25.7650952076257], [-80.1900128770566, 25.7650813860435], [-80.1900795412211, 25.765096061274], [-80.1900820422649, 25.7651059015766], [-80.1901632850391, 25.7651294496192], [-80.1902429719884, 25.7651413278124], [-80.1902456065661, 25.7651315171147], [-80.1903312892249, 25.7651491901496], [-80.1903352367259, 25.765134486199], [-80.1904454481115, 25.7651587477151], [-80.1904550152383, 25.7651231119439], [-80.1904640790946, 25.765125107685], [-80.1904752601194, 25.7650972623821], [-80.1904839405135, 25.7650680213378], [-80.1904872810047, 25.7650528516188], [-80.1904917120027, 25.7650221839572], [-80.1904826481525, 25.7650201883899], [-80.1904922154458, 25.7649845526161], [-80.190382005159, 25.7649602911437], [-80.1903859528367, 25.7649455871921], [-80.1903008727146, 25.7649256690556], [-80.1903035061488, 25.7649158574902], [-80.190226692952, 25.7648932799247], [-80.1901425776639, 25.7648804303007], [-80.1901399430782, 25.7648902418565], [-80.1900732801649, 25.7648755658025], [-80.1900769903953, 25.7648617452486], [-80.189954468939, 25.7648347726867]]]}}, {"type": "Feature", "properties": {"zone_id": "0206WNR3IGF84XAS7B0KRW", "tract_id": "12086006721", "city": "MIAMI, FL", "zone_code": "", "zone_category": "Other", "ev_permitted": false}, "geometry": {"type": "Polygon", "coordinates": [[[-80.1903622704311, 25.7646513040512], [-80.1903620621647, 25.7646820048278], [-80.1903952607559, 25.7646821894853], [-80.1903954603369, 25.7646527678359], [-80.1903622704311, 25.7646513040512]]]}}, {"type": "Feature", "properties": {"zone_id": "0206XFD9KXW5R2U6MX2FFF", "tract_id": "12086006721", "city": "MIAMI, FL", "zone_code": "", "zone_category": "Other", "ev_permitted": false}, "geometry": {"type": "Polygon", "coordinates": [[[-80.1901620519804, 25.7635161936624], [-80.1901610178405, 25.7635897106831], [-80.1901551276014, 25.763663038016], [-80.1901444054288, 25.7637359152825], [-80.1901288914373, 25.7638080825362], [-80.1900640203865, 25.7640689678256], [-80.1910424356636, 25.7642863374924], [-80.1911894263158, 25.7637268355557], [-80.1901620519804, 25.7635161936624]]]}}, {"type": "Feature", "properties": {"zone_id": "020017Z6AR2QVAAJRG8ORJ", "tract_id": "12086006721", "city": "MIAMI, FL", "zone_code": "", "zone_category": "Other", "ev_permitted": false}, "geometry": {"type": "Polygon", "coordinates": [[[-80.1909285948969, 25.7628891348976], [-80.1908064169608, 25.7633084349174], [-80.190784364837, 25.7633040626218], [-80.1907435235824, 25.7634486054787], [-80.1906830660824, 25.7634366180006], [-80.1906552090121, 25.763450975975], [-80.1906210388351, 25.7635636777674], [-80.1911996217031, 25.763688025994], [-80.1913400231151, 25.7631536078389], [-80.1913821424543, 25.762988356084], [-80.1909285948969, 25.7628891348976]]]}}, {"type": "Feature", "properties": {"zone_id": "0203NXF1WT58DL4D0BYWBL", "tract_id": "12086006721", "city": "MIAMI, FL", "zone_code": "", "zone_category": "Other", "ev_permitted": false}, "geometry": {"type": "Polygon", "coordinates": [[[-80.1897417422886, 25.7625141614792], [-80.1897434114223, 25.7625306731535], [-80.1897555653818, 25.7625968211845], [-80.1897730309376, 25.7626619885412], [-80.1897957109773, 25.7627258238924], [-80.1898234813466, 25.762787987105], [-80.1898561996203, 25.7628481439622], [-80.1899000455541, 25.7629148898217], [-80.189949974804, 25.7629780347293], [-80.1900056254668, 25.7630371259699], [-80.1900479261734, 25.7631081815023], [-80.190081517386, 25.7631829499144], [-80.1901089145936, 25.7632469431813], [-80.190130782864, 25.763312661518], [-80.1901469839696, 25.763379709348], [-80.1901574300234, 25.7634476882795], [-80.1901620519804, 25.7635161936624], [-80.1911894263158, 25.7637268355557], [-80.1911996217031, 25.763688025994], [-80.1906210388351, 25.7635636777674], [-80.1906552090121, 25.763450975975], [-80.1906830660824, 25.7634366180006], [-80.1907435235824, 25.7634486054787], [-80.190784364837, 25.7633040626218], [-80.1908064169608, 25.7633084349174], [-80.1909285948969, 25.7628891348976], [-80.1913821424543, 25.762988356084], [-80.191411065103, 25.7628831937273], [-80.1900062341225, 25.762580217322], [-80.1897417422886, 25.7625141614792]]]}}]}