{"type": "FeatureCollection", "features": [{"type": "Feature", "properties": {"zone_id": "0203HTHQXF1AAL0WQP9810", "tract_id": "06037208801", "city": "LOS ANGELES, CA", "zone_code": "R4-1", "zone_category": "Residential", "ev_permitted": false}, "geometry": {"type": "Polygon", "coordinates": [[[-118.276515426961, 34.0621822582328], [-118.276429500622, 34.0623172105956], [-118.276866790637, 34.0625107583362], [-118.276951829748, 34.0623772365881], [-118.276660292175, 34.0622482051681], [-118.276515426961, 34.0621822582328]]]}}, {"type": "Feature", "properties": {"zone_id": "0200GI9A72LYVSE9BX1JJE", "tract_id": "06037208801", "city": "LOS ANGELES, CA", "zone_code": "R4-1", "zone_category": "Residential", "ev_permitted": false}, "geometry": {"type": "Polygon", "coordinates": [[[-118.276721005063, 34.0624462426489], [-118.276572703236, 34.0626791622748], [-118.276767200244, 34.0626671207128], [-118.276866790637, 34.0625107583362], [-118.276721005063, 34.0624462426489]]]}}, {"type": "Feature", "properties": {"zone_id": "0202K6J8NO9A0JFSEMTKUY", "tract_id": "06037208801", "city": "LOS ANGELES, CA", "zone_code": "R4-1", "zone_category": "Residential", "ev_permitted": false}, "geometry": {"type": "Polygon", "coordinates": [[[-118.27657525273, 34.0623817267101], [-118.276378173065, 34.0626911761206], [-118.276572703236, 34.0626791622748], [-118.276721005063, 34.0624462426489], [-118.27657525273, 34.0623817267101]]]}}, {"type": "Feature", "properties": {"zone_id": "0206BUDTGYFGZ58A4KGOP1", "tract_id": "06037208801", "city": "LOS ANGELES, CA", "zone_code": "R4-1", "zone_category": "Residential", "ev_permitted": false}, "geometry": {"type": "Polygon", "coordinates": [[[-118.276429500622, 34.0623172105956], [-118.276183642928, 34.0627032171317], [-118.276378173065, 34.0626911761206], [-118.27657525273, 34.0623817267101], [-118.276429500622, 34.0623172105956]]]}}, {"type": "Feature", "properties": {"zone_id": "0202CI9Z9B88HDTS7ND6RS", "tract_id": "06037208801", "city": "LOS ANGELES, CA", "zone_code": "R4-1", "zone_category": "Residential", "ev_permitted": false}, "geometry": {"type": "Polygon", "coordinates": [[[-118.27621414654, 34.0623619440421], [-118.275989112645, 34.0627152303509], [-118.276183642928, 34.0627032171317], [-118.27635989856, 34.0624264604165], [-118.27621414654, 34.0623619440421]]]}}, {"type": "Feature", "properties": {"zone_id": "0206AHRU1EH6MQGXN215WY", "tract_id": "06037208801", "city": "LOS ANGELES, CA", "zone_code": "R4-1", "zone_category": "Residential", "ev_permitted": false}, "geometry": {"type": "Polygon", "coordinates": [[[-118.276670002062, 34.0619395968418], [-118.276591827626, 34.0620622760505], [-118.277029149793, 34.0622558506039], [-118.277107454924, 34.0621328960228], [-118.276670002062, 34.0619395968418]]]}}, {"type": "Feature", "properties": {"zone_id": "0206WJIQ8JJECY77FYZXSE", "tract_id": "06037208801", "city": "LOS ANGELES, CA", "zone_code": "R4-1", "zone_category": "Residential", "ev_permitted": false}, "geometry": {"type": "Polygon", "coordinates": [[[-118.276591827626, 34.0620622760505], [-118.276515426961, 34.0621822582328], [-118.276660292175, 34.0622482051681], [-118.276951829748, 34.0623772365881], [-118.277029149793, 34.0622558506039], [-118.276591827626, 34.0620622760505]]]}}, {"type": "Feature", "properties": {"zone_id": "02001YPBJDNQB31S8YY2VU", "tract_id": "06037208801", "city": "LOS ANGELES, CA", "zone_code": "R4-1", "zone_category": "Residential", "ev_permitted": false}, "geometry": {"type": "Polygon", "coordinates": [[[-118.276824641845, 34.0616967977117], [-118.27674732202, 34.0618181835619], [-118.277164274273, 34.0620025164861], [-118.277241626679, 34.0618811302922], [-118.276824641845, 34.0616967977117]]]}}, {"type": "Feature", "properties": {"zone_id": "0201RY5RAQ6IR9BQZGUU8Y", "tract_id": "06037208801", "city": "LOS ANGELES, CA", "zone_code": "R4-1", "zone_category": "Residential", "ev_permitted": false}, "geometry": {"type": "Polygon", "coordinates": [[[-118.27674732202, 34.0618181835619], [-118.276670002062, 34.0619395968418], [-118.277107454924, 34.0621328960228], [-118.277184741592, 34.0620115374946], [-118.27674732202, 34.0618181835619]]]}}, {"type": "Feature", "properties": {"zone_id": "02054PU35BOSR8BD0PB3XU", "tract_id": "06037208801", "city": "LOS ANGELES, CA", "zone_code": "R4-1", "zone_category": "Residential", "ev_permitted": false}, "geometry": {"type": "Polygon", "coordinates": [[[-118.276309937578, 34.0616248554496], [-118.276232617073, 34.0617462409699], [-118.276670002062, 34.0619395968418], [-118.27674732202, 34.0618181835619], [-118.276309937578, 34.0616248554496]]]}}, {"type": "Feature", "properties": {"zone_id": "0204440SRXI55W9F35HZGD", "tract_id": "06037208801", "city": "LOS ANGELES, CA", "zone_code": "R4-1", "zone_category": "Residential", "ev_permitted": false}, "geometry": {"type": "Polygon", "coordinates": [[[-118.276232617073, 34.0617462409699], [-118.276155296343, 34.0618676264414], [-118.276591827626, 34.0620622760505], [-118.276670002062, 34.0619395968418], [-118.276232617073, 34.0617462409699]]]}}, {"type": "Feature", "properties": {"zone_id": "0200NL53E2NZ4ATMUD5I3W", "tract_id": "06037208801", "city": "LOS ANGELES, CA", "zone_code": "R4-1", "zone_category": "Residential", "ev_permitted": false}, "geometry": {"type": "Polygon", "coordinates": [[[-118.27607797539, 34.061989011864], [-118.275999964579, 34.0621115254415], [-118.276437219509, 34.062305074811], [-118.276515426961, 34.0621822582328], [-118.27607797539, 34.061989011864]]]}}, {"type": "Feature", "properties": {"zone_id": "0203HPNB7QGCJ7618THQ8Q", "tract_id": "06037208801", "city": "LOS ANGELES, CA", "zone_code": "R4-1", "zone_category": "Residential", "ev_permitted": false}, "geometry": {"type": "Polygon", "coordinates": [[[-118.275999964579, 34.0621115254415], [-118.275922643174, 34.062232910766], [-118.27635989856, 34.0624264604165], [-118.276437219509, 34.062305074811], [-118.275999964579, 34.0621115254415]]]}}, {"type": "Feature", "properties": {"zone_id": "0205J2N99X74VPGGZPHE92", "tract_id": "06037208801", "city": "LOS ANGELES, CA", "zone_code": "R4-1", "zone_category": "Residential", "ev_permitted": false}, "geometry": {"type": "Polygon", "coordinates": [[[-118.276155296343, 34.0618676264414], [-118.27607797539, 34.061989011864], [-118.276515426961, 34.0621822582328], [-118.276591827626, 34.0620622760505], [-118.276155296343, 34.0618676264414]]]}}, {"type": "Feature", "properties": {"zone_id": "0203WVUFQK09I43DT4IF8P", "tract_id": "06037208801", "city": "LOS ANGELES, CA", "zone_code": "C2-1", "zone_category": "Commercial", "ev_permitted": true}, "geometry": {"type": "Polygon", "coordinates": [[[-118.275178986747, 34.0629306984518], [-118.274127107016, 34.062995934291], [-118.274028594997, 34.0631506157501], [-118.274024298043, 34.0631589428785], [-118.274021706329, 34.0631677407574], [-118.274020889921, 34.0631767715365], [-118.27402187089, 34.063185791069], [-118.274024622717, 34.0631945555123], [-118.274029071005, 34.0632028279202], [-118.274035095495, 34.0632103846487], [-118.274042533316, 34.0632170214023], [-118.274138212692, 34.063271603128], [-118.274205577424, 34.0633131170669], [-118.274270924553, 34.0633567881456], [-118.274335330379, 34.063403155987], [-118.274397526857, 34.0634515494951], [-118.274479335571, 34.0635213186682], [-118.274556578911, 34.0635945720303], [-118.274610055031, 34.0636501666289], [-118.274668108164, 34.0637145354237], [-118.274676673835, 34.0637205189132], [-118.274686338361, 34.0637252151371], [-118.274696822902, 34.0637284886009], [-118.27470782496, 34.0637302448594], [-118.274719027105, 34.0637304332413], [-118.274730106136, 34.0637290483115], [-118.274740742401, 34.0637261300277], [-118.274750629026, 34.0637217625876], [-118.274759480762, 34.0637160719996], [-118.27476704222, 34.0637092224474], [-118.27477309524, 34.0637014115529], [-118.275226400256, 34.062991153527], [-118.275229619367, 34.0629849601219], [-118.275231576314, 34.0629784147578], [-118.27523221871, 34.0629716926446], [-118.27523152936, 34.0629649737236], [-118.275229526716, 34.0629584378507], [-118.275226264388, 34.062952259982], [-118.275221829702, 34.0629466054901], [-118.275209946304, 34.0629374540262], [-118.275202815692, 34.062934202026], [-118.275187125918, 34.0629307784161], [-118.275178986747, 34.0629306984518]]]}}, {"type": "Feature", "properties": {"zone_id": "0202WKPRK33WXG7BRLYCPE", "tract_id": "06037208801", "city": "LOS ANGELES, CA", "zone_code": "C2-2", "zone_category": "Commercial", "ev_permitted": true}, "geometry": {"type": "Polygon", "coordinates": [[[-118.274722265643, 34.0621684066884], [-118.274307679172, 34.062754535905], [-118.274304095097, 34.0627606955295], [-118.274301790476, 34.0627672614772], [-118.274300828821, 34.0627740527995], [-118.274301236633, 34.0627808823368], [-118.274303002673, 34.0627875618765], [-118.274306078272, 34.0627939073396], [-118.274310378671, 34.0627997438541], [-118.274322149328, 34.0628092651105], [-118.27433702605, 34.0628150833071], [-118.274353380208, 34.0628165614973], [-118.275367068247, 34.0627531295946], [-118.275382275506, 34.062747612209], [-118.275388830244, 34.062743353308], [-118.2753944318, 34.0627382454359], [-118.275398922061, 34.0627324327714], [-118.275545782113, 34.062501826096], [-118.275141394645, 34.0623227348747], [-118.275124997829, 34.0623466512383], [-118.274722265643, 34.0621684066884]]]}}, {"type": "Feature", "properties": {"zone_id": "0205PN1KQUJDLKSIGXO6N5", "tract_id": "06037208801", "city": "LOS ANGELES, CA", "zone_code": "R4-1", "zone_category": "Residential", "ev_permitted": false}, "geometry": {"type": "Polygon", "coordinates": [[[-118.275922643174, 34.062232910766], [-118.275845321545, 34.0623542960417], [-118.276136825214, 34.0624833295051], [-118.27621414654, 34.0623619440421], [-118.275922643174, 34.062232910766]]]}}, {"type": "Feature", "properties": {"zone_id": "0206WCUL7JDC3J8N0C41F5", "tract_id": "06037208801", "city": "LOS ANGELES, CA", "zone_code": "R4-1", "zone_category": "Residential", "ev_permitted": false}, "geometry": {"type": "Polygon", "coordinates": [[[-118.275991040251, 34.0624188129367], [-118.275794582397, 34.0627272707353], [-118.275989112645, 34.0627152303509], [-118.276136825214, 34.0624833295051], [-118.275991040251, 34.0624188129367]]]}}, {"type": "Feature", "properties": {"zone_id": "0201TTMP3DC432LJYLNNSU", "tract_id": "06037208801", "city": "LOS ANGELES, CA", "zone_code": "R4-1", "zone_category": "Residential", "ev_permitted": false}, "geometry": {"type": "Polygon", "coordinates": [[[-118.275845321545, 34.0623542960417], [-118.275600085109, 34.062739310731], [-118.275794582397, 34.0627272707353], [-118.275991040251, 34.0624188129367], [-118.275845321545, 34.0623542960417]]]}}, {"type": "Feature", "properties": {"zone_id": "0204Y85AZBL4G226L1RE44", "tract_id": "06037208801", "city": "LOS ANGELES, CA", "zone_code": "R4-1", "zone_category": "Residential", "ev_permitted": false}, "geometry": {"type": "Polygon", "coordinates": [[[-118.275209525728, 34.0622275582187], [-118.275141394645, 34.0623227348747], [-118.275560363881, 34.062508277807], [-118.275622248042, 34.0624111641797], [-118.275209525728, 34.0622275582187]]]}}, {"type": "Feature", "properties": {"zone_id": "0205NMHJ76KWU227VJSIZP", "tract_id": "06037208801", "city": "LOS ANGELES, CA", "zone_code": "R4-1", "zone_category": "Residential", "ev_permitted": false}, "geometry": {"type": "Polygon", "coordinates": [[[-118.275530882426, 34.061747239359], [-118.275370187894, 34.0619873577143], [-118.27577754872, 34.062167348173], [-118.275932191605, 34.0619245776616], [-118.275530882426, 34.061747239359]]]}}, {"type": "Feature", "properties": {"zone_id": "0206MV08RLI38QQ5QCGIY0", "tract_id": "06037208801", "city": "LOS ANGELES, CA", "zone_code": "R4-1", "zone_category": "Residential", "ev_permitted": false}, "geometry": {"type": "Polygon", "coordinates": [[[-118.275370187894, 34.0619873577143], [-118.275289790893, 34.0621074581434], [-118.275699570138, 34.062289806525], [-118.27577754872, 34.062167348173], [-118.275370187894, 34.0619873577143]]]}}, {"type": "Feature", "properties": {"zone_id": "0207JUN6A9SBHYJIHHOB95", "tract_id": "06037208801", "city": "LOS ANGELES, CA", "zone_code": "R4-1", "zone_category": "Residential", "ev_permitted": false}, "geometry": {"type": "Polygon", "coordinates": [[[-118.275289790893, 34.0621074581434], [-118.275209525728, 34.0622275582187], [-118.275622248042, 34.0624111641797], [-118.275699570138, 34.062289806525], [-118.275289790893, 34.0621074581434]]]}}, {"type": "Feature", "properties": {"zone_id": "0205ASUJN7K92LKNVWHE2F", "tract_id": "06037208801", "city": "LOS ANGELES, CA", "zone_code": "R4-1", "zone_category": "Residential", "ev_permitted": false}, "geometry": {"type": "Polygon", "coordinates": [[[-118.2756112459, 34.0616271938037], [-118.275530882426, 34.061747239359], [-118.275932191605, 34.0619245776616], [-118.27600951271, 34.0618031923326], [-118.2756112459, 34.0616271938037]]]}}, {"type": "Feature", "properties": {"zone_id": "0203K67FYG91Y1A71LQ8UJ", "tract_id": "06037208801", "city": "LOS ANGELES, CA", "zone_code": "R4-1", "zone_category": "Residential", "ev_permitted": false}, "geometry": {"type": "Polygon", "coordinates": [[[-118.275127194242, 34.0615688334774], [-118.274707716925, 34.0621619273227], [-118.275124997829, 34.0623466512383], [-118.275209525728, 34.0622275582187], [-118.275530882426, 34.061747239359], [-118.275127194242, 34.0615688334774]]]}}, {"type": "Feature", "properties": {"zone_id": "0206CHWCGZARGQYQ85EIIU", "tract_id": "06037208801", "city": "LOS ANGELES, CA", "zone_code": "C2-1", "zone_category": "Commercial", "ev_permitted": true}, "geometry": {"type": "Polygon", "coordinates": [[[-118.273519235471, 34.0619483946001], [-118.272961925134, 34.0628228193275], [-118.272957654659, 34.0628310718608], [-118.272955060998, 34.0628397898512], [-118.272954213199, 34.0628487412067], [-118.272955133833, 34.0628576876222], [-118.272957798391, 34.0628663909245], [-118.272962135935, 34.0628746194126], [-118.272968030991, 34.0628821540261], [-118.27297532662, 34.0628887941773], [-118.272983828596, 34.0628943630909], [-118.272993310577, 34.0628987125103], [-118.273003520133, 34.0629017266445], [-118.273385589348, 34.0629807705534], [-118.273482466805, 34.0630027359686], [-118.27357804492, 34.0630283112504], [-118.273672127801, 34.063057443978], [-118.27377521274, 34.0630931879502], [-118.273786387408, 34.0630947445741], [-118.273797718819, 34.0630946986473], [-118.273808874566, 34.0630930515172], [-118.273818533263, 34.0630901961662], [-118.273827542329, 34.0630861371413], [-118.273835684769, 34.0630809722087], [-118.273842764464, 34.0630748257714], [-118.273848610892, 34.0630678458734], [-118.274204570559, 34.0625643424801], [-118.274066160763, 34.06250318673], [-118.274066916098, 34.0625019484734], [-118.273774561527, 34.0623742584073], [-118.273929078361, 34.0621314358009], [-118.273519235471, 34.0619483946001]]]}}, {"type": "Feature", "properties": {"zone_id": "0206WGO27XJI53AS3SL8X0", "tract_id": "06037208801", "city": "LOS ANGELES, CA", "zone_code": "R4P-2", "zone_category": "Other", "ev_permitted": false}, "geometry": {"type": "Polygon", "coordinates": [[[-118.273851820056, 34.0622528471285], [-118.273774561527, 34.0623742584073], [-118.274066916098, 34.0625019484734], [-118.274066160763, 34.06250318673], [-118.274225070803, 34.0625733913939], [-118.274308908751, 34.0624548776266], [-118.273851820056, 34.0622528471285]]]}}, {"type": "Feature", "properties": {"zone_id": "0202ATFDH1H1Q5UHAN5PPT", "tract_id": "06037208801", "city": "LOS ANGELES, CA", "zone_code": "R4P-2", "zone_category": "Other", "ev_permitted": false}, "geometry": {"type": "Polygon", "coordinates": [[[-118.274241602956, 34.061643913517], [-118.274007758225, 34.0620106532095], [-118.273929078361, 34.0621314358009], [-118.274392713536, 34.0623363913552], [-118.274729836505, 34.0618597759222], [-118.274241602956, 34.061643913517]]]}}, {"type": "Feature", "properties": {"zone_id": "02007OROH0IBMY2KGM0ESL", "tract_id": "06037208801", "city": "LOS ANGELES, CA", "zone_code": "R4P-2", "zone_category": "Other", "ev_permitted": false}, "geometry": {"type": "Polygon", "coordinates": [[[-118.273929078361, 34.0621314358009], [-118.273851820056, 34.0622528471285], [-118.274308908751, 34.0624548776266], [-118.274392713536, 34.0623363913552], [-118.273929078361, 34.0621314358009]]]}}, {"type": "Feature", "properties": {"zone_id": "02025LEI1QEG8JICV4U2VI", "tract_id": "06037208801", "city": "LOS ANGELES, CA", "zone_code": "C2-1", "zone_category": "Commercial", "ev_permitted": true}, "geometry": {"type": "Polygon", "coordinates": [[[-118.273752327827, 34.0615831963727], [-118.273636275399, 34.0617652585887], [-118.274048128508, 34.0619473330728], [-118.274164180383, 34.0617652979381], [-118.273752327827, 34.0615831963727]]]}}, {"type": "Feature", "properties": {"zone_id": "0203HQRP8FVJZ0S14LT4KQ", "tract_id": "06037208801", "city": "LOS ANGELES, CA", "zone_code": "C2-1", "zone_category": "Commercial", "ev_permitted": true}, "geometry": {"type": "Polygon", "coordinates": [[[-118.273610749538, 34.0617539677058], [-118.273493709661, 34.0619371311709], [-118.273929078361, 34.0621314358009], [-118.274048128508, 34.0619473330728], [-118.273610749538, 34.0617539677058]]]}}, {"type": "Feature", "properties": {"zone_id": "02008I1XK3XRZ409P1GG2F", "tract_id": "06037208801", "city": "LOS ANGELES, CA", "zone_code": "OS-1XL", "zone_category": "Other", "ev_permitted": false}, "geometry": {"type": "Polygon", "coordinates": [[[-118.276856187763, 34.0566630632519], [-118.275050941561, 34.0594949132171], [-118.278490189906, 34.0610281209653], [-118.280320021608, 34.0582276802328], [-118.276856187763, 34.0566630632519]]]}}, {"type": "Feature", "properties": {"zone_id": "0203L7VO1TE6WCFI9M2M00", "tract_id": "06037208801", "city": "LOS ANGELES, CA", "zone_code": "C2-2", "zone_category": "Commercial", "ev_permitted": true}, "geometry": {"type": "Polygon", "coordinates": [[[-118.277688151016, 34.0609277743021], [-118.277440956379, 34.0613158473743], [-118.27758670734, 34.0613803073082], [-118.27783363864, 34.0609926192434], [-118.277688151016, 34.0609277743021]]]}}, {"type": "Feature", "properties": {"zone_id": "0205DFN1LZCMM5QJOBYD23", "tract_id": "06037208801", "city": "LOS ANGELES, CA", "zone_code": "C2-2", "zone_category": "Commercial", "ev_permitted": true}, "geometry": {"type": "Polygon", "coordinates": [[[-118.277542630511, 34.0608629017832], [-118.277295172717, 34.061251414819], [-118.277440956379, 34.0613158473743], [-118.277688151016, 34.0609277743021], [-118.277542630511, 34.0608629017832]]]}}, {"type": "Feature", "properties": {"zone_id": "0202AH6LPNZ08CDJXHXN8K", "tract_id": "06037208801", "city": "LOS ANGELES, CA", "zone_code": "R4-1", "zone_category": "Residential", "ev_permitted": false}, "geometry": {"type": "Polygon", "coordinates": [[[-118.277126167199, 34.0612233897268], [-118.276979280821, 34.0614540258647], [-118.277416665917, 34.0616473515515], [-118.277563551428, 34.0614167148796], [-118.277126167199, 34.0612233897268]]]}}, {"type": "Feature", "properties": {"zone_id": "0200N1DJKI7QG91G218QM5", "tract_id": "06037208801", "city": "LOS ANGELES, CA", "zone_code": "R4-1", "zone_category": "Residential", "ev_permitted": false}, "geometry": {"type": "Polygon", "coordinates": [[[-118.2766887849, 34.0610300355132], [-118.276549616429, 34.0612485353259], [-118.276986999549, 34.0614418900454], [-118.277126167199, 34.0612233897268], [-118.2766887849, 34.0610300355132]]]}}, {"type": "Feature", "properties": {"zone_id": "0200OWN2B7SO1WBGMTB743", "tract_id": "06037208801", "city": "LOS ANGELES, CA", "zone_code": "R4-1", "zone_category": "Residential", "ev_permitted": false}, "geometry": {"type": "Polygon", "coordinates": [[[-118.276979280821, 34.0614540258647], [-118.276901961445, 34.0615754118126], [-118.277318945845, 34.0617597441252], [-118.277396231679, 34.0616383305066], [-118.276979280821, 34.0614540258647]]]}}, {"type": "Feature", "properties": {"zone_id": "02078FUZGLII2GE7EAU9JH", "tract_id": "06037208801", "city": "LOS ANGELES, CA", "zone_code": "R4-1", "zone_category": "Residential", "ev_permitted": false}, "geometry": {"type": "Polygon", "coordinates": [[[-118.276901961445, 34.0615754118126], [-118.276824641845, 34.0616967977117], [-118.277241626679, 34.0618811302922], [-118.277318945845, 34.0617597441252], [-118.276901961445, 34.0615754118126]]]}}, {"type": "Feature", "properties": {"zone_id": "02074KU1E7DBUBB691L7IU", "tract_id": "06037208801", "city": "LOS ANGELES, CA", "zone_code": "R4-1", "zone_category": "Residential", "ev_permitted": false}, "geometry": {"type": "Polygon", "coordinates": [[[-118.276549616429, 34.0612485353259], [-118.276464577824, 34.0613820567839], [-118.276901961445, 34.0615754118126], [-118.276986999549, 34.0614418900454], [-118.276549616429, 34.0612485353259]]]}}, {"type": "Feature", "properties": {"zone_id": "0201ODWW3L18FDDPZVERTE", "tract_id": "06037208801", "city": "LOS ANGELES, CA", "zone_code": "R4-1", "zone_category": "Residential", "ev_permitted": false}, "geometry": {"type": "Polygon", "coordinates": [[[-118.276464577824, 34.0613820567839], [-118.276309937578, 34.0616248554496], [-118.27674732202, 34.0618181835619], [-118.276901961445, 34.0615754118126], [-118.276464577824, 34.0613820567839]]]}}, {"type": "Feature", "properties": {"zone_id": "0206TKIW5VG2I5LIXIXD9V", "tract_id": "06037208801", "city": "LOS ANGELES, CA", "zone_code": "C2-2", "zone_category": "Commercial", "ev_permitted": true}, "geometry": {"type": "Polygon", "coordinates": [[[-118.277397110231, 34.0607980290891], [-118.277149356264, 34.0611869821638], [-118.277295172717, 34.061251414819], [-118.277542630511, 34.0608629017832], [-118.277397110231, 34.0607980290891]]]}}, {"type": "Feature", "properties": {"zone_id": "020199215WOAF0BZ6A7LGX", "tract_id": "06037208801", "city": "LOS ANGELES, CA", "zone_code": "C2-2", "zone_category": "Commercial", "ev_permitted": true}, "geometry": {"type": "Polygon", "coordinates": [[[-118.27696051773, 34.0606034100317], [-118.276712007118, 34.0609936279588], [-118.277149356264, 34.0611869821638], [-118.277397110231, 34.0607980290891], [-118.27696051773, 34.0606034100317]]]}}, {"type": "Feature", "properties": {"zone_id": "020333IB6HX3SHQWUEB07K", "tract_id": "06037208801", "city": "LOS ANGELES, CA", "zone_code": "R4-1", "zone_category": "Residential", "ev_permitted": false}, "geometry": {"type": "Polygon", "coordinates": [[[-118.276378441577, 34.0603439154019], [-118.27611337452, 34.060760109889], [-118.276173717452, 34.0607867911534], [-118.276093355593, 34.0609068370783], [-118.276473434452, 34.0610748243763], [-118.276814998353, 34.0605385366369], [-118.276378441577, 34.0603439154019]]]}}, {"type": "Feature", "properties": {"zone_id": "0202D13I6F9UOPY7U06G1F", "tract_id": "06037208801", "city": "LOS ANGELES, CA", "zone_code": "C2-2", "zone_category": "Commercial", "ev_permitted": true}, "geometry": {"type": "Polygon", "coordinates": [[[-118.27608585075, 34.0602134561421], [-118.275797872628, 34.0606206343246], [-118.27611337452, 34.060760109889], [-118.276378441577, 34.0603439154019], [-118.27608585075, 34.0602134561421]]]}}, {"type": "Feature", "properties": {"zone_id": "0203RKJ5CB7VXNCS1827XY", "tract_id": "06037208801", "city": "LOS ANGELES, CA", "zone_code": "R4-1", "zone_category": "Residential", "ev_permitted": false}, "geometry": {"type": "Polygon", "coordinates": [[[-118.27563020448, 34.0608576913277], [-118.275211029906, 34.0614503190892], [-118.27600951271, 34.0618031923326], [-118.276473434452, 34.0610748243763], [-118.276093355593, 34.0609068370783], [-118.276013059536, 34.0610268827996], [-118.27563020448, 34.0608576913277]]]}}, {"type": "Feature", "properties": {"zone_id": "0200JP66AXGTBA0I3Y357K", "tract_id": "06037208801", "city": "LOS ANGELES, CA", "zone_code": "R4-1", "zone_category": "Residential", "ev_permitted": false}, "geometry": {"type": "Polygon", "coordinates": [[[-118.275211029906, 34.0614503190892], [-118.275127194242, 34.0615688334774], [-118.275530882426, 34.061747239359], [-118.2756112459, 34.0616271938037], [-118.275211029906, 34.0614503190892]]]}}, {"type": "Feature", "properties": {"zone_id": "0205WZZ2CYIKSW3CDVZPNH", "tract_id": "06037208801", "city": "LOS ANGELES, CA", "zone_code": "R4-1", "zone_category": "Residential", "ev_permitted": false}, "geometry": {"type": "Polygon", "coordinates": [[[-118.275797872628, 34.0606206343246], [-118.27563020448, 34.0608576913277], [-118.276013059536, 34.0610268827996], [-118.276173717452, 34.0607867911534], [-118.275797872628, 34.0606206343246]]]}}, {"type": "Feature", "properties": {"zone_id": "0202J6JEVDY11HI1A2QMGW", "tract_id": "06037208801", "city": "LOS ANGELES, CA", "zone_code": "R4-2", "zone_category": "Residential", "ev_permitted": false}, "geometry": {"type": "Polygon", "coordinates": [[[-118.275092675796, 34.0603088752816], [-118.274783191952, 34.0607943594173], [-118.275316621111, 34.0610301760664], [-118.275651926092, 34.0605561177292], [-118.275092675796, 34.0603088752816]]]}}, {"type": "Feature", "properties": {"zone_id": "0200CKWKJX8OGSJMLNBMDS", "tract_id": "06037208801", "city": "LOS ANGELES, CA", "zone_code": "R4-2", "zone_category": "Residential", "ev_permitted": false}, "geometry": {"type": "Polygon", "coordinates": [[[-118.274797773364, 34.0608008112199], [-118.274720385304, 34.0609221684392], [-118.274705803877, 34.0609157166273], [-118.27447367141, 34.0612798153672], [-118.27498131233, 34.0615042334829], [-118.275316621111, 34.0610301760664], [-118.274797773364, 34.0608008112199]]]}}, {"type": "Feature", "properties": {"zone_id": "0202WBF5M5DLCLJP5TY3AY", "tract_id": "06037208801", "city": "LOS ANGELES, CA", "zone_code": "R4-2", "zone_category": "Residential", "ev_permitted": false}, "geometry": {"type": "Polygon", "coordinates": [[[-118.27447367141, 34.0612798153672], [-118.274396315543, 34.061401199785], [-118.274897509304, 34.0616227476368], [-118.27498131233, 34.0615042334829], [-118.27447367141, 34.0612798153672]]]}}, {"type": "Feature", "properties": {"zone_id": "0200WCQWUT5IZCR74XTPKE", "tract_id": "06037208801", "city": "LOS ANGELES, CA", "zone_code": "R4-2", "zone_category": "Residential", "ev_permitted": false}, "geometry": {"type": "Polygon", "coordinates": [[[-118.274396315543, 34.061401199785], [-118.274318926345, 34.0615225567504], [-118.274813672933, 34.0617412343298], [-118.274897509304, 34.0616227476368], [-118.274396315543, 34.061401199785]]]}}, {"type": "Feature", "properties": {"zone_id": "0204UN2SB4OL57Q8QWE59Q", "tract_id": "06037208801", "city": "LOS ANGELES, CA", "zone_code": "R4-2", "zone_category": "Residential", "ev_permitted": false}, "geometry": {"type": "Polygon", "coordinates": [[[-118.274318926345, 34.0615225567504], [-118.274241602956, 34.061643913517], [-118.274729836505, 34.0618597759222], [-118.274813672933, 34.0617412343298], [-118.274318926345, 34.0615225567504]]]}}, {"type": "Feature", "properties": {"zone_id": "0203YFEAKWN17E67A6GZNX", "tract_id": "06037208801", "city": "LOS ANGELES, CA", "zone_code": "C2-1", "zone_category": "Commercial", "ev_permitted": true}, "geometry": {"type": "Polygon", "coordinates": [[[-118.273958938714, 34.0612078631623], [-118.273881548971, 34.0613291923678], [-118.274318926345, 34.0615225567504], [-118.274396315543, 34.061401199785], [-118.273958938714, 34.0612078631623]]]}}, {"type": "Feature", "properties": {"zone_id": "02010WDGGJPJEP9QZV5BMW", "tract_id": "06037208801", "city": "LOS ANGELES, CA", "zone_code": "C2-1", "zone_category": "Commercial", "ev_permitted": true}, "geometry": {"type": "Polygon", "coordinates": [[[-118.273881548971, 34.0613291923678], [-118.273726802097, 34.0615719329929], [-118.274164180383, 34.0617652979381], [-118.274318926345, 34.0615225567504], [-118.273881548971, 34.0613291923678]]]}}, {"type": "Feature", "properties": {"zone_id": "02063H3A4SBEM5I7O6L7HG", "tract_id": "06037208801", "city": "LOS ANGELES, CA", "zone_code": "C2-1", "zone_category": "Commercial", "ev_permitted": true}, "geometry": {"type": "Polygon", "coordinates": [[[-118.274036328053, 34.0610864789507], [-118.273958938714, 34.0612078631623], [-118.274396315543, 34.061401199785], [-118.27447367141, 34.0612798153672], [-118.274036328053, 34.0610864789507]]]}}, {"type": "Feature", "properties": {"zone_id": "0205GGH3YAIQ2XSFNZ7VBK", "tract_id": "06037208801", "city": "LOS ANGELES, CA", "zone_code": "C2-1", "zone_category": "Commercial", "ev_permitted": true}, "geometry": {"type": "Polygon", "coordinates": [[[-118.274345817312, 34.0606009967224], [-118.274268428871, 34.0607223811296], [-118.274720385304, 34.0609221684392], [-118.274797773364, 34.0608008112199], [-118.274345817312, 34.0606009967224]]]}}, {"type": "Feature", "properties": {"zone_id": "0206FM834T94BK1LV19MM0", "tract_id": "06037208801", "city": "LOS ANGELES, CA", "zone_code": "C2-1", "zone_category": "Commercial", "ev_permitted": true}, "geometry": {"type": "Polygon", "coordinates": [[[-118.274191073131, 34.0608437379344], [-118.274113684152, 34.0609650947652], [-118.274551060159, 34.0611584583039], [-118.274628448683, 34.0610371011918], [-118.274191073131, 34.0608437379344]]]}}, {"type": "Feature", "properties": {"zone_id": "0203Z5H29JA2XBYM0LXSCV", "tract_id": "06037208801", "city": "LOS ANGELES, CA", "zone_code": "C2-1", "zone_category": "Commercial", "ev_permitted": true}, "geometry": {"type": "Polygon", "coordinates": [[[-118.274113684152, 34.0609650947652], [-118.274036328053, 34.0610864789507], [-118.27447367141, 34.0612798153672], [-118.274551060159, 34.0611584583039], [-118.274113684152, 34.0609650947652]]]}}, {"type": "Feature", "properties": {"zone_id": "0201FC65FS36AAN8JMPQ9K", "tract_id": "06037208801", "city": "LOS ANGELES, CA", "zone_code": "C2-1", "zone_category": "Commercial", "ev_permitted": true}, "geometry": {"type": "Polygon", "coordinates": [[[-118.274268428871, 34.0607223811296], [-118.274191073131, 34.0608437379344], [-118.274628448683, 34.0610371011918], [-118.274705803877, 34.0609157166273], [-118.274268428871, 34.0607223811296]]]}}, {"type": "Feature", "properties": {"zone_id": "0201OINOZSN5SZR5A1B3JZ", "tract_id": "06037208801", "city": "LOS ANGELES, CA", "zone_code": "C2-2", "zone_category": "Commercial", "ev_permitted": true}, "geometry": {"type": "Polygon", "coordinates": [[[-118.275354036159, 34.0598989016937], [-118.275092675796, 34.0603088752816], [-118.275637344657, 34.0605496660299], [-118.275896634039, 34.060183057409], [-118.275878526456, 34.0601285260302], [-118.275583206807, 34.06000109445], [-118.275354036159, 34.0598989016937]]]}}, {"type": "Feature", "properties": {"zone_id": "02002I5FOWBTZEVHX1T33U", "tract_id": "06037208801", "city": "LOS ANGELES, CA", "zone_code": "C2-1", "zone_category": "Commercial", "ev_permitted": true}, "geometry": {"type": "Polygon", "coordinates": [[[-118.274717025808, 34.0600700334411], [-118.274371309903, 34.0606122875243], [-118.274783191952, 34.0607943594173], [-118.275128117624, 34.0602533424888], [-118.274717025808, 34.0600700334411]]]}}, {"type": "Feature", "properties": {"zone_id": "02038YVJ2YDVHA1A4TDXCU", "tract_id": "06037208801", "city": "LOS ANGELES, CA", "zone_code": "C2-2", "zone_category": "Commercial", "ev_permitted": true}, "geometry": {"type": "Polygon", "coordinates": [[[-118.274986590799, 34.0597351138581], [-118.274919723047, 34.0597520281085], [-118.274717025808, 34.0600700334411], [-118.275128117624, 34.0602533424888], [-118.275354036159, 34.0598989016937], [-118.274986590799, 34.0597351138581]]]}}]}