{"type": "FeatureCollection", "features": [{"type": "Feature", "properties": {"zone_id": "0201GB7DJ7AHLP32JF6DY1", "tract_id": "36047034902", "city": "BROOKLYN, NY", "zone_code": "C4-3", "zone_category": "Commercial", "ev_permitted": true}, "geometry": {"type": "Polygon", "coordinates": [[[-73.9307686434914, 40.6681544360416], [-73.9307368040233, 40.6684874068345], [-73.9308093803062, 40.6684913622331], [-73.9308412194139, 40.6681583914202], [-73.9307686434914, 40.6681544360416]]]}}, {"type": "Feature", "properties": {"zone_id": "0201BQ6TKSCINWLFD38SEU", "tract_id": "36047034902", "city": "BROOKLYN, NY", "zone_code": "C4-3", "zone_category": "Commercial", "ev_permitted": true}, "geometry": {"type": "Polygon", "coordinates": [[[-73.9308412194139, 40.6681583914202], [-73.9308093803062, 40.6684913622331], [-73.930947321498, 40.6684988799917], [-73.9309791599206, 40.6681659091409], [-73.9308412194139, 40.6681583914202]]]}}, {"type": "Feature", "properties": {"zone_id": "0207JG8NGSJZ2O5ENTKQ6E", "tract_id": "36047034902", "city": "BROOKLYN, NY", "zone_code": "C4-3", "zone_category": "Commercial", "ev_permitted": true}, "geometry": {"type": "Polygon", "coordinates": [[[-73.9309791599206, 40.6681659091409], [-73.930947321498, 40.6684988799917], [-73.9310207052243, 40.6685028793067], [-73.9310525478966, 40.6681699084385], [-73.9309791599206, 40.6681659091409]]]}}, {"type": "Feature", "properties": {"zone_id": "0206PB6NUOU16Y47NE3DKG", "tract_id": "36047034902", "city": "BROOKLYN, NY", "zone_code": "R7-1", "zone_category": "Residential", "ev_permitted": false}, "geometry": {"type": "Polygon", "coordinates": [[[-73.9304808396401, 40.6681387504913], [-73.930448998742, 40.6684717219079], [-73.9305216589618, 40.6684756824574], [-73.9305534985756, 40.6681427117229], [-73.9304808396401, 40.6681387504913]]]}}, {"type": "Feature", "properties": {"zone_id": "02076RTV9URD8F1CBKDW88", "tract_id": "36047034902", "city": "BROOKLYN, NY", "zone_code": "C4-3", "zone_category": "Commercial", "ev_permitted": true}, "geometry": {"type": "Polygon", "coordinates": [[[-73.9305534985756, 40.6681427117229], [-73.9305216589618, 40.6684756824574], [-73.9305917898974, 40.6684795037129], [-73.9306236300857, 40.6681465329598], [-73.9305534985756, 40.6681427117229]]]}}, {"type": "Feature", "properties": {"zone_id": "0205GMV55FDMVPQGOU2YZM", "tract_id": "36047034902", "city": "BROOKLYN, NY", "zone_code": "C4-3", "zone_category": "Commercial", "ev_permitted": true}, "geometry": {"type": "Polygon", "coordinates": [[[-73.9306236300857, 40.6681465329598], [-73.9305917898974, 40.6684795037129], [-73.9306637442208, 40.6684834251003], [-73.9306955840517, 40.6681504543274], [-73.9306236300857, 40.6681465329598]]]}}, {"type": "Feature", "properties": {"zone_id": "020491UAMPX5CXPVCMXA5X", "tract_id": "36047034902", "city": "BROOKLYN, NY", "zone_code": "C4-3", "zone_category": "Commercial", "ev_permitted": true}, "geometry": {"type": "Polygon", "coordinates": [[[-73.9306955840517, 40.6681504543274], [-73.9306637442208, 40.6684834251003], [-73.9307368040233, 40.6684874068345], [-73.9307686434914, 40.6681544360416], [-73.9306955840517, 40.6681504543274]]]}}, {"type": "Feature", "properties": {"zone_id": "02078ARJ61IEUJ97LY3MR1", "tract_id": "36047034902", "city": "BROOKLYN, NY", "zone_code": "R7-1", "zone_category": "Residential", "ev_permitted": false}, "geometry": {"type": "Polygon", "coordinates": [[[-73.9301312720339, 40.6681196982109], [-73.9300994247864, 40.668452668826], [-73.9301680008168, 40.6684564071836], [-73.9301998431103, 40.6681234358442], [-73.9301312720339, 40.6681196982109]]]}}, {"type": "Feature", "properties": {"zone_id": "0200TXVFXP3NUSQH3WP5PD", "tract_id": "36047034902", "city": "BROOKLYN, NY", "zone_code": "R7-1", "zone_category": "Residential", "ev_permitted": false}, "geometry": {"type": "Polygon", "coordinates": [[[-73.9301998431103, 40.6681234358442], [-73.9301680008168, 40.6684564071836], [-73.9302328332081, 40.6684599394578], [-73.9302646797922, 40.6681269695087], [-73.9301998431103, 40.6681234358442]]]}}, {"type": "Feature", "properties": {"zone_id": "0204GPW9G5GBZCA5QMC10O", "tract_id": "36047034902", "city": "BROOKLYN, NY", "zone_code": "R7-1", "zone_category": "Residential", "ev_permitted": false}, "geometry": {"type": "Polygon", "coordinates": [[[-73.9302646797922, 40.6681269695087], [-73.9302328332081, 40.6684599394578], [-73.9303073518575, 40.6684639912106], [-73.9303391971385, 40.6681310310777], [-73.9302646797922, 40.6681269695087]]]}}, {"type": "Feature", "properties": {"zone_id": "0204I8C6EM3EJLQEBDGKOT", "tract_id": "36047034902", "city": "BROOKLYN, NY", "zone_code": "R7-1", "zone_category": "Residential", "ev_permitted": false}, "geometry": {"type": "Polygon", "coordinates": [[[-73.9303391971385, 40.6681310310777], [-73.9303073518575, 40.6684639912106], [-73.9303779376796, 40.6684678480053], [-73.9304097789291, 40.6681348780135], [-73.9303391971385, 40.6681310310777]]]}}, {"type": "Feature", "properties": {"zone_id": "0200J28Y8OXQ4ESCPCXXUI", "tract_id": "36047034902", "city": "BROOKLYN, NY", "zone_code": "R7-1", "zone_category": "Residential", "ev_permitted": false}, "geometry": {"type": "Polygon", "coordinates": [[[-73.9304097789291, 40.6681348780135], [-73.9303779376796, 40.6684678480053], [-73.930448998742, 40.6684717219079], [-73.9304808396401, 40.6681387504913], [-73.9304097789291, 40.6681348780135]]]}}, {"type": "Feature", "properties": {"zone_id": "0205MG6MEN708ESGIJT33B", "tract_id": "36047034902", "city": "BROOKLYN, NY", "zone_code": "R7-1", "zone_category": "Residential", "ev_permitted": false}, "geometry": {"type": "Polygon", "coordinates": [[[-73.9297727963269, 40.6681001588089], [-73.9297409509905, 40.6684331293278], [-73.929827949928, 40.668437872001], [-73.9298597939103, 40.668104900755], [-73.9297727963269, 40.6681001588089]]]}}, {"type": "Feature", "properties": {"zone_id": "0203WNMJJ7L75PLHHLT3YM", "tract_id": "36047034902", "city": "BROOKLYN, NY", "zone_code": "R7-1", "zone_category": "Residential", "ev_permitted": false}, "geometry": {"type": "Polygon", "coordinates": [[[-73.9298597939103, 40.668104900755], [-73.929827949928, 40.668437872001], [-73.9299211443053, 40.6684429514449], [-73.929952987824, 40.6681099808759], [-73.9298597939103, 40.668104900755]]]}}, {"type": "Feature", "properties": {"zone_id": "0205HA55YX7NPR3F25JHYC", "tract_id": "36047034902", "city": "BROOKLYN, NY", "zone_code": "R7-1", "zone_category": "Residential", "ev_permitted": false}, "geometry": {"type": "Polygon", "coordinates": [[[-73.929952987824, 40.6681099808759], [-73.9299211443053, 40.6684429514449], [-73.9300068873892, 40.6684476250594], [-73.9300387304821, 40.6681146544669], [-73.929952987824, 40.6681099808759]]]}}, {"type": "Feature", "properties": {"zone_id": "0203GB4M95KY9FFUJR6OQD", "tract_id": "36047034902", "city": "BROOKLYN, NY", "zone_code": "R7-1", "zone_category": "Residential", "ev_permitted": false}, "geometry": {"type": "Polygon", "coordinates": [[[-73.9300387304821, 40.6681146544669], [-73.9300068873892, 40.6684476250594], [-73.9300994247864, 40.668452668826], [-73.9301312720339, 40.6681196982109], [-73.9300387304821, 40.6681146544669]]]}}, {"type": "Feature", "properties": {"zone_id": "0200DZ3SUOETBXUU3JYPAW", "tract_id": "36047034902", "city": "BROOKLYN, NY", "zone_code": "R7-1", "zone_category": "Residential", "ev_permitted": false}, "geometry": {"type": "Polygon", "coordinates": [[[-73.9294829628779, 40.66808436061], [-73.9294511179479, 40.6684173310504], [-73.9295612698611, 40.6684233353485], [-73.9295931151669, 40.6680903648784], [-73.9294829628779, 40.66808436061]]]}}, {"type": "Feature", "properties": {"zone_id": "020273C7UQ3NJL471P6ITA", "tract_id": "36047034902", "city": "BROOKLYN, NY", "zone_code": "R7-1", "zone_category": "Residential", "ev_permitted": false}, "geometry": {"type": "Polygon", "coordinates": [[[-73.9295931151669, 40.6680903648784], [-73.9295612698611, 40.6684233353485], [-73.9296469409195, 40.6684280049713], [-73.9296787765718, 40.668095034472], [-73.9295931151669, 40.6680903648784]]]}}, {"type": "Feature", "properties": {"zone_id": "0200REJPNJBOA2CCRYKQRR", "tract_id": "36047034902", "city": "BROOKLYN, NY", "zone_code": "R7-1", "zone_category": "Residential", "ev_permitted": false}, "geometry": {"type": "Polygon", "coordinates": [[[-73.9296787765718, 40.668095034472], [-73.9296469409195, 40.6684280049713], [-73.9297409509905, 40.6684331293278], [-73.9297727963269, 40.6681001588089], [-73.9296787765718, 40.668095034472]]]}}, {"type": "Feature", "properties": {"zone_id": "020775QA9A6CRA62395503", "tract_id": "36047034902", "city": "BROOKLYN, NY", "zone_code": "R7-1", "zone_category": "Residential", "ev_permitted": false}, "geometry": {"type": "Polygon", "coordinates": [[[-73.9292552608621, 40.6680517078824], [-73.9292214822959, 40.6684048132901], [-73.9294511179479, 40.6684173310504], [-73.9294848953047, 40.6680642255758], [-73.9292552608621, 40.6680517078824]]]}}, {"type": "Feature", "properties": {"zone_id": "0203LBC24OVR4XF1K9XNPR", "tract_id": "36047034902", "city": "BROOKLYN, NY", "zone_code": "R7-1", "zone_category": "Residential", "ev_permitted": false}, "geometry": {"type": "Polygon", "coordinates": [[[-73.928763158652, 40.6680448378248], [-73.9287337237859, 40.6683782234314], [-73.928869141682, 40.6683856058024], [-73.928901023023, 40.6680523544773], [-73.928763158652, 40.6680448378248]]]}}, {"type": "Feature", "properties": {"zone_id": "02034ZWOKSDZA14TXY8DL9", "tract_id": "36047034902", "city": "BROOKLYN, NY", "zone_code": "R7-1", "zone_category": "Residential", "ev_permitted": false}, "geometry": {"type": "Polygon", "coordinates": [[[-73.9286337153797, 40.6680377815572], [-73.9286042798705, 40.6683711664283], [-73.9287337237859, 40.6683782234314], [-73.928763158652, 40.6680448378248], [-73.9286337153797, 40.6680377815572]]]}}, {"type": "Feature", "properties": {"zone_id": "0203SVFXH4KWA427PQJ1U2", "tract_id": "36047034902", "city": "BROOKLYN, NY", "zone_code": "R7-1", "zone_category": "Residential", "ev_permitted": false}, "geometry": {"type": "Polygon", "coordinates": [[[-73.9285298140108, 40.6680321168293], [-73.928500377062, 40.6683655016734], [-73.9286042798705, 40.6683711664283], [-73.9286337153797, 40.6680377815572], [-73.9285298140108, 40.6680321168293]]]}}, {"type": "Feature", "properties": {"zone_id": "020381VND0XZF98HQG4Y68", "tract_id": "36047034902", "city": "BROOKLYN, NY", "zone_code": "C4-3", "zone_category": "Commercial", "ev_permitted": true}, "geometry": {"type": "Polygon", "coordinates": [[[-73.9307923134743, 40.6678841870552], [-73.930766401187, 40.6681543138341], [-73.9310525478966, 40.6681699084385], [-73.9310783721978, 40.6678998679712], [-73.9307923134743, 40.6678841870552]]]}}, {"type": "Feature", "properties": {"zone_id": "0206WT3KL3KC8UNWUHDQBN", "tract_id": "36047034902", "city": "BROOKLYN, NY", "zone_code": "C4-3", "zone_category": "Commercial", "ev_permitted": true}, "geometry": {"type": "Polygon", "coordinates": [[[-73.9307155190421, 40.6678799768488], [-73.9306896756264, 40.6681501324614], [-73.930766401187, 40.6681543138341], [-73.9307923134743, 40.6678841870552], [-73.9307155190421, 40.6678799768488]]]}}, {"type": "Feature", "properties": {"zone_id": "0204CNIWV3054XPDH352LO", "tract_id": "36047034902", "city": "BROOKLYN, NY", "zone_code": "C4-3", "zone_category": "Commercial", "ev_permitted": true}, "geometry": {"type": "Polygon", "coordinates": [[[-73.9306438320674, 40.6678760465197], [-73.9306179874158, 40.6681462253037], [-73.9306896756264, 40.6681501324614], [-73.9307155190421, 40.6678799768488], [-73.9306438320674, 40.6678760465197]]]}}, {"type": "Feature", "properties": {"zone_id": "0204Q8G8X2S294RIFTOT3O", "tract_id": "36047034902", "city": "BROOKLYN, NY", "zone_code": "R7-1", "zone_category": "Residential", "ev_permitted": false}, "geometry": {"type": "Polygon", "coordinates": [[[-73.9305079149221, 40.6678685949662], [-73.9304791408413, 40.6681386581185], [-73.9305480081621, 40.6681424118846], [-73.9305738558881, 40.66787220993], [-73.9305079149221, 40.6678685949662]]]}}, {"type": "Feature", "properties": {"zone_id": "0200P52KXD4EKV0MA6II38", "tract_id": "36047034902", "city": "BROOKLYN, NY", "zone_code": "R7-1", "zone_category": "Residential", "ev_permitted": false}, "geometry": {"type": "Polygon", "coordinates": [[[-73.930431062392, 40.6678643817242], [-73.9304052094295, 40.6681346286145], [-73.9304791408413, 40.6681386581185], [-73.9305079149221, 40.6678685949662], [-73.930431062392, 40.6678643817242]]]}}, {"type": "Feature", "properties": {"zone_id": "0203YERHFGP5124YQ2DW6T", "tract_id": "36047034902", "city": "BROOKLYN, NY", "zone_code": "C4-3", "zone_category": "Commercial", "ev_permitted": true}, "geometry": {"type": "Polygon", "coordinates": [[[-73.9305738558881, 40.66787220993], [-73.9305480081621, 40.6681424118846], [-73.9306179874158, 40.6681462253037], [-73.9306438320674, 40.6678760465197], [-73.9305738558881, 40.66787220993]]]}}, {"type": "Feature", "properties": {"zone_id": "020465KAMOXEOLGL0GRX3N", "tract_id": "36047034902", "city": "BROOKLYN, NY", "zone_code": "R7-1", "zone_category": "Residential", "ev_permitted": false}, "geometry": {"type": "Polygon", "coordinates": [[[-73.9300831499312, 40.667845307109], [-73.9300572852977, 40.6681156663416], [-73.9301299414167, 40.6681196257311], [-73.9301557974277, 40.6678492896651], [-73.9300831499312, 40.667845307109]]]}}, {"type": "Feature", "properties": {"zone_id": "0202T129RTNZ08OCO8X6FM", "tract_id": "36047034902", "city": "BROOKLYN, NY", "zone_code": "R7-1", "zone_category": "Residential", "ev_permitted": false}, "geometry": {"type": "Polygon", "coordinates": [[[-73.9303650466986, 40.6678607624173], [-73.9303391971385, 40.6681310310777], [-73.9304052094295, 40.6681346286145], [-73.930431062392, 40.6678643817242], [-73.9303650466986, 40.6678607624173]]]}}, {"type": "Feature", "properties": {"zone_id": "0202ATG27IFZSAH1737GOK", "tract_id": "36047034902", "city": "BROOKLYN, NY", "zone_code": "R7-1", "zone_category": "Residential", "ev_permitted": false}, "geometry": {"type": "Polygon", "coordinates": [[[-73.9302905306004, 40.6678566769749], [-73.9302646797922, 40.6681269695087], [-73.9303391971385, 40.6681310310777], [-73.9303650466986, 40.6678607624173], [-73.9302905306004, 40.6678566769749]]]}}, {"type": "Feature", "properties": {"zone_id": "0200BUIAT0FUBWXIHO3I5J", "tract_id": "36047034902", "city": "BROOKLYN, NY", "zone_code": "R7-1", "zone_category": "Residential", "ev_permitted": false}, "geometry": {"type": "Polygon", "coordinates": [[[-73.9302257015836, 40.6678531229521], [-73.9301998431103, 40.6681234358442], [-73.9302646797922, 40.6681269695087], [-73.9302905306004, 40.6678566769749], [-73.9302257015836, 40.6678531229521]]]}}, {"type": "Feature", "properties": {"zone_id": "0202E4SLPAIVEVCO8QDPUB", "tract_id": "36047034902", "city": "BROOKLYN, NY", "zone_code": "R7-1", "zone_category": "Residential", "ev_permitted": false}, "geometry": {"type": "Polygon", "coordinates": [[[-73.9301557974277, 40.6678492896651], [-73.9301299414167, 40.6681196257311], [-73.9301998431103, 40.6681234358442], [-73.9302257015836, 40.6678531229521], [-73.9301557974277, 40.6678492896651]]]}}, {"type": "Feature", "properties": {"zone_id": "0205RRAZ4Z49O4YQNVDMQX", "tract_id": "36047034902", "city": "BROOKLYN, NY", "zone_code": "R7-1", "zone_category": "Residential", "ev_permitted": false}, "geometry": {"type": "Polygon", "coordinates": [[[-73.9300086781601, 40.667841223619], [-73.9299828113564, 40.6681116060218], [-73.9300572852977, 40.6681156663416], [-73.9300831499312, 40.667845307109], [-73.9300086781601, 40.667841223619]]]}}, {"type": "Feature", "properties": {"zone_id": "0205CFJOL3Q07CA2ZWMU67", "tract_id": "36047034902", "city": "BROOKLYN, NY", "zone_code": "R7-1", "zone_category": "Residential", "ev_permitted": false}, "geometry": {"type": "Polygon", "coordinates": [[[-73.9299407191933, 40.6678374974868], [-73.9299148493242, 40.6681079016553], [-73.9299828113564, 40.6681116060218], [-73.9300086781601, 40.667841223619], [-73.9299407191933, 40.6678374974868]]]}}, {"type": "Feature", "properties": {"zone_id": "0200C7UXFURUN6CGFR23YV", "tract_id": "36047034902", "city": "BROOKLYN, NY", "zone_code": "R7-1", "zone_category": "Residential", "ev_permitted": false}, "geometry": {"type": "Polygon", "coordinates": [[[-73.9298684389787, 40.6678335346934], [-73.9298425660253, 40.6681039620319], [-73.9299148493242, 40.6681079016553], [-73.9299407191933, 40.6678374974868], [-73.9298684389787, 40.6678335346934]]]}}, {"type": "Feature", "properties": {"zone_id": "0202J2SXY0L35SE25RS2OB", "tract_id": "36047034902", "city": "BROOKLYN, NY", "zone_code": "R7-1", "zone_category": "Residential", "ev_permitted": false}, "geometry": {"type": "Polygon", "coordinates": [[[-73.9297986705081, 40.6678297090013], [-73.9297727963269, 40.6681001588089], [-73.9298425660253, 40.6681039620319], [-73.9298684389787, 40.6678335346934], [-73.9297986705081, 40.6678297090013]]]}}, {"type": "Feature", "properties": {"zone_id": "0200HSI0RAT2EK6DZANTRC", "tract_id": "36047034902", "city": "BROOKLYN, NY", "zone_code": "C4-3", "zone_category": "Commercial", "ev_permitted": true}, "geometry": {"type": "Polygon", "coordinates": [[[-73.930922550348, 40.667449226165], [-73.9308963154279, 40.6677303768759], [-73.9310929374032, 40.6677412476709], [-73.9311194338435, 40.6674598363846], [-73.930922550348, 40.667449226165]]]}}, {"type": "Feature", "properties": {"zone_id": "0206TS3LMRL2QGYR2IOHG4", "tract_id": "36047034902", "city": "BROOKLYN, NY", "zone_code": "C4-3", "zone_category": "Commercial", "ev_permitted": true}, "geometry": {"type": "Polygon", "coordinates": [[[-73.9307691847949, 40.6673679777756], [-73.9307624071159, 40.6674405960489], [-73.9311194338435, 40.6674598363846], [-73.9311262711142, 40.6673872216397], [-73.9307691847949, 40.6673679777756]]]}}, {"type": "Feature", "properties": {"zone_id": "02078TVFYX555IHVLBWHHM", "tract_id": "36047034902", "city": "BROOKLYN, NY", "zone_code": "C4-3", "zone_category": "Commercial", "ev_permitted": true}, "geometry": {"type": "Polygon", "coordinates": [[[-73.9307417873515, 40.6674394846717], [-73.9307155750054, 40.6677203830997], [-73.9308963154279, 40.6677303768759], [-73.930922550348, 40.667449226165], [-73.9307417873515, 40.6674394846717]]]}}, {"type": "Feature", "properties": {"zone_id": "0201EW6FN7O55H9SCLZWQZ", "tract_id": "36047034902", "city": "", "zone_code": "R7-1", "zone_category": "Residential", "ev_permitted": false}, "geometry": {"type": "Polygon", "coordinates": [[[-73.9303795935187, 40.6674004453112], [-73.9303516139649, 40.667700258985], [-73.9307155750054, 40.6677203830997], [-73.9307417873515, 40.6674394846717], [-73.9306482925163, 40.6674344457619], [-73.930643974965, 40.6674146948091], [-73.9303795935187, 40.6674004453112]]]}}, {"type": "Feature", "properties": {"zone_id": "0205V763VYAO01058YP23L", "tract_id": "36047034902", "city": "BROOKLYN, NY", "zone_code": "C4-3", "zone_category": "Commercial", "ev_permitted": true}, "geometry": {"type": "Polygon", "coordinates": [[[-73.9306391218233, 40.6673917485234], [-73.9306482925163, 40.6674344457619], [-73.9307624071159, 40.6674405960489], [-73.9307663264678, 40.6673986044428], [-73.9306391218233, 40.6673917485234]]]}}, {"type": "Feature", "properties": {"zone_id": "0205S4YL7OF3SOEX3AJC7M", "tract_id": "36047034902", "city": "BROOKLYN, NY", "zone_code": "C4-3", "zone_category": "Commercial", "ev_permitted": true}, "geometry": {"type": "Polygon", "coordinates": [[[-73.9307919701755, 40.6671237921198], [-73.9307864728334, 40.6671827176656], [-73.9311437131871, 40.6672019700012], [-73.9311492609676, 40.6671430458742], [-73.9307919701755, 40.6671237921198]]]}}, {"type": "Feature", "properties": {"zone_id": "0201CX4U5BVAB4I8ZP64BR", "tract_id": "36047034902", "city": "BROOKLYN, NY", "zone_code": "C4-3", "zone_category": "Commercial", "ev_permitted": true}, "geometry": {"type": "Polygon", "coordinates": [[[-73.9307864728334, 40.6671827176656], [-73.9307814197021, 40.6672368555306], [-73.9311386160522, 40.6672561057473], [-73.9311437131871, 40.6672019700012], [-73.9307864728334, 40.6671827176656]]]}}, {"type": "Feature", "properties": {"zone_id": "0204QKJFGKXVKAPFXQVC2B", "tract_id": "36047034902", "city": "BROOKLYN, NY", "zone_code": "C4-3", "zone_category": "Commercial", "ev_permitted": true}, "geometry": {"type": "Polygon", "coordinates": [[[-73.9307814197021, 40.6672368555306], [-73.9307765746453, 40.6672887787258], [-73.9311337279034, 40.6673080261207], [-73.9311386160522, 40.6672561057473], [-73.9307814197021, 40.6672368555306]]]}}, {"type": "Feature", "properties": {"zone_id": "020653TP80SXPOLBLK3ITP", "tract_id": "36047034902", "city": "BROOKLYN, NY", "zone_code": "C4-3", "zone_category": "Commercial", "ev_permitted": true}, "geometry": {"type": "Polygon", "coordinates": [[[-73.9307765746453, 40.6672887787258], [-73.9307691847949, 40.6673679777756], [-73.9311262711142, 40.6673872216397], [-73.9311337279034, 40.6673080261207], [-73.9307765746453, 40.6672887787258]]]}}, {"type": "Feature", "properties": {"zone_id": "0200FXGN1ZJVQ9KKKPUKRW", "tract_id": "36047034902", "city": "BROOKLYN, NY", "zone_code": "C4-3", "zone_category": "Commercial", "ev_permitted": true}, "geometry": {"type": "Polygon", "coordinates": [[[-73.9306865419161, 40.6671181094479], [-73.9306608977755, 40.6673929224503], [-73.9307663264678, 40.6673986044428], [-73.9307919701755, 40.6671237921198], [-73.9306865419161, 40.6671181094479]]]}}, {"type": "Feature", "properties": {"zone_id": "0201LUDXJ21NBGISMO6C2H", "tract_id": "36047034902", "city": "BROOKLYN, NY", "zone_code": "R7-1", "zone_category": "Residential", "ev_permitted": false}, "geometry": {"type": "Polygon", "coordinates": [[[-73.9305970098025, 40.6671132843851], [-73.9305692581169, 40.6674106677468], [-73.930643974965, 40.6674146948091], [-73.9306391218233, 40.6673917485234], [-73.9306608977755, 40.6673929224503], [-73.9306865419161, 40.6671181094479], [-73.9305970098025, 40.6671132843851]]]}}, {"type": "Feature", "properties": {"zone_id": "0202RL2GHP0QUBB8QVD24I", "tract_id": "36047034902", "city": "BROOKLYN, NY", "zone_code": "R7-1", "zone_category": "Residential", "ev_permitted": false}, "geometry": {"type": "Polygon", "coordinates": [[[-73.9305115866854, 40.667108680263], [-73.9304838346209, 40.6674060636042], [-73.9305692581169, 40.6674106677468], [-73.9305970098025, 40.6671132843851], [-73.9305115866854, 40.667108680263]]]}}, {"type": "Feature", "properties": {"zone_id": "0204TXD64TKJTYG86VIWU4", "tract_id": "36047034902", "city": "BROOKLYN, NY", "zone_code": "R7-1", "zone_category": "Residential", "ev_permitted": false}, "geometry": {"type": "Polygon", "coordinates": [[[-73.930416465532, 40.6671035537542], [-73.9303887130455, 40.6674009370727], [-73.9304838346209, 40.6674060636042], [-73.9305115866854, 40.667108680263], [-73.930416465532, 40.6671035537542]]]}}, {"type": "Feature", "properties": {"zone_id": "0206BQTWMVB7RNCQ1B5WP8", "tract_id": "36047034902", "city": "BROOKLYN, NY", "zone_code": "R7-1", "zone_category": "Residential", "ev_permitted": false}, "geometry": {"type": "Polygon", "coordinates": [[[-73.9302039787484, 40.6673909801268], [-73.930176022658, 40.6676905492461], [-73.9303516139649, 40.667700258985], [-73.9303795935187, 40.6674004453112], [-73.9302039787484, 40.6673909801268]]]}}, {"type": "Feature", "properties": {"zone_id": "0205SQ180X5E2VM506W1LG", "tract_id": "36047034902", "city": "BROOKLYN, NY", "zone_code": "R7-1", "zone_category": "Residential", "ev_permitted": false}, "geometry": {"type": "Polygon", "coordinates": [[[-73.9300250153743, 40.667381334161], [-73.9299970799697, 40.6676806545075], [-73.930176022658, 40.6676905492461], [-73.9302039787484, 40.6673909801268], [-73.9300250153743, 40.667381334161]]]}}, {"type": "Feature", "properties": {"zone_id": "0206VM1UWLETA8NSX0DH34", "tract_id": "36047034902", "city": "BROOKLYN, NY", "zone_code": "R7-1", "zone_category": "Residential", "ev_permitted": false}, "geometry": {"type": "Polygon", "coordinates": [[[-73.9299294204996, 40.667376181666], [-73.9299014986499, 40.6676753691946], [-73.9299970799697, 40.6676806545075], [-73.9300250153743, 40.667381334161], [-73.9299294204996, 40.667376181666]]]}}, {"type": "Feature", "properties": {"zone_id": "0200SUQE02R03IYU5H79TM", "tract_id": "36047034902", "city": "BROOKLYN, NY", "zone_code": "R7-1", "zone_category": "Residential", "ev_permitted": false}, "geometry": {"type": "Polygon", "coordinates": [[[-73.9303354956054, 40.667099189695], [-73.9303077436826, 40.6673965729946], [-73.9303887130455, 40.6674009370727], [-73.930416465532, 40.6671035537542], [-73.9303354956054, 40.667099189695]]]}}, {"type": "Feature", "properties": {"zone_id": "02055JVTV98JUBR7Q3PYNZ", "tract_id": "36047034902", "city": "BROOKLYN, NY", "zone_code": "R7-1", "zone_category": "Residential", "ev_permitted": false}, "geometry": {"type": "Polygon", "coordinates": [[[-73.9302409917951, 40.6670940964402], [-73.9302132385302, 40.6673914797166], [-73.9303077436826, 40.6673965729946], [-73.9303354956054, 40.667099189695], [-73.9302409917951, 40.6670940964402]]]}}, {"type": "Feature", "properties": {"zone_id": "02066IMDKVXAA2WD3D238U", "tract_id": "36047034902", "city": "BROOKLYN, NY", "zone_code": "R7-1", "zone_category": "Residential", "ev_permitted": false}, "geometry": {"type": "Polygon", "coordinates": [[[-73.9301609003446, 40.6670897791664], [-73.9301331476472, 40.6673871624243], [-73.9302132385302, 40.6673914797166], [-73.9302409917951, 40.6670940964402], [-73.9301609003446, 40.6670897791664]]]}}, {"type": "Feature", "properties": {"zone_id": "0206ALALFBYJ0YMGQRNC3Q", "tract_id": "36047034902", "city": "BROOKLYN, NY", "zone_code": "R7-1", "zone_category": "Residential", "ev_permitted": false}, "geometry": {"type": "Polygon", "coordinates": [[[-73.9300724469949, 40.6670850119686], [-73.9300446939051, 40.6673823952053], [-73.9301331476472, 40.6673871624243], [-73.9301609003446, 40.6670897791664], [-73.9300724469949, 40.6670850119686]]]}}, {"type": "Feature", "properties": {"zone_id": "02000ZUD5CB5N5Z7S9ZZ4B", "tract_id": "36047034902", "city": "BROOKLYN, NY", "zone_code": "R7-1", "zone_category": "Residential", "ev_permitted": false}, "geometry": {"type": "Polygon", "coordinates": [[[-73.9299845648368, 40.6670802752649], [-73.9299568104343, 40.66737765848], [-73.9300446939051, 40.6673823952053], [-73.9300724469949, 40.6670850119686], [-73.9299845648368, 40.6670802752649]]]}}, {"type": "Feature", "properties": {"zone_id": "0201G7A72NJALXTX8SSI0Y", "tract_id": "36047034902", "city": "BROOKLYN, NY", "zone_code": "R7-1", "zone_category": "Residential", "ev_permitted": false}, "geometry": {"type": "Polygon", "coordinates": [[[-73.9298804387065, 40.6670746622103], [-73.9298526838415, 40.6673720461031], [-73.9299568104343, 40.66737765848], [-73.9299845648368, 40.6670802752649], [-73.9298804387065, 40.6670746622103]]]}}, {"type": "Feature", "properties": {"zone_id": "0205BAFJI1HSSVWTGEBVDN", "tract_id": "36047034902", "city": "BROOKLYN, NY", "zone_code": "R7-1", "zone_category": "Residential", "ev_permitted": false}, "geometry": {"type": "Polygon", "coordinates": [[[-73.9297836041149, 40.6670694427876], [-73.9297556006019, 40.6673668124525], [-73.9298526838415, 40.6673720461031], [-73.9298804387065, 40.6670746622103], [-73.9297836041149, 40.6670694427876]]]}}, {"type": "Feature", "properties": {"zone_id": "02069AMFIVFVKGMYTE5VEB", "tract_id": "36047034902", "city": "BROOKLYN, NY", "zone_code": "R7-1", "zone_category": "Residential", "ev_permitted": false}, "geometry": {"type": "Polygon", "coordinates": [[[-73.9308412468872, 40.6665209935819], [-73.9308109905838, 40.6668580703697], [-73.93117882216, 40.6668780161721], [-73.9312090766144, 40.6665409385857], [-73.9308412468872, 40.6665209935819]]]}}, {"type": "Feature", "properties": {"zone_id": "0205DJBCYW1WWJ1MV3AJ69", "tract_id": "36047034902", "city": "BROOKLYN, NY", "zone_code": "R7-1", "zone_category": "Residential", "ev_permitted": false}, "geometry": {"type": "Polygon", "coordinates": [[[-73.930718387273, 40.6665143314849], [-73.9306881303517, 40.6668514082406], [-73.9308109905838, 40.6668580703697], [-73.9308412468872, 40.6665209935819], [-73.930718387273, 40.6665143314849]]]}}, {"type": "Feature", "properties": {"zone_id": "02016KFXHC4N7DOET55WC9", "tract_id": "36047034902", "city": "BROOKLYN, NY", "zone_code": "R7-1", "zone_category": "Residential", "ev_permitted": false}, "geometry": {"type": "Polygon", "coordinates": [[[-73.9306286779104, 40.66650946699], [-73.930598420538, 40.6668465437223], [-73.9306881303517, 40.6668514082406], [-73.930718387273, 40.6665143314849], [-73.9306286779104, 40.66650946699]]]}}, {"type": "Feature", "properties": {"zone_id": "02074INQ2E5X4RN169H9EM", "tract_id": "36047034902", "city": "BROOKLYN, NY", "zone_code": "R7-1", "zone_category": "Residential", "ev_permitted": false}, "geometry": {"type": "Polygon", "coordinates": [[[-73.9305269240851, 40.6665039487017], [-73.9304966662002, 40.6668410261102], [-73.930598420538, 40.6668465437223], [-73.9306286779104, 40.66650946699], [-73.9305269240851, 40.6665039487017]]]}}, {"type": "Feature", "properties": {"zone_id": "0205SPS34SWGM7D28IN42P", "tract_id": "36047034902", "city": "BROOKLYN, NY", "zone_code": "R7-1", "zone_category": "Residential", "ev_permitted": false}, "geometry": {"type": "Polygon", "coordinates": [[[-73.930434300657, 40.6664715863777], [-73.9304015989824, 40.6668358701096], [-73.9304966662002, 40.6668410261102], [-73.9305269240851, 40.6665039487017], [-73.9304694025555, 40.6665008292577], [-73.9304678679382, 40.6664734068948], [-73.930434300657, 40.6664715863777]]]}}, {"type": "Feature", "properties": {"zone_id": "0202B5QF9M8IIH3MK0TMOM", "tract_id": "36047034902", "city": "BROOKLYN, NY", "zone_code": "R7-1", "zone_category": "Residential", "ev_permitted": false}, "geometry": {"type": "Polygon", "coordinates": [[[-73.9303296698149, 40.6664659129945], [-73.9302969684951, 40.6668301959948], [-73.9304015989824, 40.6668358701096], [-73.930434300657, 40.6664715863777], [-73.9303296698149, 40.6664659129945]]]}}, {"type": "Feature", "properties": {"zone_id": "02049IACQVTJKLV68P873K", "tract_id": "36047034902", "city": "BROOKLYN, NY", "zone_code": "R7-1", "zone_category": "Residential", "ev_permitted": false}, "geometry": {"type": "Polygon", "coordinates": [[[-73.9302493097016, 40.6664615548644], [-73.9302166070216, 40.6668258385441], [-73.9302969684951, 40.6668301959948], [-73.9303296698149, 40.6664659129945], [-73.9302493097016, 40.6664615548644]]]}}, {"type": "Feature", "properties": {"zone_id": "0206H3EGFKT05C15CCLSZW", "tract_id": "36047034902", "city": "BROOKLYN, NY", "zone_code": "R7-1", "zone_category": "Residential", "ev_permitted": false}, "geometry": {"type": "Polygon", "coordinates": [[[-73.9301549258673, 40.6664564363148], [-73.9301222235971, 40.6668207199685], [-73.9302166070216, 40.6668258385441], [-73.9302493097016, 40.6664615548644], [-73.9301549258673, 40.6664564363148]]]}}, {"type": "Feature", "properties": {"zone_id": "020455QFVQUVU8M4NKGS11", "tract_id": "36047034902", "city": "BROOKLYN, NY", "zone_code": "R7-1", "zone_category": "Residential", "ev_permitted": false}, "geometry": {"type": "Polygon", "coordinates": [[[-73.9299773067274, 40.6664468030337], [-73.9299446025683, 40.6668110873394], [-73.9301222235971, 40.6668207199685], [-73.9301549258673, 40.6664564363148], [-73.9299773067274, 40.6664468030337]]]}}, {"type": "Feature", "properties": {"zone_id": "0206ODZGHE20SE2YAB71KG", "tract_id": "36047034902", "city": "BROOKLYN, NY", "zone_code": "R7-1", "zone_category": "Residential", "ev_permitted": false}, "geometry": {"type": "Polygon", "coordinates": [[[-73.92989586706, 40.6664423863811], [-73.9298631633819, 40.6668066699617], [-73.9299446025683, 40.6668110873394], [-73.9299773067274, 40.6664468030337], [-73.92989586706, 40.6664423863811]]]}}, {"type": "Feature", "properties": {"zone_id": "0200R5L8MNXKGABFLLHHF1", "tract_id": "36047034902", "city": "BROOKLYN, NY", "zone_code": "R7-1", "zone_category": "Residential", "ev_permitted": false}, "geometry": {"type": "Polygon", "coordinates": [[[-73.9298048171203, 40.666437448755], [-73.9297721129473, 40.66680173231], [-73.9298631633819, 40.6668066699617], [-73.92989586706, 40.6664423863811], [-73.9298048171203, 40.666437448755]]]}}, {"type": "Feature", "properties": {"zone_id": "0201IJ2PPTSEUUK58KBYFL", "tract_id": "36047034902", "city": "BROOKLYN, NY", "zone_code": "R7-1", "zone_category": "Residential", "ev_permitted": false}, "geometry": {"type": "Polygon", "coordinates": [[[-73.9308703340593, 40.6661969427457], [-73.9308412468872, 40.6665209935819], [-73.9312090766144, 40.6665409385857], [-73.9312381059942, 40.6662175151022], [-73.9308703340593, 40.6661969427457]]]}}, {"type": "Feature", "properties": {"zone_id": "0205BO8CK5RKB96W8SCUEY", "tract_id": "36047034902", "city": "BROOKLYN, NY", "zone_code": "R7-1", "zone_category": "Residential", "ev_permitted": false}, "geometry": {"type": "Polygon", "coordinates": [[[-73.9307667990788, 40.6661911509654], [-73.9307376955358, 40.6665153781346], [-73.9308412468872, 40.6665209935819], [-73.9308703340593, 40.6661969427457], [-73.9307667990788, 40.6661911509654]]]}}, {"type": "Feature", "properties": {"zone_id": "0203S4Y2ODJQMSCF9IKYCX", "tract_id": "36047034902", "city": "BROOKLYN, NY", "zone_code": "R7-1", "zone_category": "Residential", "ev_permitted": false}, "geometry": {"type": "Polygon", "coordinates": [[[-73.9306769242158, 40.6661861233902], [-73.9306478062369, 40.666510503709], [-73.9307376955358, 40.6665153781346], [-73.9307667990788, 40.6661911509654], [-73.9306769242158, 40.6661861233902]]]}}, {"type": "Feature", "properties": {"zone_id": "0200G7NVHSKDI016ETDBH4", "tract_id": "36047034902", "city": "BROOKLYN, NY", "zone_code": "R7-1", "zone_category": "Residential", "ev_permitted": false}, "geometry": {"type": "Polygon", "coordinates": [[[-73.9305870493655, 40.6661810964475], [-73.9305579178741, 40.6665056292137], [-73.9306478062369, 40.666510503709], [-73.9306769242158, 40.6661861233902], [-73.9305870493655, 40.6661810964475]]]}}, {"type": "Feature", "properties": {"zone_id": "02001O9UHSJVLDNQHV7F0P", "tract_id": "36047034902", "city": "BROOKLYN, NY", "zone_code": "R7-1", "zone_category": "Residential", "ev_permitted": false}, "geometry": {"type": "Polygon", "coordinates": [[[-73.9304953779745, 40.6661759678682], [-73.9304681786633, 40.6664789623387], [-73.9304694025555, 40.6665008292577], [-73.9305579178741, 40.6665056292137], [-73.9305870493655, 40.6661810964475], [-73.9304953779745, 40.6661759678682]]]}}, {"type": "Feature", "properties": {"zone_id": "0201ILDWMHZI1ZODQR4A5N", "tract_id": "36047034902", "city": "BROOKLYN, NY", "zone_code": "R7-1", "zone_category": "Residential", "ev_permitted": false}, "geometry": {"type": "Polygon", "coordinates": [[[-73.930406902011, 40.6661710182202], [-73.9303801840541, 40.6664686516404], [-73.9304678679382, 40.6664734068948], [-73.9304681786633, 40.6664789623387], [-73.9304953779745, 40.6661759678682], [-73.930406902011, 40.6661710182202]]]}}, {"type": "Feature", "properties": {"zone_id": "0206RN6TLF2HV1HDWAZCF1", "tract_id": "36047034902", "city": "BROOKLYN, NY", "zone_code": "R7-1", "zone_category": "Residential", "ev_permitted": false}, "geometry": {"type": "Polygon", "coordinates": [[[-73.9303166673374, 40.6661659704712], [-73.9302899358999, 40.666463757746], [-73.9303801840541, 40.6664686516404], [-73.930406902011, 40.6661710182202], [-73.9303166673374, 40.6661659704712]]]}}, {"type": "Feature", "properties": {"zone_id": "0207ARRZUBUVJK5136EAUJ", "tract_id": "36047034902", "city": "BROOKLYN, NY", "zone_code": "R7-1", "zone_category": "Residential", "ev_permitted": false}, "geometry": {"type": "Polygon", "coordinates": [[[-73.9302237364618, 40.6661607713488], [-73.9301969906036, 40.6664587173956], [-73.9302899358999, 40.666463757746], [-73.9303166673374, 40.6661659704712], [-73.9302237364618, 40.6661607713488]]]}}, {"type": "Feature", "properties": {"zone_id": "0205EOYRLJ13AZMOHUN798", "tract_id": "36047034902", "city": "BROOKLYN, NY", "zone_code": "R7-1", "zone_category": "Residential", "ev_permitted": false}, "geometry": {"type": "Polygon", "coordinates": [[[-73.9301234376058, 40.6661551601314], [-73.9300966745127, 40.6664532768921], [-73.9301969906036, 40.6664587173956], [-73.9302237364618, 40.6661607713488], [-73.9301234376058, 40.6661551601314]]]}}, {"type": "Feature", "properties": {"zone_id": "0207B4SQWGDL5Q9SXQEEZ9", "tract_id": "36047034902", "city": "BROOKLYN, NY", "zone_code": "R7-1", "zone_category": "Residential", "ev_permitted": false}, "geometry": {"type": "Polygon", "coordinates": [[[-73.930037157794, 40.666150332391], [-73.9300103821654, 40.6664485973863], [-73.9300966745127, 40.6664532768921], [-73.9301234376058, 40.6661551601314], [-73.930037157794, 40.666150332391]]]}}, {"type": "Feature", "properties": {"zone_id": "02025JRRRVGSBVKICTAKV9", "tract_id": "36047034902", "city": "BROOKLYN, NY", "zone_code": "R7-1", "zone_category": "Residential", "ev_permitted": false}, "geometry": {"type": "Polygon", "coordinates": [[[-73.9299472830402, 40.6661453049484], [-73.9299204930097, 40.6664437223924], [-73.9300103821654, 40.6664485973863], [-73.930037157794, 40.666150332391], [-73.9299472830402, 40.6661453049484]]]}}, {"type": "Feature", "properties": {"zone_id": "0201IG83JIH68RG1FEJKHI", "tract_id": "36047034902", "city": "BROOKLYN, NY", "zone_code": "R7-1", "zone_category": "Residential", "ev_permitted": false}, "geometry": {"type": "Polygon", "coordinates": [[[-73.9298560712661, 40.666140202138], [-73.9298292668244, 40.666438774841], [-73.9299204930097, 40.6664437223924], [-73.9299472830402, 40.6661453049484], [-73.9298560712661, 40.666140202138]]]}}, {"type": "Feature", "properties": {"zone_id": "02055D70QCPN42XK8XK8LJ", "tract_id": "36047034902", "city": "BROOKLYN, NY", "zone_code": "R7-1", "zone_category": "Residential", "ev_permitted": false}, "geometry": {"type": "Polygon", "coordinates": [[[-73.929760473775, 40.6661348541587], [-73.9297309059528, 40.6664642074263], [-73.9298020822064, 40.6664679208912], [-73.9298048171203, 40.666437448755], [-73.9298292668244, 40.666438774841], [-73.9298560712661, 40.666140202138], [-73.929760473775, 40.6661348541587]]]}}, {"type": "Feature", "properties": {"zone_id": "0205KO76IGQQ4IUFTY5QCZ", "tract_id": "36047034902", "city": "BROOKLYN, NY", "zone_code": "R7-1", "zone_category": "Residential", "ev_permitted": false}, "geometry": {"type": "Polygon", "coordinates": [[[-73.9289268951829, 40.6677819055635], [-73.928869141682, 40.6683856058024], [-73.9292214822959, 40.6684048132901], [-73.9292792223536, 40.6678012259981], [-73.9289268951829, 40.6677819055635]]]}}, {"type": "Feature", "properties": {"zone_id": "02015D6UX9OF1A1Q53NTRH", "tract_id": "36047034902", "city": "BROOKLYN, NY", "zone_code": "R7-1", "zone_category": "Residential", "ev_permitted": false}, "geometry": {"type": "Polygon", "coordinates": [[[-73.9295088475551, 40.6678138174186], [-73.9294829628779, 40.66808436061], [-73.9295557481139, 40.6680883281706], [-73.9295816306273, 40.6678178081497], [-73.9295088475551, 40.6678138174186]]]}}, {"type": "Feature", "properties": {"zone_id": "0201XM8IJMKEBJ6N25LCZK", "tract_id": "36047034902", "city": "BROOKLYN, NY", "zone_code": "R7-1", "zone_category": "Residential", "ev_permitted": false}, "geometry": {"type": "Polygon", "coordinates": [[[-73.9297223098952, 40.6678255222871], [-73.9296964326116, 40.6680959966691], [-73.9297727963269, 40.6681001588089], [-73.9297986705081, 40.6678297090013], [-73.9297223098952, 40.6678255222871]]]}}, {"type": "Feature", "properties": {"zone_id": "0205Y4II48FSMZJ1B3LQZF", "tract_id": "36047034902", "city": "BROOKLYN, NY", "zone_code": "R7-1", "zone_category": "Residential", "ev_permitted": false}, "geometry": {"type": "Polygon", "coordinates": [[[-73.9296540446065, 40.6678217789344], [-73.9296281642561, 40.6680922750821], [-73.9296964326116, 40.6680959966691], [-73.9297223098952, 40.6678255222871], [-73.9296540446065, 40.6678217789344]]]}}, {"type": "Feature", "properties": {"zone_id": "0202K7UXSXYIVRAZUJHDCQ", "tract_id": "36047034902", "city": "BROOKLYN, NY", "zone_code": "R7-1", "zone_category": "Residential", "ev_permitted": false}, "geometry": {"type": "Polygon", "coordinates": [[[-73.9295816306273, 40.6678178081497], [-73.9295557481139, 40.6680883281706], [-73.9296281642561, 40.6680922750821], [-73.9296540446065, 40.6678217789344], [-73.9295816306273, 40.6678178081497]]]}}, {"type": "Feature", "properties": {"zone_id": "02068SJOA27SGN603ZP0TZ", "tract_id": "36047034902", "city": "BROOKLYN, NY", "zone_code": "R7-1", "zone_category": "Residential", "ev_permitted": false}, "geometry": {"type": "Polygon", "coordinates": [[[-73.9292792223536, 40.6678012259981], [-73.9292552608621, 40.6680517078824], [-73.9294848953047, 40.6680642255758], [-73.9295088475551, 40.6678138174186], [-73.9292792223536, 40.6678012259981]]]}}, {"type": "Feature", "properties": {"zone_id": "0206597AHJYLX4LBZCE8CS", "tract_id": "36047034902", "city": "BROOKLYN, NY", "zone_code": "R7-1", "zone_category": "Residential", "ev_permitted": false}, "geometry": {"type": "Polygon", "coordinates": [[[-73.928883845106, 40.6677795447117], [-73.9288783214563, 40.6678372784297], [-73.9288401425536, 40.6678351882877], [-73.928825839155, 40.6679846984379], [-73.9289070711451, 40.6679891269603], [-73.9289268951829, 40.6677819055635], [-73.928883845106, 40.6677795447117]]]}}, {"type": "Feature", "properties": {"zone_id": "02065J54AC0W2BEG51GEFY", "tract_id": "36047034902", "city": "BROOKLYN, NY", "zone_code": "R7-1", "zone_category": "Residential", "ev_permitted": false}, "geometry": {"type": "Polygon", "coordinates": [[[-73.9285436645703, 40.6678752411194], [-73.9285393039863, 40.6679246349309], [-73.928830069423, 40.6679404859737], [-73.9288347924341, 40.6678911127528], [-73.9285436645703, 40.6678752411194]]]}}, {"type": "Feature", "properties": {"zone_id": "0206038ZOL68Z076KJGPQD", "tract_id": "36047034902", "city": "BROOKLYN, NY", "zone_code": "R7-1", "zone_category": "Residential", "ev_permitted": false}, "geometry": {"type": "Polygon", "coordinates": [[[-73.9285393039863, 40.6679246349309], [-73.9285298140108, 40.6680321168293], [-73.928901023023, 40.6680523544773], [-73.9289070711451, 40.6679891269603], [-73.928825839155, 40.6679846984379], [-73.928830069423, 40.6679404859737], [-73.9285393039863, 40.6679246349309]]]}}, {"type": "Feature", "properties": {"zone_id": "0203Q3ZNF9FVE51OYW75V8", "tract_id": "36047034902", "city": "BROOKLYN, NY", "zone_code": "R7-1", "zone_category": "Residential", "ev_permitted": false}, "geometry": {"type": "Polygon", "coordinates": [[[-73.9285537131073, 40.6677614405145], [-73.9285436645703, 40.6678752411194], [-73.9288347924341, 40.6678911127528], [-73.9288401425536, 40.6678351882877], [-73.9288783214563, 40.6678372784297], [-73.928883845106, 40.6677795447117], [-73.9285537131073, 40.6677614405145]]]}}, {"type": "Feature", "properties": {"zone_id": "0203RJQBHIUQJ4NXM3LQZ6", "tract_id": "36047034902", "city": "BROOKLYN, NY", "zone_code": "R7-1", "zone_category": "Residential", "ev_permitted": false}, "geometry": {"type": "Polygon", "coordinates": [[[-73.9294835533484, 40.6673521479666], [-73.9294556873789, 40.6676507149718], [-73.9299014986499, 40.6676753691946], [-73.9299294204996, 40.667376181666], [-73.9294835533484, 40.6673521479666]]]}}, {"type": "Feature", "properties": {"zone_id": "0201BAL25S14BACCTTG8ZX", "tract_id": "36047034902", "city": "BROOKLYN, NY", "zone_code": "R7-1", "zone_category": "Residential", "ev_permitted": false}, "geometry": {"type": "Polygon", "coordinates": [[[-73.9295911133209, 40.667059066956], [-73.9295633580951, 40.6673564507801], [-73.9296601921633, 40.6673616703874], [-73.9296879478816, 40.6670642872434], [-73.9295911133209, 40.667059066956]]]}}, {"type": "Feature", "properties": {"zone_id": "02012R1DKL3IR7MIGCGCF1", "tract_id": "36047034902", "city": "BROOKLYN, NY", "zone_code": "R7-1", "zone_category": "Residential", "ev_permitted": false}, "geometry": {"type": "Polygon", "coordinates": [[[-73.9294957099492, 40.6670539247572], [-73.9294679543009, 40.6673513078558], [-73.9295633580951, 40.6673564507801], [-73.9295911133209, 40.667059066956], [-73.9294957099492, 40.6670539247572]]]}}, {"type": "Feature", "properties": {"zone_id": "0203N8C6Z01AQUXHS3VPCS", "tract_id": "36047034902", "city": "BROOKLYN, NY", "zone_code": "R7-1", "zone_category": "Residential", "ev_permitted": false}, "geometry": {"type": "Polygon", "coordinates": [[[-73.9293935521121, 40.6670484178677], [-73.9293657960106, 40.6673458009418], [-73.9294679543009, 40.6673513078558], [-73.9294957099492, 40.6670539247572], [-73.9293935521121, 40.6670484178677]]]}}, {"type": "Feature", "properties": {"zone_id": "0207HCWEDH4JI605UI52VM", "tract_id": "36047034902", "city": "BROOKLYN, NY", "zone_code": "R7-1", "zone_category": "Residential", "ev_permitted": false}, "geometry": {"type": "Polygon", "coordinates": [[[-73.9289312246949, 40.667023494295], [-73.9289997286106, 40.6673475458638], [-73.929081838222, 40.6673520872314], [-73.9290777497792, 40.6673958929532], [-73.9293378594205, 40.6674100163399], [-73.9293236882818, 40.6673435314765], [-73.9293657960106, 40.6673458009418], [-73.9293935521121, 40.6670484178677], [-73.9289312246949, 40.667023494295]]]}}, {"type": "Feature", "properties": {"zone_id": "0206ESLOL9VHWKC0W0SXI5", "tract_id": "36047034902", "city": "BROOKLYN, NY", "zone_code": "R7-1", "zone_category": "Residential", "ev_permitted": false}, "geometry": {"type": "Polygon", "coordinates": [[[-73.9293236882818, 40.6673435314765], [-73.9293378594205, 40.6674100163399], [-73.9293471745598, 40.6674105223575], [-73.9293673319083, 40.6674474196365], [-73.9293489085718, 40.6676448103131], [-73.9294556873789, 40.6676507149718], [-73.9294835533484, 40.6673521479666], [-73.9293236882818, 40.6673435314765]]]}}, {"type": "Feature", "properties": {"zone_id": "0204TQH3V7LBPKMCHAD9M7", "tract_id": "36047034902", "city": "BROOKLYN, NY", "zone_code": "R7-1", "zone_category": "Residential", "ev_permitted": false}, "geometry": {"type": "Polygon", "coordinates": [[[-73.9292909662996, 40.6674074705872], [-73.9292692244916, 40.6676404034312], [-73.9293489085718, 40.6676448103131], [-73.9293673319083, 40.6674474196365], [-73.9293471745598, 40.6674105223575], [-73.9292909662996, 40.6674074705872]]]}}, {"type": "Feature", "properties": {"zone_id": "0207KEJQK3DQJH2F17WZZ6", "tract_id": "36047034902", "city": "BROOKLYN, NY", "zone_code": "R7-1", "zone_category": "Residential", "ev_permitted": false}, "geometry": {"type": "Polygon", "coordinates": [[[-73.9292197892323, 40.6674036057339], [-73.9291980537126, 40.6676364668969], [-73.9292692244916, 40.6676404034312], [-73.9292909662996, 40.6674074705872], [-73.9292197892323, 40.6674036057339]]]}}, {"type": "Feature", "properties": {"zone_id": "0205M0KSRMEGHKXL6RDYPK", "tract_id": "36047034902", "city": "BROOKLYN, NY", "zone_code": "R7-1", "zone_category": "Residential", "ev_permitted": false}, "geometry": {"type": "Polygon", "coordinates": [[[-73.9291459371277, 40.6673995958458], [-73.9291242088123, 40.6676323832198], [-73.9291980537126, 40.6676364668969], [-73.9292197892323, 40.6674036057339], [-73.9291459371277, 40.6673995958458]]]}}, {"type": "Feature", "properties": {"zone_id": "0204ABR1PFJ22DKVO7QO0C", "tract_id": "36047034902", "city": "BROOKLYN, NY", "zone_code": "R7-1", "zone_category": "Residential", "ev_permitted": false}, "geometry": {"type": "Polygon", "coordinates": [[[-73.9290777497792, 40.6673958929532], [-73.9290560277591, 40.6676286121602], [-73.9291242088123, 40.6676323832198], [-73.9291459371277, 40.6673995958458], [-73.9290777497792, 40.6673958929532]]]}}, {"type": "Feature", "properties": {"zone_id": "0201XRBIODSDBHTCUNWP9X", "tract_id": "36047034902", "city": "BROOKLYN, NY", "zone_code": "R7-1", "zone_category": "Residential", "ev_permitted": false}, "geometry": {"type": "Polygon", "coordinates": [[[-73.9296879478816, 40.6670642872434], [-73.9296601921633, 40.6673616703874], [-73.9297556006019, 40.6673668124525], [-73.9297836041149, 40.6670694427876], [-73.9296879478816, 40.6670642872434]]]}}, {"type": "Feature", "properties": {"zone_id": "0200S2JKTQNUGR1U22QRKE", "tract_id": "36047034902", "city": "BROOKLYN, NY", "zone_code": "R7-1", "zone_category": "Residential", "ev_permitted": false}, "geometry": {"type": "Polygon", "coordinates": [[[-73.928598288755, 40.6672972530251], [-73.928569867146, 40.6676017239543], [-73.9290560277591, 40.6676286121602], [-73.929081838222, 40.6673520872314], [-73.9289997286106, 40.6673475458638], [-73.928993720064, 40.6673191236431], [-73.9289609958245, 40.6673173137568], [-73.9289610742227, 40.6673164846626], [-73.928598288755, 40.6672972530251]]]}}, {"type": "Feature", "properties": {"zone_id": "0204TP3ICHIO3W0AYMEFB5", "tract_id": "36047034902", "city": "BROOKLYN, NY", "zone_code": "R7-1", "zone_category": "Residential", "ev_permitted": false}, "geometry": {"type": "Polygon", "coordinates": [[[-73.9286253826678, 40.667007007375], [-73.928598288755, 40.6672972530251], [-73.9289610742227, 40.6673164846626], [-73.9289609958245, 40.6673173137568], [-73.928993720064, 40.6673191236431], [-73.9289312246949, 40.667023494295], [-73.9286253826678, 40.667007007375]]]}}, {"type": "Feature", "properties": {"zone_id": "0202JVKRWVURX6XKAKSLJA", "tract_id": "36047034902", "city": "BROOKLYN, NY", "zone_code": "R7-1", "zone_category": "Residential", "ev_permitted": false}, "geometry": {"type": "Polygon", "coordinates": [[[-73.929707174078, 40.6664629688882], [-73.9296772220844, 40.6667965856556], [-73.9297721129473, 40.66680173231], [-73.9298020822064, 40.6664679208912], [-73.929707174078, 40.6664629688882]]]}}, {"type": "Feature", "properties": {"zone_id": "0204T1OQGBJHTHPJHOQ4C4", "tract_id": "36047034902", "city": "BROOKLYN, NY", "zone_code": "R7-1", "zone_category": "Residential", "ev_permitted": false}, "geometry": {"type": "Polygon", "coordinates": [[[-73.9296086977408, 40.6664578298232], [-73.929578763925, 40.6667912456148], [-73.9296772220844, 40.6667965856556], [-73.929707174078, 40.6664629688882], [-73.9296086977408, 40.6664578298232]]]}}, {"type": "Feature", "properties": {"zone_id": "02003RDIQA5VOU7OZ2JADM", "tract_id": "36047034902", "city": "BROOKLYN, NY", "zone_code": "R7-1", "zone_category": "Residential", "ev_permitted": false}, "geometry": {"type": "Polygon", "coordinates": [[[-73.9295095302884, 40.6664526551172], [-73.9294796137262, 40.6667858685271], [-73.929578763925, 40.6667912456148], [-73.9296086977408, 40.6664578298232], [-73.9295095302884, 40.6664526551172]]]}}, {"type": "Feature", "properties": {"zone_id": "0205HZB67AR6F199VF9Y6I", "tract_id": "36047034902", "city": "BROOKLYN, NY", "zone_code": "R7-1", "zone_category": "Residential", "ev_permitted": false}, "geometry": {"type": "Polygon", "coordinates": [[[-73.9293989079991, 40.6664468823564], [-73.9293690114286, 40.6667798687901], [-73.9294796137262, 40.6667858685271], [-73.9295095302884, 40.6664526551172], [-73.9293989079991, 40.6664468823564]]]}}, {"type": "Feature", "properties": {"zone_id": "0205FP1Z15G7W1U3SWRUFJ", "tract_id": "36047034902", "city": "BROOKLYN, NY", "zone_code": "R7-1", "zone_category": "Residential", "ev_permitted": false}, "geometry": {"type": "Polygon", "coordinates": [[[-73.9293126385896, 40.6664423808178], [-73.9292827574649, 40.6667751908705], [-73.9293690114286, 40.6667798687901], [-73.9293989079991, 40.6664468823564], [-73.9293126385896, 40.6664423808178]]]}}, {"type": "Feature", "properties": {"zone_id": "02065OR5O8DGWR70FW0M83", "tract_id": "36047034902", "city": "BROOKLYN, NY", "zone_code": "R7-1", "zone_category": "Residential", "ev_permitted": false}, "geometry": {"type": "Polygon", "coordinates": [[[-73.9292237218616, 40.6664377405664], [-73.9291938570988, 40.6667703686167], [-73.9292827574649, 40.6667751908705], [-73.9293126385896, 40.6664423808178], [-73.9292237218616, 40.6664377405664]]]}}, {"type": "Feature", "properties": {"zone_id": "0202VVAJFMI2H6LVX43592", "tract_id": "36047034902", "city": "BROOKLYN, NY", "zone_code": "R7-1", "zone_category": "Residential", "ev_permitted": false}, "geometry": {"type": "Polygon", "coordinates": [[[-73.929133873851, 40.6664324223052], [-73.9291039675684, 40.6667654936877], [-73.9291938570988, 40.6667703686167], [-73.9292237218616, 40.6664377405664], [-73.929133873851, 40.6664324223052]]]}}, {"type": "Feature", "properties": {"zone_id": "0202EFNLD076OI0ZAIQU6X", "tract_id": "36047034902", "city": "BROOKLYN, NY", "zone_code": "R7-1", "zone_category": "Residential", "ev_permitted": false}, "geometry": {"type": "Polygon", "coordinates": [[[-73.9290517439543, 40.6664280594376], [-73.9290218456659, 40.6667610394578], [-73.9291039675684, 40.6667654936877], [-73.929133873851, 40.6664324223052], [-73.9290517439543, 40.6664280594376]]]}}, {"type": "Feature", "properties": {"zone_id": "02027S1I6IFQ2Q395QF44M", "tract_id": "36047034902", "city": "BROOKLYN, NY", "zone_code": "R7-1", "zone_category": "Residential", "ev_permitted": false}, "geometry": {"type": "Polygon", "coordinates": [[[-73.9286763246431, 40.6664081126667], [-73.9286457273457, 40.6667406375347], [-73.9290218456659, 40.6667610394578], [-73.9290517439543, 40.6664280594376], [-73.9286763246431, 40.6664081126667]]]}}, {"type": "Feature", "properties": {"zone_id": "0204KFPA7Z7IL4OEZ2NEH7", "tract_id": "36047034902", "city": "BROOKLYN, NY", "zone_code": "R7-1", "zone_category": "Residential", "ev_permitted": false}, "geometry": {"type": "Polygon", "coordinates": [[[-73.9296773580522, 40.6661302037461], [-73.9296477627325, 40.6664598682558], [-73.9297309059528, 40.6664642074263], [-73.929760473775, 40.6661348541587], [-73.9296773580522, 40.6661302037461]]]}}, {"type": "Feature", "properties": {"zone_id": "02067E8KLZR5PZPZ2355DI", "tract_id": "36047034902", "city": "BROOKLYN, NY", "zone_code": "R7-1", "zone_category": "Residential", "ev_permitted": false}, "geometry": {"type": "Polygon", "coordinates": [[[-73.9295787838678, 40.6661246886702], [-73.9295491535298, 40.6664547227345], [-73.9296477627325, 40.6664598682558], [-73.9296773580522, 40.6661302037461], [-73.9295787838678, 40.6661246886702]]]}}, {"type": "Feature", "properties": {"zone_id": "0203BCBZ2YKIP6U8ND5JVL", "tract_id": "36047034902", "city": "BROOKLYN, NY", "zone_code": "R7-1", "zone_category": "Residential", "ev_permitted": false}, "geometry": {"type": "Polygon", "coordinates": [[[-73.9294903477177, 40.6661197404495], [-73.9294606870637, 40.6664501068326], [-73.9295491535298, 40.6664547227345], [-73.9295787838678, 40.6661246886702], [-73.9294903477177, 40.6661197404495]]]}}, {"type": "Feature", "properties": {"zone_id": "0202ZSIZ7O97YI28XJNW6Z", "tract_id": "36047034902", "city": "BROOKLYN, NY", "zone_code": "R7-1", "zone_category": "Residential", "ev_permitted": false}, "geometry": {"type": "Polygon", "coordinates": [[[-73.9294025943996, 40.6661148305237], [-73.9293729034357, 40.6664455257125], [-73.9294606870637, 40.6664501068326], [-73.9294903477177, 40.6661197404495], [-73.9294025943996, 40.6661148305237]]]}}, {"type": "Feature", "properties": {"zone_id": "02041E2DXMFGI6TD0GINAN", "tract_id": "36047034902", "city": "BROOKLYN, NY", "zone_code": "R7-1", "zone_category": "Residential", "ev_permitted": false}, "geometry": {"type": "Polygon", "coordinates": [[[-73.9293165306098, 40.6661100150232], [-73.9292868102731, 40.6664410326947], [-73.9293729034357, 40.6664455257125], [-73.9294025943996, 40.6661148305237], [-73.9293165306098, 40.6661100150232]]]}}, {"type": "Feature", "properties": {"zone_id": "0200F08HYWNMBJFQ0B1PSU", "tract_id": "36047034902", "city": "BROOKLYN, NY", "zone_code": "R7-1", "zone_category": "Residential", "ev_permitted": false}, "geometry": {"type": "Polygon", "coordinates": [[[-73.9292221447468, 40.6661047347967], [-73.9291923921942, 40.666436105864], [-73.9292868102731, 40.6664410326947], [-73.9293165306098, 40.6661100150232], [-73.9292221447468, 40.6661047347967]]]}}, {"type": "Feature", "properties": {"zone_id": "0206KH9FF1SBQJ6EEBY5OD", "tract_id": "36047034902", "city": "BROOKLYN, NY", "zone_code": "R7-1", "zone_category": "Residential", "ev_permitted": false}, "geometry": {"type": "Polygon", "coordinates": [[[-73.9291340675911, 40.6660998061974], [-73.9291043444758, 40.6664308540355], [-73.9291923921942, 40.666436105864], [-73.9292221447468, 40.6661047347967], [-73.9291340675911, 40.6660998061974]]]}}, {"type": "Feature", "properties": {"zone_id": "020263Z3LI5GJO7Q93U4LF", "tract_id": "36047034902", "city": "BROOKLYN, NY", "zone_code": "R7-1", "zone_category": "Residential", "ev_permitted": false}, "geometry": {"type": "Polygon", "coordinates": [[[-73.9290442926302, 40.666094781624], [-73.9290145457319, 40.6664260830861], [-73.9291043444758, 40.6664308540355], [-73.9291340675911, 40.6660998061974], [-73.9290442926302, 40.666094781624]]]}}, {"type": "Feature", "properties": {"zone_id": "02070D3TR8MG3CUN2SBXNS", "tract_id": "36047034902", "city": "BROOKLYN, NY", "zone_code": "R7-1", "zone_category": "Residential", "ev_permitted": false}, "geometry": {"type": "Polygon", "coordinates": [[[-73.9287068936146, 40.6660759032561], [-73.9286763246431, 40.6664081126667], [-73.9290145457319, 40.6664260830861], [-73.9290442926302, 40.666094781624], [-73.9287068936146, 40.6660759032561]]]}}, {"type": "Feature", "properties": {"zone_id": "020308HNF9HSUZNMMC8D5I", "tract_id": "36047034902", "city": "BROOKLYN, NY", "zone_code": "R4", "zone_category": "Residential", "ev_permitted": false}, "geometry": {"type": "Polygon", "coordinates": [[[-73.9311218937567, 40.6656969772208], [-73.9310924375127, 40.6660143434814], [-73.9312035785403, 40.6660203250209], [-73.9312330239837, 40.6657030788813], [-73.9311218937567, 40.6656969772208]]]}}, {"type": "Feature", "properties": {"zone_id": "0202Z33BIYUP9IWJK3X4GS", "tract_id": "36047034902", "city": "BROOKLYN, NY", "zone_code": "R4", "zone_category": "Residential", "ev_permitted": false}, "geometry": {"type": "Polygon", "coordinates": [[[-73.9310295037174, 40.6653620648219], [-73.9310250067779, 40.6654105128744], [-73.9312589866859, 40.6654233584876], [-73.9312634825336, 40.6653749104255], [-73.9310295037174, 40.6653620648219]]]}}, {"type": "Feature", "properties": {"zone_id": "0207HOQ52BCUW54O2AWR78", "tract_id": "36047034902", "city": "BROOKLYN, NY", "zone_code": "R4", "zone_category": "Residential", "ev_permitted": false}, "geometry": {"type": "Polygon", "coordinates": [[[-73.931030933389, 40.665691983702], [-73.9310014673857, 40.6660094476041], [-73.9310924375127, 40.6660143434814], [-73.9311218937567, 40.6656969772208], [-73.931030933389, 40.665691983702]]]}}, {"type": "Feature", "properties": {"zone_id": "02061Z4UQY1ZHASH2ZZDMC", "tract_id": "36047034902", "city": "BROOKLYN, NY", "zone_code": "R4", "zone_category": "Residential", "ev_permitted": false}, "geometry": {"type": "Polygon", "coordinates": [[[-73.9309456173431, 40.6656872984555], [-73.930916142534, 40.6660048557852], [-73.9310014673857, 40.6660094476041], [-73.931030933389, 40.665691983702], [-73.9309456173431, 40.6656872984555]]]}}, {"type": "Feature", "properties": {"zone_id": "0204ND5EAIT61EB6X1FYKY", "tract_id": "36047034902", "city": "BROOKLYN, NY", "zone_code": "R7-1", "zone_category": "Residential", "ev_permitted": false}, "geometry": {"type": "Polygon", "coordinates": [[[-73.9307693145873, 40.6656417027661], [-73.9307365036333, 40.6659951873289], [-73.9308234524641, 40.665999867388], [-73.9308529370429, 40.665682211012], [-73.9308691520804, 40.6656831011946], [-73.9308724686639, 40.6656473664314], [-73.9307693145873, 40.6656417027661]]]}}, {"type": "Feature", "properties": {"zone_id": "02037OOHVQ969K81CHIW8I", "tract_id": "36047034902", "city": "BROOKLYN, NY", "zone_code": "R7-1", "zone_category": "Residential", "ev_permitted": false}, "geometry": {"type": "Polygon", "coordinates": [[[-73.9308529370429, 40.665682211012], [-73.9308234524641, 40.665999867388], [-73.930916142534, 40.6660048557852], [-73.9309456173431, 40.6656872984555], [-73.9308529370429, 40.665682211012]]]}}, {"type": "Feature", "properties": {"zone_id": "0200163125YVIRPJ6K1ANU", "tract_id": "36047034902", "city": "BROOKLYN, NY", "zone_code": "R7-1", "zone_category": "Residential", "ev_permitted": false}, "geometry": {"type": "Polygon", "coordinates": [[[-73.9305837216303, 40.665631512624], [-73.9305508910336, 40.6659851973821], [-73.9306472378394, 40.6659903835439], [-73.9306800576699, 40.6656368020439], [-73.9305837216303, 40.665631512624]]]}}, {"type": "Feature", "properties": {"zone_id": "0203QNPCH5BQU0A0M5KKE3", "tract_id": "36047034902", "city": "BROOKLYN, NY", "zone_code": "R7-1", "zone_category": "Residential", "ev_permitted": false}, "geometry": {"type": "Polygon", "coordinates": [[[-73.9304944545911, 40.6656266103463], [-73.9304616141939, 40.6659803927436], [-73.9305508910336, 40.6659851973821], [-73.9305837216303, 40.665631512624], [-73.9304944545911, 40.6656266103463]]]}}, {"type": "Feature", "properties": {"zone_id": "0205LDU2755AUTLW4RUXE1", "tract_id": "36047034902", "city": "BROOKLYN, NY", "zone_code": "R7-1", "zone_category": "Residential", "ev_permitted": false}, "geometry": {"type": "Polygon", "coordinates": [[[-73.9306800576699, 40.6656368020439], [-73.9306472378394, 40.6659903835439], [-73.9307365036333, 40.6659951873289], [-73.9307693145873, 40.6656417027661], [-73.9306800576699, 40.6656368020439]]]}}, {"type": "Feature", "properties": {"zone_id": "0200A95WEIBEGP5R5MQFDP", "tract_id": "36047034902", "city": "BROOKLYN, NY", "zone_code": "R4", "zone_category": "Residential", "ev_permitted": false}, "geometry": {"type": "Polygon", "coordinates": [[[-73.9308774360619, 40.6655938496552], [-73.9308731666928, 40.6656398476501], [-73.9312370383613, 40.6656598253242], [-73.9312413074808, 40.6656138273159], [-73.9308774360619, 40.6655938496552]]]}}, {"type": "Feature", "properties": {"zone_id": "0206XLATIAIJ0PNI1XGYEE", "tract_id": "36047034902", "city": "BROOKLYN, NY", "zone_code": "R4", "zone_category": "Residential", "ev_permitted": false}, "geometry": {"type": "Polygon", "coordinates": [[[-73.9308731666928, 40.6656398476501], [-73.9308691520804, 40.6656831011946], [-73.9312330239837, 40.6657030788813], [-73.9312370383613, 40.6656598253242], [-73.9308731666928, 40.6656398476501]]]}}, {"type": "Feature", "properties": {"zone_id": "02029OIKI26CYVXM5DCRDE", "tract_id": "36047034902", "city": "BROOKLYN, NY", "zone_code": "R4", "zone_category": "Residential", "ev_permitted": false}, "geometry": {"type": "Polygon", "coordinates": [[[-73.9308820870986, 40.6655437420111], [-73.9308774360619, 40.6655938496552], [-73.9312413074808, 40.6656138273159], [-73.9312459582455, 40.6655637196572], [-73.9308820870986, 40.6655437420111]]]}}, {"type": "Feature", "properties": {"zone_id": "0204557A2QOFDLW64ZMFNC", "tract_id": "36047034902", "city": "BROOKLYN, NY", "zone_code": "R7-1", "zone_category": "Residential", "ev_permitted": false}, "geometry": {"type": "Polygon", "coordinates": [[[-73.9298139086039, 40.6655892426755], [-73.9298448109661, 40.6657800803044], [-73.929488843773, 40.6658105416541], [-73.9295080359685, 40.6659290632131], [-73.9303680706678, 40.6659753577905], [-73.9304009208905, 40.6656214756471], [-73.9298139086039, 40.6655892426755]]]}}, {"type": "Feature", "properties": {"zone_id": "0204QM73RQ6Z2V70N52NN2", "tract_id": "36047034902", "city": "BROOKLYN, NY", "zone_code": "R7-1", "zone_category": "Residential", "ev_permitted": false}, "geometry": {"type": "Polygon", "coordinates": [[[-73.9304009208905, 40.6656214756471], [-73.9303680706678, 40.6659753577905], [-73.9304616141939, 40.6659803927436], [-73.9304944545911, 40.6656266103463], [-73.9304009208905, 40.6656214756471]]]}}, {"type": "Feature", "properties": {"zone_id": "0201YZHI99S882BJMZGXRF", "tract_id": "36047034902", "city": "BROOKLYN, NY", "zone_code": "R4", "zone_category": "Residential", "ev_permitted": false}, "geometry": {"type": "Polygon", "coordinates": [[[-73.9309046982818, 40.6653001379816], [-73.9308949884622, 40.6654047502965], [-73.9310248798654, 40.6654118815866], [-73.9310295037174, 40.6653620648219], [-73.9312634825336, 40.6653749104255], [-73.9312685681065, 40.6653201155568], [-73.9309046982818, 40.6653001379816]]]}}, {"type": "Feature", "properties": {"zone_id": "0201W0IOXXT6W62W7RP2YG", "tract_id": "36047034902", "city": "BROOKLYN, NY", "zone_code": "R4", "zone_category": "Residential", "ev_permitted": false}, "geometry": {"type": "Polygon", "coordinates": [[[-73.9308949884622, 40.6654047502965], [-73.9308863415206, 40.6654979084296], [-73.931250212418, 40.665517886765], [-73.9312589866859, 40.6654233584876], [-73.9310250067779, 40.6654105128744], [-73.9310248798654, 40.6654118815866], [-73.9308949884622, 40.6654047502965]]]}}, {"type": "Feature", "properties": {"zone_id": "0200THZVQ7RQ4Y30ATZATL", "tract_id": "36047034902", "city": "BROOKLYN, NY", "zone_code": "R7-1", "zone_category": "Residential", "ev_permitted": false}, "geometry": {"type": "Polygon", "coordinates": [[[-73.9308150053649, 40.6652952139138], [-73.9307827752825, 40.6656424423387], [-73.9308724686639, 40.6656473664314], [-73.9309046982818, 40.6653001379816], [-73.9308150053649, 40.6652952139138]]]}}, {"type": "Feature", "properties": {"zone_id": "0201RKDFMD7G7Z817LUNOI", "tract_id": "36047034902", "city": "BROOKLYN, NY", "zone_code": "R4", "zone_category": "Residential", "ev_permitted": false}, "geometry": {"type": "Polygon", "coordinates": [[[-73.9308863415206, 40.6654979084296], [-73.9308820870986, 40.6655437420111], [-73.9312459582455, 40.6655637196572], [-73.931250212418, 40.665517886765], [-73.9308863415206, 40.6654979084296]]]}}, {"type": "Feature", "properties": {"zone_id": "02015W7H5YOLU6ADGLHAER", "tract_id": "36047034902", "city": "BROOKLYN, NY", "zone_code": "R7-1", "zone_category": "Residential", "ev_permitted": false}, "geometry": {"type": "Polygon", "coordinates": [[[-73.9307225350781, 40.6652901363282], [-73.9306903045168, 40.6656373647274], [-73.9307827752825, 40.6656424423387], [-73.9308150053649, 40.6652952139138], [-73.9307225350781, 40.6652901363282]]]}}, {"type": "Feature", "properties": {"zone_id": "0202NJ36E9VSIBK5FU496X", "tract_id": "36047034902", "city": "BROOKLYN, NY", "zone_code": "R7-1", "zone_category": "Residential", "ev_permitted": false}, "geometry": {"type": "Polygon", "coordinates": [[[-73.9306326539538, 40.665285201465], [-73.930600422927, 40.6656324298392], [-73.9306903045168, 40.6656373647274], [-73.9307225350781, 40.6652901363282], [-73.9306326539538, 40.665285201465]]]}}, {"type": "Feature", "properties": {"zone_id": "02049YET3BXCV5OBWPGO5Q", "tract_id": "36047034902", "city": "BROOKLYN, NY", "zone_code": "R7-1", "zone_category": "Residential", "ev_permitted": false}, "geometry": {"type": "Polygon", "coordinates": [[[-73.9304561360247, 40.6652755084523], [-73.9304239050057, 40.6656227374806], [-73.9305146853017, 40.6656277222361], [-73.9305469158497, 40.6652804938852], [-73.9304561360247, 40.6652755084523]]]}}, {"type": "Feature", "properties": {"zone_id": "0202VFSR0TDM0AAIIZC1DO", "tract_id": "36047034902", "city": "BROOKLYN, NY", "zone_code": "R7-1", "zone_category": "Residential", "ev_permitted": false}, "geometry": {"type": "Polygon", "coordinates": [[[-73.9305469158497, 40.6652804938852], [-73.9305146853017, 40.6656277222361], [-73.930600422927, 40.6656324298392], [-73.9306326539538, 40.665285201465], [-73.9305469158497, 40.6652804938852]]]}}, {"type": "Feature", "properties": {"zone_id": "02024VOHBRZP78B6JVEUZM", "tract_id": "36047034902", "city": "BROOKLYN, NY", "zone_code": "R7-1", "zone_category": "Residential", "ev_permitted": false}, "geometry": {"type": "Polygon", "coordinates": [[[-73.9302767042009, 40.6652656567087], [-73.9302444722534, 40.6656128849845], [-73.9303319113417, 40.665617686571], [-73.9303641428364, 40.6652704582709], [-73.9302767042009, 40.6652656567087]]]}}, {"type": "Feature", "properties": {"zone_id": "02063MXGDRTCAKGGDRH11A", "tract_id": "36047034902", "city": "BROOKLYN, NY", "zone_code": "R7-1", "zone_category": "Residential", "ev_permitted": false}, "geometry": {"type": "Polygon", "coordinates": [[[-73.9303641428364, 40.6652704582709], [-73.9303319113417, 40.665617686571], [-73.9304239050057, 40.6656227374806], [-73.9304561360247, 40.6652755084523], [-73.9303641428364, 40.6652704582709]]]}}, {"type": "Feature", "properties": {"zone_id": "0201URAVS9PNBM13EO1B6J", "tract_id": "36047034902", "city": "BROOKLYN, NY", "zone_code": "R7-1", "zone_category": "Residential", "ev_permitted": false}, "geometry": {"type": "Polygon", "coordinates": [[[-73.930186609995, 40.6652607094225], [-73.9301543766589, 40.66560793697], [-73.9302444722534, 40.6656128849845], [-73.9302767042009, 40.6652656567087], [-73.930186609995, 40.6652607094225]]]}}, {"type": "Feature", "properties": {"zone_id": "0207NNTGZ1SBFJLE4K9VIV", "tract_id": "36047034902", "city": "BROOKLYN, NY", "zone_code": "R7-1", "zone_category": "Residential", "ev_permitted": false}, "geometry": {"type": "Polygon", "coordinates": [[[-73.9297568892357, 40.6652371123797], [-73.9298139086039, 40.6655892426755], [-73.9301543766589, 40.66560793697], [-73.930186609995, 40.6652607094225], [-73.9297568892357, 40.6652371123797]]]}}, {"type": "Feature", "properties": {"zone_id": "02075UL9MLZS3PYPRXW1BJ", "tract_id": "36047034902", "city": "BROOKLYN, NY", "zone_code": "R7-1", "zone_category": "Residential", "ev_permitted": false}, "geometry": {"type": "Polygon", "coordinates": [[[-73.9292712531498, 40.6653713586998], [-73.9289265245773, 40.6654051951928], [-73.9290105646737, 40.6659016626024], [-73.9293750823397, 40.6659215481905], [-73.9292712531498, 40.6653713586998]]]}}, {"type": "Feature", "properties": {"zone_id": "0200JK0EX4QQFK0PGUUR8U", "tract_id": "36047034902", "city": "BROOKLYN, NY", "zone_code": "R7-1", "zone_category": "Residential", "ev_permitted": false}, "geometry": {"type": "Polygon", "coordinates": [[[-73.9297999647385, 40.6655031276881], [-73.9294439990029, 40.6655335889], [-73.929488843773, 40.6658105416541], [-73.9298448109661, 40.6657800803044], [-73.9297999647385, 40.6655031276881]]]}}, {"type": "Feature", "properties": {"zone_id": "02008QFHPP39HCSAXHRFOI", "tract_id": "36047034902", "city": "BROOKLYN, NY", "zone_code": "R7-1", "zone_category": "Residential", "ev_permitted": false}, "geometry": {"type": "Polygon", "coordinates": [[[-73.9289514844809, 40.6655526476608], [-73.9287629897299, 40.6655711474536], [-73.9287318588959, 40.6658864581993], [-73.9290105646737, 40.6659016626024], [-73.9289514844809, 40.6655526476608]]]}}, {"type": "Feature", "properties": {"zone_id": "0205EGVGURF2ZDCX7R141R", "tract_id": "36047034902", "city": "BROOKLYN, NY", "zone_code": "R7-1", "zone_category": "Residential", "ev_permitted": false}, "geometry": {"type": "Polygon", "coordinates": [[[-73.9293927554964, 40.665217115807], [-73.9294439990029, 40.6655335889], [-73.9297999647385, 40.6655031276881], [-73.9297568892357, 40.6652371123797], [-73.9293927554964, 40.665217115807]]]}}, {"type": "Feature", "properties": {"zone_id": "0202N278J5T2NSJ5XMTIEM", "tract_id": "36047034902", "city": "BROOKLYN, NY", "zone_code": "R7-1", "zone_category": "Residential", "ev_permitted": false}, "geometry": {"type": "Polygon", "coordinates": [[[-73.9291720097888, 40.6652063178912], [-73.9292043931473, 40.6653779212032], [-73.9292712531498, 40.6653713586998], [-73.9292408296395, 40.6652101440855], [-73.9291720097888, 40.6652063178912]]]}}, {"type": "Feature", "properties": {"zone_id": "0206EW55G5J28VBG2R2OAF", "tract_id": "36047034902", "city": "BROOKLYN, NY", "zone_code": "R7-1", "zone_category": "Residential", "ev_permitted": false}, "geometry": {"type": "Polygon", "coordinates": [[[-73.9290264569015, 40.6651982248461], [-73.9290629874466, 40.6653918009334], [-73.9291337798225, 40.6653848523619], [-73.9290993256125, 40.6652022763672], [-73.9290264569015, 40.6651982248461]]]}}, {"type": "Feature", "properties": {"zone_id": "02011IQNZTQFTMKANSMLCR", "tract_id": "36047034902", "city": "BROOKLYN, NY", "zone_code": "R7-1", "zone_category": "Residential", "ev_permitted": false}, "geometry": {"type": "Polygon", "coordinates": [[[-73.9290993256125, 40.6652022763672], [-73.9291337798225, 40.6653848523619], [-73.9292043931473, 40.6653779212032], [-73.9291720097888, 40.6652063178912], [-73.9290993256125, 40.6652022763672]]]}}, {"type": "Feature", "properties": {"zone_id": "0206GU1IQAIGQL78O2N5LF", "tract_id": "36047034902", "city": "BROOKLYN, NY", "zone_code": "R7-1", "zone_category": "Residential", "ev_permitted": false}, "geometry": {"type": "Polygon", "coordinates": [[[-73.9289556135605, 40.6651942855505], [-73.9289941607677, 40.6653985567397], [-73.9290629874466, 40.6653918009334], [-73.9290264569015, 40.6651982248461], [-73.9289556135605, 40.6651942855505]]]}}, {"type": "Feature", "properties": {"zone_id": "02012XSFYM7AEOFLDR4Y0O", "tract_id": "36047034902", "city": "BROOKLYN, NY", "zone_code": "R7-1", "zone_category": "Residential", "ev_permitted": false}, "geometry": {"type": "Polygon", "coordinates": [[[-73.9288902068666, 40.6651906496093], [-73.9289265245773, 40.6654051951928], [-73.9289941607677, 40.6653985567397], [-73.9289556135605, 40.6651942855505], [-73.9288902068666, 40.6651906496093]]]}}, {"type": "Feature", "properties": {"zone_id": "020495IFRSFKYWVOX0H8TI", "tract_id": "36047034902", "city": "BROOKLYN, NY", "zone_code": "R7-1", "zone_category": "Residential", "ev_permitted": false}, "geometry": {"type": "Polygon", "coordinates": [[[-73.9289136398078, 40.6653290810553], [-73.9287856489738, 40.6653416442131], [-73.9287715776839, 40.6654841665566], [-73.9289371416237, 40.6654679165683], [-73.9289136398078, 40.6653290810553]]]}}, {"type": "Feature", "properties": {"zone_id": "0206PXW2JLSBZ3XK044PSP", "tract_id": "36047034902", "city": "BROOKLYN, NY", "zone_code": "R7-1", "zone_category": "Residential", "ev_permitted": false}, "geometry": {"type": "Polygon", "coordinates": [[[-73.9289371416237, 40.6654679165683], [-73.9287715776839, 40.6654841665566], [-73.9287629897299, 40.6655711474536], [-73.9289514844809, 40.6655526476608], [-73.9289371416237, 40.6654679165683]]]}}, {"type": "Feature", "properties": {"zone_id": "0200L0VY6CIHL9GEXOZ3RT", "tract_id": "36047034902", "city": "BROOKLYN, NY", "zone_code": "R7-1", "zone_category": "Residential", "ev_permitted": false}, "geometry": {"type": "Polygon", "coordinates": [[[-73.9288010467181, 40.6651856919778], [-73.9287856489738, 40.6653416442131], [-73.9289136398078, 40.6653290810553], [-73.9288902068666, 40.6651906496093], [-73.9288010467181, 40.6651856919778]]]}}]}