{"type": "FeatureCollection", "features": [{"type": "Feature", "properties": {"zone_id": "0203Q34L1ZSGF77GZO5E7X", "tract_id": "36047045000", "city": "BROOKLYN, NY", "zone_code": "M1-1", "zone_category": "Industrial", "ev_permitted": true}, "geometry": {"type": "Polygon", "coordinates": [[[-73.975607983358, 40.6234478629591], [-73.9753201029074, 40.6234789675882], [-73.9753317235347, 40.6235386623023], [-73.9756192286881, 40.6235056259346], [-73.975607983358, 40.6234478629591]]]}}, {"type": "Feature", "properties": {"zone_id": "0205FGCVGGAVYN6F5K533C", "tract_id": "36047045000", "city": "BROOKLYN, NY", "zone_code": "M1-1", "zone_category": "Industrial", "ev_permitted": true}, "geometry": {"type": "Polygon", "coordinates": [[[-73.9755972654726, 40.6233928102788], [-73.9753093732892, 40.6234238516386], [-73.9753201029074, 40.6234789675882], [-73.975607983358, 40.6234478629591], [-73.9755972654726, 40.6233928102788]]]}}, {"type": "Feature", "properties": {"zone_id": "0206YOQR44AZC5RMW5EBW5", "tract_id": "36047045000", "city": "BROOKLYN, NY", "zone_code": "M1-1", "zone_category": "Industrial", "ev_permitted": true}, "geometry": {"type": "Polygon", "coordinates": [[[-73.9755874441365, 40.6233423581451], [-73.975299551244, 40.6233733994803], [-73.9753093732892, 40.6234238516386], [-73.9755972654726, 40.6233928102788], [-73.9755874441365, 40.6233423581451]]]}}, {"type": "Feature", "properties": {"zone_id": "0203WFFI5QK3PYYLGW0O20", "tract_id": "36047045000", "city": "BROOKLYN, NY", "zone_code": "M1-1", "zone_category": "Industrial", "ev_permitted": true}, "geometry": {"type": "Polygon", "coordinates": [[[-73.975203578888, 40.6232712343001], [-73.9751378434386, 40.6232783219532], [-73.9751916574807, 40.6235547562502], [-73.9752573039126, 40.6235472132195], [-73.975203578888, 40.6232712343001]]]}}, {"type": "Feature", "properties": {"zone_id": "020014BBGQNV5PFYPZNN7Q", "tract_id": "36047045000", "city": "BROOKLYN, NY", "zone_code": "M1-1", "zone_category": "Industrial", "ev_permitted": true}, "geometry": {"type": "Polygon", "coordinates": [[[-73.975278098537, 40.6232631991962], [-73.975203578888, 40.6232712343001], [-73.9752573039126, 40.6235472132195], [-73.9753317235347, 40.6235386623023], [-73.975278098537, 40.6232631991962]]]}}, {"type": "Feature", "properties": {"zone_id": "02034ULEOAID6TX507BOIV", "tract_id": "36047045000", "city": "BROOKLYN, NY", "zone_code": "R3-1", "zone_category": "Residential", "ev_permitted": false}, "geometry": {"type": "Polygon", "coordinates": [[[-73.9751378434386, 40.6232783219532], [-73.9750662001841, 40.6232860470114], [-73.975120109659, 40.623562977445], [-73.9751916574807, 40.6235547562502], [-73.9751378434386, 40.6232783219532]]]}}, {"type": "Feature", "properties": {"zone_id": "0203KHFCCFUCR7X90IRNV5", "tract_id": "36047045000", "city": "BROOKLYN, NY", "zone_code": "R3-1", "zone_category": "Residential", "ev_permitted": false}, "geometry": {"type": "Polygon", "coordinates": [[[-73.9749920023418, 40.6232940469145], [-73.9749197181052, 40.6233018406033], [-73.9749738248762, 40.6235797865013], [-73.9750460118423, 40.6235714917564], [-73.9749920023418, 40.6232940469145]]]}}, {"type": "Feature", "properties": {"zone_id": "02033KFX1Y9209QVFQNAZW", "tract_id": "36047045000", "city": "BROOKLYN, NY", "zone_code": "R3-1", "zone_category": "Residential", "ev_permitted": false}, "geometry": {"type": "Polygon", "coordinates": [[[-73.9750662001841, 40.6232860470114], [-73.9749920023418, 40.6232940469145], [-73.9750460118423, 40.6235714917564], [-73.975120109659, 40.623562977445], [-73.9750662001841, 40.6232860470114]]]}}, {"type": "Feature", "properties": {"zone_id": "0204B1ENCNL4MI57GNJZYH", "tract_id": "36047045000", "city": "BROOKLYN, NY", "zone_code": "R3-1", "zone_category": "Residential", "ev_permitted": false}, "geometry": {"type": "Polygon", "coordinates": [[[-73.9749197181052, 40.6233018406033], [-73.9748489997955, 40.6233094652466], [-73.9749032010801, 40.6235879009569], [-73.9749738248762, 40.6235797865013], [-73.9749197181052, 40.6233018406033]]]}}, {"type": "Feature", "properties": {"zone_id": "02049KIZ655JO0V33KM347", "tract_id": "36047045000", "city": "BROOKLYN, NY", "zone_code": "R3-1", "zone_category": "Residential", "ev_permitted": false}, "geometry": {"type": "Polygon", "coordinates": [[[-73.9748489997955, 40.6233094652466], [-73.9747847462921, 40.623316392814], [-73.9748390347549, 40.6235952740641], [-73.9749032010801, 40.6235879009569], [-73.9748489997955, 40.6233094652466]]]}}, {"type": "Feature", "properties": {"zone_id": "02001HUQHRO03ZRSP8KHAN", "tract_id": "36047045000", "city": "BROOKLYN, NY", "zone_code": "R3-1", "zone_category": "Residential", "ev_permitted": false}, "geometry": {"type": "Polygon", "coordinates": [[[-73.9747847462921, 40.623316392814], [-73.9746561313445, 40.6233302597627], [-73.9747090484944, 40.6236102095273], [-73.9748390347549, 40.6235952740641], [-73.9747847462921, 40.623316392814]]]}}, {"type": "Feature", "properties": {"zone_id": "0205U0PPDKYE4MGYGLUYOH", "tract_id": "36047045000", "city": "BROOKLYN, NY", "zone_code": "R3-1", "zone_category": "Residential", "ev_permitted": false}, "geometry": {"type": "Polygon", "coordinates": [[[-73.9744534020163, 40.6233552544127], [-73.9743750087159, 40.6233639254371], [-73.974427530288, 40.6236359386245], [-73.974505923901, 40.6236272675646], [-73.9744534020163, 40.6233552544127]]]}}, {"type": "Feature", "properties": {"zone_id": "0201BZY2RGA4RR2L694OYB", "tract_id": "36047045000", "city": "BROOKLYN, NY", "zone_code": "R3-1", "zone_category": "Residential", "ev_permitted": false}, "geometry": {"type": "Polygon", "coordinates": [[[-73.9743750087159, 40.6233639254371], [-73.9743020233579, 40.6233719989452], [-73.9743545446391, 40.623644011463], [-73.974427530288, 40.6236359386245], [-73.9743750087159, 40.6233639254371]]]}}, {"type": "Feature", "properties": {"zone_id": "0206IQ8NEA50R3HAAGI9JR", "tract_id": "36047045000", "city": "BROOKLYN, NY", "zone_code": "R3-1", "zone_category": "Residential", "ev_permitted": false}, "geometry": {"type": "Polygon", "coordinates": [[[-73.9743020233579, 40.6233719989452], [-73.9741894216908, 40.6233844523743], [-73.9742419425224, 40.6236564663486], [-73.9743545446391, 40.623644011463], [-73.9743020233579, 40.6233719989452]]]}}, {"type": "Feature", "properties": {"zone_id": "0201P3JGIUWZKHQGVKSAJM", "tract_id": "36047045000", "city": "BROOKLYN, NY", "zone_code": "R3-1", "zone_category": "Residential", "ev_permitted": false}, "geometry": {"type": "Polygon", "coordinates": [[[-73.9741894216908, 40.6233844523743], [-73.974082446517, 40.623396285102], [-73.9741349669222, 40.6236682984221], [-73.9742419425224, 40.6236564663486], [-73.9741894216908, 40.6233844523743]]]}}, {"type": "Feature", "properties": {"zone_id": "0202LQQOYDVBZ9SBGX6LNU", "tract_id": "36047045000", "city": "BROOKLYN, NY", "zone_code": "R3-1", "zone_category": "Residential", "ev_permitted": false}, "geometry": {"type": "Polygon", "coordinates": [[[-73.9740848532095, 40.6234087502454], [-73.9739648117918, 40.6234220274104], [-73.9740149241255, 40.6236815756389], [-73.9741349669222, 40.6236682984221], [-73.9740848532095, 40.6234087502454]]]}}, {"type": "Feature", "properties": {"zone_id": "0205P8FB3EEBJEAAVRHL23", "tract_id": "36047045000", "city": "BROOKLYN, NY", "zone_code": "R3-1", "zone_category": "Residential", "ev_permitted": false}, "geometry": {"type": "Polygon", "coordinates": [[[-73.9738406829913, 40.6234357567399], [-73.9737298601177, 40.6234480140797], [-73.9737772343591, 40.6237078653376], [-73.9738907957747, 40.6236953050224], [-73.9738406829913, 40.6234357567399]]]}}, {"type": "Feature", "properties": {"zone_id": "02054CFYT0FASCEZCIDJQ5", "tract_id": "36047045000", "city": "BROOKLYN, NY", "zone_code": "R3-1", "zone_category": "Residential", "ev_permitted": false}, "geometry": {"type": "Polygon", "coordinates": [[[-73.9740701728567, 40.6233327212313], [-73.9737159825025, 40.6233718959655], [-73.9737298601177, 40.6234480140797], [-73.9740848532095, 40.6234087502454], [-73.9740701728567, 40.6233327212313]]]}}, {"type": "Feature", "properties": {"zone_id": "0200XHVM3BUEJU265IWIGK", "tract_id": "36047045000", "city": "BROOKLYN, NY", "zone_code": "R3-1", "zone_category": "Residential", "ev_permitted": false}, "geometry": {"type": "Polygon", "coordinates": [[[-73.9739648117918, 40.6234220274104], [-73.9738406829913, 40.6234357567399], [-73.9738907957747, 40.6236953050224], [-73.9740149241255, 40.6236815756389], [-73.9739648117918, 40.6234220274104]]]}}, {"type": "Feature", "properties": {"zone_id": "0206HKZQ7N3M63G9DGMJ56", "tract_id": "36047045000", "city": "BROOKLYN, NY", "zone_code": "M1-1", "zone_category": "Industrial", "ev_permitted": true}, "geometry": {"type": "Polygon", "coordinates": [[[-73.9755762200328, 40.6232847019753], [-73.9752883273837, 40.6233157432826], [-73.975299551244, 40.6233733994803], [-73.9755874441365, 40.6233423581451], [-73.9755762200328, 40.6232847019753]]]}}, {"type": "Feature", "properties": {"zone_id": "0205C16NLRLXGNHIHVK7SN", "tract_id": "36047045000", "city": "BROOKLYN, NY", "zone_code": "M1-1", "zone_category": "Industrial", "ev_permitted": true}, "geometry": {"type": "Polygon", "coordinates": [[[-73.9755659909642, 40.6232321579144], [-73.975278098537, 40.6232631991962], [-73.9752883273837, 40.6233157432826], [-73.9755762200328, 40.6232847019753], [-73.9755659909642, 40.6232321579144]]]}}, {"type": "Feature", "properties": {"zone_id": "0204HOU6MWH6Y8HMKV23KJ", "tract_id": "36047045000", "city": "BROOKLYN, NY", "zone_code": "M1-1", "zone_category": "Industrial", "ev_permitted": true}, "geometry": {"type": "Polygon", "coordinates": [[[-73.9755547291569, 40.6231743127165], [-73.9750946646472, 40.6232239184908], [-73.975105926064, 40.6232817637334], [-73.9755659909642, 40.6232321579144], [-73.9755547291569, 40.6231743127165]]]}}, {"type": "Feature", "properties": {"zone_id": "0202L5GSGW8QZRSQ287536", "tract_id": "36047045000", "city": "BROOKLYN, NY", "zone_code": "M1-1", "zone_category": "Industrial", "ev_permitted": true}, "geometry": {"type": "Polygon", "coordinates": [[[-73.9755451895444, 40.6231253081309], [-73.9750851253656, 40.6231749131646], [-73.9750946646472, 40.6232239184908], [-73.9755547291569, 40.6231743127165], [-73.9755451895444, 40.6231253081309]]]}}, {"type": "Feature", "properties": {"zone_id": "0206VQJ88QJDY2Q3Q8I87V", "tract_id": "36047045000", "city": "BROOKLYN, NY", "zone_code": "M1-1", "zone_category": "Industrial", "ev_permitted": true}, "geometry": {"type": "Polygon", "coordinates": [[[-73.9755341008194, 40.6230683497324], [-73.9750740370251, 40.623117954722], [-73.9750851253656, 40.6231749131646], [-73.9755451895444, 40.6231253081309], [-73.9755341008194, 40.6230683497324]]]}}, {"type": "Feature", "properties": {"zone_id": "0204VQOI0H5QBM5ZV4IG7U", "tract_id": "36047045000", "city": "BROOKLYN, NY", "zone_code": "M1-1", "zone_category": "Industrial", "ev_permitted": true}, "geometry": {"type": "Polygon", "coordinates": [[[-73.9754820456482, 40.6228009494377], [-73.9751301630224, 40.6228388909239], [-73.9751399195328, 40.6228914243837], [-73.9754921429607, 40.6228528168126], [-73.9754820456482, 40.6228009494377]]]}}, {"type": "Feature", "properties": {"zone_id": "0206IUOTLYPVBISMWS95N2", "tract_id": "36047045000", "city": "BROOKLYN, NY", "zone_code": "M1-1", "zone_category": "Industrial", "ev_permitted": true}, "geometry": {"type": "Polygon", "coordinates": [[[-73.9755242096235, 40.6230175406221], [-73.9750641461717, 40.623067146275], [-73.9750740370251, 40.623117954722], [-73.9755341008194, 40.6230683497324], [-73.9755242096235, 40.6230175406221]]]}}, {"type": "Feature", "properties": {"zone_id": "0207IV3328V39TEUW9IE9K", "tract_id": "36047045000", "city": "BROOKLYN, NY", "zone_code": "M1-1", "zone_category": "Industrial", "ev_permitted": true}, "geometry": {"type": "Polygon", "coordinates": [[[-73.9755116988379, 40.6229532748888], [-73.9750516358197, 40.623002880492], [-73.9750641461717, 40.623067146275], [-73.9755242096235, 40.6230175406221], [-73.9755116988379, 40.6229532748888]]]}}, {"type": "Feature", "properties": {"zone_id": "0204RJ4BC5EOVMPWRCSBMZ", "tract_id": "36047045000", "city": "BROOKLYN, NY", "zone_code": "M1-1", "zone_category": "Industrial", "ev_permitted": true}, "geometry": {"type": "Polygon", "coordinates": [[[-73.9751301630224, 40.6228388909239], [-73.975021983658, 40.6228505549231], [-73.9750516358197, 40.623002880492], [-73.9755116988379, 40.6229532748888], [-73.9754921429607, 40.6228528168126], [-73.9751399195328, 40.6228914243837], [-73.9751301630224, 40.6228388909239]]]}}, {"type": "Feature", "properties": {"zone_id": "0204BSPDFPT6VOC42XZZR8", "tract_id": "36047045000", "city": "BROOKLYN, NY", "zone_code": "R3-1", "zone_category": "Residential", "ev_permitted": false}, "geometry": {"type": "Polygon", "coordinates": [[[-73.975366121896, 40.622205463939], [-73.9749057822822, 40.6222536221116], [-73.9749684460873, 40.6225755364592], [-73.9754285071439, 40.6225259311868], [-73.975366121896, 40.622205463939]]]}}, {"type": "Feature", "properties": {"zone_id": "02067N2TH2GRRAENG8G3D0", "tract_id": "36047045000", "city": "BROOKLYN, NY", "zone_code": "M1-1", "zone_category": "Industrial", "ev_permitted": true}, "geometry": {"type": "Polygon", "coordinates": [[[-73.9754285071439, 40.6225259311868], [-73.9749684460873, 40.6225755364592], [-73.975021983658, 40.6228505549231], [-73.9754820456482, 40.6228009494377], [-73.9754285071439, 40.6225259311868]]]}}, {"type": "Feature", "properties": {"zone_id": "0204LHTWN7G875LZUQ5P48", "tract_id": "36047045000", "city": "BROOKLYN, NY", "zone_code": "R3-1", "zone_category": "Residential", "ev_permitted": false}, "geometry": {"type": "Polygon", "coordinates": [[[-73.9750946646472, 40.6232239184908], [-73.9746451912449, 40.6232723794138], [-73.9746561313445, 40.6233302597627], [-73.975105926064, 40.6232817637334], [-73.9750946646472, 40.6232239184908]]]}}, {"type": "Feature", "properties": {"zone_id": "0202ZEATG5Q1BR2PG8PQQR", "tract_id": "36047045000", "city": "BROOKLYN, NY", "zone_code": "R3-1", "zone_category": "Residential", "ev_permitted": false}, "geometry": {"type": "Polygon", "coordinates": [[[-73.9750851253656, 40.6231749131646], [-73.9746359224987, 40.6232233460035], [-73.9746451912449, 40.6232723794138], [-73.9750946646472, 40.6232239184908], [-73.9750851253656, 40.6231749131646]]]}}, {"type": "Feature", "properties": {"zone_id": "02044CQU4ZEF6E1J8QHQPE", "tract_id": "36047045000", "city": "BROOKLYN, NY", "zone_code": "R3-1", "zone_category": "Residential", "ev_permitted": false}, "geometry": {"type": "Polygon", "coordinates": [[[-73.9750740370251, 40.623117954722], [-73.9746251499348, 40.6231663538595], [-73.9746359224987, 40.6232233460035], [-73.9750851253656, 40.6231749131646], [-73.9750740370251, 40.623117954722]]]}}, {"type": "Feature", "properties": {"zone_id": "0203LETRUWDHOFLUD5EA25", "tract_id": "36047045000", "city": "BROOKLYN, NY", "zone_code": "R3-1", "zone_category": "Residential", "ev_permitted": false}, "geometry": {"type": "Polygon", "coordinates": [[[-73.9750641461717, 40.623067146275], [-73.9746155397729, 40.6231155145187], [-73.9746251499348, 40.6231663538595], [-73.9750740370251, 40.623117954722], [-73.9750641461717, 40.623067146275]]]}}, {"type": "Feature", "properties": {"zone_id": "02068FFZYRYJCTNZM98YJG", "tract_id": "36047045000", "city": "BROOKLYN, NY", "zone_code": "R3-1", "zone_category": "Residential", "ev_permitted": false}, "geometry": {"type": "Polygon", "coordinates": [[[-73.9750528701023, 40.6230092209198], [-73.974604584097, 40.6230575540572], [-73.9746155397729, 40.6231155145187], [-73.9750641461717, 40.623067146275], [-73.9750528701023, 40.6230092209198]]]}}, {"type": "Feature", "properties": {"zone_id": "0204UHWCVP1K4AVHQUV18T", "tract_id": "36047045000", "city": "BROOKLYN, NY", "zone_code": "R3-1", "zone_category": "Residential", "ev_permitted": false}, "geometry": {"type": "Polygon", "coordinates": [[[-73.9750433244388, 40.622960183265], [-73.9745953098899, 40.623008487616], [-73.974604584097, 40.6230575540572], [-73.9750528701023, 40.6230092209198], [-73.9750433244388, 40.622960183265]]]}}, {"type": "Feature", "properties": {"zone_id": "0202KHK2YFNH1RNHT0C54E", "tract_id": "36047045000", "city": "BROOKLYN, NY", "zone_code": "R3-1", "zone_category": "Residential", "ev_permitted": false}, "geometry": {"type": "Polygon", "coordinates": [[[-73.9750318873327, 40.622901430131], [-73.9745841977927, 40.6229496993761], [-73.9745953098899, 40.623008487616], [-73.9750433244388, 40.622960183265], [-73.9750318873327, 40.622901430131]]]}}, {"type": "Feature", "properties": {"zone_id": "020407SUQFYJ8WUS9PNVFL", "tract_id": "36047045000", "city": "BROOKLYN, NY", "zone_code": "R3-1", "zone_category": "Residential", "ev_permitted": false}, "geometry": {"type": "Polygon", "coordinates": [[[-73.975021983658, 40.6228505549231], [-73.97457457573, 40.6228987939775], [-73.9745841977927, 40.6229496993761], [-73.9750318873327, 40.622901430131], [-73.975021983658, 40.6228505549231]]]}}, {"type": "Feature", "properties": {"zone_id": "0204BMGU5T8K4AA8HIMCFG", "tract_id": "36047045000", "city": "BROOKLYN, NY", "zone_code": "R3-1", "zone_category": "Residential", "ev_permitted": false}, "geometry": {"type": "Polygon", "coordinates": [[[-73.9750103891978, 40.6227909957936], [-73.9745633108939, 40.6228391997427], [-73.97457457573, 40.6228987939775], [-73.975021983658, 40.6228505549231], [-73.9750103891978, 40.6227909957936]]]}}, {"type": "Feature", "properties": {"zone_id": "0203VQUZWFOS2H3HBSH36F", "tract_id": "36047045000", "city": "BROOKLYN, NY", "zone_code": "R3-1", "zone_category": "Residential", "ev_permitted": false}, "geometry": {"type": "Polygon", "coordinates": [[[-73.9744372928495, 40.6232718267522], [-73.9740663378039, 40.6233128573898], [-73.974082446517, 40.623396285102], [-73.9744534020163, 40.6233552544127], [-73.9744372928495, 40.6232718267522]]]}}, {"type": "Feature", "properties": {"zone_id": "0200XP5AJBLDWOPEAFMQBR", "tract_id": "36047045000", "city": "BROOKLYN, NY", "zone_code": "R3-1", "zone_category": "Residential", "ev_permitted": false}, "geometry": {"type": "Polygon", "coordinates": [[[-73.9744219605098, 40.6231924199192], [-73.9740510058961, 40.6232334505077], [-73.9740663378039, 40.6233128573898], [-73.9744372928495, 40.6232718267522], [-73.9744219605098, 40.6231924199192]]]}}, {"type": "Feature", "properties": {"zone_id": "0204QLZDWVIYLL7J6DGU3P", "tract_id": "36047045000", "city": "BROOKLYN, NY", "zone_code": "R3-1", "zone_category": "Residential", "ev_permitted": false}, "geometry": {"type": "Polygon", "coordinates": [[[-73.9744059526633, 40.6231095108433], [-73.9740349985009, 40.6231505406778], [-73.9740510058961, 40.6232334505077], [-73.9744219605098, 40.6231924199192], [-73.9744059526633, 40.6231095108433]]]}}, {"type": "Feature", "properties": {"zone_id": "0207IM0IBQQSNY6OBMKR46", "tract_id": "36047045000", "city": "BROOKLYN, NY", "zone_code": "R3-1", "zone_category": "Residential", "ev_permitted": false}, "geometry": {"type": "Polygon", "coordinates": [[[-73.9743904197607, 40.623029063311], [-73.9740194660356, 40.6230700937984], [-73.9740349985009, 40.6231505406778], [-73.9744059526633, 40.6231095108433], [-73.9743904197607, 40.623029063311]]]}}, {"type": "Feature", "properties": {"zone_id": "0200UAF0TRL10OF2JLIL11", "tract_id": "36047045000", "city": "BROOKLYN, NY", "zone_code": "R3-1", "zone_category": "Residential", "ev_permitted": false}, "geometry": {"type": "Polygon", "coordinates": [[[-73.9740318923719, 40.6231344559398], [-73.9736797955853, 40.6231733998587], [-73.9736915051197, 40.6232376403108], [-73.9740442819209, 40.6231986220272], [-73.9740318923719, 40.6231344559398]]]}}, {"type": "Feature", "properties": {"zone_id": "0206HV1CCZINXBQEKY6C95", "tract_id": "36047045000", "city": "BROOKLYN, NY", "zone_code": "R3-1", "zone_category": "Residential", "ev_permitted": false}, "geometry": {"type": "Polygon", "coordinates": [[[-73.9740194660356, 40.6230700937984], [-73.9736680474194, 40.6231089619467], [-73.9736797955853, 40.6231733998587], [-73.9740318923719, 40.6231344559398], [-73.9740194660356, 40.6230700937984]]]}}, {"type": "Feature", "properties": {"zone_id": "0201WUILPP73CBDC8VT4A6", "tract_id": "36047045000", "city": "BROOKLYN, NY", "zone_code": "R3-1", "zone_category": "Residential", "ev_permitted": false}, "geometry": {"type": "Polygon", "coordinates": [[[-73.9740571785985, 40.6232654176053], [-73.9737036977895, 40.6233045137633], [-73.9737159825025, 40.6233718959655], [-73.9740701728567, 40.6233327212313], [-73.9740571785985, 40.6232654176053]]]}}, {"type": "Feature", "properties": {"zone_id": "020468PDI7KQ7F23D7DM9C", "tract_id": "36047045000", "city": "BROOKLYN, NY", "zone_code": "R3-1", "zone_category": "Residential", "ev_permitted": false}, "geometry": {"type": "Polygon", "coordinates": [[[-73.9740442819209, 40.6231986220272], [-73.9736915051197, 40.6232376403108], [-73.9737036977895, 40.6233045137633], [-73.9740571785985, 40.6232654176053], [-73.9740442819209, 40.6231986220272]]]}}, {"type": "Feature", "properties": {"zone_id": "0205PQODS7Y861KKUIR8F2", "tract_id": "36047045000", "city": "BROOKLYN, NY", "zone_code": "R3-1", "zone_category": "Residential", "ev_permitted": false}, "geometry": {"type": "Polygon", "coordinates": [[[-73.9743467857288, 40.6228030781361], [-73.9740572656251, 40.6228351011371], [-73.9740374519482, 40.6228910317307], [-73.9743569445805, 40.6228556939644], [-73.9743467857288, 40.6228030781361]]]}}, {"type": "Feature", "properties": {"zone_id": "0205RDG3USXUPV3WE6XP2J", "tract_id": "36047045000", "city": "BROOKLYN, NY", "zone_code": "R3-1", "zone_category": "Residential", "ev_permitted": false}, "geometry": {"type": "Polygon", "coordinates": [[[-73.9743569445805, 40.6228556939644], [-73.9740374519482, 40.6228910317307], [-73.9740188624015, 40.6229435075858], [-73.9743664757661, 40.6229050591162], [-73.9743569445805, 40.6228556939644]]]}}, {"type": "Feature", "properties": {"zone_id": "0200NDQCWNMXP4UKT9UNGF", "tract_id": "36047045000", "city": "BROOKLYN, NY", "zone_code": "R3-1", "zone_category": "Residential", "ev_permitted": false}, "geometry": {"type": "Polygon", "coordinates": [[[-73.9743762747917, 40.6229558057691], [-73.974005321465, 40.6229968362112], [-73.9740194660356, 40.6230700937984], [-73.9743904197607, 40.623029063311], [-73.9743762747917, 40.6229558057691]]]}}, {"type": "Feature", "properties": {"zone_id": "0207NK8SX0TM9T8DB22DUP", "tract_id": "36047045000", "city": "BROOKLYN, NY", "zone_code": "R3-1", "zone_category": "Residential", "ev_permitted": false}, "geometry": {"type": "Polygon", "coordinates": [[[-73.9743664757661, 40.6229050591162], [-73.9740188624015, 40.6229435075858], [-73.9740034338679, 40.6229870602878], [-73.974005321465, 40.6229968362112], [-73.9743762747917, 40.6229558057691], [-73.9743664757661, 40.6229050591162]]]}}, {"type": "Feature", "properties": {"zone_id": "0202NEUJZEIQDYIBYAEYAO", "tract_id": "36047045000", "city": "BROOKLYN, NY", "zone_code": "R3-1", "zone_category": "Residential", "ev_permitted": false}, "geometry": {"type": "Polygon", "coordinates": [[[-73.9740064442687, 40.6230026496252], [-73.9736557370368, 40.6230414406036], [-73.9736680474194, 40.6231089619467], [-73.9740194660356, 40.6230700937984], [-73.9740064442687, 40.6230026496252]]]}}, {"type": "Feature", "properties": {"zone_id": "0204QHFPFPSF9JFDUR60YR", "tract_id": "36047045000", "city": "BROOKLYN, NY", "zone_code": "R3-1", "zone_category": "Residential", "ev_permitted": false}, "geometry": {"type": "Polygon", "coordinates": [[[-73.9740372174552, 40.6228916949949], [-73.9736365160322, 40.6229360137339], [-73.9736557370368, 40.6230414406036], [-73.9740064442687, 40.6230026496252], [-73.9740034338679, 40.6229870602878], [-73.9740372174552, 40.6228916949949]]]}}, {"type": "Feature", "properties": {"zone_id": "02068I9Z0AYTEF8YADPGFC", "tract_id": "36047045000", "city": "BROOKLYN, NY", "zone_code": "R3-1", "zone_category": "Residential", "ev_permitted": false}, "geometry": {"type": "Polygon", "coordinates": [[[-73.9750004156044, 40.6227397615054], [-73.9745536207586, 40.6227879345613], [-73.9745633108939, 40.6228391997427], [-73.9750103891978, 40.6227909957936], [-73.9750004156044, 40.6227397615054]]]}}, {"type": "Feature", "properties": {"zone_id": "020746XWTFPTB93FTAS8SI", "tract_id": "36047045000", "city": "BROOKLYN, NY", "zone_code": "R3-1", "zone_category": "Residential", "ev_permitted": false}, "geometry": {"type": "Polygon", "coordinates": [[[-73.9749894958439, 40.6226836673685], [-73.9745430121542, 40.6227318067231], [-73.9745536207586, 40.6227879345613], [-73.9750004156044, 40.6227397615054], [-73.9749894958439, 40.6226836673685]]]}}, {"type": "Feature", "properties": {"zone_id": "0204WMLOH6JZNJVWKR35GO", "tract_id": "36047045000", "city": "BROOKLYN, NY", "zone_code": "R3-1", "zone_category": "Residential", "ev_permitted": false}, "geometry": {"type": "Polygon", "coordinates": [[[-73.974979456934, 40.6226320957838], [-73.9745332576258, 40.6226802049479], [-73.9745430121542, 40.6227318067231], [-73.9749894958439, 40.6226836673685], [-73.974979456934, 40.6226320957838]]]}}, {"type": "Feature", "properties": {"zone_id": "02075XK3Q8DOEY8KV5CRCE", "tract_id": "36047045000", "city": "BROOKLYN, NY", "zone_code": "R3-1", "zone_category": "Residential", "ev_permitted": false}, "geometry": {"type": "Polygon", "coordinates": [[[-73.9749684460873, 40.6225755364592], [-73.9745225616262, 40.6226236112199], [-73.9745332576258, 40.6226802049479], [-73.974979456934, 40.6226320957838], [-73.9749684460873, 40.6225755364592]]]}}, {"type": "Feature", "properties": {"zone_id": "02005BX5LZKPE8OBRKCIV4", "tract_id": "36047045000", "city": "BROOKLYN, NY", "zone_code": "R3-1", "zone_category": "Residential", "ev_permitted": false}, "geometry": {"type": "Polygon", "coordinates": [[[-73.9749584293013, 40.6225240744929], [-73.9745128282977, 40.6225721190631], [-73.9745225616262, 40.6226236112199], [-73.9749684460873, 40.6225755364592], [-73.9749584293013, 40.6225240744929]]]}}, {"type": "Feature", "properties": {"zone_id": "0205B98OJEZR9B20MWKF87", "tract_id": "36047045000", "city": "BROOKLYN, NY", "zone_code": "R3-1", "zone_category": "Residential", "ev_permitted": false}, "geometry": {"type": "Polygon", "coordinates": [[[-73.9749475740394, 40.6224683120234], [-73.9745022814213, 40.6225163228921], [-73.9745128282977, 40.6225721190631], [-73.9749584293013, 40.6225240744929], [-73.9749475740394, 40.6224683120234]]]}}, {"type": "Feature", "properties": {"zone_id": "02077VZ1IR2LW9MFWFE8EN", "tract_id": "36047045000", "city": "BROOKLYN, NY", "zone_code": "R3-1", "zone_category": "Residential", "ev_permitted": false}, "geometry": {"type": "Polygon", "coordinates": [[[-73.9749372802422, 40.6224154320131], [-73.9744922803124, 40.6224634112871], [-73.9745022814213, 40.6225163228921], [-73.9749475740394, 40.6224683120234], [-73.9749372802422, 40.6224154320131]]]}}, {"type": "Feature", "properties": {"zone_id": "0205ODPSP137TPMBD8HITT", "tract_id": "36047045000", "city": "BROOKLYN, NY", "zone_code": "R3-1", "zone_category": "Residential", "ev_permitted": false}, "geometry": {"type": "Polygon", "coordinates": [[[-73.9749264830021, 40.6223599646736], [-73.9744817896101, 40.6224079109487], [-73.9744922803124, 40.6224634112871], [-73.9749372802422, 40.6224154320131], [-73.9749264830021, 40.6223599646736]]]}}, {"type": "Feature", "properties": {"zone_id": "0201NA5E4NRP4XD1QE6763", "tract_id": "36047045000", "city": "BROOKLYN, NY", "zone_code": "R3-1", "zone_category": "Residential", "ev_permitted": false}, "geometry": {"type": "Polygon", "coordinates": [[[-73.9749161422981, 40.6223068429333], [-73.9744717434394, 40.622354757614], [-73.9744817896101, 40.6224079109487], [-73.9749264830021, 40.6223599646736], [-73.9749161422981, 40.6223068429333]]]}}, {"type": "Feature", "properties": {"zone_id": "0202CT1QCIL6KNCPZF5RSX", "tract_id": "36047045000", "city": "BROOKLYN, NY", "zone_code": "R3-1", "zone_category": "Residential", "ev_permitted": false}, "geometry": {"type": "Polygon", "coordinates": [[[-73.9749057822822, 40.6222536221116], [-73.9744616770348, 40.6223015051977], [-73.9744717434394, 40.622354757614], [-73.9749161422981, 40.6223068429333], [-73.9749057822822, 40.6222536221116]]]}}, {"type": "Feature", "properties": {"zone_id": "02028J2R1Q1BTJCW0X1G6Q", "tract_id": "36047045000", "city": "BROOKLYN, NY", "zone_code": "R3-1", "zone_category": "Residential", "ev_permitted": false}, "geometry": {"type": "Polygon", "coordinates": [[[-73.9743288591374, 40.6227102385342], [-73.9740924246189, 40.6227358517962], [-73.9740760295959, 40.6227821313398], [-73.9743372987484, 40.6227539434666], [-73.9743288591374, 40.6227102385342]]]}}, {"type": "Feature", "properties": {"zone_id": "0205XKTXZ59B9WNCNNYIWB", "tract_id": "36047045000", "city": "BROOKLYN, NY", "zone_code": "R3-1", "zone_category": "Residential", "ev_permitted": false}, "geometry": {"type": "Polygon", "coordinates": [[[-73.9743372987484, 40.6227539434666], [-73.9740760295959, 40.6227821313398], [-73.9740572656251, 40.6228351011371], [-73.9743467857288, 40.6228030781361], [-73.9743372987484, 40.6227539434666]]]}}, {"type": "Feature", "properties": {"zone_id": "0201TBE62TTYQKYHWZCEQY", "tract_id": "36047045000", "city": "BROOKLYN, NY", "zone_code": "R3-1", "zone_category": "Residential", "ev_permitted": false}, "geometry": {"type": "Polygon", "coordinates": [[[-73.9743192921161, 40.6226606815423], [-73.9741110149727, 40.6226833745229], [-73.9740924246189, 40.6227358517962], [-73.9743288591374, 40.6227102385342], [-73.9743192921161, 40.6226606815423]]]}}, {"type": "Feature", "properties": {"zone_id": "0204VH3CE4ZA2ZU5BATHCF", "tract_id": "36047045000", "city": "BROOKLYN, NY", "zone_code": "R3-1", "zone_category": "Residential", "ev_permitted": false}, "geometry": {"type": "Polygon", "coordinates": [[[-73.9743024037524, 40.6225732147553], [-73.9741438252101, 40.6225907549973], [-73.9741272991652, 40.6226374048248], [-73.9743109095911, 40.6226172696329], [-73.9743024037524, 40.6225732147553]]]}}, {"type": "Feature", "properties": {"zone_id": "0204W3EYDZQFNA8XK9HNDC", "tract_id": "36047045000", "city": "BROOKLYN, NY", "zone_code": "R3-1", "zone_category": "Residential", "ev_permitted": false}, "geometry": {"type": "Polygon", "coordinates": [[[-73.9743109095911, 40.6226172696329], [-73.9741272991652, 40.6226374048248], [-73.9741110149727, 40.6226833745229], [-73.9743192921161, 40.6226606815423], [-73.9743109095911, 40.6226172696329]]]}}, {"type": "Feature", "properties": {"zone_id": "0205SPI189BU5Q44KUXIXH", "tract_id": "36047045000", "city": "BROOKLYN, NY", "zone_code": "R3-1", "zone_category": "Residential", "ev_permitted": false}, "geometry": {"type": "Polygon", "coordinates": [[[-73.974292997826, 40.622524503807], [-73.9740658560318, 40.6225496279283], [-73.9741438252101, 40.6225907549973], [-73.9743024037524, 40.6225732147553], [-73.974292997826, 40.622524503807]]]}}, {"type": "Feature", "properties": {"zone_id": "0204V67R5VJA95RA9WT0N8", "tract_id": "36047045000", "city": "BROOKLYN, NY", "zone_code": "R3-1", "zone_category": "Residential", "ev_permitted": false}, "geometry": {"type": "Polygon", "coordinates": [[[-73.9740101428783, 40.6225202396687], [-73.9739753945958, 40.6225570993166], [-73.9741272991652, 40.6226374048248], [-73.9741438252101, 40.6225907549973], [-73.9740101428783, 40.6225202396687]]]}}, {"type": "Feature", "properties": {"zone_id": "02017JDNPOUK9LIKD5SUWA", "tract_id": "36047045000", "city": "BROOKLYN, NY", "zone_code": "R3-1", "zone_category": "Residential", "ev_permitted": false}, "geometry": {"type": "Polygon", "coordinates": [[[-73.9738675847286, 40.6226714535161], [-73.9736335428936, 40.622919702054], [-73.9736365160322, 40.6229360137339], [-73.9740372174552, 40.6228916949949], [-73.9740760295959, 40.6227821313398], [-73.9738675847286, 40.6226714535161]]]}}, {"type": "Feature", "properties": {"zone_id": "0200FWZNMUCUDORNZ3QJH3", "tract_id": "36047045000", "city": "BROOKLYN, NY", "zone_code": "R3-1", "zone_category": "Residential", "ev_permitted": false}, "geometry": {"type": "Polygon", "coordinates": [[[-73.9739020591282, 40.6226348854457], [-73.9738675847286, 40.6226714535161], [-73.9740760295959, 40.6227821313398], [-73.9740924246189, 40.6227358517962], [-73.9739020591282, 40.6226348854457]]]}}, {"type": "Feature", "properties": {"zone_id": "02035WIOIA20CMW4ROT0EG", "tract_id": "36047045000", "city": "BROOKLYN, NY", "zone_code": "R3-1", "zone_category": "Residential", "ev_permitted": false}, "geometry": {"type": "Polygon", "coordinates": [[[-73.9739753945958, 40.6225570993166], [-73.9739411499957, 40.6225934215281], [-73.9741110149727, 40.6226833745229], [-73.9741272991652, 40.6226374048248], [-73.9739753945958, 40.6225570993166]]]}}, {"type": "Feature", "properties": {"zone_id": "0200J2SS9UEOF2VAXQW2LI", "tract_id": "36047045000", "city": "BROOKLYN, NY", "zone_code": "R3-1", "zone_category": "Residential", "ev_permitted": false}, "geometry": {"type": "Polygon", "coordinates": [[[-73.9739411499957, 40.6225934215281], [-73.9739020591282, 40.6226348854457], [-73.9740924246189, 40.6227358517962], [-73.9741110149727, 40.6226833745229], [-73.9739411499957, 40.6225934215281]]]}}, {"type": "Feature", "properties": {"zone_id": "0202TJ6YJTH48TNVAYBXVM", "tract_id": "36047045000", "city": "BROOKLYN, NY", "zone_code": "R3-1", "zone_category": "Residential", "ev_permitted": false}, "geometry": {"type": "Polygon", "coordinates": [[[-73.9742442335747, 40.62227193626], [-73.9740233973102, 40.6225061809012], [-73.9742838974702, 40.6224773676018], [-73.9742442335747, 40.62227193626]]]}}, {"type": "Feature", "properties": {"zone_id": "0206U3XYOHKI5CZLHR6PT2", "tract_id": "36047045000", "city": "BROOKLYN, NY", "zone_code": "R3-1", "zone_category": "Residential", "ev_permitted": false}, "geometry": {"type": "Polygon", "coordinates": [[[-73.9742838974702, 40.6224773676018], [-73.9740233973102, 40.6225061809012], [-73.9740101428783, 40.6225202396687], [-73.9740658560318, 40.6225496279283], [-73.974292997826, 40.622524503807], [-73.9742838974702, 40.6224773676018]]]}}, {"type": "Feature", "properties": {"zone_id": "0200NWWJLNSEUDEC7M41QE", "tract_id": "36047045000", "city": "BROOKLYN, NY", "zone_code": "R3-1", "zone_category": "Residential", "ev_permitted": false}, "geometry": {"type": "Polygon", "coordinates": [[[-73.9735371770795, 40.6235063277458], [-73.9733889797267, 40.6235222953616], [-73.9734286663052, 40.623742447137], [-73.9735768641373, 40.6237264794704], [-73.9735371770795, 40.6235063277458]]]}}, {"type": "Feature", "properties": {"zone_id": "0204QMAV3RAT70CTRJHIS8", "tract_id": "36047045000", "city": "BROOKLYN, NY", "zone_code": "R3-1", "zone_category": "Residential", "ev_permitted": false}, "geometry": {"type": "Polygon", "coordinates": [[[-73.9733889797267, 40.6235222953616], [-73.9732441115674, 40.6235379044987], [-73.9732837985996, 40.623758056324], [-73.9734286663052, 40.623742447137], [-73.9733889797267, 40.6235222953616]]]}}, {"type": "Feature", "properties": {"zone_id": "0206T1XF8OHD7EOH8T6C3P", "tract_id": "36047045000", "city": "BROOKLYN, NY", "zone_code": "R3-1", "zone_category": "Residential", "ev_permitted": false}, "geometry": {"type": "Polygon", "coordinates": [[[-73.9732441115674, 40.6235379044987], [-73.9730343410909, 40.6235605066438], [-73.9728427019225, 40.623763984662], [-73.9728507573476, 40.6238047138156], [-73.9732837985996, 40.623758056324], [-73.9732441115674, 40.6235379044987]]]}}, {"type": "Feature", "properties": {"zone_id": "0200Z2EM5SOMNAEOL1OT0V", "tract_id": "36047045000", "city": "BROOKLYN, NY", "zone_code": "R3-1", "zone_category": "Residential", "ev_permitted": false}, "geometry": {"type": "Polygon", "coordinates": [[[-73.9733215863824, 40.6232555103001], [-73.9732590019454, 40.6233222617254], [-73.9735309585738, 40.6234718345245], [-73.973510713051, 40.6233595282976], [-73.9733215863824, 40.6232555103001]]]}}, {"type": "Feature", "properties": {"zone_id": "0202H0VB4KHEH1CMFF1MMK", "tract_id": "36047045000", "city": "BROOKLYN, NY", "zone_code": "R3-1", "zone_category": "Residential", "ev_permitted": false}, "geometry": {"type": "Polygon", "coordinates": [[[-73.9732590019454, 40.6233222617254], [-73.9731917115151, 40.6233934114137], [-73.9734199778371, 40.6235189557322], [-73.9735371770795, 40.6235063277458], [-73.9735309585738, 40.6234718345245], [-73.9732590019454, 40.6233222617254]]]}}, {"type": "Feature", "properties": {"zone_id": "0200U2226XBBSO25L1I4RL", "tract_id": "36047045000", "city": "BROOKLYN, NY", "zone_code": "R3-1", "zone_category": "Residential", "ev_permitted": false}, "geometry": {"type": "Polygon", "coordinates": [[[-73.9731917115151, 40.6233934114137], [-73.9730343410909, 40.6235605066438], [-73.9734199778371, 40.6235189557322], [-73.9731917115151, 40.6233934114137]]]}}, {"type": "Feature", "properties": {"zone_id": "0203OOZAQFR2W8RM97NVUX", "tract_id": "36047045000", "city": "BROOKLYN, NY", "zone_code": "R3-1", "zone_category": "Residential", "ev_permitted": false}, "geometry": {"type": "Polygon", "coordinates": [[[-73.9725703729693, 40.6233925235327], [-73.9723460396297, 40.6234169387449], [-73.9724090607633, 40.6237529570527], [-73.9726015485649, 40.6235476073528], [-73.9725703729693, 40.6233925235327]]]}}, {"type": "Feature", "properties": {"zone_id": "0206SI0AFM8WFP5MGEJ917", "tract_id": "36047045000", "city": "BROOKLYN, NY", "zone_code": "R3-1", "zone_category": "Residential", "ev_permitted": false}, "geometry": {"type": "Polygon", "coordinates": [[[-73.9725498951709, 40.6232906495694], [-73.9721815850191, 40.6233307338868], [-73.9722007176498, 40.6234327544474], [-73.9725703729693, 40.6233925235327], [-73.9725498951709, 40.6232906495694]]]}}, {"type": "Feature", "properties": {"zone_id": "0206N9YGKTTNQZPQRI8HW8", "tract_id": "36047045000", "city": "BROOKLYN, NY", "zone_code": "R3-1", "zone_category": "Residential", "ev_permitted": false}, "geometry": {"type": "Polygon", "coordinates": [[[-73.9713085109692, 40.6237010479971], [-73.9712301232226, 40.6237099185436], [-73.9712495348934, 40.6238097111732], [-73.9707859046287, 40.6238621699066], [-73.9708167417642, 40.6240251745742], [-73.9713596124167, 40.6239637504891], [-73.9713085109692, 40.6237010479971]]]}}, {"type": "Feature", "properties": {"zone_id": "0200S7L9QRPL8R4GYBCT87", "tract_id": "36047045000", "city": "BROOKLYN, NY", "zone_code": "R3-1", "zone_category": "Residential", "ev_permitted": false}, "geometry": {"type": "Polygon", "coordinates": [[[-73.9723460396297, 40.6234169387449], [-73.9722007176498, 40.6234327544474], [-73.9722811097664, 40.6238613877615], [-73.972310408415, 40.6238581997975], [-73.9724090607633, 40.6237529570527], [-73.9723460396297, 40.6234169387449]]]}}, {"type": "Feature", "properties": {"zone_id": "0205ZD4AUF3WY2RXVW60Z0", "tract_id": "36047045000", "city": "BROOKLYN, NY", "zone_code": "R3-1", "zone_category": "Residential", "ev_permitted": false}, "geometry": {"type": "Polygon", "coordinates": [[[-73.9722301486951, 40.6235896697975], [-73.9720941224608, 40.6236044729597], [-73.9721450839112, 40.6238761923892], [-73.9722811097664, 40.6238613877615], [-73.9722301486951, 40.6235896697975]]]}}, {"type": "Feature", "properties": {"zone_id": "02074PAHU1RQ403OGDZVMZ", "tract_id": "36047045000", "city": "BROOKLYN, NY", "zone_code": "R3-1", "zone_category": "Residential", "ev_permitted": false}, "geometry": {"type": "Polygon", "coordinates": [[[-73.9720941224608, 40.6236044729597], [-73.9718753410272, 40.6236282836047], [-73.9719263006832, 40.6239000024276], [-73.9721450839112, 40.6238761923892], [-73.9720941224608, 40.6236044729597]]]}}, {"type": "Feature", "properties": {"zone_id": "0204LIN65APLWMSYL3OARZ", "tract_id": "36047045000", "city": "BROOKLYN, NY", "zone_code": "R3-1", "zone_category": "Residential", "ev_permitted": false}, "geometry": {"type": "Polygon", "coordinates": [[[-73.9722055962884, 40.6234587535846], [-73.9718507883799, 40.6234973673163], [-73.9718753410272, 40.6236282836047], [-73.9722301486951, 40.6235896697975], [-73.9722055962884, 40.6234587535846]]]}}, {"type": "Feature", "properties": {"zone_id": "0204KS8ZVRE6E5EKFJP7W2", "tract_id": "36047045000", "city": "BROOKLYN, NY", "zone_code": "R3-1", "zone_category": "Residential", "ev_permitted": false}, "geometry": {"type": "Polygon", "coordinates": [[[-73.9721909024293, 40.6233804118517], [-73.9718360958513, 40.623419024836], [-73.9718507883799, 40.6234973673163], [-73.9722055962884, 40.6234587535846], [-73.9721909024293, 40.6233804118517]]]}}, {"type": "Feature", "properties": {"zone_id": "02019RQIWUYYRV3MKJZGOD", "tract_id": "36047045000", "city": "BROOKLYN, NY", "zone_code": "R3-1", "zone_category": "Residential", "ev_permitted": false}, "geometry": {"type": "Polygon", "coordinates": [[[-73.971286992075, 40.6235904239488], [-73.9707460730884, 40.6236516268495], [-73.9707670137812, 40.6237623176048], [-73.9713085109692, 40.6237010479971], [-73.971286992075, 40.6235904239488]]]}}, {"type": "Feature", "properties": {"zone_id": "0207GXDXJSZ7UIUO8QDAZ2", "tract_id": "36047045000", "city": "BROOKLYN, NY", "zone_code": "R3-1", "zone_category": "Residential", "ev_permitted": false}, "geometry": {"type": "Polygon", "coordinates": [[[-73.971255408585, 40.62342805864], [-73.9707153393451, 40.6234891660465], [-73.9707460730884, 40.6236516268495], [-73.971286992075, 40.6235904239488], [-73.971255408585, 40.62342805864]]]}}, {"type": "Feature", "properties": {"zone_id": "02010AN5089ABGPVL4ZE0Z", "tract_id": "36047045000", "city": "BROOKLYN, NY", "zone_code": "R3-1", "zone_category": "Residential", "ev_permitted": false}, "geometry": {"type": "Polygon", "coordinates": [[[-73.9712336129003, 40.6233160123123], [-73.9706941301685, 40.6233770523105], [-73.9707153393451, 40.6234891660465], [-73.971255408585, 40.62342805864], [-73.9712336129003, 40.6233160123123]]]}}, {"type": "Feature", "properties": {"zone_id": "02055EFU2M6UJT24J71GA8", "tract_id": "36047045000", "city": "BROOKLYN, NY", "zone_code": "R3-1", "zone_category": "Residential", "ev_permitted": false}, "geometry": {"type": "Polygon", "coordinates": [[[-73.9714354039537, 40.6236866903914], [-73.9713085109692, 40.6237010479971], [-73.9713596124167, 40.6239637504891], [-73.9714865068121, 40.6239493921249], [-73.9714354039537, 40.6236866903914]]]}}, {"type": "Feature", "properties": {"zone_id": "0205AU5ZVCFX6JSVE1LHFY", "tract_id": "36047045000", "city": "BROOKLYN, NY", "zone_code": "R3-1", "zone_category": "Residential", "ev_permitted": false}, "geometry": {"type": "Polygon", "coordinates": [[[-73.9716540100509, 40.6235488953892], [-73.971286992075, 40.6235904239488], [-73.9713085109692, 40.6237010479971], [-73.9716755295397, 40.6236595200719], [-73.9716540100509, 40.6235488953892]]]}}, {"type": "Feature", "properties": {"zone_id": "02044NSNLW6HJI67PJ77TY", "tract_id": "36047045000", "city": "BROOKLYN, NY", "zone_code": "R3-1", "zone_category": "Residential", "ev_permitted": false}, "geometry": {"type": "Polygon", "coordinates": [[[-73.9712301232226, 40.6237099185436], [-73.9707670137812, 40.6237623176048], [-73.9707859046287, 40.6238621699066], [-73.9712495348934, 40.6238097111732], [-73.9712301232226, 40.6237099185436]]]}}, {"type": "Feature", "properties": {"zone_id": "0200HP90P19AVNU96WY6PG", "tract_id": "36047045000", "city": "BROOKLYN, NY", "zone_code": "R3-1", "zone_category": "Residential", "ev_permitted": false}, "geometry": {"type": "Polygon", "coordinates": [[[-73.9716388224101, 40.6234708211806], [-73.9712718048545, 40.6235123489895], [-73.971286992075, 40.6235904239488], [-73.9716540100509, 40.6235488953892], [-73.9716388224101, 40.6234708211806]]]}}, {"type": "Feature", "properties": {"zone_id": "0202PM9X76SBLWUVB6YUDY", "tract_id": "36047045000", "city": "BROOKLYN, NY", "zone_code": "R3-1", "zone_category": "Residential", "ev_permitted": false}, "geometry": {"type": "Polygon", "coordinates": [[[-73.9716224266099, 40.6233865301807], [-73.971255408585, 40.62342805864], [-73.9712718048545, 40.6235123489895], [-73.9716388224101, 40.6234708211806], [-73.9716224266099, 40.6233865301807]]]}}, {"type": "Feature", "properties": {"zone_id": "02060CJW91VE1VZPS8RSIS", "tract_id": "36047045000", "city": "BROOKLYN, NY", "zone_code": "R3-1", "zone_category": "Residential", "ev_permitted": false}, "geometry": {"type": "Polygon", "coordinates": [[[-73.9716065811141, 40.6233050766809], [-73.9712395635275, 40.6233466043873], [-73.971255408585, 40.62342805864], [-73.9716224266099, 40.6233865301807], [-73.9716065811141, 40.6233050766809]]]}}, {"type": "Feature", "properties": {"zone_id": "0202K3593MRXZC0IMD704V", "tract_id": "36047045000", "city": "BROOKLYN, NY", "zone_code": "R3-1", "zone_category": "Residential", "ev_permitted": false}, "geometry": {"type": "Polygon", "coordinates": [[[-73.9712125331656, 40.6232076446177], [-73.9706736166208, 40.6232686214218], [-73.9706941301685, 40.6233770523105], [-73.9712336129003, 40.6233160123123], [-73.9712125331656, 40.6232076446177]]]}}, {"type": "Feature", "properties": {"zone_id": "0204R7UV5JE9SXKKIUJGIQ", "tract_id": "36047045000", "city": "BROOKLYN, NY", "zone_code": "R3-1", "zone_category": "Residential", "ev_permitted": false}, "geometry": {"type": "Polygon", "coordinates": [[[-73.9721743351897, 40.623292078448], [-73.9718195309161, 40.623330691382], [-73.9718360958513, 40.623419024836], [-73.9721909024293, 40.6233804118517], [-73.9721743351897, 40.623292078448]]]}}, {"type": "Feature", "properties": {"zone_id": "0203SNLL7PF61MHLGFS432", "tract_id": "36047045000", "city": "BROOKLYN, NY", "zone_code": "R3-1", "zone_category": "Residential", "ev_permitted": false}, "geometry": {"type": "Polygon", "coordinates": [[[-73.9716755295397, 40.6236595200719], [-73.9715409820624, 40.6236747445439], [-73.971592084405, 40.6239374462306], [-73.9717266333224, 40.6239222216995], [-73.9716755295397, 40.6236595200719]]]}}, {"type": "Feature", "properties": {"zone_id": "02003X3LDMSW69RLDDH7JN", "tract_id": "36047045000", "city": "BROOKLYN, NY", "zone_code": "R3-1", "zone_category": "Residential", "ev_permitted": false}, "geometry": {"type": "Polygon", "coordinates": [[[-73.9715409820624, 40.6236747445439], [-73.9714354039537, 40.6236866903914], [-73.9714865068121, 40.6239493921249], [-73.971592084405, 40.6239374462306], [-73.9715409820624, 40.6236747445439]]]}}, {"type": "Feature", "properties": {"zone_id": "0203Y18NJ1YZJR00LTAFWM", "tract_id": "36047045000", "city": "BROOKLYN, NY", "zone_code": "R3-1", "zone_category": "Residential", "ev_permitted": false}, "geometry": {"type": "Polygon", "coordinates": [[[-73.973464588994, 40.6231036697598], [-73.9733215863824, 40.6232555103001], [-73.973510713051, 40.6233595282976], [-73.973464588994, 40.6231036697598]]]}}, {"type": "Feature", "properties": {"zone_id": "0204AMVMYLX0HY61IDZJHX", "tract_id": "36047045000", "city": "BROOKLYN, NY", "zone_code": "R3-1", "zone_category": "Residential", "ev_permitted": false}, "geometry": {"type": "Polygon", "coordinates": [[[-73.9729779125932, 40.6226935055063], [-73.9729002404686, 40.6227762276138], [-73.9731986513779, 40.6229377724469], [-73.9732763214759, 40.6228550508413], [-73.9729779125932, 40.6226935055063]]]}}, {"type": "Feature", "properties": {"zone_id": "02061TY87VK80BSDTG0IAZ", "tract_id": "36047045000", "city": "BROOKLYN, NY", "zone_code": "R3-1", "zone_category": "Residential", "ev_permitted": false}, "geometry": {"type": "Polygon", "coordinates": [[[-73.9729002404686, 40.6227762276138], [-73.9728373590276, 40.6228431965695], [-73.9731357700838, 40.6230047422673], [-73.9731986513779, 40.6229377724469], [-73.9729002404686, 40.6227762276138]]]}}, {"type": "Feature", "properties": {"zone_id": "0200BPDM9VQR9O28XUO37I", "tract_id": "36047045000", "city": "BROOKLYN, NY", "zone_code": "R3-1", "zone_category": "Residential", "ev_permitted": false}, "geometry": {"type": "Polygon", "coordinates": [[[-73.9726953872234, 40.6229708522023], [-73.9727744700528, 40.6233895302044], [-73.9730084562503, 40.6231403334084], [-73.9726953872234, 40.6229708522023]]]}}, {"type": "Feature", "properties": {"zone_id": "0202UI4WWKV6PEN6ZA322W", "tract_id": "36047045000", "city": "BROOKLYN, NY", "zone_code": "R3-1", "zone_category": "Residential", "ev_permitted": false}, "geometry": {"type": "Polygon", "coordinates": [[[-73.9725095333517, 40.6230898663206], [-73.9721438747735, 40.6231296623558], [-73.9721625048919, 40.6232290007252], [-73.9725294735705, 40.6231890623028], [-73.9725095333517, 40.6230898663206]]]}}, {"type": "Feature", "properties": {"zone_id": "020220Z0R0NQG5DTJ7ZQ1Y", "tract_id": "36047045000", "city": "BROOKLYN, NY", "zone_code": "R3-1", "zone_category": "Residential", "ev_permitted": false}, "geometry": {"type": "Polygon", "coordinates": [[[-73.9725294735705, 40.6231890623028], [-73.9721625048919, 40.6232290007252], [-73.9721815850191, 40.6233307338868], [-73.9725498951709, 40.6232906495694], [-73.9725294735705, 40.6231890623028]]]}}, {"type": "Feature", "properties": {"zone_id": "02037E1EFG3KC9JLWGXN0V", "tract_id": "36047045000", "city": "BROOKLYN, NY", "zone_code": "R3-1", "zone_category": "Residential", "ev_permitted": false}, "geometry": {"type": "Polygon", "coordinates": [[[-73.9728373590276, 40.6228431965695], [-73.9727773356318, 40.6229071229184], [-73.9730757449842, 40.6230686687705], [-73.9731357700838, 40.6230047422673], [-73.9728373590276, 40.6228431965695]]]}}, {"type": "Feature", "properties": {"zone_id": "02028TAO2V9EHYVBO661L7", "tract_id": "36047045000", "city": "BROOKLYN, NY", "zone_code": "R3-1", "zone_category": "Residential", "ev_permitted": false}, "geometry": {"type": "Polygon", "coordinates": [[[-73.9727773356318, 40.6229071229184], [-73.9726850350567, 40.6229160466727], [-73.9726953872234, 40.6229708522023], [-73.9730084562503, 40.6231403334084], [-73.9730757449842, 40.6230686687705], [-73.9727773356318, 40.6229071229184]]]}}, {"type": "Feature", "properties": {"zone_id": "0200V7W77IBX6PL93C4ATI", "tract_id": "36047045000", "city": "BROOKLYN, NY", "zone_code": "R3-1", "zone_category": "Residential", "ev_permitted": false}, "geometry": {"type": "Polygon", "coordinates": [[[-73.9729547871888, 40.6227181348547], [-73.9726531606136, 40.6227472958344], [-73.9726850350567, 40.6229160466727], [-73.9727773356318, 40.6229071229184], [-73.9729547871888, 40.6227181348547]]]}}, {"type": "Feature", "properties": {"zone_id": "0206I1VJQ25LP7JEQT0ZGK", "tract_id": "36047045000", "city": "BROOKLYN, NY", "zone_code": "R3-1", "zone_category": "Residential", "ev_permitted": false}, "geometry": {"type": "Polygon", "coordinates": [[[-73.9730689471407, 40.6225965525602], [-73.9729779125932, 40.6226935055063], [-73.9732763214759, 40.6228550508413], [-73.973374728109, 40.6227502470697], [-73.9733715943702, 40.6227298451235], [-73.9734667273839, 40.6226285257396], [-73.9730689471407, 40.6225965525602]]]}}, {"type": "Feature", "properties": {"zone_id": "02045XA1MA02INZSXZDYUW", "tract_id": "36047045000", "city": "BROOKLYN, NY", "zone_code": "R3-1", "zone_category": "Residential", "ev_permitted": false}, "geometry": {"type": "Polygon", "coordinates": [[[-73.9726178393292, 40.6225602952102], [-73.9726531606136, 40.6227472958344], [-73.9729547871888, 40.6227181348547], [-73.9730689471407, 40.6225965525602], [-73.9726178393292, 40.6225602952102]]]}}, {"type": "Feature", "properties": {"zone_id": "020412IRA1VMLLH94BXDHQ", "tract_id": "36047045000", "city": "BROOKLYN, NY", "zone_code": "R3-1", "zone_category": "Residential", "ev_permitted": false}, "geometry": {"type": "Polygon", "coordinates": [[[-73.9721581710174, 40.6232058917849], [-73.9718033662704, 40.6232445046691], [-73.9718195309161, 40.623330691382], [-73.9721743351897, 40.623292078448], [-73.9721581710174, 40.6232058917849]]]}}, {"type": "Feature", "properties": {"zone_id": "02011GXJCT2F3P745ED35T", "tract_id": "36047045000", "city": "BROOKLYN, NY", "zone_code": "R3-1", "zone_category": "Residential", "ev_permitted": false}, "geometry": {"type": "Polygon", "coordinates": [[[-73.9721443146009, 40.6231320072606], [-73.9717895093165, 40.6231706201021], [-73.9718033662704, 40.6232445046691], [-73.9721581710174, 40.6232058917849], [-73.9721443146009, 40.6231320072606]]]}}, {"type": "Feature", "properties": {"zone_id": "0205DNEU7WO616F3QM0TUW", "tract_id": "36047045000", "city": "BROOKLYN, NY", "zone_code": "R3-1", "zone_category": "Residential", "ev_permitted": false}, "geometry": {"type": "Polygon", "coordinates": [[[-73.9721273141001, 40.6230413612672], [-73.9717725092874, 40.6230799747593], [-73.9717895093165, 40.6231706201021], [-73.9721443146009, 40.6231320072606], [-73.9721273141001, 40.6230413612672]]]}}, {"type": "Feature", "properties": {"zone_id": "0202XN8V1M8HMYUNK37OVD", "tract_id": "36047045000", "city": "BROOKLYN, NY", "zone_code": "R3-1", "zone_category": "Residential", "ev_permitted": false}, "geometry": {"type": "Polygon", "coordinates": [[[-73.9724560906937, 40.622824000351], [-73.9720939407686, 40.6228634141155], [-73.9721097311988, 40.6229476114511], [-73.9724729910104, 40.6229080763416], [-73.9724560906937, 40.622824000351]]]}}, {"type": "Feature", "properties": {"zone_id": "0207EIMVF3EUICILWD3MTJ", "tract_id": "36047045000", "city": "BROOKLYN, NY", "zone_code": "R3-1", "zone_category": "Residential", "ev_permitted": false}, "geometry": {"type": "Polygon", "coordinates": [[[-73.9724729910104, 40.6229080763416], [-73.9721097311988, 40.6229476114511], [-73.972125020197, 40.6230291265842], [-73.9724893529941, 40.6229894750407], [-73.9724729910104, 40.6229080763416]]]}}, {"type": "Feature", "properties": {"zone_id": "02060KYFCOM8IL0XF8T48V", "tract_id": "36047045000", "city": "BROOKLYN, NY", "zone_code": "R3-1", "zone_category": "Residential", "ev_permitted": false}, "geometry": {"type": "Polygon", "coordinates": [[[-73.9724893529941, 40.6229894750407], [-73.972125020197, 40.6230291265842], [-73.9721438747735, 40.6231296623558], [-73.9725095333517, 40.6230898663206], [-73.9724893529941, 40.6229894750407]]]}}, {"type": "Feature", "properties": {"zone_id": "0206UOC6SD69LD2XQ7H44K", "tract_id": "36047045000", "city": "BROOKLYN, NY", "zone_code": "R3-1", "zone_category": "Residential", "ev_permitted": false}, "geometry": {"type": "Polygon", "coordinates": [[[-73.9721079148508, 40.6229379268604], [-73.9717531114992, 40.6229765395906], [-73.9717725092874, 40.6230799747593], [-73.9721273141001, 40.6230413612672], [-73.9721079148508, 40.6229379268604]]]}}, {"type": "Feature", "properties": {"zone_id": "0205UY6NBFMNI871TBRL34", "tract_id": "36047045000", "city": "BROOKLYN, NY", "zone_code": "R3-1", "zone_category": "Residential", "ev_permitted": false}, "geometry": {"type": "Polygon", "coordinates": [[[-73.9720885469483, 40.62283465407], [-73.9717337432123, 40.6228732667406], [-73.9717531114992, 40.6229765395906], [-73.9721079148508, 40.6229379268604], [-73.9720885469483, 40.62283465407]]]}}, {"type": "Feature", "properties": {"zone_id": "02059GI9BRWVRFW15XSYEL", "tract_id": "36047045000", "city": "BROOKLYN, NY", "zone_code": "R3-1", "zone_category": "Residential", "ev_permitted": false}, "geometry": {"type": "Polygon", "coordinates": [[[-73.9715590457816, 40.6230607147592], [-73.971192030431, 40.6231022430178], [-73.9712078753728, 40.6231836965765], [-73.9715748911611, 40.6231421689703], [-73.9715590457816, 40.6230607147592]]]}}, {"type": "Feature", "properties": {"zone_id": "0202S6KEZZ5Q2PYUZRLKTB", "tract_id": "36047045000", "city": "BROOKLYN, NY", "zone_code": "R3-1", "zone_category": "Residential", "ev_permitted": false}, "geometry": {"type": "Polygon", "coordinates": [[[-73.9715748911611, 40.6231421689703], [-73.9712078753728, 40.6231836965765], [-73.9712237194307, 40.6232651508347], [-73.9715907356573, 40.6232236224756], [-73.9715748911611, 40.6231421689703]]]}}, {"type": "Feature", "properties": {"zone_id": "02072YDJ16JKB978OHK98I", "tract_id": "36047045000", "city": "BROOKLYN, NY", "zone_code": "R3-1", "zone_category": "Residential", "ev_permitted": false}, "geometry": {"type": "Polygon", "coordinates": [[[-73.9715907356573, 40.6232236224756], [-73.9712237194307, 40.6232651508347], [-73.9712395635275, 40.6233466043873], [-73.9716065811141, 40.6233050766809], [-73.9715907356573, 40.6232236224756]]]}}, {"type": "Feature", "properties": {"zone_id": "0202FOCW9H7TJLR7NVMCGG", "tract_id": "36047045000", "city": "BROOKLYN, NY", "zone_code": "R3-1", "zone_category": "Residential", "ev_permitted": false}, "geometry": {"type": "Polygon", "coordinates": [[[-73.9715270146765, 40.6228960566044], [-73.9711600011334, 40.6229375854644], [-73.9711758459972, 40.6230190383261], [-73.9715428609003, 40.6229775101189], [-73.9715270146765, 40.6228960566044]]]}}, {"type": "Feature", "properties": {"zone_id": "0207L1GLRXQTVV3OQ2OH3Y", "tract_id": "36047045000", "city": "BROOKLYN, NY", "zone_code": "R3-1", "zone_category": "Residential", "ev_permitted": false}, "geometry": {"type": "Polygon", "coordinates": [[[-73.9715428609003, 40.6229775101189], [-73.9711758459972, 40.6230190383261], [-73.971192030431, 40.6231022430178], [-73.9715590457816, 40.6230607147592], [-73.9715428609003, 40.6229775101189]]]}}, {"type": "Feature", "properties": {"zone_id": "0207L63YFX0KABNKRAKVFT", "tract_id": "36047045000", "city": "BROOKLYN, NY", "zone_code": "R3-1", "zone_category": "Residential", "ev_permitted": false}, "geometry": {"type": "Polygon", "coordinates": [[[-73.9720282012534, 40.6225128904983], [-73.9720585240083, 40.6226745737171], [-73.9724181847722, 40.6226354299931], [-73.9723995535328, 40.6225427431005], [-73.9720282012534, 40.6225128904983]]]}}, {"type": "Feature", "properties": {"zone_id": "0204OUB1PS26SQ62CLWVS3", "tract_id": "36047045000", "city": "BROOKLYN, NY", "zone_code": "R3-1", "zone_category": "Residential", "ev_permitted": false}, "geometry": {"type": "Polygon", "coordinates": [[[-73.9724181847722, 40.6226354299931], [-73.9720585240083, 40.6226745737171], [-73.9720789076437, 40.6227832608067], [-73.9724400011959, 40.6227439613708], [-73.9724181847722, 40.6226354299931]]]}}, {"type": "Feature", "properties": {"zone_id": "0205R4G3KIZAMU7CTVO6QH", "tract_id": "36047045000", "city": "BROOKLYN, NY", "zone_code": "R3-1", "zone_category": "Residential", "ev_permitted": false}, "geometry": {"type": "Polygon", "coordinates": [[[-73.9724400011959, 40.6227439613708], [-73.9720789076437, 40.6227832608067], [-73.9720939407686, 40.6228634141155], [-73.9724560906937, 40.622824000351], [-73.9724400011959, 40.6227439613708]]]}}, {"type": "Feature", "properties": {"zone_id": "0204P0RXEUQI3PJ89DL6OX", "tract_id": "36047045000", "city": "BROOKLYN, NY", "zone_code": "R3-1", "zone_category": "Residential", "ev_permitted": false}, "geometry": {"type": "Polygon", "coordinates": [[[-73.9720681623596, 40.6227259662799], [-73.9717133601115, 40.6227645795909], [-73.9717337432123, 40.6228732667406], [-73.9720885469483, 40.62283465407], [-73.9720681623596, 40.6227259662799]]]}}, {"type": "Feature", "properties": {"zone_id": "0201ZFT47XVBJL6W51FA6H", "tract_id": "36047045000", "city": "BROOKLYN, NY", "zone_code": "R3-1", "zone_category": "Residential", "ev_permitted": false}, "geometry": {"type": "Polygon", "coordinates": [[[-73.9720477787592, 40.6226172791878], [-73.9716929761551, 40.6226558917335], [-73.9717133601115, 40.6227645795909], [-73.9720681623596, 40.6227259662799], [-73.9720477787592, 40.6226172791878]]]}}, {"type": "Feature", "properties": {"zone_id": "0204W6XV4ALYLLXPL7PON3", "tract_id": "36047045000", "city": "BROOKLYN, NY", "zone_code": "R3-1", "zone_category": "Residential", "ev_permitted": false}, "geometry": {"type": "Polygon", "coordinates": [[[-73.9720360646375, 40.6225548170116], [-73.9716812632805, 40.6225934302242], [-73.9716929761551, 40.6226558917335], [-73.9720477787592, 40.6226172791878], [-73.9720360646375, 40.6225548170116]]]}}, {"type": "Feature", "properties": {"zone_id": "0202CX6UCISBZ0F4CG3TGA", "tract_id": "36047045000", "city": "BROOKLYN, NY", "zone_code": "R3-1", "zone_category": "Residential", "ev_permitted": false}, "geometry": {"type": "Polygon", "coordinates": [[[-73.9716606162809, 40.6224833397718], [-73.9716812632805, 40.6225934302242], [-73.9720360646375, 40.6225548170116], [-73.9720282012534, 40.6225128904983], [-73.9716606162809, 40.6224833397718]]]}}, {"type": "Feature", "properties": {"zone_id": "0203RJPEGER28UR5CFXGFS", "tract_id": "36047045000", "city": "BROOKLYN, NY", "zone_code": "R3-1", "zone_category": "Residential", "ev_permitted": false}, "geometry": {"type": "Polygon", "coordinates": [[[-73.9705075224698, 40.6223906315196], [-73.9706224977373, 40.622998401474], [-73.9715270146765, 40.6228960566044], [-73.9714433352046, 40.6224658711165], [-73.9705075224698, 40.6223906315196]]]}}, {"type": "Feature", "properties": {"zone_id": "0201QKCZB0G27EYGVGN73B", "tract_id": "36047045000", "city": "BROOKLYN, NY", "zone_code": "R3-1", "zone_category": "Residential", "ev_permitted": false}, "geometry": {"type": "Polygon", "coordinates": [[[-73.9711814441562, 40.6230478181398], [-73.9706433634955, 40.6231087001524], [-73.9706736166208, 40.6232686214218], [-73.9712125331656, 40.6232076446177], [-73.9711814441562, 40.6230478181398]]]}}, {"type": "Feature", "properties": {"zone_id": "020407EDAJLEVRD4G2MXWK", "tract_id": "36047045000", "city": "BROOKLYN, NY", "zone_code": "R3-1", "zone_category": "Residential", "ev_permitted": false}, "geometry": {"type": "Polygon", "coordinates": [[[-73.9711600011334, 40.6229375854644], [-73.9706224977373, 40.622998401474], [-73.9706433634955, 40.6231087001524], [-73.9711814441562, 40.6230478181398], [-73.9711600011334, 40.6229375854644]]]}}, {"type": "Feature", "properties": {"zone_id": "02033R3ZLRET7K2XJHIY68", "tract_id": "36047045000", "city": "BROOKLYN, NY", "zone_code": "R5", "zone_category": "Residential", "ev_permitted": false}, "geometry": {"type": "Polygon", "coordinates": [[[-73.9746726258233, 40.6187779770026], [-73.9701284017464, 40.6203864756532], [-73.9705075224698, 40.6223906315196], [-73.9734667273839, 40.6226285257396], [-73.9750848604963, 40.620905106794], [-73.9746726258233, 40.6187779770026]]]}}, {"type": "Feature", "properties": {"zone_id": "0205XKKJHQNYEF1ATIY9WJ", "tract_id": "36047045000", "city": "BROOKLYN, NY", "zone_code": "R3-1", "zone_category": "Residential", "ev_permitted": false}, "geometry": {"type": "Polygon", "coordinates": [[[-73.9753194663542, 40.6219657975484], [-73.9752428113998, 40.6219740626946], [-73.9752424947766, 40.6219724338453], [-73.9749055737128, 40.6220087610316], [-73.9748664519233, 40.6220515786085], [-73.9749057822822, 40.6222536221116], [-73.975366121896, 40.622205463939], [-73.9753194663542, 40.6219657975484]]]}}, {"type": "Feature", "properties": {"zone_id": "0207EI688AB02PFAB2NB1J", "tract_id": "36047045000", "city": "BROOKLYN, NY", "zone_code": "M1-1", "zone_category": "Industrial", "ev_permitted": true}, "geometry": {"type": "Polygon", "coordinates": [[[-73.9752816094237, 40.6217713278385], [-73.9749856473951, 40.6218032393679], [-73.975004564365, 40.6219004201656], [-73.9749055737128, 40.6220087610316], [-73.9752424947766, 40.6219724338453], [-73.9752428113998, 40.6219740626946], [-73.9753194663542, 40.6219657975484], [-73.9752816094237, 40.6217713278385]]]}}, {"type": "Feature", "properties": {"zone_id": "0207ASCB3TOYT9JPXE1296", "tract_id": "36047045000", "city": "BROOKLYN, NY", "zone_code": "R3-1", "zone_category": "Residential", "ev_permitted": false}, "geometry": {"type": "Polygon", "coordinates": [[[-73.9748897949752, 40.6221714965727], [-73.9744461449142, 40.6222193305118], [-73.9744616770348, 40.6223015051977], [-73.9749057822822, 40.6222536221116], [-73.9748897949752, 40.6221714965727]]]}}, {"type": "Feature", "properties": {"zone_id": "0206UXCSKN4P8RUJL5IMXS", "tract_id": "36047045000", "city": "BROOKLYN, NY", "zone_code": "R3-1", "zone_category": "Residential", "ev_permitted": false}, "geometry": {"type": "Polygon", "coordinates": [[[-73.9744672990674, 40.6220303523318], [-73.9744199078006, 40.622080520623], [-73.9744461449142, 40.6222193305118], [-73.9747537280076, 40.6221861679623], [-73.9744672990674, 40.6220303523318]]]}}, {"type": "Feature", "properties": {"zone_id": "020738IUFUXO6MY1X2MGCI", "tract_id": "36047045000", "city": "BROOKLYN, NY", "zone_code": "R3-1", "zone_category": "Residential", "ev_permitted": false}, "geometry": {"type": "Polygon", "coordinates": [[[-73.9745077545655, 40.6219875260516], [-73.9744672990674, 40.6220303523318], [-73.9747537280076, 40.6221861679623], [-73.974853195121, 40.6221754431802], [-73.9745077545655, 40.6219875260516]]]}}, {"type": "Feature", "properties": {"zone_id": "0204ETN2P5LH0JXXQ5N9U7", "tract_id": "36047045000", "city": "BROOKLYN, NY", "zone_code": "R3-1", "zone_category": "Residential", "ev_permitted": false}, "geometry": {"type": "Polygon", "coordinates": [[[-73.9745501418195, 40.6219426554249], [-73.9745077545655, 40.6219875260516], [-73.974853195121, 40.6221754431802], [-73.9748897949752, 40.6221714965727], [-73.9748801998497, 40.6221222045239], [-73.9745501418195, 40.6219426554249]]]}}, {"type": "Feature", "properties": {"zone_id": "0201TSO2938DR92D5DMMID", "tract_id": "36047045000", "city": "BROOKLYN, NY", "zone_code": "R3-1", "zone_category": "Residential", "ev_permitted": false}, "geometry": {"type": "Polygon", "coordinates": [[[-73.9746320950235, 40.6218558998345], [-73.9745895445895, 40.6219009433117], [-73.9748664519233, 40.6220515786085], [-73.9749080710623, 40.6220060282037], [-73.9746320950235, 40.6218558998345]]]}}, {"type": "Feature", "properties": {"zone_id": "0203SMU70CZR1ACM7ZGKTG", "tract_id": "36047045000", "city": "BROOKLYN, NY", "zone_code": "R3-1", "zone_category": "Residential", "ev_permitted": false}, "geometry": {"type": "Polygon", "coordinates": [[[-73.9748054484946, 40.6216723866824], [-73.9746320950235, 40.6218558998345], [-73.9749080710623, 40.6220060282037], [-73.975004564365, 40.6219004201656], [-73.9749802741114, 40.621775640265], [-73.9748054484946, 40.6216723866824]]]}}, {"type": "Feature", "properties": {"zone_id": "0200J1UKQT0GMTSL8DDFPC", "tract_id": "36047045000", "city": "BROOKLYN, NY", "zone_code": "R3-1", "zone_category": "Residential", "ev_permitted": false}, "geometry": {"type": "Polygon", "coordinates": [[[-73.9745895445895, 40.6219009433117], [-73.9745501418195, 40.6219426554249], [-73.9748801998497, 40.6221222045239], [-73.9748664519233, 40.6220515786085], [-73.9745895445895, 40.6219009433117]]]}}, {"type": "Feature", "properties": {"zone_id": "0204QEL2B2W0NHSKNR6B31", "tract_id": "36047045000", "city": "BROOKLYN, NY", "zone_code": "M1-1", "zone_category": "Industrial", "ev_permitted": true}, "geometry": {"type": "Polygon", "coordinates": [[[-73.9751842804793, 40.6212713476203], [-73.9748054484946, 40.6216723866824], [-73.9749802741114, 40.621775640265], [-73.9749856473951, 40.6218032393679], [-73.9752816094237, 40.6217713278385], [-73.9751842804793, 40.6212713476203]]]}}, {"type": "Feature", "properties": {"zone_id": "02072TAE11POHRLVXFLDEZ", "tract_id": "36047045000", "city": "BROOKLYN, NY", "zone_code": "PARK", "zone_category": "Other", "ev_permitted": false}, "geometry": {"type": "Polygon", "coordinates": [[[-73.9746677418888, 40.6187497230985], [-73.9742593024912, 40.6187960659968], [-73.9742619409989, 40.6188096421107], [-73.9746700946059, 40.6187633314628], [-73.9746677418888, 40.6187497230985]]]}}, {"type": "Feature", "properties": {"zone_id": "0202IVQO004EU6UT9FOLPI", "tract_id": "36047045000", "city": "BROOKLYN, NY", "zone_code": "OP", "zone_category": "Other", "ev_permitted": false}, "geometry": {"type": "Polygon", "coordinates": [[[-73.9731305376907, 40.6177746886999], [-73.9718080966959, 40.6182609779418], [-73.9720838827794, 40.6196943337814], [-73.9746726258233, 40.6187779770026], [-73.9746700946059, 40.6187633314628], [-73.9742619409989, 40.6188096421107], [-73.9742593024912, 40.6187960659968], [-73.9746677418888, 40.6187497230985], [-73.9746395148916, 40.6185864227235], [-73.9738426116463, 40.6186768410998], [-73.9731305376907, 40.6177746886999]]]}}, {"type": "Feature", "properties": {"zone_id": "0204W34CV2C2X37B72YNHW", "tract_id": "36047045000", "city": "BROOKLYN, NY", "zone_code": "R5", "zone_category": "Residential", "ev_permitted": false}, "geometry": {"type": "Polygon", "coordinates": [[[-73.9744194717943, 40.6173133797708], [-73.9740317137589, 40.6173573767475], [-73.9740428186284, 40.6174145074824], [-73.9736441304188, 40.6174597429979], [-73.9736835987415, 40.6176628080237], [-73.9735792086525, 40.6176965647901], [-73.9737459323961, 40.6185543561753], [-73.9738426116463, 40.6186768410998], [-73.9746395148916, 40.6185864227235], [-73.9744194717943, 40.6173133797708]]]}}]}