{"type": "FeatureCollection", "features": [{"type": "Feature", "properties": {"zone_id": "0200SJLQY6SU44LEK6PL3U", "tract_id": "36047014101", "city": "BROOKLYN, NY", "zone_code": "G", "zone_category": "Other", "ev_permitted": false}, "geometry": {"type": "Polygon", "coordinates": [[[-73.9906257066864, 40.6671345213349], [-73.9902282299774, 40.6676099423756], [-73.9906138524853, 40.6677965153458], [-73.9910115287598, 40.6673208547962], [-73.9906257066864, 40.6671345213349]]]}}, {"type": "Feature", "properties": {"zone_id": "0202SM6ZXRJB1DM9YMYUFW", "tract_id": "36047014101", "city": "BROOKLYN, NY", "zone_code": "R6B", "zone_category": "Residential", "ev_permitted": false}, "geometry": {"type": "Polygon", "coordinates": [[[-73.9903015250947, 40.6669779551897], [-73.9901701190445, 40.6671351290555], [-73.9902690441984, 40.6671829052014], [-73.9900030878145, 40.6675010116721], [-73.9902282299774, 40.6676099423756], [-73.9906257066864, 40.6671345213349], [-73.9903015250947, 40.6669779551897]]]}}, {"type": "Feature", "properties": {"zone_id": "0203U9U3QW44KO68RKL8IJ", "tract_id": "36047014101", "city": "BROOKLYN, NY", "zone_code": "R6B", "zone_category": "Residential", "ev_permitted": false}, "geometry": {"type": "Polygon", "coordinates": [[[-73.9912446872722, 40.6665872138588], [-73.9910818073012, 40.6667826224865], [-73.9910629521881, 40.6667735369952], [-73.9910283797508, 40.6668150139099], [-73.9910034069206, 40.6668029809628], [-73.9907975984964, 40.6670498868029], [-73.991105943765, 40.6671984687761], [-73.9915088747821, 40.6667150677492], [-73.9912446872722, 40.6665872138588]]]}}, {"type": "Feature", "properties": {"zone_id": "0200T0XORBZEFNQNKWBQ42", "tract_id": "36047014101", "city": "", "zone_code": "R6B", "zone_category": "Residential", "ev_permitted": false}, "geometry": {"type": "Polygon", "coordinates": [[[-73.9909578422926, 40.6664483932261], [-73.9907831038484, 40.6666580273207], [-73.9908644525876, 40.6666972276529], [-73.9908413817866, 40.6667249058247], [-73.9910283797508, 40.6668150139099], [-73.9910629521881, 40.6667735369952], [-73.9910818073012, 40.6667826224865], [-73.9912446872722, 40.6665872138588], [-73.9909578422926, 40.6664483932261]]]}}, {"type": "Feature", "properties": {"zone_id": "0200VU2GSTIV7TB1R5ECSG", "tract_id": "36047014101", "city": "BROOKLYN, NY", "zone_code": "R6B", "zone_category": "Residential", "ev_permitted": false}, "geometry": {"type": "Polygon", "coordinates": [[[-73.9908532001145, 40.6667306011465], [-73.9906473932032, 40.6669775067201], [-73.9907975984964, 40.6670498868029], [-73.9910034069206, 40.6668029809628], [-73.9908532001145, 40.6667306011465]]]}}, {"type": "Feature", "properties": {"zone_id": "0206FUZTPVL07YKLJDHMJ3", "tract_id": "36047014101", "city": "BROOKLYN, NY", "zone_code": "R6B", "zone_category": "Residential", "ev_permitted": false}, "geometry": {"type": "Polygon", "coordinates": [[[-73.9907191459943, 40.6666660037285], [-73.9905133397088, 40.666912909767], [-73.9905720253936, 40.6669411890499], [-73.9907778333946, 40.6666942836101], [-73.9907191459943, 40.6666660037285]]]}}, {"type": "Feature", "properties": {"zone_id": "0207G6M96KEK14TSC7RWDE", "tract_id": "36047014101", "city": "BROOKLYN, NY", "zone_code": "R6B", "zone_category": "Residential", "ev_permitted": false}, "geometry": {"type": "Polygon", "coordinates": [[[-73.990666869756, 40.666640813244], [-73.990461062432, 40.666887718487], [-73.9905133397088, 40.666912909767], [-73.9907191459943, 40.6666660037285], [-73.990666869756, 40.666640813244]]]}}, {"type": "Feature", "properties": {"zone_id": "0201HROE411PTPQI3U63KS", "tract_id": "36047014101", "city": "BROOKLYN, NY", "zone_code": "R6B", "zone_category": "Residential", "ev_permitted": false}, "geometry": {"type": "Polygon", "coordinates": [[[-73.9907778333946, 40.6666942836101], [-73.9905720253936, 40.6669411890499], [-73.9906473932032, 40.6669775067201], [-73.9908532001145, 40.6667306011465], [-73.9907778333946, 40.6666942836101]]]}}, {"type": "Feature", "properties": {"zone_id": "0203PODHLR595FP1UJELQ4", "tract_id": "36047014101", "city": "BROOKLYN, NY", "zone_code": "R6B", "zone_category": "Residential", "ev_permitted": false}, "geometry": {"type": "Polygon", "coordinates": [[[-73.9906082710317, 40.6666125754727], [-73.9904024635778, 40.6668594813143], [-73.990461062432, 40.666887718487], [-73.990666869756, 40.666640813244], [-73.9906082710317, 40.6666125754727]]]}}, {"type": "Feature", "properties": {"zone_id": "0200UKTWK92LUZAQX0QXXJ", "tract_id": "36047014101", "city": "BROOKLYN, NY", "zone_code": "R6B", "zone_category": "Residential", "ev_permitted": false}, "geometry": {"type": "Polygon", "coordinates": [[[-73.9902765966909, 40.6664527482788], [-73.9900707875797, 40.6666996528289], [-73.9901248205079, 40.6667256904439], [-73.9903306294995, 40.6664787857978], [-73.9902765966909, 40.6664527482788]]]}}, {"type": "Feature", "properties": {"zone_id": "0202833UFEMLYUKHY5L4NV", "tract_id": "36047014101", "city": "BROOKLYN, NY", "zone_code": "R6B", "zone_category": "Residential", "ev_permitted": false}, "geometry": {"type": "Polygon", "coordinates": [[[-73.9904408470373, 40.6665318973664], [-73.9902350392126, 40.6667788029108], [-73.9902981740539, 40.6668092265365], [-73.9905039817388, 40.66656232088], [-73.9904408470373, 40.6665318973664]]]}}, {"type": "Feature", "properties": {"zone_id": "02078QJQ2AWHR69Z8Y0KY1", "tract_id": "36047014101", "city": "BROOKLYN, NY", "zone_code": "R6B", "zone_category": "Residential", "ev_permitted": false}, "geometry": {"type": "Polygon", "coordinates": [[[-73.9903860196772, 40.6665054775842], [-73.9901802117312, 40.6667523823286], [-73.9902350392126, 40.6667788029108], [-73.9904408470373, 40.6665318973664], [-73.9903860196772, 40.6665054775842]]]}}, {"type": "Feature", "properties": {"zone_id": "0206DSCQWXGILIJ18AKTCF", "tract_id": "36047014101", "city": "BROOKLYN, NY", "zone_code": "R6B", "zone_category": "Residential", "ev_permitted": false}, "geometry": {"type": "Polygon", "coordinates": [[[-73.9903306294995, 40.6664787857978], [-73.9901248205079, 40.6667256904439], [-73.9901802117312, 40.6667523823286], [-73.9903860196772, 40.6665054775842], [-73.9903306294995, 40.6664787857978]]]}}, {"type": "Feature", "properties": {"zone_id": "0202F4D03NLG8PLX5X59HT", "tract_id": "36047014101", "city": "BROOKLYN, NY", "zone_code": "R6B", "zone_category": "Residential", "ev_permitted": false}, "geometry": {"type": "Polygon", "coordinates": [[[-73.9905573734302, 40.6665880490675], [-73.990351564018, 40.6668349548186], [-73.9904024635778, 40.6668594813143], [-73.9906082710317, 40.6666125754727], [-73.9905573734302, 40.6665880490675]]]}}, {"type": "Feature", "properties": {"zone_id": "0205LTXCZCS87E55M4NWXP", "tract_id": "36047014101", "city": "BROOKLYN, NY", "zone_code": "R6B", "zone_category": "Residential", "ev_permitted": false}, "geometry": {"type": "Polygon", "coordinates": [[[-73.9905039817388, 40.66656232088], [-73.9902981740539, 40.6668092265365], [-73.990351564018, 40.6668349548186], [-73.9905573734302, 40.6665880490675], [-73.9905039817388, 40.66656232088]]]}}, {"type": "Feature", "properties": {"zone_id": "0205GAXDSIM94D80YL7S30", "tract_id": "36047014101", "city": "BROOKLYN, NY", "zone_code": "R6B", "zone_category": "Residential", "ev_permitted": false}, "geometry": {"type": "Polygon", "coordinates": [[[-73.9908837298403, 40.6664125262635], [-73.990685829046, 40.6666499486979], [-73.9908413817866, 40.6667249058247], [-73.9908644525876, 40.6666972276529], [-73.9907831038484, 40.6666580273207], [-73.9909578422926, 40.6664483932261], [-73.9908837298403, 40.6664125262635]]]}}, {"type": "Feature", "properties": {"zone_id": "02020O4WB2BGALPQ0062VW", "tract_id": "36047014101", "city": "BROOKLYN, NY", "zone_code": "R6B", "zone_category": "Residential", "ev_permitted": false}, "geometry": {"type": "Polygon", "coordinates": [[[-73.9908062688996, 40.6663750379417], [-73.9906082710317, 40.6666125754727], [-73.990685829046, 40.6666499486979], [-73.9908837298403, 40.6664125262635], [-73.9908062688996, 40.6663750379417]]]}}, {"type": "Feature", "properties": {"zone_id": "020442DCMZE8KIN1C2M89C", "tract_id": "36047014101", "city": "BROOKLYN, NY", "zone_code": "R6B", "zone_category": "Residential", "ev_permitted": false}, "geometry": {"type": "Polygon", "coordinates": [[[-73.9907279978945, 40.6663371581188], [-73.9905577362276, 40.6665414203753], [-73.9905318150231, 40.6665289305166], [-73.9905039817388, 40.66656232088], [-73.9906082710317, 40.6666125754727], [-73.9908062688996, 40.6663750379417], [-73.9907279978945, 40.6663371581188]]]}}, {"type": "Feature", "properties": {"zone_id": "02042CEGCSAJW24T84S9TS", "tract_id": "36047014101", "city": "BROOKLYN, NY", "zone_code": "R6B", "zone_category": "Residential", "ev_permitted": false}, "geometry": {"type": "Polygon", "coordinates": [[[-73.9906516600823, 40.6663002136443], [-73.9904534708358, 40.6665379806663], [-73.9905039817388, 40.66656232088], [-73.9905318150231, 40.6665289305166], [-73.9905577362276, 40.6665414203753], [-73.9907279978945, 40.6663371581188], [-73.9906516600823, 40.6663002136443]]]}}, {"type": "Feature", "properties": {"zone_id": "0201SZ5KGHFR5JXZYLPYYY", "tract_id": "36047014101", "city": "BROOKLYN, NY", "zone_code": "R6B", "zone_category": "Residential", "ev_permitted": false}, "geometry": {"type": "Polygon", "coordinates": [[[-73.9905648374693, 40.6662581950318], [-73.990366540976, 40.6664960911865], [-73.9904534708358, 40.6665379806663], [-73.9906516600823, 40.6663002136443], [-73.9905648374693, 40.6662581950318]]]}}, {"type": "Feature", "properties": {"zone_id": "0203I1TI87X4M40029P7FW", "tract_id": "36047014101", "city": "BROOKLYN, NY", "zone_code": "R6B", "zone_category": "Residential", "ev_permitted": false}, "geometry": {"type": "Polygon", "coordinates": [[[-73.9904875863446, 40.6662208076954], [-73.9902891937004, 40.6664588182439], [-73.990366540976, 40.6664960911865], [-73.9905648374693, 40.6662581950318], [-73.9904875863446, 40.6662208076954]]]}}, {"type": "Feature", "properties": {"zone_id": "0200R5C8JTW2H3FE3GJ3Z6", "tract_id": "36047014101", "city": "BROOKLYN, NY", "zone_code": "R6B", "zone_category": "Residential", "ev_permitted": false}, "geometry": {"type": "Polygon", "coordinates": [[[-73.9904246466866, 40.6661903469466], [-73.9902261754578, 40.666428450835], [-73.9902891937004, 40.6664588182439], [-73.9904875863446, 40.6662208076954], [-73.9904246466866, 40.6661903469466]]]}}, {"type": "Feature", "properties": {"zone_id": "020168ZVZF5SBTJS9MMB18", "tract_id": "36047014101", "city": "BROOKLYN, NY", "zone_code": "R6B", "zone_category": "Residential", "ev_permitted": false}, "geometry": {"type": "Polygon", "coordinates": [[[-73.9901985997289, 40.6663599430531], [-73.9901657611914, 40.6663993385703], [-73.9902261754578, 40.666428450835], [-73.9902590139739, 40.6663890553007], [-73.9901985997289, 40.6663599430531]]]}}, {"type": "Feature", "properties": {"zone_id": "0205SQVLN17OR61JVPZR86", "tract_id": "36047014101", "city": "BROOKLYN, NY", "zone_code": "R6B", "zone_category": "Residential", "ev_permitted": false}, "geometry": {"type": "Polygon", "coordinates": [[[-73.990184263418, 40.6663530346525], [-73.9901514257982, 40.6663924301657], [-73.9901657611914, 40.6663993385703], [-73.9901985997289, 40.6663599430531], [-73.990184263418, 40.6663530346525]]]}}, {"type": "Feature", "properties": {"zone_id": "0203CAWB7ERU4BR2FTVOLO", "tract_id": "36047014101", "city": "BROOKLYN, NY", "zone_code": "R6B", "zone_category": "Residential", "ev_permitted": false}, "geometry": {"type": "Polygon", "coordinates": [[[-73.9903499894811, 40.6661542153923], [-73.990184263418, 40.6663530346525], [-73.9902590139739, 40.6663890553007], [-73.9904246466866, 40.6661903469466], [-73.9903499894811, 40.6661542153923]]]}}, {"type": "Feature", "properties": {"zone_id": "0202U9JFP351MTHM8336RQ", "tract_id": "36047014101", "city": "BROOKLYN, NY", "zone_code": "R6B", "zone_category": "Residential", "ev_permitted": false}, "geometry": {"type": "Polygon", "coordinates": [[[-73.9902663330918, 40.666113728625], [-73.9900676658602, 40.6663520676176], [-73.9901514257982, 40.6663924301657], [-73.9903499894811, 40.6661542153923], [-73.9902663330918, 40.666113728625]]]}}, {"type": "Feature", "properties": {"zone_id": "0204FRAFRI0ESLW7GOZI1Y", "tract_id": "36047014101", "city": "BROOKLYN, NY", "zone_code": "R6B", "zone_category": "Residential", "ev_permitted": false}, "geometry": {"type": "Polygon", "coordinates": [[[-73.9902889529016, 40.6669718838231], [-73.9900887567217, 40.6672113371227], [-73.9898143617875, 40.6670788140952], [-73.989617395828, 40.667314400103], [-73.9900030878145, 40.6675010116721], [-73.9902690441984, 40.6671829052014], [-73.9901701190445, 40.6671351290555], [-73.9903015250947, 40.6669779551897], [-73.9902889529016, 40.6669718838231]]]}}, {"type": "Feature", "properties": {"zone_id": "0202OXHY3OF2S7NUDJLZZ1", "tract_id": "36047014101", "city": "BROOKLYN, NY", "zone_code": "R6B", "zone_category": "Residential", "ev_permitted": false}, "geometry": {"type": "Polygon", "coordinates": [[[-73.989752769722, 40.6670490670069], [-73.9895558350139, 40.6672846149691], [-73.989617395828, 40.667314400103], [-73.9898143617875, 40.6670788140952], [-73.989752769722, 40.6670490670069]]]}}, {"type": "Feature", "properties": {"zone_id": "0203ND9X9R7M8IEM8PZ5A4", "tract_id": "36047014101", "city": "BROOKLYN, NY", "zone_code": "R6B", "zone_category": "Residential", "ev_permitted": false}, "geometry": {"type": "Polygon", "coordinates": [[[-73.9896932307775, 40.6670203122297], [-73.9894963273249, 40.6672558235552], [-73.9895558350139, 40.6672846149691], [-73.989752769722, 40.6670490670069], [-73.9896932307775, 40.6670203122297]]]}}, {"type": "Feature", "properties": {"zone_id": "0200L5GMPIDOY5LGXOFPK6", "tract_id": "36047014101", "city": "BROOKLYN, NY", "zone_code": "R6B", "zone_category": "Residential", "ev_permitted": false}, "geometry": {"type": "Polygon", "coordinates": [[[-73.9896483909043, 40.666998655642], [-73.9894515104318, 40.6672341387869], [-73.9894963273249, 40.6672558235552], [-73.9896932307775, 40.6670203122297], [-73.9896483909043, 40.666998655642]]]}}, {"type": "Feature", "properties": {"zone_id": "02064TSIPDGXN0DHDQRWXA", "tract_id": "36047014101", "city": "BROOKLYN, NY", "zone_code": "R6B", "zone_category": "Residential", "ev_permitted": false}, "geometry": {"type": "Polygon", "coordinates": [[[-73.9896024336401, 40.6669764599931], [-73.989405577068, 40.6672119149557], [-73.9894515104318, 40.6672341387869], [-73.9896483909043, 40.666998655642], [-73.9896024336401, 40.6669764599931]]]}}, {"type": "Feature", "properties": {"zone_id": "020038HBCIF241SFM2AC7V", "tract_id": "36047014101", "city": "BROOKLYN, NY", "zone_code": "R6B", "zone_category": "Residential", "ev_permitted": false}, "geometry": {"type": "Polygon", "coordinates": [[[-73.9900145585548, 40.6668393612694], [-73.9898143617875, 40.6670788140952], [-73.9898642749304, 40.6671029205484], [-73.9900644715909, 40.6668634676364], [-73.9900145585548, 40.6668393612694]]]}}, {"type": "Feature", "properties": {"zone_id": "0203CTKMCNGCFOJNWOOX2E", "tract_id": "36047014101", "city": "BROOKLYN, NY", "zone_code": "R6B", "zone_category": "Residential", "ev_permitted": false}, "geometry": {"type": "Polygon", "coordinates": [[[-73.9899529656984, 40.6668096142873], [-73.989752769722, 40.6670490670069], [-73.9898143617875, 40.6670788140952], [-73.9900145585548, 40.6668393612694], [-73.9899529656984, 40.6668096142873]]]}}, {"type": "Feature", "properties": {"zone_id": "02060JW5S90XP0JYTQMI93", "tract_id": "36047014101", "city": "BROOKLYN, NY", "zone_code": "R6B", "zone_category": "Residential", "ev_permitted": false}, "geometry": {"type": "Polygon", "coordinates": [[[-73.9899116368497, 40.6667896536342], [-73.9897114398621, 40.6670291062823], [-73.989752769722, 40.6670490670069], [-73.9899529656984, 40.6668096142873], [-73.9899116368497, 40.6667896536342]]]}}, {"type": "Feature", "properties": {"zone_id": "02077MVWIA0ENI3JW33LZK", "tract_id": "36047014101", "city": "BROOKLYN, NY", "zone_code": "R6B", "zone_category": "Residential", "ev_permitted": false}, "geometry": {"type": "Polygon", "coordinates": [[[-73.9900644715909, 40.6668634676364], [-73.9898642749304, 40.6671029205484], [-73.9899164940101, 40.6671281402004], [-73.9901166905587, 40.6668886879009], [-73.9900644715909, 40.6668634676364]]]}}, {"type": "Feature", "properties": {"zone_id": "0204GPUCY1PLN055RD8K55", "tract_id": "36047014101", "city": "BROOKLYN, NY", "zone_code": "R6B", "zone_category": "Residential", "ev_permitted": false}, "geometry": {"type": "Polygon", "coordinates": [[[-73.9901166905587, 40.6668886879009], [-73.9899164940101, 40.6671281402004], [-73.9900887567217, 40.6672113371227], [-73.9902889529016, 40.6669718838231], [-73.9901166905587, 40.6668886879009]]]}}, {"type": "Feature", "properties": {"zone_id": "0200X104VR51YM1KMNKPJR", "tract_id": "36047014101", "city": "BROOKLYN, NY", "zone_code": "R6B", "zone_category": "Residential", "ev_permitted": false}, "geometry": {"type": "Polygon", "coordinates": [[[-73.9897467360044, 40.6667100118713], [-73.9895465386638, 40.6669494642347], [-73.9895833138549, 40.666967225271], [-73.9897835101939, 40.666727772844], [-73.9897467360044, 40.6667100118713]]]}}, {"type": "Feature", "properties": {"zone_id": "0206EZ3YD62J8WZ8DHOCQU", "tract_id": "36047014101", "city": "BROOKLYN, NY", "zone_code": "R6B", "zone_category": "Residential", "ev_permitted": false}, "geometry": {"type": "Polygon", "coordinates": [[[-73.989862576521, 40.6667659590363], [-73.9896623794284, 40.6670054115997], [-73.9897114398621, 40.6670291062823], [-73.9899116368497, 40.6667896536342], [-73.989862576521, 40.6667659590363]]]}}, {"type": "Feature", "properties": {"zone_id": "0201Z6JTBCOJGLDJ95F22J", "tract_id": "36047014101", "city": "BROOKLYN, NY", "zone_code": "R6B", "zone_category": "Residential", "ev_permitted": false}, "geometry": {"type": "Polygon", "coordinates": [[[-73.9897835101939, 40.666727772844], [-73.9895833138549, 40.666967225271], [-73.9896623794284, 40.6670054115997], [-73.989862576521, 40.6667659590363], [-73.9897835101939, 40.666727772844]]]}}, {"type": "Feature", "properties": {"zone_id": "0200TIKG2UBA9SNE7QYXE8", "tract_id": "36047014101", "city": "BROOKLYN, NY", "zone_code": "R6B", "zone_category": "Residential", "ev_permitted": false}, "geometry": {"type": "Polygon", "coordinates": [[[-73.9897091120073, 40.6666918418608], [-73.9895089145864, 40.6669312934566], [-73.9895465386638, 40.6669494642347], [-73.9897467360044, 40.6667100118713], [-73.9897091120073, 40.6666918418608]]]}}, {"type": "Feature", "properties": {"zone_id": "02045GUOHL9MJUFNQ7LX2X", "tract_id": "36047014101", "city": "", "zone_code": "R6B", "zone_category": "Residential", "ev_permitted": false}, "geometry": {"type": "Polygon", "coordinates": [[[-73.9895262472179, 40.6666035223915], [-73.9893260494053, 40.6668429750768], [-73.9895089145864, 40.6669312934566], [-73.9897091120073, 40.6666918418608], [-73.9895262472179, 40.6666035223915]]]}}, {"type": "Feature", "properties": {"zone_id": "0204C2FNLG7W400VH8J3K2", "tract_id": "36047014101", "city": "BROOKLYN, NY", "zone_code": "R6B", "zone_category": "Residential", "ev_permitted": false}, "geometry": {"type": "Polygon", "coordinates": [[[-73.9894086302572, 40.6668828588379], [-73.9892118738815, 40.6671181933255], [-73.989263193985, 40.6671430232117], [-73.9894599770188, 40.6669076577222], [-73.9894086302572, 40.6668828588379]]]}}, {"type": "Feature", "properties": {"zone_id": "02023Q72LEMNK2NR0D9JS1", "tract_id": "36047014101", "city": "BROOKLYN, NY", "zone_code": "R6B", "zone_category": "Residential", "ev_permitted": false}, "geometry": {"type": "Polygon", "coordinates": [[[-73.9895089145864, 40.6669312934566], [-73.9893121067351, 40.6671666899439], [-73.9893568414149, 40.6671883347073], [-73.9895536731693, 40.6669529100397], [-73.9895089145864, 40.6669312934566]]]}}, {"type": "Feature", "properties": {"zone_id": "02056B38BELE2ZA6HNWZXR", "tract_id": "36047014101", "city": "BROOKLYN, NY", "zone_code": "R6B", "zone_category": "Residential", "ev_permitted": false}, "geometry": {"type": "Polygon", "coordinates": [[[-73.9893586233261, 40.6668587065044], [-73.9891618926885, 40.6670940099925], [-73.9892118738815, 40.6671181933255], [-73.9894086302572, 40.6668828588379], [-73.9893586233261, 40.6668587065044]]]}}, {"type": "Feature", "properties": {"zone_id": "0203TSDO0EY55ANJKDDP2R", "tract_id": "36047014101", "city": "BROOKLYN, NY", "zone_code": "R6B", "zone_category": "Residential", "ev_permitted": false}, "geometry": {"type": "Polygon", "coordinates": [[[-73.9895536731693, 40.6669529100397], [-73.9893568414149, 40.6671883347073], [-73.989405577068, 40.6672119149557], [-73.9896024336401, 40.6669764599931], [-73.9895536731693, 40.6669529100397]]]}}, {"type": "Feature", "properties": {"zone_id": "02007JOJMSB3KID3XZBA6D", "tract_id": "36047014101", "city": "BROOKLYN, NY", "zone_code": "R6B", "zone_category": "Residential", "ev_permitted": false}, "geometry": {"type": "Polygon", "coordinates": [[[-73.9894599770188, 40.6669076577222], [-73.989263193985, 40.6671430232117], [-73.9893121067351, 40.6671666899439], [-73.9895089145864, 40.6669312934566], [-73.9894599770188, 40.6669076577222]]]}}, {"type": "Feature", "properties": {"zone_id": "020205SMULZG5HBG5M9UXD", "tract_id": "36047014101", "city": "BROOKLYN, NY", "zone_code": "R6B", "zone_category": "Residential", "ev_permitted": false}, "geometry": {"type": "Polygon", "coordinates": [[[-73.989300766842, 40.6668307639576], [-73.9891040665409, 40.6670660308118], [-73.9891618926885, 40.6670940099925], [-73.9893586233261, 40.6668587065044], [-73.989300766842, 40.6668307639576]]]}}, {"type": "Feature", "properties": {"zone_id": "0205KNSP3941I6J2QLZ6DA", "tract_id": "36047014101", "city": "BROOKLYN, NY", "zone_code": "R6B", "zone_category": "Residential", "ev_permitted": false}, "geometry": {"type": "Polygon", "coordinates": [[[-73.9892426981808, 40.6668027180702], [-73.989046027293, 40.667037948993], [-73.9891040665409, 40.6670660308118], [-73.989300766842, 40.6668307639576], [-73.9892426981808, 40.6668027180702]]]}}, {"type": "Feature", "properties": {"zone_id": "0201VM4ZK8Y1Q2SI349Q3J", "tract_id": "36047014101", "city": "BROOKLYN, NY", "zone_code": "R6B", "zone_category": "Residential", "ev_permitted": false}, "geometry": {"type": "Polygon", "coordinates": [[[-73.9891296742582, 40.6667481302005], [-73.988933063126, 40.666983290671], [-73.9889901315756, 40.6670109044806], [-73.9891867739687, 40.6667757080804], [-73.9891296742582, 40.6667481302005]]]}}, {"type": "Feature", "properties": {"zone_id": "0206G64302D11DZRJ5PUOC", "tract_id": "36047014101", "city": "BROOKLYN, NY", "zone_code": "R6B", "zone_category": "Residential", "ev_permitted": false}, "geometry": {"type": "Polygon", "coordinates": [[[-73.9891867739687, 40.6667757080804], [-73.9889901315756, 40.6670109044806], [-73.989046027293, 40.667037948993], [-73.9892426981808, 40.6668027180702], [-73.9891867739687, 40.6667757080804]]]}}, {"type": "Feature", "properties": {"zone_id": "0204RCR6O6US67UT44KZAI", "tract_id": "36047014101", "city": "BROOKLYN, NY", "zone_code": "R6B", "zone_category": "Residential", "ev_permitted": false}, "geometry": {"type": "Polygon", "coordinates": [[[-73.9890542429572, 40.6667116991027], [-73.9888576695089, 40.6669468123705], [-73.988933063126, 40.666983290671], [-73.9891296742582, 40.6667481302005], [-73.9890542429572, 40.6667116991027]]]}}, {"type": "Feature", "properties": {"zone_id": "0202GGBVVW4FHX27EK49UP", "tract_id": "36047014101", "city": "BROOKLYN, NY", "zone_code": "R6B", "zone_category": "Residential", "ev_permitted": false}, "geometry": {"type": "Polygon", "coordinates": [[[-73.9894648181182, 40.6665738538604], [-73.9892646201742, 40.6668133057371], [-73.9893260494053, 40.6668429750768], [-73.9895262472179, 40.6666035223915], [-73.9894648181182, 40.6665738538604]]]}}, {"type": "Feature", "properties": {"zone_id": "0203VPOI5T1AC0GK73WSUB", "tract_id": "36047014101", "city": "BROOKLYN, NY", "zone_code": "R6B", "zone_category": "Residential", "ev_permitted": false}, "geometry": {"type": "Polygon", "coordinates": [[[-73.9892544413514, 40.6664722475892], [-73.9890542429572, 40.6667116991027], [-73.9891455173423, 40.6667557822919], [-73.9893457146184, 40.6665163306208], [-73.9892544413514, 40.6664722475892]]]}}, {"type": "Feature", "properties": {"zone_id": "0207HAQ5Y4FU405BS8A94F", "tract_id": "36047014101", "city": "BROOKLYN, NY", "zone_code": "R6B", "zone_category": "Residential", "ev_permitted": false}, "geometry": {"type": "Polygon", "coordinates": [[[-73.9893457146184, 40.6665163306208], [-73.9891455173423, 40.6667557822919], [-73.9892056048328, 40.6667848030115], [-73.9894058029031, 40.6665453512368], [-73.9893457146184, 40.6665163306208]]]}}, {"type": "Feature", "properties": {"zone_id": "02004M8TF1RNDI25BHF27S", "tract_id": "36047014101", "city": "BROOKLYN, NY", "zone_code": "R6B", "zone_category": "Residential", "ev_permitted": false}, "geometry": {"type": "Polygon", "coordinates": [[[-73.9894058029031, 40.6665453512368], [-73.9892056048328, 40.6667848030115], [-73.9892646201742, 40.6668133057371], [-73.9894648181182, 40.6665738538604], [-73.9894058029031, 40.6665453512368]]]}}, {"type": "Feature", "properties": {"zone_id": "0202MEN7UTLED24ZVZEBBZ", "tract_id": "36047014101", "city": "BROOKLYN, NY", "zone_code": "C4-3A", "zone_category": "Commercial", "ev_permitted": true}, "geometry": {"type": "Polygon", "coordinates": [[[-73.9886825357486, 40.6665137138116], [-73.9886249660138, 40.6665825691156], [-73.9889305102391, 40.6667301413034], [-73.9889880788631, 40.6666612858476], [-73.9886825357486, 40.6665137138116]]]}}, {"type": "Feature", "properties": {"zone_id": "0205J6AN4HVBVUQI7HXHKJ", "tract_id": "36047014101", "city": "BROOKLYN, NY", "zone_code": "R6B", "zone_category": "Residential", "ev_permitted": false}, "geometry": {"type": "Polygon", "coordinates": [[[-73.9889973565039, 40.6666842237659], [-73.9888008124713, 40.6669193025097], [-73.9888576695089, 40.6669468123705], [-73.9890542429572, 40.6667116991027], [-73.9889973565039, 40.6666842237659]]]}}, {"type": "Feature", "properties": {"zone_id": "0200H0NW430HEFC78IK615", "tract_id": "36047014101", "city": "BROOKLYN, NY", "zone_code": "R6B", "zone_category": "Residential", "ev_permitted": false}, "geometry": {"type": "Polygon", "coordinates": [[[-73.9899121240858, 40.6662771136581], [-73.9897063132446, 40.6665240175613], [-73.9897576598491, 40.6665487608034], [-73.989963468731, 40.666301856809], [-73.9899121240858, 40.6662771136581]]]}}, {"type": "Feature", "properties": {"zone_id": "0201HCI24G2LJ1SDCI64Q8", "tract_id": "36047014101", "city": "BROOKLYN, NY", "zone_code": "R6B", "zone_category": "Residential", "ev_permitted": false}, "geometry": {"type": "Polygon", "coordinates": [[[-73.9901151868675, 40.666374967285], [-73.9899093783215, 40.6666218722514], [-73.9899599527575, 40.6666462429238], [-73.9901657611914, 40.6663993385703], [-73.9901151868675, 40.666374967285]]]}}, {"type": "Feature", "properties": {"zone_id": "02024EFWSR5CWG88QEKBWJ", "tract_id": "36047014101", "city": "BROOKLYN, NY", "zone_code": "R6B", "zone_category": "Residential", "ev_permitted": false}, "geometry": {"type": "Polygon", "coordinates": [[[-73.9902167000274, 40.6664238848274], [-73.9900108907834, 40.6666707899739], [-73.9900707875797, 40.6666996528289], [-73.9902765966909, 40.6664527482788], [-73.9902167000274, 40.6664238848274]]]}}, {"type": "Feature", "properties": {"zone_id": "0201D6RSP9O7UF77KYUIDO", "tract_id": "36047014101", "city": "BROOKLYN, NY", "zone_code": "R6B", "zone_category": "Residential", "ev_permitted": false}, "geometry": {"type": "Polygon", "coordinates": [[[-73.9900136148024, 40.6663260222438], [-73.9898078069542, 40.6665729263272], [-73.9898545677071, 40.6665954592443], [-73.9900603754517, 40.6663485543751], [-73.9900136148024, 40.6663260222438]]]}}, {"type": "Feature", "properties": {"zone_id": "0207KGAOV3I6ZZJVVVEXU6", "tract_id": "36047014101", "city": "BROOKLYN, NY", "zone_code": "R6B", "zone_category": "Residential", "ev_permitted": false}, "geometry": {"type": "Polygon", "coordinates": [[[-73.9900603754517, 40.6663485543751], [-73.9898545677071, 40.6665954592443], [-73.9899093783215, 40.6666218722514], [-73.9901151868675, 40.666374967285], [-73.9900603754517, 40.6663485543751]]]}}, {"type": "Feature", "properties": {"zone_id": "0204D76IK2OHV19K1JO5AR", "tract_id": "36047014101", "city": "BROOKLYN, NY", "zone_code": "R6B", "zone_category": "Residential", "ev_permitted": false}, "geometry": {"type": "Polygon", "coordinates": [[[-73.9901657611914, 40.6663993385703], [-73.9899599527575, 40.6666462429238], [-73.9900108907834, 40.6666707899739], [-73.9902167000274, 40.6664238848274], [-73.9901657611914, 40.6663993385703]]]}}, {"type": "Feature", "properties": {"zone_id": "020790I2AT96OMSCMJN0TH", "tract_id": "36047014101", "city": "BROOKLYN, NY", "zone_code": "R6B", "zone_category": "Residential", "ev_permitted": false}, "geometry": {"type": "Polygon", "coordinates": [[[-73.989963468731, 40.666301856809], [-73.9897576598491, 40.6665487608034], [-73.9898078069542, 40.6665729263272], [-73.9900136148024, 40.6663260222438], [-73.989963468731, 40.666301856809]]]}}, {"type": "Feature", "properties": {"zone_id": "0203FALPED9LR3FFD5TIN9", "tract_id": "36047014101", "city": "BROOKLYN, NY", "zone_code": "R6B", "zone_category": "Residential", "ev_permitted": false}, "geometry": {"type": "Polygon", "coordinates": [[[-73.9897880666478, 40.6662173320806], [-73.9895822564546, 40.6664642357637], [-73.9896535263137, 40.6664985799354], [-73.9898593345035, 40.6662516761257], [-73.9897880666478, 40.6662173320806]]]}}, {"type": "Feature", "properties": {"zone_id": "02072RIFB51PIOWYWLOXQ0", "tract_id": "36047014101", "city": "BROOKLYN, NY", "zone_code": "R6B", "zone_category": "Residential", "ev_permitted": false}, "geometry": {"type": "Polygon", "coordinates": [[[-73.9898593345035, 40.6662516761257], [-73.9896535263137, 40.6664985799354], [-73.9897063132446, 40.6665240175613], [-73.9899121240858, 40.6662771136581], [-73.9898593345035, 40.6662516761257]]]}}, {"type": "Feature", "properties": {"zone_id": "02023PV9CGV32TDUG2XZQ8", "tract_id": "36047014101", "city": "BROOKLYN, NY", "zone_code": "R6B", "zone_category": "Residential", "ev_permitted": false}, "geometry": {"type": "Polygon", "coordinates": [[[-73.9897233778243, 40.6661861589952], [-73.9895175674877, 40.666433063266], [-73.9895822564546, 40.6664642357637], [-73.9897880666478, 40.6662173320806], [-73.9897233778243, 40.6661861589952]]]}}, {"type": "Feature", "properties": {"zone_id": "0202X6C2WMG03VTYZ29UA5", "tract_id": "36047014101", "city": "BROOKLYN, NY", "zone_code": "R6B", "zone_category": "Residential", "ev_permitted": false}, "geometry": {"type": "Polygon", "coordinates": [[[-73.9900441024719, 40.6660061761507], [-73.989878971169, 40.6662042804178], [-73.9899307521911, 40.6662292337181], [-73.9900958187961, 40.6660312052594], [-73.9900441024719, 40.6660061761507]]]}}, {"type": "Feature", "properties": {"zone_id": "0202YBT7P82OBZYLWZCAE4", "tract_id": "36047014101", "city": "BROOKLYN, NY", "zone_code": "R6B", "zone_category": "Residential", "ev_permitted": false}, "geometry": {"type": "Polygon", "coordinates": [[[-73.9901474881006, 40.6660562111528], [-73.9899824852708, 40.6662541631004], [-73.9900327577258, 40.6662783882643], [-73.9901976986288, 40.6660805114249], [-73.9901474881006, 40.6660562111528]]]}}, {"type": "Feature", "properties": {"zone_id": "0205RP3CXXRENUPIRD2NEG", "tract_id": "36047014101", "city": "BROOKLYN, NY", "zone_code": "R6B", "zone_category": "Residential", "ev_permitted": false}, "geometry": {"type": "Polygon", "coordinates": [[[-73.9900958187961, 40.6660312052594], [-73.9899307521911, 40.6662292337181], [-73.9899824852708, 40.6662541631004], [-73.9901474881006, 40.6660562111528], [-73.9900958187961, 40.6660312052594]]]}}, {"type": "Feature", "properties": {"zone_id": "02039EVDLD4PNVG1XKWIK3", "tract_id": "36047014101", "city": "BROOKLYN, NY", "zone_code": "R6B", "zone_category": "Residential", "ev_permitted": false}, "geometry": {"type": "Polygon", "coordinates": [[[-73.9901976986288, 40.6660805114249], [-73.9899989454166, 40.6663189521786], [-73.9900676658602, 40.6663520676176], [-73.9902663330918, 40.666113728625], [-73.9901976986288, 40.6660805114249]]]}}, {"type": "Feature", "properties": {"zone_id": "0200SZSS92QATCS6EC8JNJ", "tract_id": "36047014101", "city": "BROOKLYN, NY", "zone_code": "R6B", "zone_category": "Residential", "ev_permitted": false}, "geometry": {"type": "Polygon", "coordinates": [[[-73.9896656463276, 40.6661583389041], [-73.9894598358633, 40.6664052423698], [-73.9895175674877, 40.666433063266], [-73.9897233778243, 40.6661861589952], [-73.9896656463276, 40.6661583389041]]]}}, {"type": "Feature", "properties": {"zone_id": "0202GJBKRCFGOO78TDR0EC", "tract_id": "36047014101", "city": "BROOKLYN, NY", "zone_code": "R6B", "zone_category": "Residential", "ev_permitted": false}, "geometry": {"type": "Polygon", "coordinates": [[[-73.9896033806642, 40.6661283337946], [-73.9893975709848, 40.6663752371499], [-73.9894598358633, 40.6664052423698], [-73.9896656463276, 40.6661583389041], [-73.9896033806642, 40.6661283337946]]]}}, {"type": "Feature", "properties": {"zone_id": "02042CDHRC00MLQD4S3E90", "tract_id": "36047014101", "city": "BROOKLYN, NY", "zone_code": "R6B", "zone_category": "Residential", "ev_permitted": false}, "geometry": {"type": "Polygon", "coordinates": [[[-73.9890785293317, 40.6660444623722], [-73.9889732430509, 40.6661707546186], [-73.9893375188325, 40.6663462987439], [-73.989543328645, 40.6660993947926], [-73.9894824102512, 40.6660700390006], [-73.989381877014, 40.6661906446998], [-73.9890785293317, 40.6660444623722]]]}}, {"type": "Feature", "properties": {"zone_id": "0206KR9BMIW8SF2A6UHZ4U", "tract_id": "36047014101", "city": "BROOKLYN, NY", "zone_code": "R6B", "zone_category": "Residential", "ev_permitted": false}, "geometry": {"type": "Polygon", "coordinates": [[[-73.9891772848177, 40.6664349823487], [-73.9889770862583, 40.6666744337288], [-73.9890542429572, 40.6667116991027], [-73.9892544413514, 40.6664722475892], [-73.9891772848177, 40.6664349823487]]]}}, {"type": "Feature", "properties": {"zone_id": "0200Y3V3L963BFYVIZ5NIP", "tract_id": "36047014101", "city": "BROOKLYN, NY", "zone_code": "C4-3A", "zone_category": "Commercial", "ev_permitted": true}, "geometry": {"type": "Polygon", "coordinates": [[[-73.9888717413985, 40.6662874108112], [-73.9888186023153, 40.6663509685626], [-73.9891241459082, 40.6664985395375], [-73.9891772848177, 40.6664349823487], [-73.9888717413985, 40.6662874108112]]]}}, {"type": "Feature", "properties": {"zone_id": "0200VGGLH27QM2F2E4NCZT", "tract_id": "36047014101", "city": "BROOKLYN, NY", "zone_code": "C4-3A", "zone_category": "Commercial", "ev_permitted": true}, "geometry": {"type": "Polygon", "coordinates": [[[-73.988769587896, 40.6664095925916], [-73.9887206546122, 40.6664681196397], [-73.9890261994478, 40.6666156915754], [-73.9890751316489, 40.6665571643983], [-73.988769587896, 40.6664095925916]]]}}, {"type": "Feature", "properties": {"zone_id": "0207NY7E9E5UKK7RVR3F10", "tract_id": "36047014101", "city": "BROOKLYN, NY", "zone_code": "C4-3A", "zone_category": "Commercial", "ev_permitted": true}, "geometry": {"type": "Polygon", "coordinates": [[[-73.9888186023153, 40.6663509685626], [-73.988769587896, 40.6664095925916], [-73.9890751316489, 40.6665571643983], [-73.9891241459082, 40.6664985395375], [-73.9888186023153, 40.6663509685626]]]}}, {"type": "Feature", "properties": {"zone_id": "0201A6RLR91V21QGI5SOBN", "tract_id": "36047014101", "city": "BROOKLYN, NY", "zone_code": "C4-3A", "zone_category": "Commercial", "ev_permitted": true}, "geometry": {"type": "Polygon", "coordinates": [[[-73.9887206546122, 40.6664681196397], [-73.9886825357486, 40.6665137138116], [-73.9889880788631, 40.6666612858476], [-73.9890261994478, 40.6666156915754], [-73.9887206546122, 40.6664681196397]]]}}, {"type": "Feature", "properties": {"zone_id": "02031MZ080EJSUO6FSN4BP", "tract_id": "36047014101", "city": "BROOKLYN, NY", "zone_code": "R6B", "zone_category": "Residential", "ev_permitted": false}, "geometry": {"type": "Polygon", "coordinates": [[[-73.989543328645, 40.6660993947926], [-73.9893375188325, 40.6663462987439], [-73.9893975709848, 40.6663752371499], [-73.9896033806642, 40.6661283337946], [-73.989543328645, 40.6660993947926]]]}}, {"type": "Feature", "properties": {"zone_id": "0201G3J8NVEBOWR2Y6MMOX", "tract_id": "36047014101", "city": "BROOKLYN, NY", "zone_code": "C4-3A", "zone_category": "Commercial", "ev_permitted": true}, "geometry": {"type": "Polygon", "coordinates": [[[-73.9891292377957, 40.6659836369257], [-73.9890785293317, 40.6660444623722], [-73.989381877014, 40.6661906446998], [-73.9894325816216, 40.6661298177149], [-73.9891292377957, 40.6659836369257]]]}}, {"type": "Feature", "properties": {"zone_id": "0201IU3C8PFO7OTA6Q7AN3", "tract_id": "36047014101", "city": "BROOKLYN, NY", "zone_code": "C4-3A", "zone_category": "Commercial", "ev_permitted": true}, "geometry": {"type": "Polygon", "coordinates": [[[-73.988575028275, 40.6666422975551], [-73.9885275234238, 40.6666991157848], [-73.9888330679675, 40.6668466875266], [-73.9888805726635, 40.6667898691718], [-73.988575028275, 40.6666422975551]]]}}, {"type": "Feature", "properties": {"zone_id": "0204H2YXNUYWWH9AC81GCF", "tract_id": "36047014101", "city": "BROOKLYN, NY", "zone_code": "C4-3A", "zone_category": "Commercial", "ev_permitted": true}, "geometry": {"type": "Polygon", "coordinates": [[[-73.9886249660138, 40.6665825691156], [-73.988575028275, 40.6666422975551], [-73.9888805726635, 40.6667898691718], [-73.988780552336, 40.6669094997914], [-73.9888008124713, 40.6669193025097], [-73.9889973565039, 40.6666842237659], [-73.9889770862583, 40.6666744337288], [-73.9889305102391, 40.6667301413034], [-73.9886249660138, 40.6665825691156]]]}}, {"type": "Feature", "properties": {"zone_id": "0203LCW2I5LSD2PI4VX9YO", "tract_id": "36047014101", "city": "BROOKLYN, NY", "zone_code": "C4-3A", "zone_category": "Commercial", "ev_permitted": true}, "geometry": {"type": "Polygon", "coordinates": [[[-73.9885275234238, 40.6666991157848], [-73.9884751654511, 40.6667617368025], [-73.988780552336, 40.6669094997914], [-73.9888330679675, 40.6668466875266], [-73.9885275234238, 40.6666991157848]]]}}, {"type": "Feature", "properties": {"zone_id": "02057MPM6G1QEH96XH9117", "tract_id": "36047014101", "city": "BROOKLYN, NY", "zone_code": "C4-3A", "zone_category": "Commercial", "ev_permitted": true}, "geometry": {"type": "Polygon", "coordinates": [[[-73.9881328781053, 40.6663671482502], [-73.9880928529295, 40.6664150580082], [-73.9883434532934, 40.6665361644692], [-73.9883833897817, 40.6664882117533], [-73.9881328781053, 40.6663671482502]]]}}, {"type": "Feature", "properties": {"zone_id": "02018DDEUH2B7G8GGOCOG2", "tract_id": "36047014101", "city": "BROOKLYN, NY", "zone_code": "C4-3A", "zone_category": "Commercial", "ev_permitted": true}, "geometry": {"type": "Polygon", "coordinates": [[[-73.9881544202568, 40.6662492822483], [-73.9881167718461, 40.6662943464743], [-73.988421999891, 40.666441851827], [-73.9884595632894, 40.6663967467388], [-73.9881544202568, 40.6662492822483]]]}}, {"type": "Feature", "properties": {"zone_id": "0204UHH9RPHP1OB6XJA7HG", "tract_id": "36047014101", "city": "BROOKLYN, NY", "zone_code": "C4-3A", "zone_category": "Commercial", "ev_permitted": true}, "geometry": {"type": "Polygon", "coordinates": [[[-73.9881715732075, 40.6663208298732], [-73.9881328781053, 40.6663671482502], [-73.9883833897817, 40.6664882117533], [-73.988421999891, 40.666441851827], [-73.9881715732075, 40.6663208298732]]]}}, {"type": "Feature", "properties": {"zone_id": "020054HBOQPJF0U2WQDYRQ", "tract_id": "36047014101", "city": "", "zone_code": "C4-3A", "zone_category": "Commercial", "ev_permitted": true}, "geometry": {"type": "Polygon", "coordinates": [[[-73.9881167718461, 40.6662943464743], [-73.9879435792704, 40.6665016590372], [-73.9882493218707, 40.6666491894915], [-73.9883434532934, 40.6665361644692], [-73.9880928529295, 40.6664150580082], [-73.9881715732075, 40.6663208298732], [-73.9881167718461, 40.6662943464743]]]}}, {"type": "Feature", "properties": {"zone_id": "0205DN9PXYHKT353YR1411", "tract_id": "36047014101", "city": "BROOKLYN, NY", "zone_code": "C4-3A", "zone_category": "Commercial", "ev_permitted": true}, "geometry": {"type": "Polygon", "coordinates": [[[-73.9881876050877, 40.6662095591963], [-73.9881544202568, 40.6662492822483], [-73.9884595632894, 40.6663967467388], [-73.9884926751179, 40.6663569884591], [-73.9881876050877, 40.6662095591963]]]}}, {"type": "Feature", "properties": {"zone_id": "0200DB25OKQH3WKNCBEB03", "tract_id": "36047014101", "city": "BROOKLYN, NY", "zone_code": "C4-3A", "zone_category": "Commercial", "ev_permitted": true}, "geometry": {"type": "Polygon", "coordinates": [[[-73.9882062219384, 40.6659660595258], [-73.9880071675942, 40.6662044188157], [-73.9881387554229, 40.6662680326045], [-73.9883378759252, 40.6660296836354], [-73.9882062219384, 40.6659660595258]]]}}, {"type": "Feature", "properties": {"zone_id": "020360QCXB9OD605B4T7VV", "tract_id": "36047014101", "city": "BROOKLYN, NY", "zone_code": "C4-3A", "zone_category": "Commercial", "ev_permitted": true}, "geometry": {"type": "Polygon", "coordinates": [[[-73.9883378759252, 40.6660296836354], [-73.9881876050877, 40.6662095591963], [-73.9884926751179, 40.6663569884591], [-73.9886426132901, 40.6661769515602], [-73.9883378759252, 40.6660296836354]]]}}, {"type": "Feature", "properties": {"zone_id": "020401FM1FE5HLVWRDTQRK", "tract_id": "36047014101", "city": "BROOKLYN, NY", "zone_code": "R6B", "zone_category": "Residential", "ev_permitted": false}, "geometry": {"type": "Polygon", "coordinates": [[[-73.9879864252127, 40.66619441635], [-73.987791181364, 40.6664281219201], [-73.9878661346213, 40.6664642895957], [-73.9880613450861, 40.6662306225423], [-73.9879864252127, 40.66619441635]]]}}, {"type": "Feature", "properties": {"zone_id": "020717LL9DO1O0CN8B5JC3", "tract_id": "36047014101", "city": "BROOKLYN, NY", "zone_code": "R6B", "zone_category": "Residential", "ev_permitted": false}, "geometry": {"type": "Polygon", "coordinates": [[[-73.9880613450861, 40.6662306225423], [-73.9878661346213, 40.6664642895957], [-73.9879435792704, 40.6665016590372], [-73.9881387554229, 40.6662680326045], [-73.9880613450861, 40.6662306225423]]]}}, {"type": "Feature", "properties": {"zone_id": "0207NWWZ3FGXJY9Y9HWAOK", "tract_id": "36047014101", "city": "BROOKLYN, NY", "zone_code": "R6B", "zone_category": "Residential", "ev_permitted": false}, "geometry": {"type": "Polygon", "coordinates": [[[-73.9881568740183, 40.665942210988], [-73.9879577531303, 40.6661805603489], [-73.9880071675942, 40.6662044188157], [-73.9882062219384, 40.6659660595258], [-73.9881568740183, 40.665942210988]]]}}, {"type": "Feature", "properties": {"zone_id": "0204LW9LI6VKRHFCIDELZD", "tract_id": "36047014101", "city": "BROOKLYN, NY", "zone_code": "R6B", "zone_category": "Residential", "ev_permitted": false}, "geometry": {"type": "Polygon", "coordinates": [[[-73.9879109757895, 40.666157953581], [-73.9877156994783, 40.6663916990724], [-73.987791181364, 40.6664281219201], [-73.9879864252127, 40.66619441635], [-73.9879109757895, 40.666157953581]]]}}, {"type": "Feature", "properties": {"zone_id": "0205LOBPD3RZ0T5XPUK7E7", "tract_id": "36047014101", "city": "BROOKLYN, NY", "zone_code": "R6B", "zone_category": "Residential", "ev_permitted": false}, "geometry": {"type": "Polygon", "coordinates": [[[-73.9878364159329, 40.6661219208862], [-73.9876411062385, 40.6663557048949], [-73.9877156994783, 40.6663916990724], [-73.9879109757895, 40.666157953581], [-73.9878364159329, 40.6661219208862]]]}}, {"type": "Feature", "properties": {"zone_id": "0201LGA54W127OABANU4U7", "tract_id": "36047014101", "city": "BROOKLYN, NY", "zone_code": "R6B", "zone_category": "Residential", "ev_permitted": false}, "geometry": {"type": "Polygon", "coordinates": [[[-73.9876047250559, 40.6660099513795], [-73.9874093142711, 40.6662438551424], [-73.9874631077279, 40.6662698131766], [-73.9876584944027, 40.6660359367244], [-73.9876047250559, 40.6660099513795]]]}}, {"type": "Feature", "properties": {"zone_id": "0205DT6YVJURQLPVBA06SV", "tract_id": "36047014101", "city": "BROOKLYN, NY", "zone_code": "R6B", "zone_category": "Residential", "ev_permitted": false}, "geometry": {"type": "Polygon", "coordinates": [[[-73.9875064392935, 40.665962452665], [-73.9873109858454, 40.6661964075519], [-73.9873594312577, 40.6662197841631], [-73.987554862453, 40.665985854488], [-73.9875064392935, 40.665962452665]]]}}, {"type": "Feature", "properties": {"zone_id": "0207JMHTOCRC6P9V1HZ6EH", "tract_id": "36047014101", "city": "BROOKLYN, NY", "zone_code": "R6B", "zone_category": "Residential", "ev_permitted": false}, "geometry": {"type": "Polygon", "coordinates": [[[-73.9877080488989, 40.6660598845733], [-73.9875126835566, 40.6662937351128], [-73.9875670823868, 40.6663199847691], [-73.9877624236176, 40.6660861629446], [-73.9877080488989, 40.6660598845733]]]}}, {"type": "Feature", "properties": {"zone_id": "020035FCDWYC7CXDH0K5F7", "tract_id": "36047014101", "city": "BROOKLYN, NY", "zone_code": "R6B", "zone_category": "Residential", "ev_permitted": false}, "geometry": {"type": "Polygon", "coordinates": [[[-73.987554862453, 40.665985854488], [-73.9873594312577, 40.6662197841631], [-73.9874093142711, 40.6662438551424], [-73.9876047250559, 40.6660099513795], [-73.987554862453, 40.665985854488]]]}}, {"type": "Feature", "properties": {"zone_id": "0206TVW6UNDCMXJCCJ9JFL", "tract_id": "36047014101", "city": "BROOKLYN, NY", "zone_code": "R6B", "zone_category": "Residential", "ev_permitted": false}, "geometry": {"type": "Polygon", "coordinates": [[[-73.9876584944027, 40.6660359367244], [-73.9874631077279, 40.6662698131766], [-73.9875126835566, 40.6662937351128], [-73.9877080488989, 40.6660598845733], [-73.9876584944027, 40.6660359367244]]]}}, {"type": "Feature", "properties": {"zone_id": "0206ZHXOHICOUVR3QLX0T0", "tract_id": "36047014101", "city": "", "zone_code": "R6B", "zone_category": "Residential", "ev_permitted": false}, "geometry": {"type": "Polygon", "coordinates": [[[-73.9877624236176, 40.6660861629446], [-73.9875670823868, 40.6663199847691], [-73.9876411062385, 40.6663557048949], [-73.9878364159329, 40.6661219208862], [-73.9877624236176, 40.6660861629446]]]}}, {"type": "Feature", "properties": {"zone_id": "0207HIY75QND4IKBK37R0K", "tract_id": "36047014101", "city": "", "zone_code": "R6B", "zone_category": "Residential", "ev_permitted": false}, "geometry": {"type": "Polygon", "coordinates": [[[-73.9893788580241, 40.6656842126165], [-73.9892244918553, 40.6658693781061], [-73.98953577069, 40.6660193818556], [-73.9894903538791, 40.6660738664299], [-73.9899989454166, 40.6663189521786], [-73.9900327577258, 40.6662783882643], [-73.989878971169, 40.6662042804178], [-73.9900441024719, 40.6660061761507], [-73.9893788580241, 40.6656842126165]]]}}, {"type": "Feature", "properties": {"zone_id": "0201A0ROICMKLR66W1AUCC", "tract_id": "36047014101", "city": "BROOKLYN, NY", "zone_code": "C4-3A", "zone_category": "Commercial", "ev_permitted": true}, "geometry": {"type": "Polygon", "coordinates": [[[-73.9891790721243, 40.6659238604502], [-73.9891292377957, 40.6659836369257], [-73.9894325816216, 40.6661298177149], [-73.9894824102512, 40.6660700390006], [-73.9891790721243, 40.6659238604502]]]}}, {"type": "Feature", "properties": {"zone_id": "0206WK8P66LYWTKIBX4GC0", "tract_id": "36047014101", "city": "BROOKLYN, NY", "zone_code": "C4-3A", "zone_category": "Commercial", "ev_permitted": true}, "geometry": {"type": "Polygon", "coordinates": [[[-73.9892244918553, 40.6658693781061], [-73.9891790721243, 40.6659238604502], [-73.9894903538791, 40.6660738664299], [-73.98953577069, 40.6660193818556], [-73.9892244918553, 40.6658693781061]]]}}, {"type": "Feature", "properties": {"zone_id": "02069YYVA0YIBUU8N6S5ZK", "tract_id": "36047014101", "city": "BROOKLYN, NY", "zone_code": "C4-3A", "zone_category": "Commercial", "ev_permitted": true}, "geometry": {"type": "Polygon", "coordinates": [[[-73.9886870786211, 40.665599742065], [-73.9886349652574, 40.6656624608578], [-73.9886372683178, 40.6656635734011], [-73.9886367090008, 40.6656642457945], [-73.9889450143825, 40.6658132066952], [-73.9889977145676, 40.6657498294238], [-73.9886870786211, 40.665599742065]]]}}, {"type": "Feature", "properties": {"zone_id": "02042TLIA619PLSBJ1VUVF", "tract_id": "36047014101", "city": "BROOKLYN, NY", "zone_code": "C4-3A", "zone_category": "Commercial", "ev_permitted": true}, "geometry": {"type": "Polygon", "coordinates": [[[-73.9888326656511, 40.6654245338785], [-73.9886870786211, 40.665599742065], [-73.9889977145676, 40.6657498294238], [-73.9891433758483, 40.6655746566902], [-73.9888326656511, 40.6654245338785]]]}}, {"type": "Feature", "properties": {"zone_id": "020462VYP3S3TM51WDDF41", "tract_id": "36047014101", "city": "BROOKLYN, NY", "zone_code": "C4-3A", "zone_category": "Commercial", "ev_permitted": true}, "geometry": {"type": "Polygon", "coordinates": [[[-73.9885418473472, 40.6657784079045], [-73.9884910387881, 40.6658395542006], [-73.9887992699157, 40.6659884789429], [-73.9888501041412, 40.6659273465675], [-73.9885418473472, 40.6657784079045]]]}}, {"type": "Feature", "properties": {"zone_id": "0205T4TR5IA1Z59GRAJ9VB", "tract_id": "36047014101", "city": "BROOKLYN, NY", "zone_code": "C4-3A", "zone_category": "Commercial", "ev_permitted": true}, "geometry": {"type": "Polygon", "coordinates": [[[-73.9885891974548, 40.6657214252242], [-73.9885418473472, 40.6657784079045], [-73.9888501041412, 40.6659273465675], [-73.9888974780817, 40.665870373601], [-73.9885891974548, 40.6657214252242]]]}}, {"type": "Feature", "properties": {"zone_id": "0207GL3E1I5E4A8ODQXDCZ", "tract_id": "36047014101", "city": "BROOKLYN, NY", "zone_code": "C4-3A", "zone_category": "Commercial", "ev_permitted": true}, "geometry": {"type": "Polygon", "coordinates": [[[-73.9886011310617, 40.6658927469244], [-73.9885499948157, 40.6659542838941], [-73.9887480922525, 40.6660500244278], [-73.9887992699157, 40.6659884789429], [-73.9886011310617, 40.6658927469244]]]}}, {"type": "Feature", "properties": {"zone_id": "02057AO4O8CNX2HCW240AJ", "tract_id": "36047014101", "city": "BROOKLYN, NY", "zone_code": "C4-3A", "zone_category": "Commercial", "ev_permitted": true}, "geometry": {"type": "Polygon", "coordinates": [[[-73.9884910387881, 40.6658395542006], [-73.9884399117109, 40.6659010805827], [-73.9885499948157, 40.6659542838941], [-73.9886011310617, 40.6658927469244], [-73.9884910387881, 40.6658395542006]]]}}, {"type": "Feature", "properties": {"zone_id": "02077HUALR26XQRKPMQ3IQ", "tract_id": "36047014101", "city": "BROOKLYN, NY", "zone_code": "C4-3A", "zone_category": "Commercial", "ev_permitted": true}, "geometry": {"type": "Polygon", "coordinates": [[[-73.9885668201694, 40.6656295357417], [-73.9883694698731, 40.6658670350747], [-73.9884399117109, 40.6659010805827], [-73.9886372683178, 40.6656635734011], [-73.9885668201694, 40.6656295357417]]]}}, {"type": "Feature", "properties": {"zone_id": "0205R4HOLJ78RHNMVXZFM5", "tract_id": "36047014101", "city": "BROOKLYN, NY", "zone_code": "C4-3A", "zone_category": "Commercial", "ev_permitted": true}, "geometry": {"type": "Polygon", "coordinates": [[[-73.9886367090008, 40.6656642457945], [-73.9885891974548, 40.6657214252242], [-73.9888974780817, 40.665870373601], [-73.9889450143825, 40.6658132066952], [-73.9886367090008, 40.6656642457945]]]}}, {"type": "Feature", "properties": {"zone_id": "02014XZ2ILUKYH5AJKMPUB", "tract_id": "36047014101", "city": "BROOKLYN, NY", "zone_code": "R6B", "zone_category": "Residential", "ev_permitted": false}, "geometry": {"type": "Polygon", "coordinates": [[[-73.988627054246, 40.6655707421564], [-73.9885749408488, 40.6656334595169], [-73.9886349652574, 40.6656624608578], [-73.9886870786211, 40.665599742065], [-73.988627054246, 40.6655707421564]]]}}, {"type": "Feature", "properties": {"zone_id": "02022E0E47UWP0QI2US1PE", "tract_id": "36047014101", "city": "BROOKLYN, NY", "zone_code": "R6B", "zone_category": "Residential", "ev_permitted": false}, "geometry": {"type": "Polygon", "coordinates": [[[-73.9882572606927, 40.6654799672977], [-73.9880599355799, 40.665717435892], [-73.9881389065256, 40.6657556035891], [-73.9883362388538, 40.6655181264293], [-73.9882572606927, 40.6654799672977]]]}}, {"type": "Feature", "properties": {"zone_id": "0207HBLKEVPJYBINEU97QQ", "tract_id": "36047014101", "city": "BROOKLYN, NY", "zone_code": "R6B", "zone_category": "Residential", "ev_permitted": false}, "geometry": {"type": "Polygon", "coordinates": [[[-73.9884399490947, 40.6655682353762], [-73.9882426086806, 40.6658057232517], [-73.9882964297823, 40.6658317350054], [-73.9884937737736, 40.6655942421201], [-73.9884399490947, 40.6655682353762]]]}}, {"type": "Feature", "properties": {"zone_id": "0202AW8BNYS38YTZY66E1A", "tract_id": "36047014101", "city": "BROOKLYN, NY", "zone_code": "R6B", "zone_category": "Residential", "ev_permitted": false}, "geometry": {"type": "Polygon", "coordinates": [[[-73.9884937737736, 40.6655942421201], [-73.9882964297823, 40.6658317350054], [-73.9883694698731, 40.6658670350747], [-73.9885668201694, 40.6656295357417], [-73.9884937737736, 40.6655942421201]]]}}, {"type": "Feature", "properties": {"zone_id": "0206AV9N70TG48PPOGEC3R", "tract_id": "36047014101", "city": "BROOKLYN, NY", "zone_code": "R6B", "zone_category": "Residential", "ev_permitted": false}, "geometry": {"type": "Polygon", "coordinates": [[[-73.9883362388538, 40.6655181264293], [-73.9881389065256, 40.6657556035891], [-73.988192707247, 40.6657816048496], [-73.9883900431525, 40.6655441233825], [-73.9883362388538, 40.6655181264293]]]}}, {"type": "Feature", "properties": {"zone_id": "0207NTBVVDGZENLF8G6OE1", "tract_id": "36047014101", "city": "BROOKLYN, NY", "zone_code": "R6B", "zone_category": "Residential", "ev_permitted": false}, "geometry": {"type": "Polygon", "coordinates": [[[-73.9883900431525, 40.6655441233825], [-73.988192707247, 40.6657816048496], [-73.9882426086806, 40.6658057232517], [-73.9884399490947, 40.6655682353762], [-73.9883900431525, 40.6655441233825]]]}}, {"type": "Feature", "properties": {"zone_id": "0201EV9BQSU25LNRPPWN2D", "tract_id": "36047014101", "city": "BROOKLYN, NY", "zone_code": "R6B", "zone_category": "Residential", "ev_permitted": false}, "geometry": {"type": "Polygon", "coordinates": [[[-73.988110096777, 40.665919605003], [-73.9879109757895, 40.666157953581], [-73.9879577531303, 40.6661805603489], [-73.9881568740183, 40.665942210988], [-73.988110096777, 40.665919605003]]]}}, {"type": "Feature", "properties": {"zone_id": "0200IT08E9Z1ZVF4L5JBBL", "tract_id": "36047014101", "city": "", "zone_code": "R6B", "zone_category": "Residential", "ev_permitted": false}, "geometry": {"type": "Polygon", "coordinates": [[[-73.9878812139117, 40.6658089924806], [-73.9876820924365, 40.6660473406655], [-73.9879109757895, 40.666157953581], [-73.988110096777, 40.665919605003], [-73.9878812139117, 40.6658089924806]]]}}, {"type": "Feature", "properties": {"zone_id": "0200WU7C5P48087G7H936H", "tract_id": "36047014101", "city": "BROOKLYN, NY", "zone_code": "R6B", "zone_category": "Residential", "ev_permitted": false}, "geometry": {"type": "Polygon", "coordinates": [[[-73.9876516287124, 40.6656980400395], [-73.987452506748, 40.6659363878301], [-73.9875085698012, 40.6659634815952], [-73.9877076916462, 40.6657251337083], [-73.9876516287124, 40.6656980400395]]]}}, {"type": "Feature", "properties": {"zone_id": "0204Q43VTF48H0QO66KPOP", "tract_id": "36047014101", "city": "BROOKLYN, NY", "zone_code": "R6B", "zone_category": "Residential", "ev_permitted": false}, "geometry": {"type": "Polygon", "coordinates": [[[-73.9876030433339, 40.6656745595407], [-73.9874039212659, 40.6659129079505], [-73.987452506748, 40.6659363878301], [-73.9876516287124, 40.6656980400395], [-73.9876030433339, 40.6656745595407]]]}}, {"type": "Feature", "properties": {"zone_id": "0204FVKST4NHSDWW0T3BBX", "tract_id": "36047014101", "city": "BROOKLYN, NY", "zone_code": "R6B", "zone_category": "Residential", "ev_permitted": false}, "geometry": {"type": "Polygon", "coordinates": [[[-73.9877668917915, 40.6657537440304], [-73.9875677700726, 40.665992092019], [-73.9876240242182, 40.6660192777971], [-73.9878231448943, 40.6657809297119], [-73.9877668917915, 40.6657537440304]]]}}, {"type": "Feature", "properties": {"zone_id": "0205VD4I0TQ2SSXD0EJVL1", "tract_id": "36047014101", "city": "BROOKLYN, NY", "zone_code": "R6B", "zone_category": "Residential", "ev_permitted": false}, "geometry": {"type": "Polygon", "coordinates": [[[-73.9877076916462, 40.6657251337083], [-73.9875085698012, 40.6659634815952], [-73.9875677700726, 40.665992092019], [-73.9877668917915, 40.6657537440304], [-73.9877076916462, 40.6657251337083]]]}}, {"type": "Feature", "properties": {"zone_id": "0205U57Y1ZOAADL9IER511", "tract_id": "36047014101", "city": "BROOKLYN, NY", "zone_code": "R6B", "zone_category": "Residential", "ev_permitted": false}, "geometry": {"type": "Polygon", "coordinates": [[[-73.9878231448943, 40.6657809297119], [-73.9876240242182, 40.6660192777971], [-73.9876820924365, 40.6660473406655], [-73.9878812139117, 40.6658089924806], [-73.9878231448943, 40.6657809297119]]]}}, {"type": "Feature", "properties": {"zone_id": "0206TJ8MRXFJQ1BO2MD44N", "tract_id": "36047014101", "city": "BROOKLYN, NY", "zone_code": "R6B", "zone_category": "Residential", "ev_permitted": false}, "geometry": {"type": "Polygon", "coordinates": [[[-73.988108262149, 40.6654079760948], [-73.9879109487177, 40.6656454289782], [-73.9880599355799, 40.665717435892], [-73.9882572606927, 40.6654799672977], [-73.988108262149, 40.6654079760948]]]}}, {"type": "Feature", "properties": {"zone_id": "0207NMATWYGT8810KX7XDZ", "tract_id": "36047014101", "city": "BROOKLYN, NY", "zone_code": "R6B", "zone_category": "Residential", "ev_permitted": false}, "geometry": {"type": "Polygon", "coordinates": [[[-73.9875513891124, 40.6656495960699], [-73.9873522669343, 40.665887944391], [-73.9874039212659, 40.6659129079505], [-73.9876030433339, 40.6656745595407], [-73.9875513891124, 40.6656495960699]]]}}, {"type": "Feature", "properties": {"zone_id": "0203X64QNFVCJWOOKJ8X8M", "tract_id": "36047014101", "city": "", "zone_code": "R6B", "zone_category": "Residential", "ev_permitted": false}, "geometry": {"type": "Polygon", "coordinates": [[[-73.9878707586353, 40.6651808189362], [-73.9878041153792, 40.6652610201911], [-73.9884538578438, 40.6655749563409], [-73.9886515586243, 40.6653370296704], [-73.9883589953802, 40.665195673087], [-73.9882222736409, 40.6653602123491], [-73.9880962698028, 40.6652993304786], [-73.9880986778306, 40.6652964315395], [-73.9879482892364, 40.6652194257794], [-73.9878707586353, 40.6651808189362]]]}}, {"type": "Feature", "properties": {"zone_id": "02047M0TK3XCLKIXUU4HUF", "tract_id": "36047014101", "city": "BROOKLYN, NY", "zone_code": "R6B", "zone_category": "Residential", "ev_permitted": false}, "geometry": {"type": "Polygon", "coordinates": [[[-73.9886515586243, 40.6653370296704], [-73.9884538578438, 40.6655749563409], [-73.9885143333468, 40.6656041756157], [-73.9887120339981, 40.6653662495449], [-73.9886515586243, 40.6653370296704]]]}}, {"type": "Feature", "properties": {"zone_id": "0202125ANPBRZMAWXM91JN", "tract_id": "36047014101", "city": "BROOKLYN, NY", "zone_code": "C4-3A", "zone_category": "Commercial", "ev_permitted": true}, "geometry": {"type": "Polygon", "coordinates": [[[-73.9887726422935, 40.6653955326401], [-73.988627054246, 40.6655707421564], [-73.9886870786211, 40.665599742065], [-73.9888326656511, 40.6654245338785], [-73.9887726422935, 40.6653955326401]]]}}, {"type": "Feature", "properties": {"zone_id": "02003G1QTLOE1FRUCIGY2O", "tract_id": "36047014101", "city": "", "zone_code": "R6B", "zone_category": "Residential", "ev_permitted": false}, "geometry": {"type": "Polygon", "coordinates": [[[-73.9887120339981, 40.6653662495449], [-73.9885143333468, 40.6656041756157], [-73.9885749408488, 40.6656334595169], [-73.9887726422935, 40.6653955326401], [-73.9887120339981, 40.6653662495449]]]}}, {"type": "Feature", "properties": {"zone_id": "0204242ORT3ETO0W4Z2GFV", "tract_id": "36047014101", "city": "BROOKLYN, NY", "zone_code": "R6B", "zone_category": "Residential", "ev_permitted": false}, "geometry": {"type": "Polygon", "coordinates": [[[-73.988232991728, 40.6651347913651], [-73.9880962698028, 40.6652993304786], [-73.9882222736409, 40.6653602123491], [-73.9883589953802, 40.665195673087], [-73.988232991728, 40.6651347913651]]]}}, {"type": "Feature", "properties": {"zone_id": "0200X0DK4P5OUECZRCGVY6", "tract_id": "36047014101", "city": "BROOKLYN, NY", "zone_code": "R6B", "zone_category": "Residential", "ev_permitted": false}, "geometry": {"type": "Polygon", "coordinates": [[[-73.9881509424469, 40.6650951478199], [-73.9880180110396, 40.6652551262447], [-73.9880986778306, 40.6652964315395], [-73.988232991728, 40.6651347913651], [-73.9881509424469, 40.6650951478199]]]}}, {"type": "Feature", "properties": {"zone_id": "02001VLKX8MM4ZW0QQ2DMC", "tract_id": "36047014101", "city": "BROOKLYN, NY", "zone_code": "R6B", "zone_category": "Residential", "ev_permitted": false}, "geometry": {"type": "Polygon", "coordinates": [[[-73.98802052144, 40.665365580943], [-73.9878232152052, 40.6656030266513], [-73.9879109487177, 40.6656454289782], [-73.988108262149, 40.6654079760948], [-73.98802052144, 40.665365580943]]]}}, {"type": "Feature", "properties": {"zone_id": "0204ONCKLA40UFZ2GM8NVN", "tract_id": "36047014101", "city": "BROOKLYN, NY", "zone_code": "R6B", "zone_category": "Residential", "ev_permitted": false}, "geometry": {"type": "Polygon", "coordinates": [[[-73.9879550850577, 40.6653339648068], [-73.9877577832987, 40.665571402675], [-73.9878232152052, 40.6656030266513], [-73.98802052144, 40.665365580943], [-73.9879550850577, 40.6653339648068]]]}}, {"type": "Feature", "properties": {"zone_id": "0206IF6D31JSCB0YP8I5E4", "tract_id": "36047014101", "city": "BROOKLYN, NY", "zone_code": "R6B", "zone_category": "Residential", "ev_permitted": false}, "geometry": {"type": "Polygon", "coordinates": [[[-73.9878785007917, 40.6652969608433], [-73.9876812053304, 40.6655343908525], [-73.9877577832987, 40.665571402675], [-73.9879550850577, 40.6653339648068], [-73.9878785007917, 40.6652969608433]]]}}, {"type": "Feature", "properties": {"zone_id": "0203SUPMYVKEU4VET57UU3", "tract_id": "36047014101", "city": "BROOKLYN, NY", "zone_code": "R6B", "zone_category": "Residential", "ev_permitted": false}, "geometry": {"type": "Polygon", "coordinates": [[[-73.987624618389, 40.6651742909778], [-73.9874273436154, 40.6654116952614], [-73.9874782345416, 40.6654362919154], [-73.9876755128988, 40.6651988826269], [-73.987624618389, 40.6651742909778]]]}}, {"type": "Feature", "properties": {"zone_id": "0201FN0D8DYWPC6PCNBERY", "tract_id": "36047014101", "city": "BROOKLYN, NY", "zone_code": "R6B", "zone_category": "Residential", "ev_permitted": false}, "geometry": {"type": "Polygon", "coordinates": [[[-73.9875772541145, 40.6651514057537], [-73.9873799838547, 40.6653888057412], [-73.9874273436154, 40.6654116952614], [-73.987624618389, 40.6651742909778], [-73.9875772541145, 40.6651514057537]]]}}, {"type": "Feature", "properties": {"zone_id": "0201XKO98TVIGXPQ8GSWG3", "tract_id": "36047014101", "city": "BROOKLYN, NY", "zone_code": "R6B", "zone_category": "Residential", "ev_permitted": false}, "geometry": {"type": "Polygon", "coordinates": [[[-73.9878383554677, 40.6652775645075], [-73.9876410636128, 40.6655149902327], [-73.9876812053304, 40.6655343908525], [-73.9878785007917, 40.6652969608433], [-73.9878383554677, 40.6652775645075]]]}}, {"type": "Feature", "properties": {"zone_id": "0204XZA07UVGYPTXFFW2X6", "tract_id": "36047014101", "city": "BROOKLYN, NY", "zone_code": "R6B", "zone_category": "Residential", "ev_permitted": false}, "geometry": {"type": "Polygon", "coordinates": [[[-73.9877273919546, 40.6652239493588], [-73.9875301100158, 40.6654613643564], [-73.9876068262203, 40.6654984423451], [-73.9878041153792, 40.6652610201911], [-73.9877273919546, 40.6652239493588]]]}}, {"type": "Feature", "properties": {"zone_id": "0205A7UDZDL97NJLB8UAW0", "tract_id": "36047014101", "city": "BROOKLYN, NY", "zone_code": "R6B", "zone_category": "Residential", "ev_permitted": false}, "geometry": {"type": "Polygon", "coordinates": [[[-73.9878041153792, 40.6652610201911], [-73.9876068262203, 40.6654984423451], [-73.9876410636128, 40.6655149902327], [-73.9878383554677, 40.6652775645075], [-73.9878041153792, 40.6652610201911]]]}}, {"type": "Feature", "properties": {"zone_id": "020428U4W0Z7MH2D9P00CD", "tract_id": "36047014101", "city": "BROOKLYN, NY", "zone_code": "R6B", "zone_category": "Residential", "ev_permitted": false}, "geometry": {"type": "Polygon", "coordinates": [[[-73.9876755128988, 40.6651988826269], [-73.9874782345416, 40.6654362919154], [-73.9875301100158, 40.6654613643564], [-73.9877273919546, 40.6652239493588], [-73.9876755128988, 40.6651988826269]]]}}, {"type": "Feature", "properties": {"zone_id": "0205DGQ9GPYG3IHXA5YIBK", "tract_id": "36047014101", "city": "BROOKLYN, NY", "zone_code": "R6B", "zone_category": "Residential", "ev_permitted": false}, "geometry": {"type": "Polygon", "coordinates": [[[-73.9880018175467, 40.6650230946284], [-73.9878707586353, 40.6651808189362], [-73.9879482892364, 40.6652194257794], [-73.9880800273439, 40.6650608835544], [-73.9880018175467, 40.6650230946284]]]}}, {"type": "Feature", "properties": {"zone_id": "0202HYLFZDNWTHK7K6UHQL", "tract_id": "36047014101", "city": "BROOKLYN, NY", "zone_code": "R6B", "zone_category": "Residential", "ev_permitted": false}, "geometry": {"type": "Polygon", "coordinates": [[[-73.9879409303542, 40.6649936754825], [-73.9877432280566, 40.6652316009413], [-73.9878041153792, 40.6652610201911], [-73.9880018175467, 40.6650230946284], [-73.9879409303542, 40.6649936754825]]]}}, {"type": "Feature", "properties": {"zone_id": "0202B8A1SFK5FQ7FL97T44", "tract_id": "36047014101", "city": "BROOKLYN, NY", "zone_code": "R6B", "zone_category": "Residential", "ev_permitted": false}, "geometry": {"type": "Polygon", "coordinates": [[[-73.9878497615974, 40.6649496243644], [-73.9876520591052, 40.6651875496677], [-73.9877432280566, 40.6652316009413], [-73.9879409303542, 40.6649936754825], [-73.9878497615974, 40.6649496243644]]]}}, {"type": "Feature", "properties": {"zone_id": "02050R279PY26QH69TEWCW", "tract_id": "36047014101", "city": "BROOKLYN, NY", "zone_code": "R6B", "zone_category": "Residential", "ev_permitted": false}, "geometry": {"type": "Polygon", "coordinates": [[[-73.9880800273439, 40.6650608835544], [-73.9879482892364, 40.6652194257794], [-73.9880180110396, 40.6652551262447], [-73.9881509424469, 40.6650951478199], [-73.9880800273439, 40.6650608835544]]]}}, {"type": "Feature", "properties": {"zone_id": "0205KRI483TORN11372LN2", "tract_id": "36047014101", "city": "BROOKLYN, NY", "zone_code": "R6B", "zone_category": "Residential", "ev_permitted": false}, "geometry": {"type": "Polygon", "coordinates": [[[-73.9875280740271, 40.6651276433894], [-73.9873308064318, 40.6653650376723], [-73.9873799838547, 40.6653888057412], [-73.9875772541145, 40.6651514057537], [-73.9875280740271, 40.6651276433894]]]}}, {"type": "Feature", "properties": {"zone_id": "0207M1W230BP3X5FKPAKYZ", "tract_id": "36047014101", "city": "BROOKLYN, NY", "zone_code": "R6B", "zone_category": "Residential", "ev_permitted": false}, "geometry": {"type": "Polygon", "coordinates": [[[-73.9876245381551, 40.6648408020905], [-73.9874268351821, 40.6650787270099], [-73.9876520591052, 40.6651875496677], [-73.9878497615974, 40.6649496243644], [-73.9876245381551, 40.6648408020905]]]}}, {"type": "Feature", "properties": {"zone_id": "0203Z5017ZFH2501ZCT26L", "tract_id": "36047014101", "city": "BROOKLYN, NY", "zone_code": "R6B", "zone_category": "Residential", "ev_permitted": false}, "geometry": {"type": "Polygon", "coordinates": [[[-73.9875423355095, 40.6648010829083], [-73.987422262133, 40.6649455851821], [-73.9875044648852, 40.6649853044495], [-73.9876245381551, 40.6648408020905], [-73.9875423355095, 40.6648010829083]]]}}, {"type": "Feature", "properties": {"zone_id": "0206EMGTEKWMPU77V84NY4", "tract_id": "36047014101", "city": "BROOKLYN, NY", "zone_code": "R6B", "zone_category": "Residential", "ev_permitted": false}, "geometry": {"type": "Polygon", "coordinates": [[[-73.9874662466407, 40.6647643183297], [-73.9873461731656, 40.6649088205246], [-73.987422262133, 40.6649455851821], [-73.9875423355095, 40.6648010829083], [-73.9874662466407, 40.6647643183297]]]}}, {"type": "Feature", "properties": {"zone_id": "020582MR911XAHBG3DGPRT", "tract_id": "36047014101", "city": "BROOKLYN, NY", "zone_code": "R6B", "zone_category": "Residential", "ev_permitted": false}, "geometry": {"type": "Polygon", "coordinates": [[[-73.987452506748, 40.6659363878301], [-73.9872570291892, 40.6661703714326], [-73.9873109858454, 40.6661964075519], [-73.9875064392935, 40.665962452665], [-73.987452506748, 40.6659363878301]]]}}, {"type": "Feature", "properties": {"zone_id": "0203PJKRGPZ8V9L4O3JFRP", "tract_id": "36047014101", "city": "BROOKLYN, NY", "zone_code": "R6B", "zone_category": "Residential", "ev_permitted": false}, "geometry": {"type": "Polygon", "coordinates": [[[-73.9871498491676, 40.6657901189781], [-73.986954238987, 40.6660242601546], [-73.9870288859246, 40.6660602807836], [-73.9872244627212, 40.6658261788265], [-73.9871498491676, 40.6657901189781]]]}}, {"type": "Feature", "properties": {"zone_id": "0203UM7GOGOJXNG7QYSGPS", "tract_id": "36047014101", "city": "BROOKLYN, NY", "zone_code": "R6B", "zone_category": "Residential", "ev_permitted": false}, "geometry": {"type": "Polygon", "coordinates": [[[-73.9873740231635, 40.6658984586215], [-73.9871785112898, 40.6661324828423], [-73.9872570291892, 40.6661703714326], [-73.987452506748, 40.6659363878301], [-73.9873740231635, 40.6658984586215]]]}}, {"type": "Feature", "properties": {"zone_id": "0202X7Z103E3CROKUM5WG1", "tract_id": "36047014101", "city": "BROOKLYN, NY", "zone_code": "R6B", "zone_category": "Residential", "ev_permitted": false}, "geometry": {"type": "Polygon", "coordinates": [[[-73.9872244627212, 40.6658261788265], [-73.9870288859246, 40.6660602807836], [-73.9871023934127, 40.6660957517535], [-73.9872979377507, 40.6658616883155], [-73.9872244627212, 40.6658261788265]]]}}, {"type": "Feature", "properties": {"zone_id": "0203VCRZH7TU7G29YYLZN5", "tract_id": "36047014101", "city": "BROOKLYN, NY", "zone_code": "R6B", "zone_category": "Residential", "ev_permitted": false}, "geometry": {"type": "Polygon", "coordinates": [[[-73.9872979377507, 40.6658616883155], [-73.9871023934127, 40.6660957517535], [-73.9871785112898, 40.6661324828423], [-73.9873740231635, 40.6658984586215], [-73.9872979377507, 40.6658616883155]]]}}, {"type": "Feature", "properties": {"zone_id": "0202ZP295AQCFHR6R1JN93", "tract_id": "36047014101", "city": "BROOKLYN, NY", "zone_code": "R6B", "zone_category": "Residential", "ev_permitted": false}, "geometry": {"type": "Polygon", "coordinates": [[[-73.9869201259237, 40.6656790976057], [-73.9867244155782, 40.6659133585386], [-73.9868011530883, 40.6659503885812], [-73.986996830045, 40.6657161682696], [-73.9869201259237, 40.6656790976057]]]}}, {"type": "Feature", "properties": {"zone_id": "02049D3JDO0RK0DERRDOU6", "tract_id": "36047014101", "city": "BROOKLYN, NY", "zone_code": "R6B", "zone_category": "Residential", "ev_permitted": false}, "geometry": {"type": "Polygon", "coordinates": [[[-73.986996830045, 40.6657161682696], [-73.9868011530883, 40.6659503885812], [-73.9868766625788, 40.6659868253848], [-73.9870723061496, 40.6657526442911], [-73.986996830045, 40.6657161682696]]]}}, {"type": "Feature", "properties": {"zone_id": "02040AXB4ODJ7ORSIU4STV", "tract_id": "36047014101", "city": "BROOKLYN, NY", "zone_code": "R6B", "zone_category": "Residential", "ev_permitted": false}, "geometry": {"type": "Polygon", "coordinates": [[[-73.9870723061496, 40.6657526442911], [-73.9868766625788, 40.6659868253848], [-73.986954238987, 40.6660242601546], [-73.9871498491676, 40.6657901189781], [-73.9870723061496, 40.6657526442911]]]}}, {"type": "Feature", "properties": {"zone_id": "0203J06XER6VYFQHF5A47C", "tract_id": "36047014101", "city": "BROOKLYN, NY", "zone_code": "R6B", "zone_category": "Residential", "ev_permitted": false}, "geometry": {"type": "Polygon", "coordinates": [[[-73.9873087692476, 40.6655323428585], [-73.9871096465527, 40.6657706900603], [-73.9871681526171, 40.6657989654423], [-73.9873672751875, 40.6655606174374], [-73.9873087692476, 40.6655323428585]]]}}, {"type": "Feature", "properties": {"zone_id": "02033WJCJMUX5EOOEHQAIB", "tract_id": "36047014101", "city": "BROOKLYN, NY", "zone_code": "R6B", "zone_category": "Residential", "ev_permitted": false}, "geometry": {"type": "Polygon", "coordinates": [[[-73.9873672751875, 40.6655606174374], [-73.9871681526171, 40.6657989654423], [-73.9872259851651, 40.665826914684], [-73.9874251076122, 40.6655885665797], [-73.9873672751875, 40.6655606174374]]]}}, {"type": "Feature", "properties": {"zone_id": "0206FQWJRRLSZW03HJBQY5", "tract_id": "36047014101", "city": "BROOKLYN, NY", "zone_code": "R6B", "zone_category": "Residential", "ev_permitted": false}, "geometry": {"type": "Polygon", "coordinates": [[[-73.9871959529803, 40.6654778205589], [-73.986996830045, 40.6657161682696], [-73.9870540248699, 40.6657438090568], [-73.9872531476833, 40.6655054619505], [-73.9871959529803, 40.6654778205589]]]}}, {"type": "Feature", "properties": {"zone_id": "0207MUGM62ORF694V5W1RD", "tract_id": "36047014101", "city": "BROOKLYN, NY", "zone_code": "R6B", "zone_category": "Residential", "ev_permitted": false}, "geometry": {"type": "Polygon", "coordinates": [[[-73.9874615142547, 40.6656061617259], [-73.9872623909625, 40.6658445091898], [-73.9872979377507, 40.6658616883155], [-73.9874970609673, 40.6656233400877], [-73.9874615142547, 40.6656061617259]]]}}, {"type": "Feature", "properties": {"zone_id": "0200UWW8EB1CVO764X79B1", "tract_id": "36047014101", "city": "BROOKLYN, NY", "zone_code": "R6B", "zone_category": "Residential", "ev_permitted": false}, "geometry": {"type": "Polygon", "coordinates": [[[-73.9874251076122, 40.6655885665797], [-73.9872259851651, 40.665826914684], [-73.9872623909625, 40.6658445091898], [-73.9874615142547, 40.6656061617259], [-73.9874251076122, 40.6655885665797]]]}}, {"type": "Feature", "properties": {"zone_id": "0205MND8AQBONPL2W3CIKY", "tract_id": "36047014101", "city": "BROOKLYN, NY", "zone_code": "R6B", "zone_category": "Residential", "ev_permitted": false}, "geometry": {"type": "Polygon", "coordinates": [[[-73.9872531476833, 40.6655054619505], [-73.9870540248699, 40.6657438090568], [-73.9871096465527, 40.6657706900603], [-73.9873087692476, 40.6655323428585], [-73.9872531476833, 40.6655054619505]]]}}, {"type": "Feature", "properties": {"zone_id": "0204LGPW3EK5896HT7R66S", "tract_id": "36047014101", "city": "BROOKLYN, NY", "zone_code": "R6B", "zone_category": "Residential", "ev_permitted": false}, "geometry": {"type": "Polygon", "coordinates": [[[-73.9874970609673, 40.6656233400877], [-73.9872979377507, 40.6658616883155], [-73.9873522669343, 40.665887944391], [-73.9875513891124, 40.6656495960699], [-73.9874970609673, 40.6656233400877]]]}}, {"type": "Feature", "properties": {"zone_id": "02005EAS6XGV83CN05D8UW", "tract_id": "36047014101", "city": "BROOKLYN, NY", "zone_code": "R6B", "zone_category": "Residential", "ev_permitted": false}, "geometry": {"type": "Polygon", "coordinates": [[[-73.9870809030728, 40.6654222186068], [-73.9868817798924, 40.6656605654172], [-73.9869201259237, 40.6656790976057], [-73.9871192490223, 40.6654407507294], [-73.9870809030728, 40.6654222186068]]]}}, {"type": "Feature", "properties": {"zone_id": "0204FHETJLN4LI2XC9ZETZ", "tract_id": "36047014101", "city": "BROOKLYN, NY", "zone_code": "R6B", "zone_category": "Residential", "ev_permitted": false}, "geometry": {"type": "Polygon", "coordinates": [[[-73.9868448566676, 40.6656427212859], [-73.9866491138596, 40.6658770207344], [-73.9867244155782, 40.6659133585386], [-73.9869201259237, 40.6656790976057], [-73.9868448566676, 40.6656427212859]]]}}, {"type": "Feature", "properties": {"zone_id": "0201BIHJZXQEB0Y3AI4W3T", "tract_id": "36047014101", "city": "BROOKLYN, NY", "zone_code": "R6B", "zone_category": "Residential", "ev_permitted": false}, "geometry": {"type": "Polygon", "coordinates": [[[-73.9871192490223, 40.6654407507294], [-73.9869201259237, 40.6656790976057], [-73.986996830045, 40.6657161682696], [-73.9871959529803, 40.6654778205589], [-73.9871192490223, 40.6654407507294]]]}}, {"type": "Feature", "properties": {"zone_id": "0203SUJ36VVQRUCAKQ98RB", "tract_id": "36047014101", "city": "BROOKLYN, NY", "zone_code": "R6B", "zone_category": "Residential", "ev_permitted": false}, "geometry": {"type": "Polygon", "coordinates": [[[-73.9867697628044, 40.6656064292563], [-73.9865739866111, 40.6658407679233], [-73.9866491138596, 40.6658770207344], [-73.9868448566676, 40.6656427212859], [-73.9867697628044, 40.6656064292563]]]}}, {"type": "Feature", "properties": {"zone_id": "02012X4R40NP9FYPH3XATO", "tract_id": "36047014101", "city": "BROOKLYN, NY", "zone_code": "R6B", "zone_category": "Residential", "ev_permitted": false}, "geometry": {"type": "Polygon", "coordinates": [[[-73.9866413820687, 40.665544384721], [-73.9864455502262, 40.6657787899177], [-73.9864971570842, 40.6658036941527], [-73.9866929675894, 40.6655693148649], [-73.9866413820687, 40.665544384721]]]}}, {"type": "Feature", "properties": {"zone_id": "02001LPNITP1XQGDN2WCK8", "tract_id": "36047014101", "city": "BROOKLYN, NY", "zone_code": "R6B", "zone_category": "Residential", "ev_permitted": false}, "geometry": {"type": "Polygon", "coordinates": [[[-73.9865950438954, 40.6655219896714], [-73.9863991916497, 40.6657564193807], [-73.9864455502262, 40.6657787899177], [-73.9866413820687, 40.665544384721], [-73.9865950438954, 40.6655219896714]]]}}, {"type": "Feature", "properties": {"zone_id": "0200TW0NQ8MH6LQPN17CM6", "tract_id": "36047014101", "city": "", "zone_code": "R6B", "zone_category": "Residential", "ev_permitted": false}, "geometry": {"type": "Polygon", "coordinates": [[[-73.9866929675894, 40.6655693148649], [-73.9864971570842, 40.6658036941527], [-73.9865739866111, 40.6658407679233], [-73.9867697628044, 40.6656064292563], [-73.9866929675894, 40.6655693148649]]]}}, {"type": "Feature", "properties": {"zone_id": "0200EQTMUV9IFOZ6JHLS1Q", "tract_id": "36047014101", "city": "BROOKLYN, NY", "zone_code": "R6B", "zone_category": "Residential", "ev_permitted": false}, "geometry": {"type": "Polygon", "coordinates": [[[-73.9862074339774, 40.6654878984154], [-73.9861762613971, 40.6655252110068], [-73.9864726727463, 40.6656684644552], [-73.9865038452278, 40.6656311517842], [-73.9862074339774, 40.6654878984154]]]}}, {"type": "Feature", "properties": {"zone_id": "0200WS61PP603PRLZSYVLZ", "tract_id": "36047014101", "city": "BROOKLYN, NY", "zone_code": "R6B", "zone_category": "Residential", "ev_permitted": false}, "geometry": {"type": "Polygon", "coordinates": [[[-73.9861762613971, 40.6655252110068], [-73.9861452133876, 40.6655623746399], [-73.9864416239123, 40.6657056288703], [-73.9864726727463, 40.6656684644552], [-73.9861762613971, 40.6655252110068]]]}}, {"type": "Feature", "properties": {"zone_id": "0201PM6PVRUTIGDO6VUQSO", "tract_id": "36047014101", "city": "BROOKLYN, NY", "zone_code": "R6B", "zone_category": "Residential", "ev_permitted": false}, "geometry": {"type": "Polygon", "coordinates": [[[-73.9861452133876, 40.6655623746399], [-73.9861026508466, 40.6656133203147], [-73.9863991916497, 40.6657564193807], [-73.9864416239123, 40.6657056288703], [-73.9861452133876, 40.6655623746399]]]}}, {"type": "Feature", "properties": {"zone_id": "02066P5UWNAG26AIBHROL5", "tract_id": "36047014101", "city": "BROOKLYN, NY", "zone_code": "R6B", "zone_category": "Residential", "ev_permitted": false}, "geometry": {"type": "Polygon", "coordinates": [[[-73.9862377324404, 40.6654516319764], [-73.9862074339774, 40.6654878984154], [-73.9865038452278, 40.6656311517842], [-73.9865341435944, 40.665594886673], [-73.9862377324404, 40.6654516319764]]]}}, {"type": "Feature", "properties": {"zone_id": "0200P66X66T1ZCB1XMEE3Z", "tract_id": "36047014101", "city": "BROOKLYN, NY", "zone_code": "R6B", "zone_category": "Residential", "ev_permitted": false}, "geometry": {"type": "Polygon", "coordinates": [[[-73.9871939964051, 40.6648352910584], [-73.986919133043, 40.6651660655403], [-73.9869910201674, 40.6652008112526], [-73.9871882598739, 40.6649634512725], [-73.9874268351821, 40.6650787270099], [-73.9875044648852, 40.6649853044495], [-73.9871939964051, 40.6648352910584]]]}}, {"type": "Feature", "properties": {"zone_id": "0202R135339MF1AVYBZ6H1", "tract_id": "36047014101", "city": "BROOKLYN, NY", "zone_code": "R6B", "zone_category": "Residential", "ev_permitted": false}, "geometry": {"type": "Polygon", "coordinates": [[[-73.9869931805306, 40.6653798233761], [-73.9867940571634, 40.6656181700359], [-73.9868413569112, 40.665641030278], [-73.9870404801778, 40.6654026828343], [-73.9869931805306, 40.6653798233761]]]}}, {"type": "Feature", "properties": {"zone_id": "02065TKN4PCNWJWWBWW87I", "tract_id": "36047014101", "city": "BROOKLYN, NY", "zone_code": "R6B", "zone_category": "Residential", "ev_permitted": false}, "geometry": {"type": "Polygon", "coordinates": [[[-73.9868405057614, 40.6653060376207], [-73.9866413820687, 40.665544384721], [-73.9866929675894, 40.6655693148649], [-73.9868920902492, 40.6653309690813], [-73.9868405057614, 40.6653060376207]]]}}, {"type": "Feature", "properties": {"zone_id": "0206SDVGJP9PEDR2HMFOIK", "tract_id": "36047014101", "city": "BROOKLYN, NY", "zone_code": "R6B", "zone_category": "Residential", "ev_permitted": false}, "geometry": {"type": "Polygon", "coordinates": [[[-73.986941736215, 40.6653549615406], [-73.9867426127381, 40.665593308112], [-73.9867940571634, 40.6656181700359], [-73.9869931805306, 40.6653798233761], [-73.986941736215, 40.6653549615406]]]}}, {"type": "Feature", "properties": {"zone_id": "0200X7WZCB2N1ZJMNCV7S6", "tract_id": "36047014101", "city": "BROOKLYN, NY", "zone_code": "R6B", "zone_category": "Residential", "ev_permitted": false}, "geometry": {"type": "Polygon", "coordinates": [[[-73.9870404801778, 40.6654026828343], [-73.9868413569112, 40.665641030278], [-73.9868817798924, 40.6656605654172], [-73.9870809030728, 40.6654222186068], [-73.9870404801778, 40.6654026828343]]]}}, {"type": "Feature", "properties": {"zone_id": "0204X3RYPM2MU595GM7TCX", "tract_id": "36047014101", "city": "BROOKLYN, NY", "zone_code": "R6B", "zone_category": "Residential", "ev_permitted": false}, "geometry": {"type": "Polygon", "coordinates": [[[-73.9868920902492, 40.6653309690813], [-73.9866929675894, 40.6655693148649], [-73.9867426127381, 40.665593308112], [-73.986941736215, 40.6653549615406], [-73.9868920902492, 40.6653309690813]]]}}, {"type": "Feature", "properties": {"zone_id": "02051GP76FKIM7R9W2VWDF", "tract_id": "36047014101", "city": "BROOKLYN, NY", "zone_code": "R6B", "zone_category": "Residential", "ev_permitted": false}, "geometry": {"type": "Polygon", "coordinates": [[[-73.9873801981182, 40.6650561924128], [-73.9871829431297, 40.6652935716896], [-73.9872332378204, 40.6653178795913], [-73.9874304963938, 40.6650804953106], [-73.9873801981182, 40.6650561924128]]]}}, {"type": "Feature", "properties": {"zone_id": "0205MLGV3LBQD4KAR7MOTX", "tract_id": "36047014101", "city": "BROOKLYN, NY", "zone_code": "R6B", "zone_category": "Residential", "ev_permitted": false}, "geometry": {"type": "Polygon", "coordinates": [[[-73.9872818373366, 40.6650086660887], [-73.9870845904454, 40.6652460353619], [-73.9871360670238, 40.6652709154067], [-73.9873333184202, 40.6650335404252], [-73.9872818373366, 40.6650086660887]]]}}, {"type": "Feature", "properties": {"zone_id": "0200HGIUNTLPDBL24JMF6E", "tract_id": "36047014101", "city": "BROOKLYN, NY", "zone_code": "R6B", "zone_category": "Residential", "ev_permitted": false}, "geometry": {"type": "Polygon", "coordinates": [[[-73.9874304963938, 40.6650804953106], [-73.9872332378204, 40.6653178795913], [-73.98728207747, 40.6653414860522], [-73.9874793414769, 40.6651040967704], [-73.9874304963938, 40.6650804953106]]]}}, {"type": "Feature", "properties": {"zone_id": "0206MT8G7VMWWSIPW59OFZ", "tract_id": "36047014101", "city": "BROOKLYN, NY", "zone_code": "R6B", "zone_category": "Residential", "ev_permitted": false}, "geometry": {"type": "Polygon", "coordinates": [[[-73.98723511823, 40.6649862066085], [-73.9870379432317, 40.6652234900853], [-73.9870845904454, 40.6652460353619], [-73.9872818373366, 40.6650086660887], [-73.98723511823, 40.6649862066085]]]}}, {"type": "Feature", "properties": {"zone_id": "0202ZB99ZVOA5BBEH54AV2", "tract_id": "36047014101", "city": "BROOKLYN, NY", "zone_code": "R6B", "zone_category": "Residential", "ev_permitted": false}, "geometry": {"type": "Polygon", "coordinates": [[[-73.9873333184202, 40.6650335404252], [-73.9871360670238, 40.6652709154067], [-73.9871829431297, 40.6652935716896], [-73.9873801981182, 40.6650561924128], [-73.9873333184202, 40.6650335404252]]]}}, {"type": "Feature", "properties": {"zone_id": "0200DJC281YOJ9OMSH95HD", "tract_id": "36047014101", "city": "BROOKLYN, NY", "zone_code": "R6B", "zone_category": "Residential", "ev_permitted": false}, "geometry": {"type": "Polygon", "coordinates": [[[-73.9871882598739, 40.6649634512725], [-73.9869910201674, 40.6652008112526], [-73.9870379432317, 40.6652234900853], [-73.98723511823, 40.6649862066085], [-73.9871882598739, 40.6649634512725]]]}}, {"type": "Feature", "properties": {"zone_id": "0206NVMDULHHZACQZN0ON7", "tract_id": "36047014101", "city": "BROOKLYN, NY", "zone_code": "R6B", "zone_category": "Residential", "ev_permitted": false}, "geometry": {"type": "Polygon", "coordinates": [[[-73.9874793414769, 40.6651040967704], [-73.98728207747, 40.6653414860522], [-73.9873308064318, 40.6653650376723], [-73.9875280740271, 40.6651276433894], [-73.9874793414769, 40.6651040967704]]]}}, {"type": "Feature", "properties": {"zone_id": "0204ANGXNV10UQ0CABYNDJ", "tract_id": "36047014101", "city": "BROOKLYN, NY", "zone_code": "R6B", "zone_category": "Residential", "ev_permitted": false}, "geometry": {"type": "Polygon", "coordinates": [[[-73.9866507885263, 40.664964959205], [-73.986608466671, 40.6650159114223], [-73.9868434759183, 40.6651294987514], [-73.9868858318118, 40.6650785302909], [-73.9866507885263, 40.664964959205]]]}}, {"type": "Feature", "properties": {"zone_id": "0203JOTQBDFK4IADTVN03V", "tract_id": "36047014101", "city": "BROOKLYN, NY", "zone_code": "R6B", "zone_category": "Residential", "ev_permitted": false}, "geometry": {"type": "Polygon", "coordinates": [[[-73.98698675746, 40.6649570730656], [-73.9868434759183, 40.6651294987514], [-73.986919133043, 40.6651660655403], [-73.987063300531, 40.6649925739206], [-73.98698675746, 40.6649570730656]]]}}, {"type": "Feature", "properties": {"zone_id": "0201THN0XLMDV2IQXVOM05", "tract_id": "36047014101", "city": "BROOKLYN, NY", "zone_code": "R6B", "zone_category": "Residential", "ev_permitted": false}, "geometry": {"type": "Polygon", "coordinates": [[[-73.986393510656, 40.6652651714275], [-73.9863600483275, 40.6653052248878], [-73.9866564590939, 40.6654484778665], [-73.9866899203934, 40.6654084250231], [-73.986393510656, 40.6652651714275]]]}}, {"type": "Feature", "properties": {"zone_id": "0201LY4MN87642YZUHEME5", "tract_id": "36047014101", "city": "BROOKLYN, NY", "zone_code": "R6B", "zone_category": "Residential", "ev_permitted": false}, "geometry": {"type": "Polygon", "coordinates": [[[-73.9864237018491, 40.6652290335132], [-73.986393510656, 40.6652651714275], [-73.9866899203934, 40.6654084250231], [-73.9867201124137, 40.6653722863291], [-73.9864237018491, 40.6652290335132]]]}}, {"type": "Feature", "properties": {"zone_id": "0204AH1A72QO6JFWBOT1E7", "tract_id": "36047014101", "city": "BROOKLYN, NY", "zone_code": "R6B", "zone_category": "Residential", "ev_permitted": false}, "geometry": {"type": "Polygon", "coordinates": [[[-73.9864553864143, 40.6651911081916], [-73.9864237018491, 40.6652290335132], [-73.9867201124137, 40.6653722863291], [-73.9867517968783, 40.6653343609264], [-73.9864553864143, 40.6651911081916]]]}}, {"type": "Feature", "properties": {"zone_id": "02067ULOQIMCBKE5IEQYEL", "tract_id": "36047014101", "city": "BROOKLYN, NY", "zone_code": "R6B", "zone_category": "Residential", "ev_permitted": false}, "geometry": {"type": "Polygon", "coordinates": [[[-73.9867941676868, 40.6652836426508], [-73.9865950438954, 40.6655219896714], [-73.9866413820687, 40.665544384721], [-73.9868405057614, 40.6653060376207], [-73.9867941676868, 40.6652836426508]]]}}, {"type": "Feature", "properties": {"zone_id": "0207A55JKBQR942CAEVGQZ", "tract_id": "36047014101", "city": "BROOKLYN, NY", "zone_code": "R6B", "zone_category": "Residential", "ev_permitted": false}, "geometry": {"type": "Polygon", "coordinates": [[[-73.986298633857, 40.6653787365359], [-73.9862692898428, 40.6654138598723], [-73.986565700897, 40.6655571130829], [-73.9865950438954, 40.6655219896714], [-73.986298633857, 40.6653787365359]]]}}, {"type": "Feature", "properties": {"zone_id": "0206HG8ZX52GCMJHYMA0V2", "tract_id": "36047014101", "city": "BROOKLYN, NY", "zone_code": "R6B", "zone_category": "Residential", "ev_permitted": false}, "geometry": {"type": "Polygon", "coordinates": [[[-73.9863315424604, 40.6653393456394], [-73.986298633857, 40.6653787365359], [-73.9865950438954, 40.6655219896714], [-73.9866279533172, 40.6654825986909], [-73.9863315424604, 40.6653393456394]]]}}, {"type": "Feature", "properties": {"zone_id": "0206TSJ4UIBK9SKB91UVK8", "tract_id": "36047014101", "city": "BROOKLYN, NY", "zone_code": "R6B", "zone_category": "Residential", "ev_permitted": false}, "geometry": {"type": "Polygon", "coordinates": [[[-73.9862692898428, 40.6654138598723], [-73.9862377324404, 40.6654516319764], [-73.9865341435944, 40.665594886673], [-73.986565700897, 40.6655571130829], [-73.9862692898428, 40.6654138598723]]]}}, {"type": "Feature", "properties": {"zone_id": "02047Q65M4Y11SCBB6HXR1", "tract_id": "36047014101", "city": "BROOKLYN, NY", "zone_code": "R6B", "zone_category": "Residential", "ev_permitted": false}, "geometry": {"type": "Polygon", "coordinates": [[[-73.9863600483275, 40.6653052248878], [-73.9863315424604, 40.6653393456394], [-73.9866279533172, 40.6654825986909], [-73.9866564590939, 40.6654484778665], [-73.9863600483275, 40.6653052248878]]]}}, {"type": "Feature", "properties": {"zone_id": "0200YWDB5XV5AA7AEFPVR7", "tract_id": "36047014101", "city": "BROOKLYN, NY", "zone_code": "R6B", "zone_category": "Residential", "ev_permitted": false}, "geometry": {"type": "Polygon", "coordinates": [[[-73.9864977582799, 40.6651403900243], [-73.9864553864143, 40.6651911081916], [-73.9867517968783, 40.6653343609264], [-73.9867941676868, 40.6652836426508], [-73.9864977582799, 40.6651403900243]]]}}, {"type": "Feature", "properties": {"zone_id": "0202JDFZTKG57YFWM96H1I", "tract_id": "36047014101", "city": "BROOKLYN, NY", "zone_code": "R6B", "zone_category": "Residential", "ev_permitted": false}, "geometry": {"type": "Polygon", "coordinates": [[[-73.9873140700777, 40.6646907883183], [-73.9871939964051, 40.6648352910584], [-73.9872700842821, 40.6648720558167], [-73.9873901587786, 40.6647275537006], [-73.9873140700777, 40.6646907883183]]]}}, {"type": "Feature", "properties": {"zone_id": "0206XIQEPU1ES3X8VVRVAV", "tract_id": "36047014101", "city": "BROOKLYN, NY", "zone_code": "R6B", "zone_category": "Residential", "ev_permitted": false}, "geometry": {"type": "Polygon", "coordinates": [[[-73.9873901587786, 40.6647275537006], [-73.9872700842821, 40.6648720558167], [-73.9873461731656, 40.6649088205246], [-73.9874662466407, 40.6647643183297], [-73.9873901587786, 40.6647275537006]]]}}, {"type": "Feature", "properties": {"zone_id": "0207C6T1RNZD9009C2TOJ8", "tract_id": "36047014101", "city": "BROOKLYN, NY", "zone_code": "R6B", "zone_category": "Residential", "ev_permitted": false}, "geometry": {"type": "Polygon", "coordinates": [[[-73.9867019229982, 40.6649034209641], [-73.9866507885263, 40.664964959205], [-73.9868858318118, 40.6650785302909], [-73.9869369670765, 40.6650169919466], [-73.9867019229982, 40.6649034209641]]]}}, {"type": "Feature", "properties": {"zone_id": "0204OZXIYPYVXJKA5YU8M8", "tract_id": "36047014101", "city": "BROOKLYN, NY", "zone_code": "R6B", "zone_category": "Residential", "ev_permitted": false}, "geometry": {"type": "Polygon", "coordinates": [[[-73.9868529980849, 40.6647216129762], [-73.9868028007185, 40.6647820348611], [-73.987113501509, 40.6649321617612], [-73.9871637060885, 40.6648717432558], [-73.9868529980849, 40.6647216129762]]]}}, {"type": "Feature", "properties": {"zone_id": "0205AG63MEWFEWR4WAW3P7", "tract_id": "36047014101", "city": "BROOKLYN, NY", "zone_code": "R6B", "zone_category": "Residential", "ev_permitted": false}, "geometry": {"type": "Polygon", "coordinates": [[[-73.986751713508, 40.6648435021841], [-73.9867019229982, 40.6649034209641], [-73.9869369670765, 40.6650169919466], [-73.98698675746, 40.6649570730656], [-73.986751713508, 40.6648435021841]]]}}, {"type": "Feature", "properties": {"zone_id": "0205SAN2U9HP42V20PO3D9", "tract_id": "36047014101", "city": "BROOKLYN, NY", "zone_code": "R6B", "zone_category": "Residential", "ev_permitted": false}, "geometry": {"type": "Polygon", "coordinates": [[[-73.9868028007185, 40.6647820348611], [-73.986751713508, 40.6648435021841], [-73.98698675746, 40.6649570730656], [-73.987063300531, 40.6649925739206], [-73.987113501509, 40.6649321617612], [-73.9868028007185, 40.6647820348611]]]}}, {"type": "Feature", "properties": {"zone_id": "02000NR34A1V9L21GYBVMK", "tract_id": "36047014101", "city": "", "zone_code": "R6B", "zone_category": "Residential", "ev_permitted": false}, "geometry": {"type": "Polygon", "coordinates": [[[-73.9869031095206, 40.6646613077012], [-73.9868529980849, 40.6647216129762], [-73.9871637060885, 40.6648717432558], [-73.987213817356, 40.6648114378466], [-73.9869031095206, 40.6646613077012]]]}}, {"type": "Feature", "properties": {"zone_id": "0201UOAX55O4HUTIOQ86CC", "tract_id": "36047014101", "city": "BROOKLYN, NY", "zone_code": "R6B", "zone_category": "Residential", "ev_permitted": false}, "geometry": {"type": "Polygon", "coordinates": [[[-73.9870033625785, 40.6645406591443], [-73.9869509078802, 40.6646037853908], [-73.9872059559056, 40.66472702112], [-73.9872584104596, 40.6646638940553], [-73.9870033625785, 40.6645406591443]]]}}, {"type": "Feature", "properties": {"zone_id": "0201B2WH0WM8WWZAC64EZ1", "tract_id": "36047014101", "city": "BROOKLYN, NY", "zone_code": "R6B", "zone_category": "Residential", "ev_permitted": false}, "geometry": {"type": "Polygon", "coordinates": [[[-73.9872584104596, 40.6646638940553], [-73.9872059559056, 40.66472702112], [-73.9872616155552, 40.6647539154082], [-73.9873140700777, 40.6646907883183], [-73.9872584104596, 40.6646638940553]]]}}, {"type": "Feature", "properties": {"zone_id": "02010SGWU77TA6HWUIXP0B", "tract_id": "36047014101", "city": "BROOKLYN, NY", "zone_code": "R6B", "zone_category": "Residential", "ev_permitted": false}, "geometry": {"type": "Polygon", "coordinates": [[[-73.9869509078802, 40.6646037853908], [-73.9869031095206, 40.6646613077012], [-73.987213817356, 40.6648114378466], [-73.9872616155552, 40.6647539154082], [-73.9869509078802, 40.6646037853908]]]}}]}