{"type": "FeatureCollection", "features": [{"type": "Feature", "properties": {"zone_id": "0206WRWMHB0OWP4Y25FW1O", "tract_id": "36119000404", "city": "YONKERS, NY", "zone_code": "A", "zone_category": "Residential", "ev_permitted": false}, "geometry": {"type": "Polygon", "coordinates": [[[-73.8967083505323, 40.9490659853451], [-73.8969575413297, 40.9492345202098], [-73.896979985696, 40.9491430714269], [-73.8968689236597, 40.9491313729557], [-73.8967083505323, 40.9490659853451]]]}}, {"type": "Feature", "properties": {"zone_id": "0203J2CYW12DN0201R092G", "tract_id": "36119000404", "city": "YONKERS, NY", "zone_code": "A", "zone_category": "Residential", "ev_permitted": false}, "geometry": {"type": "Polygon", "coordinates": [[[-73.8967129865736, 40.9490434978], [-73.8967083505323, 40.9490659853451], [-73.8968689236597, 40.9491313729557], [-73.896979985696, 40.9491430714269], [-73.896993344898, 40.9490886580164], [-73.8967129865736, 40.9490434978]]]}}, {"type": "Feature", "properties": {"zone_id": "020313R7SDPT88XYJY10WD", "tract_id": "36119000404", "city": "YONKERS, NY", "zone_code": "A", "zone_category": "Residential", "ev_permitted": false}, "geometry": {"type": "Polygon", "coordinates": [[[-73.8967250759762, 40.9489848690985], [-73.8967129865736, 40.9490434978], [-73.896993344898, 40.9490886580164], [-73.8970098114008, 40.9490215810459], [-73.8967250759762, 40.9489848690985]]]}}, {"type": "Feature", "properties": {"zone_id": "0204AN1MIB0RM2ANIW70M1", "tract_id": "36119000404", "city": "YONKERS, NY", "zone_code": "A", "zone_category": "Residential", "ev_permitted": false}, "geometry": {"type": "Polygon", "coordinates": [[[-73.8967371086657, 40.9489265055907], [-73.8967250759762, 40.9489848690985], [-73.8970098114008, 40.9490215810459], [-73.8970232001069, 40.9489670336926], [-73.8967371086657, 40.9489265055907]]]}}, {"type": "Feature", "properties": {"zone_id": "020576OBA75D4PNMRHX458", "tract_id": "36119000404", "city": "YONKERS, NY", "zone_code": "A", "zone_category": "Residential", "ev_permitted": false}, "geometry": {"type": "Polygon", "coordinates": [[[-73.896758167593, 40.9488243699143], [-73.8967371086657, 40.9489265055907], [-73.8970232001069, 40.9489670336926], [-73.8970490010432, 40.9488619247215], [-73.896758167593, 40.9488243699143]]]}}, {"type": "Feature", "properties": {"zone_id": "02017PE0OZKK8GH5C5CYSP", "tract_id": "36119000404", "city": "YONKERS, NY", "zone_code": "A", "zone_category": "Residential", "ev_permitted": false}, "geometry": {"type": "Polygon", "coordinates": [[[-73.8967799721531, 40.948718619218], [-73.896758167593, 40.9488243699143], [-73.8970490010432, 40.9488619247215], [-73.8970744347039, 40.9487583192809], [-73.8967799721531, 40.948718619218]]]}}, {"type": "Feature", "properties": {"zone_id": "02075VH77S59HU9OZHTT4C", "tract_id": "36119000404", "city": "YONKERS, NY", "zone_code": "A", "zone_category": "Residential", "ev_permitted": false}, "geometry": {"type": "Polygon", "coordinates": [[[-73.8967932504852, 40.9486542222982], [-73.8967799721531, 40.948718619218], [-73.8970744347039, 40.9487583192809], [-73.8970906246915, 40.9486923557506], [-73.8967932504852, 40.9486542222982]]]}}, {"type": "Feature", "properties": {"zone_id": "0201CX4K9IOXBJLE17B8H4", "tract_id": "36119000404", "city": "YONKERS, NY", "zone_code": "A", "zone_category": "Residential", "ev_permitted": false}, "geometry": {"type": "Polygon", "coordinates": [[[-73.8968207595431, 40.9485208110144], [-73.896806377468, 40.9485905652928], [-73.8971075242796, 40.9486235155187], [-73.8971241638303, 40.9485557348486], [-73.8968207595431, 40.9485208110144]]]}}, {"type": "Feature", "properties": {"zone_id": "0205KYP5P6OPCRBQENJ77O", "tract_id": "36119000404", "city": "YONKERS, NY", "zone_code": "A", "zone_category": "Residential", "ev_permitted": false}, "geometry": {"type": "Polygon", "coordinates": [[[-73.896806377468, 40.9485905652928], [-73.8967932504852, 40.9486542222982], [-73.8970906246915, 40.9486923557506], [-73.8971075242796, 40.9486235155187], [-73.896806377468, 40.9485905652928]]]}}, {"type": "Feature", "properties": {"zone_id": "02023XFNE15YA47LC3Y63J", "tract_id": "36119000404", "city": "YONKERS, NY", "zone_code": "A", "zone_category": "Residential", "ev_permitted": false}, "geometry": {"type": "Polygon", "coordinates": [[[-73.896855553306, 40.9482876400663], [-73.8968334052844, 40.9483810653446], [-73.8971552918674, 40.9484269882539], [-73.89717158981, 40.948359310602], [-73.896855553306, 40.9482876400663]]]}}, {"type": "Feature", "properties": {"zone_id": "0207L2P7JET2RSK7MWD8PC", "tract_id": "36119000404", "city": "YONKERS, NY", "zone_code": "A", "zone_category": "Residential", "ev_permitted": false}, "geometry": {"type": "Polygon", "coordinates": [[[-73.8968334052844, 40.9483810653446], [-73.8968112277344, 40.94845656065], [-73.8971401675728, 40.9484905334124], [-73.8971552918674, 40.9484269882539], [-73.8968334052844, 40.9483810653446]]]}}, {"type": "Feature", "properties": {"zone_id": "0203JT6PXP16BIB22HYZ0X", "tract_id": "36119000404", "city": "YONKERS, NY", "zone_code": "A", "zone_category": "Residential", "ev_permitted": false}, "geometry": {"type": "Polygon", "coordinates": [[[-73.8968112277344, 40.94845656065], [-73.8968031147374, 40.9484912244838], [-73.8968255958037, 40.9484973534065], [-73.8968207595431, 40.9485208110144], [-73.8971241638303, 40.9485557348486], [-73.8971401675728, 40.9484905334124], [-73.8968112277344, 40.94845656065]]]}}, {"type": "Feature", "properties": {"zone_id": "0200AD9GYG9J40U0X7ICTD", "tract_id": "36119000404", "city": "YONKERS, NY", "zone_code": "A", "zone_category": "Residential", "ev_permitted": false}, "geometry": {"type": "Polygon", "coordinates": [[[-73.8969388871552, 40.9479463699261], [-73.8969115260893, 40.948081484295], [-73.8972211267293, 40.9481542452498], [-73.8972534845953, 40.9480208946412], [-73.8969388871552, 40.9479463699261]]]}}, {"type": "Feature", "properties": {"zone_id": "0205VT4V7DU6KL7XC6BKTM", "tract_id": "36119000404", "city": "YONKERS, NY", "zone_code": "A", "zone_category": "Residential", "ev_permitted": false}, "geometry": {"type": "Polygon", "coordinates": [[[-73.8969115260893, 40.948081484295], [-73.8968691636704, 40.9482907258472], [-73.89717158981, 40.948359310602], [-73.8972211267293, 40.9481542452498], [-73.8969115260893, 40.948081484295]]]}}, {"type": "Feature", "properties": {"zone_id": "0206EUOGAE3P4DOZZQJK2K", "tract_id": "36119000404", "city": "YONKERS, NY", "zone_code": "A", "zone_category": "Residential", "ev_permitted": false}, "geometry": {"type": "Polygon", "coordinates": [[[-73.8970593650307, 40.9476823480451], [-73.8970383431729, 40.9477782388499], [-73.8972968184071, 40.9478430157558], [-73.8973193512923, 40.9477508290664], [-73.8970593650307, 40.9476823480451]]]}}, {"type": "Feature", "properties": {"zone_id": "02077YE9Q2GHDJPLRT1X4W", "tract_id": "36119000404", "city": "YONKERS, NY", "zone_code": "A", "zone_category": "Residential", "ev_permitted": false}, "geometry": {"type": "Polygon", "coordinates": [[[-73.8970038240042, 40.9477695878394], [-73.8969898227201, 40.9478378288327], [-73.8972800058317, 40.9479119352283], [-73.8972968184071, 40.9478430157558], [-73.8970038240042, 40.9477695878394]]]}}, {"type": "Feature", "properties": {"zone_id": "0205ETJ92EZ5TOWO8NSJAB", "tract_id": "36119000404", "city": "YONKERS, NY", "zone_code": "A", "zone_category": "Residential", "ev_permitted": false}, "geometry": {"type": "Polygon", "coordinates": [[[-73.8969898227201, 40.9478378288327], [-73.8969662191302, 40.9479528452025], [-73.8972534845953, 40.9480208946412], [-73.8972800058317, 40.9479119352283], [-73.8969898227201, 40.9478378288327]]]}}, {"type": "Feature", "properties": {"zone_id": "0200ORUPRVLB3J6RON5IYI", "tract_id": "36119000404", "city": "YONKERS, NY", "zone_code": "BR", "zone_category": "Commercial", "ev_permitted": true}, "geometry": {"type": "Polygon", "coordinates": [[[-73.8966320601398, 40.9478064903184], [-73.8966194846512, 40.9478707047857], [-73.8969662191302, 40.9479528452025], [-73.8969801741044, 40.9478848199645], [-73.8966320601398, 40.9478064903184]]]}}, {"type": "Feature", "properties": {"zone_id": "02047NBV9HUTQ07NUNJV5R", "tract_id": "36119000404", "city": "YONKERS, NY", "zone_code": "BR", "zone_category": "Commercial", "ev_permitted": true}, "geometry": {"type": "Polygon", "coordinates": [[[-73.8966462259948, 40.9477340946153], [-73.8966320601398, 40.9478064903184], [-73.8969801741044, 40.9478848199645], [-73.8969959485969, 40.9478079770047], [-73.8966462259948, 40.9477340946153]]]}}, {"type": "Feature", "properties": {"zone_id": "02077HGFMD1FOIJP3EBSY2", "tract_id": "36119000404", "city": "YONKERS, NY", "zone_code": "A", "zone_category": "Residential", "ev_permitted": false}, "geometry": {"type": "Polygon", "coordinates": [[[-73.8971150936438, 40.9471845675438], [-73.897047267402, 40.9475518123922], [-73.8973493354983, 40.9476285167425], [-73.8974396440112, 40.9472623551031], [-73.8971150936438, 40.9471845675438]]]}}, {"type": "Feature", "properties": {"zone_id": "0207NH8BJEI6VS84HXN04H", "tract_id": "36119000404", "city": "YONKERS, NY", "zone_code": "A", "zone_category": "Residential", "ev_permitted": false}, "geometry": {"type": "Polygon", "coordinates": [[[-73.897047267402, 40.9475518123922], [-73.8970248402314, 40.9476732528886], [-73.8973193512923, 40.9477508290664], [-73.8973493354983, 40.9476285167425], [-73.897047267402, 40.9475518123922]]]}}, {"type": "Feature", "properties": {"zone_id": "02003BLWWYW413WVKY0T61", "tract_id": "36119000404", "city": "YONKERS, NY", "zone_code": "BR", "zone_category": "Commercial", "ev_permitted": true}, "geometry": {"type": "Polygon", "coordinates": [[[-73.8966760746266, 40.9475813897046], [-73.8966462259948, 40.9477340946153], [-73.8969959485969, 40.9478079770047], [-73.8970038240042, 40.9477695878394], [-73.8970383431729, 40.9477782388499], [-73.8970593650307, 40.9476823480451], [-73.8966760746266, 40.9475813897046]]]}}, {"type": "Feature", "properties": {"zone_id": "0206MISSFEHQYLJ779I0OB", "tract_id": "36119000404", "city": "YONKERS, NY", "zone_code": "BR", "zone_category": "Commercial", "ev_permitted": true}, "geometry": {"type": "Polygon", "coordinates": [[[-73.8967076534488, 40.9474195896637], [-73.8966760746266, 40.9475813897046], [-73.8970248402314, 40.9476732528886], [-73.8970561617936, 40.9475036610019], [-73.8967076534488, 40.9474195896637]]]}}, {"type": "Feature", "properties": {"zone_id": "0200FQIABFF6LL4BLHRCSD", "tract_id": "36119000404", "city": "YONKERS, NY", "zone_code": "BR", "zone_category": "Commercial", "ev_permitted": true}, "geometry": {"type": "Polygon", "coordinates": [[[-73.8967695398716, 40.9471017416492], [-73.8967344716913, 40.9472819766967], [-73.8970812666956, 40.9473677295866], [-73.8971150936438, 40.9471845675438], [-73.8967695398716, 40.9471017416492]]]}}, {"type": "Feature", "properties": {"zone_id": "0201IV6M5PLEXDR0VK5JAI", "tract_id": "36119000404", "city": "YONKERS, NY", "zone_code": "BR", "zone_category": "Commercial", "ev_permitted": true}, "geometry": {"type": "Polygon", "coordinates": [[[-73.8967344716913, 40.9472819766967], [-73.8967076534488, 40.9474195896637], [-73.8970561617936, 40.9475036610019], [-73.8970812666956, 40.9473677295866], [-73.8967344716913, 40.9472819766967]]]}}, {"type": "Feature", "properties": {"zone_id": "0202LEAN95QF75W7JHQBJ7", "tract_id": "36119000404", "city": "YONKERS, NY", "zone_code": "A", "zone_category": "Residential", "ev_permitted": false}, "geometry": {"type": "Polygon", "coordinates": [[[-73.8971240064594, 40.9469979305526], [-73.8971101525016, 40.9470540517027], [-73.8974700556448, 40.9471398171179], [-73.8974835187349, 40.947085678469], [-73.8971240064594, 40.9469979305526]]]}}, {"type": "Feature", "properties": {"zone_id": "0202J64VDLXTI0WYQBG8KK", "tract_id": "36119000404", "city": "YONKERS, NY", "zone_code": "A", "zone_category": "Residential", "ev_permitted": false}, "geometry": {"type": "Polygon", "coordinates": [[[-73.8970945543772, 40.9471172455268], [-73.8970800111936, 40.9471761570884], [-73.8974396440112, 40.9472623551031], [-73.8974545551092, 40.9472022345264], [-73.8970945543772, 40.9471172455268]]]}}, {"type": "Feature", "properties": {"zone_id": "0203Z4HFKY1WCW5S7JEVZT", "tract_id": "36119000404", "city": "YONKERS, NY", "zone_code": "A", "zone_category": "Residential", "ev_permitted": false}, "geometry": {"type": "Polygon", "coordinates": [[[-73.8971404504115, 40.9469313100321], [-73.8971240064594, 40.9469979305526], [-73.8974835187349, 40.947085678469], [-73.8975005600009, 40.9470171259702], [-73.8971404504115, 40.9469313100321]]]}}, {"type": "Feature", "properties": {"zone_id": "02020MZ77AJE2IUZMRTLME", "tract_id": "36119000404", "city": "YONKERS, NY", "zone_code": "A", "zone_category": "Residential", "ev_permitted": false}, "geometry": {"type": "Polygon", "coordinates": [[[-73.8971101525016, 40.9470540517027], [-73.8970945543772, 40.9471172455268], [-73.8974545551092, 40.9472022345264], [-73.8974700556448, 40.9471398171179], [-73.8971101525016, 40.9470540517027]]]}}, {"type": "Feature", "properties": {"zone_id": "0202C3X2FRLC3HV8O6Z9GQ", "tract_id": "36119000404", "city": "YONKERS, NY", "zone_code": "BR", "zone_category": "Commercial", "ev_permitted": true}, "geometry": {"type": "Polygon", "coordinates": [[[-73.896793469045, 40.9469785851116], [-73.8967695398716, 40.9471017416492], [-73.8970800111936, 40.9471761570884], [-73.8971101525016, 40.9470540517027], [-73.896793469045, 40.9469785851116]]]}}, {"type": "Feature", "properties": {"zone_id": "0204XIBV3YXJDDL3PG69AO", "tract_id": "36119000404", "city": "YONKERS, NY", "zone_code": "A", "zone_category": "Residential", "ev_permitted": false}, "geometry": {"type": "Polygon", "coordinates": [[[-73.8972127555789, 40.946637754421], [-73.8971904336557, 40.9467426976714], [-73.8975444412041, 40.9468018974702], [-73.8975598137443, 40.946731664308], [-73.8972127555789, 40.946637754421]]]}}, {"type": "Feature", "properties": {"zone_id": "0206GD6LQCXO3ZLJR75V0V", "tract_id": "36119000404", "city": "YONKERS, NY", "zone_code": "A", "zone_category": "Residential", "ev_permitted": false}, "geometry": {"type": "Polygon", "coordinates": [[[-73.8971904336557, 40.9467426976714], [-73.8971784532647, 40.9467990394359], [-73.8975266629594, 40.9468831218086], [-73.8975444412041, 40.9468018974702], [-73.8971904336557, 40.9467426976714]]]}}, {"type": "Feature", "properties": {"zone_id": "02063TSR609KGK7UZ5I2CE", "tract_id": "36119000404", "city": "YONKERS, NY", "zone_code": "BR", "zone_category": "Commercial", "ev_permitted": true}, "geometry": {"type": "Polygon", "coordinates": [[[-73.8968175725669, 40.946854369983], [-73.896793469045, 40.9469785851116], [-73.8971101525016, 40.9470540517027], [-73.8971404504115, 40.9469313100321], [-73.8968175725669, 40.946854369983]]]}}, {"type": "Feature", "properties": {"zone_id": "02030TAZ7JRQ6IPGGET52X", "tract_id": "36119000404", "city": "YONKERS, NY", "zone_code": "BR", "zone_category": "Commercial", "ev_permitted": true}, "geometry": {"type": "Polygon", "coordinates": [[[-73.8965094573965, 40.9484111644248], [-73.8964255155074, 40.9488746869662], [-73.8967083505323, 40.9490659853451], [-73.8968255958037, 40.9484973534065], [-73.8965094573965, 40.9484111644248]]]}}, {"type": "Feature", "properties": {"zone_id": "0205DI5B1CEUKNZ53KZDJG", "tract_id": "36119000404", "city": "YONKERS, NY", "zone_code": "BR", "zone_category": "Commercial", "ev_permitted": true}, "geometry": {"type": "Polygon", "coordinates": [[[-73.8959385587426, 40.9482363170232], [-73.8958878102202, 40.948369866941], [-73.8958438318041, 40.9484795864808], [-73.8961681998553, 40.948695513887], [-73.8961783097325, 40.9487008371713], [-73.8961881108812, 40.9487043666925], [-73.8961985078715, 40.9487067182558], [-73.896209256866, 40.9487078372796], [-73.896220104074, 40.9487076961114], [-73.8962307975258, 40.9487063004462], [-73.8962410812827, 40.9487036802628], [-73.8962507201885, 40.9486999017713], [-73.8962594823809, 40.9486950474281], [-73.8962671591105, 40.9486892386457], [-73.8962735807089, 40.948682604417], [-73.8962785852682, 40.9486753071393], [-73.8962820630733, 40.9486675142137], [-73.8963203932545, 40.9484720914269], [-73.8963179376812, 40.9484599511498], [-73.8963424226366, 40.9483388899335], [-73.8959385587426, 40.9482363170232]]]}}, {"type": "Feature", "properties": {"zone_id": "0205KRGWMWQ8TNJQNEV6NI", "tract_id": "36119000404", "city": "YONKERS, NY", "zone_code": "BR", "zone_category": "Commercial", "ev_permitted": true}, "geometry": {"type": "Polygon", "coordinates": [[[-73.8965928515103, 40.9480065890298], [-73.8965657916399, 40.9481444770815], [-73.8968913836863, 40.9481809777047], [-73.8969115260893, 40.948081484295], [-73.8965928515103, 40.9480065890298]]]}}, {"type": "Feature", "properties": {"zone_id": "0205KTIZJB5BA1UUQVZG24", "tract_id": "36119000404", "city": "YONKERS, NY", "zone_code": "BR", "zone_category": "Commercial", "ev_permitted": true}, "geometry": {"type": "Polygon", "coordinates": [[[-73.8965657916399, 40.9481444770815], [-73.896551222174, 40.9482186254821], [-73.8968691636704, 40.9482907258472], [-73.8968913836863, 40.9481809777047], [-73.8965657916399, 40.9481444770815]]]}}, {"type": "Feature", "properties": {"zone_id": "02046UXIB4NPRTKLOF22MY", "tract_id": "36119000404", "city": "YONKERS, NY", "zone_code": "BR", "zone_category": "Commercial", "ev_permitted": true}, "geometry": {"type": "Polygon", "coordinates": [[[-73.8959799690574, 40.948089827807], [-73.8959577183088, 40.948173767034], [-73.8959385587426, 40.9482363170232], [-73.8963424226366, 40.9483388899335], [-73.8963734783825, 40.9481844599173], [-73.8959799690574, 40.948089827807]]]}}, {"type": "Feature", "properties": {"zone_id": "0200VN5W8AH3VXFQHWVT3P", "tract_id": "36119000404", "city": "YONKERS, NY", "zone_code": "BR", "zone_category": "Commercial", "ev_permitted": true}, "geometry": {"type": "Polygon", "coordinates": [[[-73.8966194846512, 40.9478707047857], [-73.8965928515103, 40.9480065890298], [-73.8969115260893, 40.948081484295], [-73.8969388871552, 40.9479463699261], [-73.8966194846512, 40.9478707047857]]]}}, {"type": "Feature", "properties": {"zone_id": "0206CO6YW3EM3V31512IH1", "tract_id": "36119000404", "city": "YONKERS, NY", "zone_code": "BR", "zone_category": "Commercial", "ev_permitted": true}, "geometry": {"type": "Polygon", "coordinates": [[[-73.8960197108304, 40.947836937151], [-73.896009865473, 40.9479161689417], [-73.895997675954, 40.9479896986878], [-73.8959807300593, 40.9480710316256], [-73.8959624364543, 40.9481438291081], [-73.8959351266452, 40.9482354455036], [-73.8958814083814, 40.948376967778], [-73.8958466614937, 40.9484636314448], [-73.8958479055036, 40.9484696166172], [-73.8958878102202, 40.948369866941], [-73.8959385587426, 40.9482363170232], [-73.8959636349286, 40.9481528369563], [-73.895980051956, 40.9480894871946], [-73.8959949056833, 40.9480227029927], [-73.8960083180914, 40.94794972274], [-73.896016886455, 40.9478918783204], [-73.8960232470793, 40.9478377601209], [-73.8960197108304, 40.947836937151]]]}}, {"type": "Feature", "properties": {"zone_id": "0203P684X82S1TWP7YNAEO", "tract_id": "36119000404", "city": "YONKERS, NY", "zone_code": "M", "zone_category": "Residential", "ev_permitted": false}, "geometry": {"type": "Polygon", "coordinates": [[[-73.8954983814552, 40.9479542231807], [-73.8954925061534, 40.9482598696353], [-73.8956549006471, 40.9483614303174], [-73.895674978901, 40.948304406469], [-73.8956934374796, 40.948247068866], [-73.8957102678743, 40.9481894439506], [-73.8957254623276, 40.9481315582925], [-73.8957390138371, 40.9480734385921], [-73.8957509161561, 40.9480151116501], [-73.8957611638005, 40.9479566043725], [-73.8954983814552, 40.9479542231807]]]}}, {"type": "Feature", "properties": {"zone_id": "02051B06TJH14JS3DUYUEE", "tract_id": "36119000404", "city": "YONKERS, NY", "zone_code": "M", "zone_category": "Residential", "ev_permitted": false}, "geometry": {"type": "Polygon", "coordinates": [[[-73.895502482816, 40.9477409772281], [-73.8954983814552, 40.9479542231807], [-73.8957611638005, 40.9479566043725], [-73.8957735364204, 40.9478676252706], [-73.8957796596149, 40.9478081565844], [-73.8957840791573, 40.9477486011469], [-73.895502482816, 40.9477409772281]]]}}, {"type": "Feature", "properties": {"zone_id": "02057IBLF0YWYO98ZC7JET", "tract_id": "36119000404", "city": "YONKERS, NY", "zone_code": "M", "zone_category": "Residential", "ev_permitted": false}, "geometry": {"type": "Polygon", "coordinates": [[[-73.893581118651, 40.9467338731192], [-73.8935445441723, 40.9468174441115], [-73.8939214053425, 40.9469067127267], [-73.8939540292772, 40.9468233460324], [-73.893581118651, 40.9467338731192]]]}}, {"type": "Feature", "properties": {"zone_id": "02016UHNQK3IL57E0D8SJD", "tract_id": "36119000404", "city": "YONKERS, NY", "zone_code": "M", "zone_category": "Residential", "ev_permitted": false}, "geometry": {"type": "Polygon", "coordinates": [[[-73.8936150312661, 40.9466563840492], [-73.893581118651, 40.9467338731192], [-73.8939540292772, 40.9468233460324], [-73.8939851590836, 40.946743792528], [-73.8936150312661, 40.9466563840492]]]}}, {"type": "Feature", "properties": {"zone_id": "02039DPP8UI19FA5E8LV8U", "tract_id": "36119000404", "city": "YONKERS, NY", "zone_code": "A", "zone_category": "Residential", "ev_permitted": false}, "geometry": {"type": "Polygon", "coordinates": [[[-73.8973108882484, 40.9461764458994], [-73.8972965551989, 40.9462438181002], [-73.8976572743086, 40.9462864158844], [-73.8976722606736, 40.946217957204], [-73.8973108882484, 40.9461764458994]]]}}, {"type": "Feature", "properties": {"zone_id": "0202VNYXX2ID262HZZEOL8", "tract_id": "36119000404", "city": "YONKERS, NY", "zone_code": "A", "zone_category": "Residential", "ev_permitted": false}, "geometry": {"type": "Polygon", "coordinates": [[[-73.8972514985412, 40.9464556239199], [-73.8972127555789, 40.946637754421], [-73.8975598137443, 40.946731664308], [-73.8976003069775, 40.9465466777481], [-73.8972514985412, 40.9464556239199]]]}}, {"type": "Feature", "properties": {"zone_id": "02010BWNBR4TAZWKGGE0EG", "tract_id": "36119000404", "city": "YONKERS, NY", "zone_code": "A", "zone_category": "Residential", "ev_permitted": false}, "geometry": {"type": "Polygon", "coordinates": [[[-73.8968620997007, 40.9466192310509], [-73.8968423921011, 40.9467178944893], [-73.8971784532647, 40.9467990394359], [-73.8972067482086, 40.9466659949536], [-73.8968620997007, 40.9466192310509]]]}}, {"type": "Feature", "properties": {"zone_id": "0206Y1I7PE87XR3JC53KMV", "tract_id": "36119000404", "city": "YONKERS, NY", "zone_code": "A", "zone_category": "Residential", "ev_permitted": false}, "geometry": {"type": "Polygon", "coordinates": [[[-73.8968793730138, 40.9465327691864], [-73.8968620997007, 40.9466192310509], [-73.8972067482086, 40.9466659949536], [-73.8972262519223, 40.9465743395911], [-73.8968793730138, 40.9465327691864]]]}}, {"type": "Feature", "properties": {"zone_id": "0205F88C0CXED5UPQC7VQ6", "tract_id": "36119000404", "city": "YONKERS, NY", "zone_code": "A", "zone_category": "Residential", "ev_permitted": false}, "geometry": {"type": "Polygon", "coordinates": [[[-73.8968979967026, 40.9464395488615], [-73.8968793730138, 40.9465327691864], [-73.8972262519223, 40.9465743395911], [-73.8972444430605, 40.9464888088767], [-73.8968979967026, 40.9464395488615]]]}}, {"type": "Feature", "properties": {"zone_id": "0200HVZIYRC8Q0288R8JSA", "tract_id": "36119000404", "city": "YONKERS, NY", "zone_code": "A", "zone_category": "Residential", "ev_permitted": false}, "geometry": {"type": "Polygon", "coordinates": [[[-73.8972712771502, 40.9463626478879], [-73.8972514985412, 40.9464556239199], [-73.8976003069775, 40.9465466777481], [-73.8976199132081, 40.9464571095679], [-73.8972712771502, 40.9463626478879]]]}}, {"type": "Feature", "properties": {"zone_id": "0206DUWYM8SX9LXLH40TWG", "tract_id": "36119000404", "city": "YONKERS, NY", "zone_code": "A", "zone_category": "Residential", "ev_permitted": false}, "geometry": {"type": "Polygon", "coordinates": [[[-73.8972860756006, 40.9462930839722], [-73.8972712771502, 40.9463626478879], [-73.8976199132081, 40.9464571095679], [-73.8976354062716, 40.946386334356], [-73.8972860756006, 40.9462930839722]]]}}, {"type": "Feature", "properties": {"zone_id": "0204ZPGG04LYHOVYL3EL8M", "tract_id": "36119000404", "city": "YONKERS, NY", "zone_code": "A", "zone_category": "Residential", "ev_permitted": false}, "geometry": {"type": "Polygon", "coordinates": [[[-73.8972965551989, 40.9462438181002], [-73.8972860756006, 40.9462930839722], [-73.8976354062716, 40.946386334356], [-73.8976572743086, 40.9462864158844], [-73.8972965551989, 40.9462438181002]]]}}, {"type": "Feature", "properties": {"zone_id": "0205X70SLUW8YIYONK5PQI", "tract_id": "36119000404", "city": "YONKERS, NY", "zone_code": "A", "zone_category": "Residential", "ev_permitted": false}, "geometry": {"type": "Polygon", "coordinates": [[[-73.8969454228494, 40.9462021495633], [-73.8968979967026, 40.9464395488615], [-73.8972444430605, 40.9464888088767], [-73.8972860756006, 40.9462930839722], [-73.8969454228494, 40.9462021495633]]]}}, {"type": "Feature", "properties": {"zone_id": "0202UX4FRYKZICI2XNUPLQ", "tract_id": "36119000404", "city": "YONKERS, NY", "zone_code": "A", "zone_category": "Residential", "ev_permitted": false}, "geometry": {"type": "Polygon", "coordinates": [[[-73.8973672105227, 40.9459116577388], [-73.8973399517133, 40.9460398054853], [-73.8977016074611, 40.9460838822065], [-73.8977304524446, 40.9459521129743], [-73.8973672105227, 40.9459116577388]]]}}, {"type": "Feature", "properties": {"zone_id": "0204OOGGQM7ZS3JAZP0OPF", "tract_id": "36119000404", "city": "YONKERS, NY", "zone_code": "A", "zone_category": "Residential", "ev_permitted": false}, "geometry": {"type": "Polygon", "coordinates": [[[-73.8973399517133, 40.9460398054853], [-73.8973108882484, 40.9461764458994], [-73.8976722606736, 40.946217957204], [-73.8977016074611, 40.9460838822065], [-73.8973399517133, 40.9460398054853]]]}}, {"type": "Feature", "properties": {"zone_id": "020399M3674ZNBLEFFLJLY", "tract_id": "36119000404", "city": "YONKERS, NY", "zone_code": "A", "zone_category": "Residential", "ev_permitted": false}, "geometry": {"type": "Polygon", "coordinates": [[[-73.8974244318719, 40.9456319301186], [-73.8973966474043, 40.9457732660999], [-73.8977607503473, 40.9458136952423], [-73.8977780149496, 40.945734817051], [-73.8977891164299, 40.9456739168252], [-73.8974244318719, 40.9456319301186]]]}}, {"type": "Feature", "properties": {"zone_id": "0206EX45TSXY7RLOJ209C9", "tract_id": "36119000404", "city": "YONKERS, NY", "zone_code": "A", "zone_category": "Residential", "ev_permitted": false}, "geometry": {"type": "Polygon", "coordinates": [[[-73.8973966474043, 40.9457732660999], [-73.8973822463232, 40.9458409538496], [-73.8977458953396, 40.9458815534552], [-73.8977607503473, 40.9458136952423], [-73.8973966474043, 40.9457732660999]]]}}, {"type": "Feature", "properties": {"zone_id": "0206QMBBUN75ECWR5Z9TDN", "tract_id": "36119000404", "city": "YONKERS, NY", "zone_code": "A", "zone_category": "Residential", "ev_permitted": false}, "geometry": {"type": "Polygon", "coordinates": [[[-73.8973822463232, 40.9458409538496], [-73.8973672105227, 40.9459116577388], [-73.8977304524446, 40.9459521129743], [-73.8977458953396, 40.9458815534552], [-73.8973822463232, 40.9458409538496]]]}}, {"type": "Feature", "properties": {"zone_id": "020312TT5L99QT4T0U91UY", "tract_id": "36119000404", "city": "YONKERS, NY", "zone_code": "A", "zone_category": "Residential", "ev_permitted": false}, "geometry": {"type": "Polygon", "coordinates": [[[-73.8970029639694, 40.9459141098686], [-73.8969945167419, 40.9459563913741], [-73.8973489980855, 40.9459972747558], [-73.8973588871637, 40.9459507921308], [-73.8970029639694, 40.9459141098686]]]}}, {"type": "Feature", "properties": {"zone_id": "0206O2OXAGGD0MN2ROQG9Q", "tract_id": "36119000404", "city": "YONKERS, NY", "zone_code": "A", "zone_category": "Residential", "ev_permitted": false}, "geometry": {"type": "Polygon", "coordinates": [[[-73.8969945167419, 40.9459563913741], [-73.8969864607726, 40.9459967209667], [-73.8973399517133, 40.9460398054853], [-73.8973489980855, 40.9459972747558], [-73.8969945167419, 40.9459563913741]]]}}, {"type": "Feature", "properties": {"zone_id": "0203JI6OBK47290DOKUXIS", "tract_id": "36119000404", "city": "YONKERS, NY", "zone_code": "A", "zone_category": "Residential", "ev_permitted": false}, "geometry": {"type": "Polygon", "coordinates": [[[-73.8969864607726, 40.9459967209667], [-73.8969727543865, 40.9460653269257], [-73.8973263866641, 40.9461035791004], [-73.8973399517133, 40.9460398054853], [-73.8969864607726, 40.9459967209667]]]}}, {"type": "Feature", "properties": {"zone_id": "0200ZEAGNDHR8JTVJUYCBE", "tract_id": "36119000404", "city": "YONKERS, NY", "zone_code": "A", "zone_category": "Residential", "ev_permitted": false}, "geometry": {"type": "Polygon", "coordinates": [[[-73.8969727543865, 40.9460653269257], [-73.8969454228494, 40.9462021495633], [-73.8972860756006, 40.9462930839722], [-73.8973263866641, 40.9461035791004], [-73.8969727543865, 40.9460653269257]]]}}, {"type": "Feature", "properties": {"zone_id": "0200J3GEQEWRK3QUW97ZV6", "tract_id": "36119000404", "city": "YONKERS, NY", "zone_code": "A", "zone_category": "Residential", "ev_permitted": false}, "geometry": {"type": "Polygon", "coordinates": [[[-73.8970449127204, 40.9457041129459], [-73.8970255349092, 40.9458011266039], [-73.8973822463232, 40.9458409538496], [-73.8974028502591, 40.9457441194073], [-73.8970449127204, 40.9457041129459]]]}}, {"type": "Feature", "properties": {"zone_id": "02034QTL9S6PHX0TOSUPED", "tract_id": "36119000404", "city": "YONKERS, NY", "zone_code": "A", "zone_category": "Residential", "ev_permitted": false}, "geometry": {"type": "Polygon", "coordinates": [[[-73.8970255349092, 40.9458011266039], [-73.8970113699071, 40.9458720243434], [-73.8973672105227, 40.9459116577388], [-73.8973822463232, 40.9458409538496], [-73.8970255349092, 40.9458011266039]]]}}, {"type": "Feature", "properties": {"zone_id": "0206V5QSSZJCN7V0Y3D6E5", "tract_id": "36119000404", "city": "YONKERS, NY", "zone_code": "A", "zone_category": "Residential", "ev_permitted": false}, "geometry": {"type": "Polygon", "coordinates": [[[-73.8970113699071, 40.9458720243434], [-73.8970029639694, 40.9459141098686], [-73.8973588871637, 40.9459507921308], [-73.8973672105227, 40.9459116577388], [-73.8970113699071, 40.9458720243434]]]}}, {"type": "Feature", "properties": {"zone_id": "0203U2HR6MLK94BWMHFH42", "tract_id": "36119000404", "city": "YONKERS, NY", "zone_code": "A", "zone_category": "Residential", "ev_permitted": false}, "geometry": {"type": "Polygon", "coordinates": [[[-73.8974642286945, 40.9454250796918], [-73.8974369788191, 40.9455667135634], [-73.8978008507346, 40.94560953832], [-73.8978262795353, 40.9454700633052], [-73.8974642286945, 40.9454250796918]]]}}, {"type": "Feature", "properties": {"zone_id": "0202SSCM7NU46AHL4L1772", "tract_id": "36119000404", "city": "YONKERS, NY", "zone_code": "A", "zone_category": "Residential", "ev_permitted": false}, "geometry": {"type": "Polygon", "coordinates": [[[-73.8974369788191, 40.9455667135634], [-73.8974244318719, 40.9456319301186], [-73.8977891164299, 40.9456739168252], [-73.8978008507346, 40.94560953832], [-73.8974369788191, 40.9455667135634]]]}}, {"type": "Feature", "properties": {"zone_id": "0205TN251TELE5CHA004MS", "tract_id": "36119000404", "city": "YONKERS, NY", "zone_code": "A", "zone_category": "Residential", "ev_permitted": false}, "geometry": {"type": "Polygon", "coordinates": [[[-73.8975102191725, 40.9451860422247], [-73.8974967165346, 40.9452562275219], [-73.8978582400758, 40.9452947156647], [-73.8978706143983, 40.9452268472279], [-73.8975102191725, 40.9451860422247]]]}}, {"type": "Feature", "properties": {"zone_id": "0206P7UWJN8HKRKDRRYJI9", "tract_id": "36119000404", "city": "YONKERS, NY", "zone_code": "A", "zone_category": "Residential", "ev_permitted": false}, "geometry": {"type": "Polygon", "coordinates": [[[-73.8974967165346, 40.9452562275219], [-73.8974642286945, 40.9454250796918], [-73.8978262795353, 40.9454700633052], [-73.8978582400758, 40.9452947156647], [-73.8974967165346, 40.9452562275219]]]}}, {"type": "Feature", "properties": {"zone_id": "0202IDX1FU0XHKBFR20Z9S", "tract_id": "36119000404", "city": "YONKERS, NY", "zone_code": "A", "zone_category": "Residential", "ev_permitted": false}, "geometry": {"type": "Polygon", "coordinates": [[[-73.8971023190366, 40.9454017003851], [-73.8970910306784, 40.9454611592658], [-73.8974488702737, 40.9455049057029], [-73.8974605391536, 40.9454442640606], [-73.8971023190366, 40.9454017003851]]]}}, {"type": "Feature", "properties": {"zone_id": "0200GWJCZP50JO1TFBDNMV", "tract_id": "36119000404", "city": "YONKERS, NY", "zone_code": "A", "zone_category": "Residential", "ev_permitted": false}, "geometry": {"type": "Polygon", "coordinates": [[[-73.8970910306784, 40.9454611592658], [-73.8970789921168, 40.9455245772281], [-73.8974369788191, 40.9455667135634], [-73.8974488702737, 40.9455049057029], [-73.8970910306784, 40.9454611592658]]]}}, {"type": "Feature", "properties": {"zone_id": "0202JCTFA2KDJXT7NA61PV", "tract_id": "36119000404", "city": "YONKERS, NY", "zone_code": "A", "zone_category": "Residential", "ev_permitted": false}, "geometry": {"type": "Polygon", "coordinates": [[[-73.8970789921168, 40.9455245772281], [-73.8970449127204, 40.9457041129459], [-73.8974028502591, 40.9457441194073], [-73.8974369788191, 40.9455667135634], [-73.8970789921168, 40.9455245772281]]]}}, {"type": "Feature", "properties": {"zone_id": "0202C36JT71GFMJBD47W1X", "tract_id": "36119000404", "city": "YONKERS, NY", "zone_code": "A", "zone_category": "Residential", "ev_permitted": false}, "geometry": {"type": "Polygon", "coordinates": [[[-73.8971428478602, 40.9451881784715], [-73.8971225431832, 40.9452951480336], [-73.8974812318754, 40.9453367198317], [-73.8975017194406, 40.9452302203748], [-73.8971428478602, 40.9451881784715]]]}}, {"type": "Feature", "properties": {"zone_id": "0201AM1O0WDVH9E5SJD3W4", "tract_id": "36119000404", "city": "YONKERS, NY", "zone_code": "A", "zone_category": "Residential", "ev_permitted": false}, "geometry": {"type": "Polygon", "coordinates": [[[-73.8971225431832, 40.9452951480336], [-73.8971023190366, 40.9454017003851], [-73.8974605391536, 40.9454442640606], [-73.8974812318754, 40.9453367198317], [-73.8971225431832, 40.9452951480336]]]}}, {"type": "Feature", "properties": {"zone_id": "0204Q495GT7JB9DE3RTSI6", "tract_id": "36119000404", "city": "YONKERS, NY", "zone_code": "CM", "zone_category": "Commercial", "ev_permitted": true}, "geometry": {"type": "Polygon", "coordinates": [[[-73.8976206119546, 40.9448208443299], [-73.89759722936, 40.9449547835924], [-73.8979108711694, 40.9449900896725], [-73.8979371625707, 40.9448598678626], [-73.8976206119546, 40.9448208443299]]]}}, {"type": "Feature", "properties": {"zone_id": "0200GL7PP2HY2MMVPOY9H5", "tract_id": "36119000404", "city": "YONKERS, NY", "zone_code": "A", "zone_category": "Residential", "ev_permitted": false}, "geometry": {"type": "Polygon", "coordinates": [[[-73.8975298402972, 40.9450840592362], [-73.8975102191725, 40.9451860422247], [-73.8978706143983, 40.9452268472279], [-73.8978895802281, 40.9451228013666], [-73.8975298402972, 40.9450840592362]]]}}, {"type": "Feature", "properties": {"zone_id": "0204BZ475W3DGB4IEFYVCI", "tract_id": "36119000404", "city": "YONKERS, NY", "zone_code": "CM", "zone_category": "Commercial", "ev_permitted": true}, "geometry": {"type": "Polygon", "coordinates": [[[-73.8976171132183, 40.9446808342121], [-73.8976015805251, 40.9447533746491], [-73.8979510396249, 40.9447911381901], [-73.8979651146182, 40.9447214339304], [-73.8976171132183, 40.9446808342121]]]}}, {"type": "Feature", "properties": {"zone_id": "0201C5G3PN7VUZZ4AVMU21", "tract_id": "36119000404", "city": "YONKERS, NY", "zone_code": "CM", "zone_category": "Commercial", "ev_permitted": true}, "geometry": {"type": "Polygon", "coordinates": [[[-73.8976015805251, 40.9447533746491], [-73.8975879929023, 40.9448168238034], [-73.8979371625707, 40.9448598678626], [-73.8979510396249, 40.9447911381901], [-73.8976015805251, 40.9447533746491]]]}}, {"type": "Feature", "properties": {"zone_id": "0200VP8FVA7T2368HF7GHK", "tract_id": "36119000404", "city": "YONKERS, NY", "zone_code": "M", "zone_category": "Residential", "ev_permitted": false}, "geometry": {"type": "Polygon", "coordinates": [[[-73.896669353816, 40.9448268198259], [-73.8966391636621, 40.9449817816696], [-73.8969907599059, 40.9450219458097], [-73.8970221595957, 40.9448655712653], [-73.896669353816, 40.9448268198259]]]}}, {"type": "Feature", "properties": {"zone_id": "0205XYYYUIJG6GQ9WLIMY9", "tract_id": "36119000404", "city": "YONKERS, NY", "zone_code": "CM", "zone_category": "Commercial", "ev_permitted": true}, "geometry": {"type": "Polygon", "coordinates": [[[-73.8972538747388, 40.9446384518363], [-73.8972279934205, 40.9447724418931], [-73.8975879929023, 40.9448168238034], [-73.8976171132183, 40.9446808342121], [-73.8972538747388, 40.9446384518363]]]}}, {"type": "Feature", "properties": {"zone_id": "0206PWRNXJKTGDULXK5WPI", "tract_id": "36119000404", "city": "YONKERS, NY", "zone_code": "CM", "zone_category": "Commercial", "ev_permitted": true}, "geometry": {"type": "Polygon", "coordinates": [[[-73.8972279934205, 40.9447724418931], [-73.8972013777829, 40.9449102173211], [-73.89759722936, 40.9449547835924], [-73.8976206119546, 40.9448208443299], [-73.8972279934205, 40.9447724418931]]]}}, {"type": "Feature", "properties": {"zone_id": "0204D948KQ1QZ3OD9RZ2M7", "tract_id": "36119000404", "city": "YONKERS, NY", "zone_code": "M", "zone_category": "Residential", "ev_permitted": false}, "geometry": {"type": "Polygon", "coordinates": [[[-73.8966920474307, 40.9447103300316], [-73.896669353816, 40.9448268198259], [-73.8970221595957, 40.9448655712653], [-73.8970455368438, 40.9447491564019], [-73.8966920474307, 40.9447103300316]]]}}, {"type": "Feature", "properties": {"zone_id": "02016I08H81M55OJY2XC9H", "tract_id": "36119000404", "city": "YONKERS, NY", "zone_code": "M", "zone_category": "Residential", "ev_permitted": false}, "geometry": {"type": "Polygon", "coordinates": [[[-73.8947822808415, 40.9454379500885], [-73.8949005566481, 40.9457049241442], [-73.8946074923093, 40.9466754200699], [-73.8952564593188, 40.9468364840101], [-73.895160080161, 40.9471965233135], [-73.8953250641358, 40.9472354850961], [-73.895335890983, 40.947235838359], [-73.8953465869514, 40.9472344923434], [-73.8953566853291, 40.9472315065349], [-73.8953657587111, 40.9472270056541], [-73.8953734141433, 40.9472211859157], [-73.8953793243668, 40.9472142937083], [-73.8953832360884, 40.9472066283761], [-73.8953851557988, 40.9471985133717], [-73.8953992647338, 40.9457223687013], [-73.8953963554335, 40.9455093437629], [-73.8947822808415, 40.9454379500885]]]}}, {"type": "Feature", "properties": {"zone_id": "0200VUSECJZTEPACVVVWXX", "tract_id": "36119000404", "city": "YONKERS, NY", "zone_code": "BR", "zone_category": "Commercial", "ev_permitted": true}, "geometry": {"type": "Polygon", "coordinates": [[[-73.8958506395584, 40.9463287540509], [-73.8958820385063, 40.9465394250402], [-73.8966735333016, 40.9466359544579], [-73.8967124164045, 40.9464271507453], [-73.8958506395584, 40.9463287540509]]]}}, {"type": "Feature", "properties": {"zone_id": "0202K53SM35E13GKI1603F", "tract_id": "36119000404", "city": "YONKERS, NY", "zone_code": "BR", "zone_category": "Commercial", "ev_permitted": true}, "geometry": {"type": "Polygon", "coordinates": [[[-73.895810410374, 40.9460588027511], [-73.8958506395584, 40.9463287540509], [-73.8967124164045, 40.9464271507453], [-73.8967385625843, 40.9462846345273], [-73.895810410374, 40.9460588027511]]]}}, {"type": "Feature", "properties": {"zone_id": "0204J5GSB7WIBQ3STWB4OK", "tract_id": "36119000404", "city": "YONKERS, NY", "zone_code": "BR", "zone_category": "Commercial", "ev_permitted": true}, "geometry": {"type": "Polygon", "coordinates": [[[-73.8958820385063, 40.9465394250402], [-73.8958967935148, 40.9466384507803], [-73.8966414681986, 40.9468066462411], [-73.8966735333016, 40.9466359544579], [-73.8958820385063, 40.9465394250402]]]}}, {"type": "Feature", "properties": {"zone_id": "0207KGKSDAKDF53P1EPTU5", "tract_id": "36119000404", "city": "YONKERS, NY", "zone_code": "M", "zone_category": "Residential", "ev_permitted": false}, "geometry": {"type": "Polygon", "coordinates": [[[-73.8955361064557, 40.9459920611605], [-73.8955267542773, 40.9464785179951], [-73.8956349691445, 40.9464819147506], [-73.8955600505026, 40.9459978881608], [-73.8955361064557, 40.9459920611605]]]}}, {"type": "Feature", "properties": {"zone_id": "0202OO4E5N9YVJAWPV90ZM", "tract_id": "36119000404", "city": "YONKERS, NY", "zone_code": "M", "zone_category": "Residential", "ev_permitted": false}, "geometry": {"type": "Polygon", "coordinates": [[[-73.8955267542773, 40.9464785179951], [-73.8955236166479, 40.9466416441444], [-73.8956594134003, 40.9466398444072], [-73.8956349691445, 40.9464819147506], [-73.8955267542773, 40.9464785179951]]]}}, {"type": "Feature", "properties": {"zone_id": "020681JM1XY6WFLLEZQQQC", "tract_id": "36119000404", "city": "YONKERS, NY", "zone_code": "M", "zone_category": "Residential", "ev_permitted": false}, "geometry": {"type": "Polygon", "coordinates": [[[-73.8961988789742, 40.9455537117664], [-73.8961619927929, 40.9457263651897], [-73.8961441644075, 40.9457963215326], [-73.8968265621548, 40.9458636982537], [-73.8968730929593, 40.9456274028932], [-73.8961988789742, 40.9455537117664]]]}}, {"type": "Feature", "properties": {"zone_id": "0201I95FPUIOJDTAQE03LF", "tract_id": "36119000404", "city": "YONKERS, NY", "zone_code": "M", "zone_category": "Residential", "ev_permitted": false}, "geometry": {"type": "Polygon", "coordinates": [[[-73.8961568649857, 40.9457975763509], [-73.8961158253227, 40.9460160177133], [-73.8967649784922, 40.9461712305056], [-73.8968265621548, 40.9458636982537], [-73.8961568649857, 40.9457975763509]]]}}, {"type": "Feature", "properties": {"zone_id": "0204AX4P7R1K4IN57OZ2QS", "tract_id": "36119000404", "city": "YONKERS, NY", "zone_code": "M", "zone_category": "Residential", "ev_permitted": false}, "geometry": {"type": "Polygon", "coordinates": [[[-73.8960059056149, 40.9455326228016], [-73.8959679563484, 40.9457253486064], [-73.8959238272189, 40.9459701080625], [-73.8961158253227, 40.9460160177133], [-73.8961568649857, 40.9457975763509], [-73.8961441644075, 40.9457963215326], [-73.8961619927929, 40.9457263651897], [-73.8961988789742, 40.9455537117664], [-73.8960059056149, 40.9455326228016]]]}}, {"type": "Feature", "properties": {"zone_id": "020742932X2B3J664CMCO1", "tract_id": "36119000404", "city": "YONKERS, NY", "zone_code": "M", "zone_category": "Residential", "ev_permitted": false}, "geometry": {"type": "Polygon", "coordinates": [[[-73.8941055873154, 40.9464360326876], [-73.8940758004737, 40.9465121580243], [-73.8944746716848, 40.9466086172252], [-73.8944987887885, 40.9465277171839], [-73.8941055873154, 40.9464360326876]]]}}, {"type": "Feature", "properties": {"zone_id": "0201M4EH4N10WLHBBQRQF8", "tract_id": "36119000404", "city": "YONKERS, NY", "zone_code": "M", "zone_category": "Residential", "ev_permitted": false}, "geometry": {"type": "Polygon", "coordinates": [[[-73.8940758004737, 40.9465121580243], [-73.8940456760371, 40.9465891448896], [-73.8944516583784, 40.9466858039034], [-73.8944746716848, 40.9466086172252], [-73.8940758004737, 40.9465121580243]]]}}, {"type": "Feature", "properties": {"zone_id": "0204DJSU3HPKIEI997DB99", "tract_id": "36119000404", "city": "YONKERS, NY", "zone_code": "M", "zone_category": "Residential", "ev_permitted": false}, "geometry": {"type": "Polygon", "coordinates": [[[-73.8940456760371, 40.9465891448896], [-73.8940144682534, 40.9466688949418], [-73.8944274095194, 40.9467671170408], [-73.8944516583784, 40.9466858039034], [-73.8940456760371, 40.9465891448896]]]}}, {"type": "Feature", "properties": {"zone_id": "02065UZ9IKSE4BKQYKIWPN", "tract_id": "36119000404", "city": "YONKERS, NY", "zone_code": "M", "zone_category": "Residential", "ev_permitted": false}, "geometry": {"type": "Polygon", "coordinates": [[[-73.8941937744265, 40.9462106711847], [-73.8941055873154, 40.9464360326876], [-73.8944987887885, 40.9465277171839], [-73.8945666979836, 40.9462999557734], [-73.8941937744265, 40.9462106711847]]]}}, {"type": "Feature", "properties": {"zone_id": "0203UQ4Y5P81NAGPBCAXY2", "tract_id": "36119000404", "city": "YONKERS, NY", "zone_code": "M", "zone_category": "Residential", "ev_permitted": false}, "geometry": {"type": "Polygon", "coordinates": [[[-73.8966168026391, 40.9450926247591], [-73.896568364537, 40.9453529002222], [-73.8969183939073, 40.9453921722028], [-73.896968228032, 40.9451333809667], [-73.8966168026391, 40.9450926247591]]]}}, {"type": "Feature", "properties": {"zone_id": "0201QY4PYN8OX0XW1LI3NE", "tract_id": "36119000404", "city": "YONKERS, NY", "zone_code": "M", "zone_category": "Residential", "ev_permitted": false}, "geometry": {"type": "Polygon", "coordinates": [[[-73.8964733431764, 40.9450759893072], [-73.8964239705901, 40.9453367016642], [-73.896568364537, 40.9453529002222], [-73.8966168026391, 40.9450926247591], [-73.8964733431764, 40.9450759893072]]]}}, {"type": "Feature", "properties": {"zone_id": "0205ZKUXPGSVS78B37KU57", "tract_id": "36119000404", "city": "YONKERS, NY", "zone_code": "M", "zone_category": "Residential", "ev_permitted": false}, "geometry": {"type": "Polygon", "coordinates": [[[-73.896347085288, 40.9450613433823], [-73.8962994426095, 40.9453227316369], [-73.8964239705901, 40.9453367016642], [-73.8964733431764, 40.9450759893072], [-73.896347085288, 40.9450613433823]]]}}, {"type": "Feature", "properties": {"zone_id": "0202YZVGII0FAEDES0HJ7V", "tract_id": "36119000404", "city": "YONKERS, NY", "zone_code": "M", "zone_category": "Residential", "ev_permitted": false}, "geometry": {"type": "Polygon", "coordinates": [[[-73.8961715697646, 40.9450409875231], [-73.8961375652487, 40.9453045691356], [-73.8962994426095, 40.9453227316369], [-73.896347085288, 40.9450613433823], [-73.8961715697646, 40.9450409875231]]]}}, {"type": "Feature", "properties": {"zone_id": "02065YCFMICB80RUDB45CD", "tract_id": "36119000404", "city": "YONKERS, NY", "zone_code": "M", "zone_category": "Residential", "ev_permitted": false}, "geometry": {"type": "Polygon", "coordinates": [[[-73.8957070049885, 40.945256262151], [-73.8957064053996, 40.9452640844342], [-73.8957078492807, 40.9452970038992], [-73.8957136531889, 40.9453874727417], [-73.8957203978816, 40.9454614063446], [-73.8957289311551, 40.9455352336667], [-73.8957444207026, 40.9456416305863], [-73.8957953311878, 40.9459393858889], [-73.8959238272189, 40.9459701080625], [-73.8959679563484, 40.9457253486064], [-73.8960526814224, 40.9452950446601], [-73.8957070049885, 40.945256262151]]]}}, {"type": "Feature", "properties": {"zone_id": "0201NM5LOHH861E25N2PF7", "tract_id": "36119000404", "city": "YONKERS, NY", "zone_code": "S-100", "zone_category": "Residential", "ev_permitted": false}, "geometry": {"type": "MultiPolygon", "coordinates": [[[[-73.8867692612582, 40.9722849949602], [-73.8865064583569, 40.9723088683235], [-73.8867053654453, 40.9734904166026], [-73.886711292544, 40.9736055821678], [-73.8867064076689, 40.9737125405815], [-73.8866915407779, 40.9738189729054], [-73.8866667674113, 40.9739243420851], [-73.8863528328341, 40.9748093976562], [-73.886249929331, 40.9750610734973], [-73.8861511725833, 40.9752726485929], [-73.8860312336279, 40.9755014683648], [-73.8858993485612, 40.9757264810514], [-73.885770762155, 40.9759272623186], [-73.8857202144901, 40.9760197105126], [-73.8856908854833, 40.9760826192673], [-73.8856535792997, 40.9761786130769], [-73.8856165492795, 40.9763090382491], [-73.8855984582272, 40.9764081661226], [-73.8855887484071, 40.9765079659446], [-73.8855875180414, 40.9766063470015], [-73.8855944626412, 40.9767037477437], [-73.8856094687591, 40.9768006255821], [-73.8856419099227, 40.976928320897], [-73.8856756502419, 40.9770230413419], [-73.8857173480441, 40.9771162235562], [-73.8859719612888, 40.9770687925878], [-73.8859149271101, 40.9769181594404], [-73.8858764753722, 40.9767703650351], [-73.8859851800284, 40.9767575909904], [-73.8859671884426, 40.9766266159623], [-73.8859681442381, 40.9764949295446], [-73.8859880290561, 40.9763641106674], [-73.8860050084656, 40.9762995114935], [-73.8860292009468, 40.976228930424], [-73.8859143318921, 40.976203919289], [-73.8859655803529, 40.9760953849311], [-73.8860184010043, 40.975996112489], [-73.8862182177275, 40.9756632119316], [-73.8863449472788, 40.9754356250153], [-73.8864584598988, 40.9752128691983], [-73.8865630294338, 40.9749876154263], [-73.8869132086967, 40.9739843626016], [-73.886945440698, 40.9738666351947], [-73.8869614470704, 40.9737768859177], [-73.886970282951, 40.9736865719611], [-73.886971913286, 40.9735960127734], [-73.8869654720174, 40.9734973386772], [-73.8869121871312, 40.9731264523356], [-73.8867692612582, 40.9722849949602]]], [[[-73.8916979658731, 40.9602882148907], [-73.8909099454089, 40.961168614871], [-73.8908184321281, 40.9611195214825], [-73.8906236101147, 40.961334880699], [-73.8905479037035, 40.961431319369], [-73.8904365010504, 40.9615882872807], [-73.8903374613486, 40.961747442331], [-73.8904305631138, 40.9617811169799], [-73.8903562017213, 40.9618908544445], [-73.8902925628697, 40.9620045325072], [-73.8902562584429, 40.9620821306577], [-73.8902236902122, 40.9621644705718], [-73.8902023842301, 40.9622049287369], [-73.8901767744009, 40.9622849475869], [-73.8901365822417, 40.9624389587476], [-73.8901077443285, 40.9625950330529], [-73.8900906171299, 40.9627519713676], [-73.8900851886733, 40.9628819819267], [-73.8900876428089, 40.9630120431528], [-73.8901031643166, 40.9631850652938], [-73.8901326296684, 40.9633570425185], [-73.8901645520762, 40.9634799026418], [-73.8901783289434, 40.9635919513546], [-73.8901797050214, 40.9636763583697], [-73.8901762670921, 40.9637335984872], [-73.8901692957105, 40.9637906532515], [-73.8901522476869, 40.9638756143442], [-73.8901273668482, 40.9639594577904], [-73.8901040011132, 40.9640205344468], [-73.8900307661238, 40.9641666173837], [-73.8900057325114, 40.9641624767602], [-73.8895230433793, 40.9649098636695], [-73.889488209971, 40.9649964639376], [-73.8894642279238, 40.965093533395], [-73.8892058973327, 40.9676488570944], [-73.8891356009051, 40.9686865932567], [-73.8891371151965, 40.9687627492684], [-73.8891327455644, 40.9688367749268], [-73.8891226363436, 40.9689104795371], [-73.8891047073529, 40.9689916791518], [-73.889082613135, 40.9690638603028], [-73.8890515428418, 40.9691427506153], [-73.8889833218889, 40.9692727602571], [-73.8888964815861, 40.9693962235069], [-73.8887920920795, 40.9695116165679], [-73.8886714407051, 40.9696175060121], [-73.8886096361077, 40.9696636709349], [-73.8875277987892, 40.9703848404095], [-73.8874968961774, 40.97040060983], [-73.8873120848124, 40.9705154757867], [-73.8870425718238, 40.9706946491605], [-73.8868917376311, 40.9708014505723], [-73.8868189393555, 40.9708727993443], [-73.8867572975688, 40.970940593139], [-73.8866534304969, 40.9710757231773], [-73.8865677823417, 40.9712180049197], [-73.8865011993465, 40.971366027814], [-73.8864740494946, 40.9714457515678], [-73.8864524383756, 40.9715264404311], [-73.8864377728253, 40.9715997052955], [-73.886426841051, 40.9716816197149], [-73.8864218491997, 40.9717556284037], [-73.8864217450527, 40.9718392841767], [-73.8864753262749, 40.9721472380977], [-73.8867389629622, 40.9721224405227], [-73.8867033141169, 40.9719772091096], [-73.8866878029196, 40.9718299552902], [-73.8866882404321, 40.9717412960658], [-73.8866926551982, 40.9716837809201], [-73.8867174067622, 40.9715437377273], [-73.8867607230193, 40.9714089651541], [-73.8867961400335, 40.9713287950962], [-73.88683514674, 40.9712558048691], [-73.8869160005633, 40.9711339960545], [-73.8870188253715, 40.971012910065], [-73.8871159545959, 40.9709201830648], [-73.8871963836892, 40.9708546440897], [-73.8879044808704, 40.9703931456063], [-73.8879225441843, 40.9703869367644], [-73.8887650778119, 40.9698314462524], [-73.8888745289958, 40.9697508667619], [-73.8889971723032, 40.9696424182021], [-73.8890634269036, 40.9695732569774], [-73.8891241328528, 40.969501095712], [-73.8892145208981, 40.9693712266249], [-73.8892605629593, 40.9692891664699], [-73.8892911463545, 40.9692249833526], [-73.8893281082859, 40.9691302469348], [-73.8893562629212, 40.9690337843837], [-73.8893685641116, 40.9689769044825], [-73.8893847681621, 40.9688371764375], [-73.8894431018095, 40.9682297897966], [-73.8894749438374, 40.9676502826988], [-73.8897324010003, 40.9651791320071], [-73.889741105369, 40.9651218777813], [-73.8897717071152, 40.9650174565888], [-73.8898161822592, 40.9649246407479], [-73.8902550328588, 40.9642370593533], [-73.8902918812932, 40.9641726029176], [-73.8903302048012, 40.9640930136241], [-73.8903616679163, 40.9640117152125], [-73.8903861402308, 40.9639290451361], [-73.8904036782458, 40.963844398602], [-73.8904157806497, 40.963727970673], [-73.8904166912374, 40.9636695658021], [-73.8904116224954, 40.9635820460949], [-73.8903988575569, 40.9634949783795], [-73.8903575905584, 40.9633155172364], [-73.8903368199147, 40.963192762705], [-73.8903238313879, 40.9630693948617], [-73.8903186558417, 40.9629456968588], [-73.8903213039257, 40.9628219525537], [-73.8903317708132, 40.9626984474546], [-73.8903575867336, 40.9625358924359], [-73.890385841178, 40.9624149690944], [-73.89042164584, 40.9622952002815], [-73.8904784700375, 40.9621436857806], [-73.8905445499641, 40.9620135914043], [-73.8906388199669, 40.9618602365138], [-73.8907516869233, 40.9619011796351], [-73.8908582388365, 40.9617454781318], [-73.8909623578087, 40.9616064540597], [-73.8910827787084, 40.961458847983], [-73.891201415925, 40.9613249844299], [-73.8911058439919, 40.9612733434883], [-73.8919252332439, 40.9603603174301], [-73.8916979658731, 40.9602882148907]]], [[[-73.8951929717638, 40.9528741021896], [-73.8951246542368, 40.9530366152156], [-73.8948919154414, 40.9533488130741], [-73.8948076428831, 40.9539539503311], [-73.8946436707826, 40.9550431466979], [-73.8944978552984, 40.9550219668095], [-73.894461469477, 40.9551432925962], [-73.8944157286096, 40.9552735304185], [-73.8943647219059, 40.9553994668098], [-73.8943075499696, 40.9555240153551], [-73.8944427230247, 40.9555554193781], [-73.8925096652752, 40.9593363812683], [-73.8924659217853, 40.9594077841157], [-73.8924442429561, 40.9594313039815], [-73.8923601631813, 40.9595560109143], [-73.8922463476693, 40.9597002497925], [-73.8921669378054, 40.9597885332116], [-73.8920529029663, 40.9599017126886], [-73.8917802393094, 40.9601966794986], [-73.8919768796724, 40.9602586750324], [-73.8919981115175, 40.9602612680349], [-73.892022753044, 40.9602534597666], [-73.89241945686, 40.9598298239445], [-73.892539468277, 40.9596842851022], [-73.8926455648752, 40.9595363001018], [-73.8927195331029, 40.9594182005401], [-73.8928333323962, 40.9592178858347], [-73.894672955923, 40.9556121492614], [-73.8947792326418, 40.9556383880578], [-73.8948298559038, 40.95553846852], [-73.8948729720123, 40.9554365483667], [-73.8949108483528, 40.9553249177145], [-73.8949355620379, 40.95523057618], [-73.8949583700642, 40.9551056519902], [-73.894960816265, 40.9550870746734], [-73.8948827492113, 40.9550763084823], [-73.8950512831817, 40.9539208020335], [-73.8951929717638, 40.9528741021896]]], [[[-73.8949614932916, 40.9516199045426], [-73.8949670441617, 40.9526339769017], [-73.8949284801653, 40.9530862638566], [-73.8950602557335, 40.9529620795725], [-73.8951575924081, 40.9526508007012], [-73.8951334449161, 40.9525003281194], [-73.8951177340597, 40.9523525955675], [-73.8951096530469, 40.9521962712661], [-73.8951103174481, 40.9520396956741], [-73.895105196636, 40.951995792586], [-73.8950866797779, 40.951931492041], [-73.8949614932916, 40.9516199045426]]], [[[-73.8956064244835, 40.9485067437276], [-73.8950227569493, 40.9501543651161], [-73.8950009770525, 40.9502258012106], [-73.8949748989014, 40.9503339814869], [-73.8949525494555, 40.9504796125438], [-73.894945151279, 40.9505900410111], [-73.8949461493134, 40.950706610589], [-73.8949852734726, 40.9507167008039], [-73.8949885871159, 40.9512100049242], [-73.8950063333314, 40.9513401732642], [-73.8950423741497, 40.9514941649426], [-73.8952101928304, 40.9520157626025], [-73.895204114351, 40.95121113637], [-73.8951917912298, 40.9505890204924], [-73.8951963868029, 40.950482049475], [-73.8952104544453, 40.9503755520685], [-73.8952297044261, 40.950286170122], [-73.8952583122868, 40.9501897821794], [-73.8958047080668, 40.9486392637469], [-73.8956064244835, 40.9485067437276]]], [[[-73.8955600505026, 40.9459978881608], [-73.8957718388479, 40.9473661376742], [-73.8957861091188, 40.9475396844366], [-73.8957877170681, 40.9476437702075], [-73.8957840791573, 40.9477486011469], [-73.8957774142205, 40.9478319557507], [-73.8957611638005, 40.9479566043725], [-73.8957180701716, 40.9481605318307], [-73.8956549006471, 40.9483614303174], [-73.8958438318041, 40.9484795864808], [-73.8958466614937, 40.9484636314448], [-73.8959462220716, 40.9482001436936], [-73.8959788425719, 40.9480791406418], [-73.8960048070523, 40.9479488837965], [-73.8960235480894, 40.9477950809106], [-73.8960294354626, 40.9476693015894], [-73.8960268767361, 40.9475434576034], [-73.8960158807816, 40.9474178751298], [-73.895988144267, 40.9472514005005], [-73.895810410374, 40.9460588027511], [-73.8955600505026, 40.9459978881608]]], [[[-73.895390026718, 40.9427592853287], [-73.8954625624301, 40.9453027038366], [-73.8954777810939, 40.9454917041408], [-73.8954959707714, 40.9456061486609], [-73.895521644056, 40.945723009673], [-73.8955433378956, 40.9458791330263], [-73.8957953311878, 40.9459393858889], [-73.8957321748223, 40.9455598153696], [-73.8957171778462, 40.9454285608499], [-73.8957078492807, 40.9452970038992], [-73.8956368251704, 40.9427880036865], [-73.895390026718, 40.9427592853287]]], [[[-73.8953507967589, 40.9405873921019], [-73.8953288552377, 40.9406304675596], [-73.8953901696436, 40.9426204549288], [-73.8956314293076, 40.9426485265974], [-73.8955611563772, 40.9406440000421], [-73.8953507967589, 40.9405873921019]]], [[[-73.8955264944311, 40.9402489063565], [-73.895407602902, 40.9404773809393], [-73.8955589146731, 40.940518787703], [-73.8955264944311, 40.9402489063565]]]]}}, {"type": "Feature", "properties": {"zone_id": "02075EAO9DH418XCNEDP3M", "tract_id": "36119000404", "city": "YONKERS, NY", "zone_code": "BR", "zone_category": "Commercial", "ev_permitted": true}, "geometry": {"type": "Polygon", "coordinates": [[[-73.896551222174, 40.9482186254821], [-73.8965364898786, 40.9482935605284], [-73.8968364465584, 40.9483682300048], [-73.896855553306, 40.9482876400663], [-73.896551222174, 40.9482186254821]]]}}, {"type": "Feature", "properties": {"zone_id": "0200JDDFY1OKO2LC4NAXB8", "tract_id": "36119000404", "city": "YONKERS, NY", "zone_code": "BR", "zone_category": "Commercial", "ev_permitted": true}, "geometry": {"type": "Polygon", "coordinates": [[[-73.8965364898786, 40.9482935605284], [-73.8965094573965, 40.9484111644248], [-73.8968031147374, 40.9484912244838], [-73.8968112277344, 40.94845656065], [-73.8968364465584, 40.9483682300048], [-73.8965364898786, 40.9482935605284]]]}}, {"type": "Feature", "properties": {"zone_id": "02029PLEEH7ZYGJIK160TT", "tract_id": "36119000404", "city": "YONKERS, NY", "zone_code": "BR", "zone_category": "Commercial", "ev_permitted": true}, "geometry": {"type": "Polygon", "coordinates": [[[-73.895988144267, 40.9472514005005], [-73.8960038745035, 40.9473344594791], [-73.8960158803667, 40.9474178751873], [-73.8960241480282, 40.9475015516425], [-73.8960286679615, 40.9475853925667], [-73.8960294349511, 40.9476693014853], [-73.8960264480997, 40.9477531818518], [-73.8960197108304, 40.947836937151], [-73.8960232470793, 40.9478377601209], [-73.896016886455, 40.9478918783204], [-73.8960083180914, 40.94794972274], [-73.8959949056833, 40.9480227029927], [-73.8959799690574, 40.948089827807], [-73.8963734783825, 40.9481844599173], [-73.8965335484298, 40.9473716479774], [-73.895988144267, 40.9472514005005]]]}}, {"type": "Feature", "properties": {"zone_id": "0200Z8VF7NJSJI4K7CN1ET", "tract_id": "36119000404", "city": "YONKERS, NY", "zone_code": "M", "zone_category": "Residential", "ev_permitted": false}, "geometry": {"type": "Polygon", "coordinates": [[[-73.8955077877375, 40.9474650582581], [-73.8955064441118, 40.9475349931422], [-73.8957861091188, 40.9475396844366], [-73.8957820962733, 40.9474696297841], [-73.8955077877375, 40.9474650582581]]]}}, {"type": "Feature", "properties": {"zone_id": "0205MR6TBAVKTIZI1OJBRO", "tract_id": "36119000404", "city": "YONKERS, NY", "zone_code": "M", "zone_category": "Residential", "ev_permitted": false}, "geometry": {"type": "Polygon", "coordinates": [[[-73.8955064441118, 40.9475349931422], [-73.8955050756759, 40.9476060601038], [-73.8957877565296, 40.9476088120213], [-73.8957861091188, 40.9475396844366], [-73.8955064441118, 40.9475349931422]]]}}, {"type": "Feature", "properties": {"zone_id": "02074P50COWECJ6IG9H9OU", "tract_id": "36119000404", "city": "YONKERS, NY", "zone_code": "M", "zone_category": "Residential", "ev_permitted": false}, "geometry": {"type": "Polygon", "coordinates": [[[-73.8955050756759, 40.9476060601038], [-73.895502482816, 40.9477409772281], [-73.8957840791573, 40.9477486011469], [-73.8957868038268, 40.9476887099506], [-73.8957877565296, 40.9476088120213], [-73.8955050756759, 40.9476060601038]]]}}, {"type": "Feature", "properties": {"zone_id": "0204TYPPG67Z317KPNQKCG", "tract_id": "36119000404", "city": "YONKERS, NY", "zone_code": "M", "zone_category": "Residential", "ev_permitted": false}, "geometry": {"type": "Polygon", "coordinates": [[[-73.8955109919147, 40.9472983025123], [-73.8955097357222, 40.9473638467961], [-73.8957718388479, 40.9473661376742], [-73.8957617563645, 40.947300994644], [-73.8955109919147, 40.9472983025123]]]}}, {"type": "Feature", "properties": {"zone_id": "0205J1V2G2VR0TZFQPVJ08", "tract_id": "36119000404", "city": "YONKERS, NY", "zone_code": "M", "zone_category": "Residential", "ev_permitted": false}, "geometry": {"type": "Polygon", "coordinates": [[[-73.8955097357222, 40.9473638467961], [-73.8955077877375, 40.9474650582581], [-73.8957820962733, 40.9474696297841], [-73.8957783314796, 40.9474252404878], [-73.8957718388479, 40.9473661376742], [-73.8955097357222, 40.9473638467961]]]}}, {"type": "Feature", "properties": {"zone_id": "0200GZZVF2ME3RZG3SA4IQ", "tract_id": "36119000404", "city": "YONKERS, NY", "zone_code": "M", "zone_category": "Residential", "ev_permitted": false}, "geometry": {"type": "Polygon", "coordinates": [[[-73.8955123739907, 40.947226487106], [-73.8955109919147, 40.9472983025123], [-73.8957617563645, 40.947300994644], [-73.8957506560751, 40.9472292704676], [-73.8955123739907, 40.947226487106]]]}}, {"type": "Feature", "properties": {"zone_id": "0205SY7H3YP6FDHBMQSTWG", "tract_id": "36119000404", "city": "YONKERS, NY", "zone_code": "BR", "zone_category": "Commercial", "ev_permitted": true}, "geometry": {"type": "Polygon", "coordinates": [[[-73.8958967935148, 40.9466384507803], [-73.895943461231, 40.9469515637575], [-73.896585834707, 40.9470997016467], [-73.8966414681986, 40.9468066462411], [-73.8958967935148, 40.9466384507803]]]}}, {"type": "Feature", "properties": {"zone_id": "02045JNI1TUK62DPIG8B0E", "tract_id": "36119000404", "city": "YONKERS, NY", "zone_code": "BR", "zone_category": "Commercial", "ev_permitted": true}, "geometry": {"type": "Polygon", "coordinates": [[[-73.8959568133513, 40.9470411725114], [-73.895988144267, 40.9472514005005], [-73.8965335484298, 40.9473716479774], [-73.8965695825383, 40.9471845959152], [-73.8959568133513, 40.9470411725114]]]}}, {"type": "Feature", "properties": {"zone_id": "02039HFBTAI2UFE16YL384", "tract_id": "36119000404", "city": "YONKERS, NY", "zone_code": "BR", "zone_category": "Commercial", "ev_permitted": true}, "geometry": {"type": "Polygon", "coordinates": [[[-73.895943461231, 40.9469515637575], [-73.8959568133513, 40.9470411725114], [-73.8965695825383, 40.9471845959152], [-73.896585834707, 40.9470997016467], [-73.895943461231, 40.9469515637575]]]}}, {"type": "Feature", "properties": {"zone_id": "0207CAT479QRF7SYRLTAWV", "tract_id": "36119000404", "city": "YONKERS, NY", "zone_code": "M", "zone_category": "Residential", "ev_permitted": false}, "geometry": {"type": "Polygon", "coordinates": [[[-73.8955137168934, 40.9471566657131], [-73.8955123739907, 40.947226487106], [-73.8957506560751, 40.9472292704676], [-73.8957400194516, 40.9471605945615], [-73.8955137168934, 40.9471566657131]]]}}, {"type": "Feature", "properties": {"zone_id": "0203PMCXFSY926YC5ZNXJL", "tract_id": "36119000404", "city": "YONKERS, NY", "zone_code": "M", "zone_category": "Residential", "ev_permitted": false}, "geometry": {"type": "Polygon", "coordinates": [[[-73.8955171829882, 40.9469763282789], [-73.8955159851749, 40.9470385842745], [-73.8957218219916, 40.94704300441], [-73.8957125256274, 40.9469829521631], [-73.8955171829882, 40.9469763282789]]]}}, {"type": "Feature", "properties": {"zone_id": "02048MT5MNSMBGVQAI4SMT", "tract_id": "36119000404", "city": "YONKERS, NY", "zone_code": "M", "zone_category": "Residential", "ev_permitted": false}, "geometry": {"type": "Polygon", "coordinates": [[[-73.8955159851749, 40.9470385842745], [-73.8955137168934, 40.9471566657131], [-73.8957400194516, 40.9471605945615], [-73.8957218219916, 40.94704300441], [-73.8955159851749, 40.9470385842745]]]}}, {"type": "Feature", "properties": {"zone_id": "0200UOY09FQIISF5I13EFT", "tract_id": "36119000404", "city": "YONKERS, NY", "zone_code": "M", "zone_category": "Residential", "ev_permitted": false}, "geometry": {"type": "Polygon", "coordinates": [[[-73.8956594134003, 40.9466398444072], [-73.8955236166479, 40.9466416441444], [-73.8955171829882, 40.9469763282789], [-73.8957125256274, 40.9469829521631], [-73.8956594134003, 40.9466398444072]]]}}, {"type": "Feature", "properties": {"zone_id": "0205H64YNSHBG1IWZDN6VB", "tract_id": "36119000404", "city": "YONKERS, NY", "zone_code": "M", "zone_category": "Residential", "ev_permitted": false}, "geometry": {"type": "Polygon", "coordinates": [[[-73.8950212534442, 40.9467781096083], [-73.8949116870823, 40.9471379205211], [-73.895160080161, 40.9471965233135], [-73.8952564593188, 40.9468364840101], [-73.8950212534442, 40.9467781096083]]]}}, {"type": "Feature", "properties": {"zone_id": "0202ZPGUJ0W8DC57PAIHO1", "tract_id": "36119000404", "city": "YONKERS, NY", "zone_code": "M", "zone_category": "Residential", "ev_permitted": false}, "geometry": {"type": "Polygon", "coordinates": [[[-73.8946074923093, 40.9466754200699], [-73.8945430652434, 40.9468886370979], [-73.8949570025095, 40.946989101758], [-73.8950212534442, 40.9467781096083], [-73.8946074923093, 40.9466754200699]]]}}, {"type": "Feature", "properties": {"zone_id": "0205AL43NI179YIWDPW53J", "tract_id": "36119000404", "city": "YONKERS, NY", "zone_code": "M", "zone_category": "Residential", "ev_permitted": false}, "geometry": {"type": "Polygon", "coordinates": [[[-73.8945430652434, 40.9468886370979], [-73.8944972799183, 40.947040148212], [-73.8949116870823, 40.9471379205211], [-73.8949570025095, 40.946989101758], [-73.8945430652434, 40.9468886370979]]]}}, {"type": "Feature", "properties": {"zone_id": "02026XXXSM53KUTIFMCNTI", "tract_id": "36119000404", "city": "YONKERS, NY", "zone_code": "M", "zone_category": "Residential", "ev_permitted": false}, "geometry": {"type": "Polygon", "coordinates": [[[-73.8940144682534, 40.9466688949418], [-73.8939851590836, 40.946743792528], [-73.8944048188231, 40.9468428925901], [-73.8944274095194, 40.9467671170408], [-73.8940144682534, 40.9466688949418]]]}}, {"type": "Feature", "properties": {"zone_id": "0204HDL6WW7SHEWPHS462D", "tract_id": "36119000404", "city": "YONKERS, NY", "zone_code": "M", "zone_category": "Residential", "ev_permitted": false}, "geometry": {"type": "Polygon", "coordinates": [[[-73.8939851590836, 40.946743792528], [-73.8939540292772, 40.9468233460324], [-73.8943801594492, 40.9469255899237], [-73.8944048188231, 40.9468428925901], [-73.8939851590836, 40.946743792528]]]}}, {"type": "Feature", "properties": {"zone_id": "020291EIYSCIF6Q4BD6NZD", "tract_id": "36119000404", "city": "YONKERS, NY", "zone_code": "M", "zone_category": "Residential", "ev_permitted": false}, "geometry": {"type": "Polygon", "coordinates": [[[-73.8939540292772, 40.9468233460324], [-73.8939214053425, 40.9469067127267], [-73.8943551561925, 40.9470094550035], [-73.8943801594492, 40.9469255899237], [-73.8939540292772, 40.9468233460324]]]}}, {"type": "Feature", "properties": {"zone_id": "0200I6IU6DRNG3GQT3E82B", "tract_id": "36119000404", "city": "YONKERS, NY", "zone_code": "A", "zone_category": "Residential", "ev_permitted": false}, "geometry": {"type": "Polygon", "coordinates": [[[-73.8971699691116, 40.9450453057205], [-73.8971428478602, 40.9451881784715], [-73.8975017194406, 40.9452302203748], [-73.8975298402972, 40.9450840592362], [-73.8971699691116, 40.9450453057205]]]}}, {"type": "Feature", "properties": {"zone_id": "0203I6L0SA84FTLDIKGVW7", "tract_id": "36119000404", "city": "YONKERS, NY", "zone_code": "M", "zone_category": "Residential", "ev_permitted": false}, "geometry": {"type": "Polygon", "coordinates": [[[-73.8940339729337, 40.9456991105577], [-73.8938464824165, 40.9461275235025], [-73.8945666979836, 40.9462999557734], [-73.8947052596347, 40.9458352213112], [-73.8940339729337, 40.9456991105577]]]}}, {"type": "Feature", "properties": {"zone_id": "02016RNMBDFZHVD4Q0R7PD", "tract_id": "36119000404", "city": "YONKERS, NY", "zone_code": "M", "zone_category": "Residential", "ev_permitted": false}, "geometry": {"type": "Polygon", "coordinates": [[[-73.8960526814224, 40.9452950446601], [-73.8960059056149, 40.9455326228016], [-73.8968730929593, 40.9456274028932], [-73.8969183939073, 40.9453921722028], [-73.8960526814224, 40.9452950446601]]]}}, {"type": "Feature", "properties": {"zone_id": "02056S739RKPLXTHHLTBD5", "tract_id": "36119000404", "city": "YONKERS, NY", "zone_code": "M", "zone_category": "Residential", "ev_permitted": false}, "geometry": {"type": "Polygon", "coordinates": [[[-73.8961506126051, 40.9450366638713], [-73.8961397849699, 40.9450370925802], [-73.8961293208957, 40.9450392318014], [-73.8961196758132, 40.9450429850049], [-73.8961112802062, 40.9450481842584], [-73.8961045108486, 40.945054605265], [-73.8960856647253, 40.9450612718611], [-73.8960753149166, 40.9450637544787], [-73.8960539452152, 40.9450665819818], [-73.8960430956332, 40.9450669014736], [-73.8960217438625, 40.9450653710305], [-73.8959025187916, 40.9452781974806], [-73.8961375652487, 40.9453045691356], [-73.8961715697646, 40.9450409875231], [-73.8961613152731, 40.9450379608149], [-73.8961506126051, 40.9450366638713]]]}}, {"type": "Feature", "properties": {"zone_id": "0204ZPQVLK3YBISGEUXDKV", "tract_id": "36119000404", "city": "YONKERS, NY", "zone_code": "M", "zone_category": "Residential", "ev_permitted": false}, "geometry": {"type": "Polygon", "coordinates": [[[-73.8964603127989, 40.9446848776063], [-73.8964097774494, 40.9449555778211], [-73.8966391636621, 40.9449817816696], [-73.8966920474307, 40.9447103300316], [-73.8964603127989, 40.9446848776063]]]}}, {"type": "Feature", "properties": {"zone_id": "0201B01JR779QCZF2E40PJ", "tract_id": "36119000404", "city": "YONKERS, NY", "zone_code": "M", "zone_category": "Residential", "ev_permitted": false}, "geometry": {"type": "Polygon", "coordinates": [[[-73.8962797108162, 40.9446650416375], [-73.8962323681713, 40.9449353120247], [-73.8964097774494, 40.9449555778211], [-73.8964603127989, 40.9446848776063], [-73.8962797108162, 40.9446650416375]]]}}, {"type": "Feature", "properties": {"zone_id": "02067869PVUBKZT8O3PM0Y", "tract_id": "36119000404", "city": "YONKERS, NY", "zone_code": "M", "zone_category": "Residential", "ev_permitted": false}, "geometry": {"type": "Polygon", "coordinates": [[[-73.8959959582498, 40.9446338755037], [-73.8961042399323, 40.9448946722111], [-73.8961116073331, 40.9449026320343], [-73.8961189108627, 40.944908720266], [-73.8961270786095, 40.9449141348596], [-73.8961456087002, 40.9449226618718], [-73.8961662156261, 40.9449277541643], [-73.8962323681713, 40.9449353120247], [-73.8962797108162, 40.9446650416375], [-73.8959959582498, 40.9446338755037]]]}}, {"type": "Feature", "properties": {"zone_id": "02061UQL0G9FXG2GL2I2D7", "tract_id": "36119000404", "city": "YONKERS, NY", "zone_code": "M", "zone_category": "Residential", "ev_permitted": false}, "geometry": {"type": "Polygon", "coordinates": [[[-73.8959407705807, 40.9450236520868], [-73.8957049170535, 40.9451827046464], [-73.8957070049885, 40.945256262151], [-73.8959025187916, 40.9452781974806], [-73.8960217438625, 40.9450653710305], [-73.8959994429948, 40.9450605020429], [-73.8959787549359, 40.9450525290453], [-73.8959604233487, 40.9450417386375], [-73.895949841077, 40.9450331675783], [-73.8959407705807, 40.9450236520868]]]}}, {"type": "Feature", "properties": {"zone_id": "0205X0T46GK0U7TRAHMIUY", "tract_id": "36119000404", "city": "YONKERS, NY", "zone_code": "M", "zone_category": "Residential", "ev_permitted": false}, "geometry": {"type": "Polygon", "coordinates": [[[-73.8956978094407, 40.9449326009339], [-73.8957049170535, 40.9451827046464], [-73.8959407705807, 40.9450236520868], [-73.8959299061375, 40.9450069436861], [-73.8959252139709, 40.9449950328059], [-73.8959222126417, 40.9449765434975], [-73.8959241488073, 40.9449579725985], [-73.8956978094407, 40.9449326009339]]]}}, {"type": "Feature", "properties": {"zone_id": "0203SEH6ZAAQ5357VJBW8V", "tract_id": "36119000404", "city": "YONKERS, NY", "zone_code": "M", "zone_category": "Residential", "ev_permitted": false}, "geometry": {"type": "Polygon", "coordinates": [[[-73.895690640861, 40.9446803112649], [-73.8956978094407, 40.9449326009339], [-73.8959241488073, 40.9449579725985], [-73.8959280845099, 40.9449461503795], [-73.8959340409387, 40.9449348246439], [-73.8959465278819, 40.944919196018], [-73.8959628304116, 40.9449057387509], [-73.8959823096522, 40.9448949802102], [-73.895690640861, 40.9446803112649]]]}}, {"type": "Feature", "properties": {"zone_id": "0203RGJ6ZASZR4DAZHTQ1D", "tract_id": "36119000404", "city": "YONKERS, NY", "zone_code": "M", "zone_category": "Residential", "ev_permitted": false}, "geometry": {"type": "Polygon", "coordinates": [[[-73.8956883634353, 40.9446000877557], [-73.895690640861, 40.9446803112649], [-73.8959823096522, 40.9448949802102], [-73.8960055439987, 40.9448869977528], [-73.8960220396266, 40.9448838099174], [-73.8960389618311, 40.9448824076193], [-73.8960559761641, 40.9448828185742], [-73.8960727463585, 40.944885034657], [-73.8960889409705, 40.9448890120715], [-73.8961042399323, 40.9448946722111], [-73.8959959582498, 40.9446338755037], [-73.8956883634353, 40.9446000877557]]]}}, {"type": "Feature", "properties": {"zone_id": "02059I8VCTTNOHMVIU5Q75", "tract_id": "36119000404", "city": "YONKERS, NY", "zone_code": "M", "zone_category": "Residential", "ev_permitted": false}, "geometry": {"type": "Polygon", "coordinates": [[[-73.8942524335267, 40.9450560064491], [-73.8942429050774, 40.9451213425855], [-73.894228252224, 40.9451946098341], [-73.89421174683, 40.9452592827142], [-73.8941892981574, 40.9453314059243], [-73.8941720621761, 40.9453790519147], [-73.8941530340788, 40.9454263032737], [-73.8940339729337, 40.9456991105577], [-73.8947052596347, 40.9458352213112], [-73.8947399390046, 40.9457189089957], [-73.8947471905561, 40.9457002543098], [-73.8944955998096, 40.945137014991], [-73.8942524335267, 40.9450560064491]]]}}, {"type": "Feature", "properties": {"zone_id": "0206B49U9HMC5MY0T17QZZ", "tract_id": "36119000404", "city": "YONKERS, NY", "zone_code": "M", "zone_category": "Residential", "ev_permitted": false}, "geometry": {"type": "Polygon", "coordinates": [[[-73.8946504158846, 40.9451402874911], [-73.8947822808415, 40.9454379500885], [-73.8953963554335, 40.9455093437629], [-73.8953932457337, 40.9452263610074], [-73.8946504158846, 40.9451402874911]]]}}, {"type": "Feature", "properties": {"zone_id": "0201IIC0SLHW01ODKZ5N38", "tract_id": "36119000404", "city": "YONKERS, NY", "zone_code": "CM", "zone_category": "Commercial", "ev_permitted": true}, "geometry": {"type": "Polygon", "coordinates": [[[-73.8973194320844, 40.944299063203], [-73.8972872359579, 40.9444657381831], [-73.8977826626327, 40.9445285390764], [-73.8978164236852, 40.9443555561397], [-73.8973194320844, 40.944299063203]]]}}, {"type": "Feature", "properties": {"zone_id": "0205GMT9QQGW212T859GSR", "tract_id": "36119000404", "city": "YONKERS, NY", "zone_code": "CM", "zone_category": "Commercial", "ev_permitted": true}, "geometry": {"type": "Polygon", "coordinates": [[[-73.8978164236852, 40.9443555561397], [-73.8977768047748, 40.9445585322516], [-73.8979929033407, 40.9445838127577], [-73.8980339955637, 40.9443802867461], [-73.8978164236852, 40.9443555561397]]]}}, {"type": "Feature", "properties": {"zone_id": "0202G6LBV1LM6NUU485FJB", "tract_id": "36119000404", "city": "YONKERS, NY", "zone_code": "CM", "zone_category": "Commercial", "ev_permitted": true}, "geometry": {"type": "Polygon", "coordinates": [[[-73.8976532437741, 40.9445121321085], [-73.8976171132183, 40.9446808342121], [-73.8979651146182, 40.9447214339304], [-73.8979929033407, 40.9445838127577], [-73.8977768047748, 40.9445585322516], [-73.8977826626327, 40.9445285390764], [-73.8976532437741, 40.9445121321085]]]}}, {"type": "Feature", "properties": {"zone_id": "020214KUCPZA8STIAOXNCE", "tract_id": "36119000404", "city": "YONKERS, NY", "zone_code": "CM", "zone_category": "Commercial", "ev_permitted": true}, "geometry": {"type": "Polygon", "coordinates": [[[-73.8972872359579, 40.9444657381831], [-73.8972706196825, 40.9445517641293], [-73.8976353311405, 40.9445957711814], [-73.8976532437741, 40.9445121321085], [-73.8972872359579, 40.9444657381831]]]}}, {"type": "Feature", "properties": {"zone_id": "02001QQQWYCDQJ0KSVCM3M", "tract_id": "36119000404", "city": "YONKERS, NY", "zone_code": "CM", "zone_category": "Commercial", "ev_permitted": true}, "geometry": {"type": "Polygon", "coordinates": [[[-73.8972706196825, 40.9445517641293], [-73.8972538747388, 40.9446384518363], [-73.8976171132183, 40.9446808342121], [-73.8976353311405, 40.9445957711814], [-73.8972706196825, 40.9445517641293]]]}}, {"type": "Feature", "properties": {"zone_id": "0207E87PXMWKA0EP6RTUNX", "tract_id": "36119000404", "city": "YONKERS, NY", "zone_code": "CM", "zone_category": "Commercial", "ev_permitted": true}, "geometry": {"type": "Polygon", "coordinates": [[[-73.8979293804675, 40.9439562084154], [-73.8978722617324, 40.9442249159617], [-73.8980633372618, 40.944246991662], [-73.8981166822199, 40.9439773507469], [-73.8979293804675, 40.9439562084154]]]}}, {"type": "Feature", "properties": {"zone_id": "0203G466L05EPGSH15II8G", "tract_id": "36119000404", "city": "YONKERS, NY", "zone_code": "CM", "zone_category": "Commercial", "ev_permitted": true}, "geometry": {"type": "Polygon", "coordinates": [[[-73.8977706014486, 40.9438274756196], [-73.8977490808032, 40.9439358587755], [-73.8981166822199, 40.9439773507469], [-73.8981380288059, 40.9438694694098], [-73.8977706014486, 40.9438274756196]]]}}, {"type": "Feature", "properties": {"zone_id": "0201PQEHLQ237HF5MHNS3Y", "tract_id": "36119000404", "city": "YONKERS, NY", "zone_code": "CM", "zone_category": "Commercial", "ev_permitted": true}, "geometry": {"type": "Polygon", "coordinates": [[[-73.8974162544458, 40.9438206922566], [-73.8974007037613, 40.9438965285643], [-73.8977490808032, 40.9439358587755], [-73.897763997909, 40.943860736109], [-73.8974162544458, 40.9438206922566]]]}}, {"type": "Feature", "properties": {"zone_id": "0207BGA61MB4K5JMWAVPD5", "tract_id": "36119000404", "city": "YONKERS, NY", "zone_code": "CM", "zone_category": "Commercial", "ev_permitted": true}, "geometry": {"type": "Polygon", "coordinates": [[[-73.8977490808032, 40.9439358587755], [-73.8976957351695, 40.9442045239353], [-73.8978722617324, 40.9442249159617], [-73.8979293804675, 40.9439562084154], [-73.8977490808032, 40.9439358587755]]]}}, {"type": "Feature", "properties": {"zone_id": "0203FE7I8GZ5DNP38J4OLF", "tract_id": "36119000404", "city": "YONKERS, NY", "zone_code": "CM", "zone_category": "Commercial", "ev_permitted": true}, "geometry": {"type": "Polygon", "coordinates": [[[-73.8974007037613, 40.9438965285643], [-73.8973872049159, 40.9439630683273], [-73.8977362162046, 40.9440006417609], [-73.8977490808032, 40.9439358587755], [-73.8974007037613, 40.9438965285643]]]}}, {"type": "Feature", "properties": {"zone_id": "02021DFCBF0UHIZEXR2WP2", "tract_id": "36119000404", "city": "YONKERS, NY", "zone_code": "CM", "zone_category": "Commercial", "ev_permitted": true}, "geometry": {"type": "Polygon", "coordinates": [[[-73.8973872049159, 40.9439630683273], [-73.8973463209103, 40.9441645449669], [-73.8976957351695, 40.9442045239353], [-73.8977362162046, 40.9440006417609], [-73.8973872049159, 40.9439630683273]]]}}, {"type": "Feature", "properties": {"zone_id": "0203D30I7IFRHQLD8DO41L", "tract_id": "36119000404", "city": "YONKERS, NY", "zone_code": "CM", "zone_category": "Commercial", "ev_permitted": true}, "geometry": {"type": "Polygon", "coordinates": [[[-73.8978311317777, 40.9435226359456], [-73.8978043876422, 40.9436573169412], [-73.8981715877011, 40.9436998507367], [-73.8981986888505, 40.9435628733012], [-73.8978311317777, 40.9435226359456]]]}}, {"type": "Feature", "properties": {"zone_id": "02005OWWU6U31F3GD5WCG5", "tract_id": "36119000404", "city": "YONKERS, NY", "zone_code": "CM", "zone_category": "Commercial", "ev_permitted": true}, "geometry": {"type": "Polygon", "coordinates": [[[-73.8977907385494, 40.9437260614001], [-73.8977706014486, 40.9438274756196], [-73.8981380288059, 40.9438694694098], [-73.89815829742, 40.943767042972], [-73.8977907385494, 40.9437260614001]]]}}, {"type": "Feature", "properties": {"zone_id": "0200L8010WGR7PA3KERBY1", "tract_id": "36119000404", "city": "YONKERS, NY", "zone_code": "CM", "zone_category": "Commercial", "ev_permitted": true}, "geometry": {"type": "Polygon", "coordinates": [[[-73.8978043876422, 40.9436573169412], [-73.8977907385494, 40.9437260614001], [-73.89815829742, 40.943767042972], [-73.8981715877011, 40.9436998507367], [-73.8978043876422, 40.9436573169412]]]}}, {"type": "Feature", "properties": {"zone_id": "0206UKKLNQL0ST00IB8ZHW", "tract_id": "36119000404", "city": "YONKERS, NY", "zone_code": "CM", "zone_category": "Commercial", "ev_permitted": true}, "geometry": {"type": "Polygon", "coordinates": [[[-73.8974579735695, 40.9436171913407], [-73.8974376857327, 40.9437161403486], [-73.8977845290126, 40.9437573474818], [-73.8978043876422, 40.9436573169412], [-73.8974579735695, 40.9436171913407]]]}}, {"type": "Feature", "properties": {"zone_id": "02015SVUJH8XA02RETZQFE", "tract_id": "36119000404", "city": "YONKERS, NY", "zone_code": "CM", "zone_category": "Commercial", "ev_permitted": true}, "geometry": {"type": "Polygon", "coordinates": [[[-73.8974376857327, 40.9437161403486], [-73.8974162544458, 40.9438206922566], [-73.897763997909, 40.943860736109], [-73.8977845290126, 40.9437573474818], [-73.8974376857327, 40.9437161403486]]]}}, {"type": "Feature", "properties": {"zone_id": "020183DYLXYFDQYLV0X1KE", "tract_id": "36119000404", "city": "YONKERS, NY", "zone_code": "M", "zone_category": "Residential", "ev_permitted": false}, "geometry": {"type": "Polygon", "coordinates": [[[-73.896433595165, 40.9437105683785], [-73.8963866268887, 40.9439413825318], [-73.8971884684084, 40.9440372867536], [-73.8972358345143, 40.943801391008], [-73.896433595165, 40.9437105683785]]]}}, {"type": "Feature", "properties": {"zone_id": "0201OZ53F0F88ZLYBT02T3", "tract_id": "36119000404", "city": "YONKERS, NY", "zone_code": "M", "zone_category": "Residential", "ev_permitted": false}, "geometry": {"type": "Polygon", "coordinates": [[[-73.896549708472, 40.9428942173136], [-73.8963951930925, 40.9437062192159], [-73.8972358345143, 40.943801391008], [-73.8973983296044, 40.9429920694133], [-73.896549708472, 40.9428942173136]]]}}, {"type": "Feature", "properties": {"zone_id": "0201CP0O6Y2WAJD1XV3ZTI", "tract_id": "36119000404", "city": "YONKERS, NY", "zone_code": "CM", "zone_category": "Commercial", "ev_permitted": true}, "geometry": {"type": "Polygon", "coordinates": [[[-73.8978709645641, 40.9433220354533], [-73.8978580172341, 40.9433872365449], [-73.8982251478927, 40.943429140739], [-73.8982377100885, 40.943365647462], [-73.8978709645641, 40.9433220354533]]]}}, {"type": "Feature", "properties": {"zone_id": "0204ZWQVOAF6NWGWJY12IG", "tract_id": "36119000404", "city": "YONKERS, NY", "zone_code": "CM", "zone_category": "Commercial", "ev_permitted": true}, "geometry": {"type": "Polygon", "coordinates": [[[-73.8978580172341, 40.9433872365449], [-73.8978445386412, 40.9434550935452], [-73.8982117206511, 40.9434970036785], [-73.8982251478927, 40.943429140739], [-73.8978580172341, 40.9433872365449]]]}}, {"type": "Feature", "properties": {"zone_id": "0200AZBVAQWFQ0GZ6QVMBK", "tract_id": "36119000404", "city": "YONKERS, NY", "zone_code": "CM", "zone_category": "Commercial", "ev_permitted": true}, "geometry": {"type": "Polygon", "coordinates": [[[-73.8978445386412, 40.9434550935452], [-73.8978311317777, 40.9435226359456], [-73.8981986888505, 40.9435628733012], [-73.8982117206511, 40.9434970036785], [-73.8978445386412, 40.9434550935452]]]}}, {"type": "Feature", "properties": {"zone_id": "0200Q401GXE6VVBOPHXTAL", "tract_id": "36119000404", "city": "YONKERS, NY", "zone_code": "CM", "zone_category": "Commercial", "ev_permitted": true}, "geometry": {"type": "Polygon", "coordinates": [[[-73.8974992850405, 40.9434156844978], [-73.8974795012183, 40.9435121944421], [-73.8978255632081, 40.9435506708332], [-73.8978445386412, 40.9434550935452], [-73.8974992850405, 40.9434156844978]]]}}, {"type": "Feature", "properties": {"zone_id": "02006VGW8XQX1P936CCE15", "tract_id": "36119000404", "city": "YONKERS, NY", "zone_code": "CM", "zone_category": "Commercial", "ev_permitted": true}, "geometry": {"type": "Polygon", "coordinates": [[[-73.8975268724897, 40.9432811152263], [-73.8974992850405, 40.9434156844978], [-73.8978445386412, 40.9434550935452], [-73.8978709645641, 40.9433220354533], [-73.8975268724897, 40.9432811152263]]]}}, {"type": "Feature", "properties": {"zone_id": "0205Z3CA352JG1BZZ3GY9T", "tract_id": "36119000404", "city": "YONKERS, NY", "zone_code": "CM", "zone_category": "Commercial", "ev_permitted": true}, "geometry": {"type": "Polygon", "coordinates": [[[-73.8974795012183, 40.9435121944421], [-73.8974579735695, 40.9436171913407], [-73.8978043876422, 40.9436573169412], [-73.8978255632081, 40.9435506708332], [-73.8974795012183, 40.9435121944421]]]}}, {"type": "Feature", "properties": {"zone_id": "0200D29VHL42820785RNPG", "tract_id": "36119000404", "city": "YONKERS, NY", "zone_code": "CM", "zone_category": "Commercial", "ev_permitted": true}, "geometry": {"type": "Polygon", "coordinates": [[[-73.8979256235721, 40.9430467383556], [-73.8979114666166, 40.9431180353786], [-73.8982789901392, 40.9431570146239], [-73.8982931825814, 40.9430852746961], [-73.8979256235721, 40.9430467383556]]]}}, {"type": "Feature", "properties": {"zone_id": "02072VG3TMYIQFJUG78H0O", "tract_id": "36119000404", "city": "YONKERS, NY", "zone_code": "CM", "zone_category": "Commercial", "ev_permitted": true}, "geometry": {"type": "Polygon", "coordinates": [[[-73.8979114666166, 40.9431180353786], [-73.8978985124882, 40.9431832931633], [-73.8982652740639, 40.9432263233138], [-73.8982789901392, 40.9431570146239], [-73.8979114666166, 40.9431180353786]]]}}, {"type": "Feature", "properties": {"zone_id": "0200XFO7Y8D424RXKLIURC", "tract_id": "36119000404", "city": "YONKERS, NY", "zone_code": "CM", "zone_category": "Commercial", "ev_permitted": true}, "geometry": {"type": "Polygon", "coordinates": [[[-73.8978985124882, 40.9431832931633], [-73.8978863693057, 40.943244432092], [-73.898253580981, 40.9432854181434], [-73.8982652740639, 40.9432263233138], [-73.8978985124882, 40.9431832931633]]]}}, {"type": "Feature", "properties": {"zone_id": "0201MI2H5LGF332RUYDHTD", "tract_id": "36119000404", "city": "YONKERS, NY", "zone_code": "CM", "zone_category": "Commercial", "ev_permitted": true}, "geometry": {"type": "Polygon", "coordinates": [[[-73.8978863693057, 40.943244432092], [-73.8978709645641, 40.9433220354533], [-73.8982377100885, 40.943365647462], [-73.898253580981, 40.9432854181434], [-73.8978863693057, 40.943244432092]]]}}, {"type": "Feature", "properties": {"zone_id": "0201C5A062ZNV21GDPCU6M", "tract_id": "36119000404", "city": "YONKERS, NY", "zone_code": "CM", "zone_category": "Commercial", "ev_permitted": true}, "geometry": {"type": "Polygon", "coordinates": [[[-73.8975494937613, 40.9431707779606], [-73.8975268724897, 40.9432811152263], [-73.8978709645641, 40.9433220354533], [-73.8978922867338, 40.9432146322467], [-73.8975494937613, 40.9431707779606]]]}}, {"type": "Feature", "properties": {"zone_id": "0206H29TC5ZHVYWW2RH1M5", "tract_id": "36119000404", "city": "YONKERS, NY", "zone_code": "CM", "zone_category": "Commercial", "ev_permitted": true}, "geometry": {"type": "Polygon", "coordinates": [[[-73.8975823040011, 40.9430107404947], [-73.8975494937613, 40.9431707779606], [-73.8978922867338, 40.9432146322467], [-73.8979256235721, 40.9430467383556], [-73.8975823040011, 40.9430107404947]]]}}, {"type": "Feature", "properties": {"zone_id": "0203BYE6NTDPA5BI0TT5JU", "tract_id": "36119000404", "city": "YONKERS, NY", "zone_code": "M", "zone_category": "Residential", "ev_permitted": false}, "geometry": {"type": "Polygon", "coordinates": [[[-73.8963866268887, 40.9439413825318], [-73.8963211763359, 40.9442630347395], [-73.8956763850926, 40.9441786251705], [-73.8956883634353, 40.9446000877557], [-73.8970455368438, 40.9447491564019], [-73.8971884684084, 40.9440372867536], [-73.8963866268887, 40.9439413825318]]]}}, {"type": "Feature", "properties": {"zone_id": "0200RVQRPV7FZLIDDDCNIU", "tract_id": "36119000404", "city": "YONKERS, NY", "zone_code": "M", "zone_category": "Residential", "ev_permitted": false}, "geometry": {"type": "Polygon", "coordinates": [[[-73.8960906165126, 40.943537092397], [-73.8960646407526, 40.9436687941533], [-73.8963951930925, 40.9437062192159], [-73.8964209192689, 40.9435708460005], [-73.8960906165126, 40.943537092397]]]}}, {"type": "Feature", "properties": {"zone_id": "0206C14XB6M20ZGS1C2R5F", "tract_id": "36119000404", "city": "YONKERS, NY", "zone_code": "M", "zone_category": "Residential", "ev_permitted": false}, "geometry": {"type": "Polygon", "coordinates": [[[-73.8956606820502, 40.9436259069637], [-73.8956763850926, 40.9441786251705], [-73.8963211763359, 40.9442630347395], [-73.896433595165, 40.9437105683785], [-73.8959166263587, 40.9436524323862], [-73.8956606820502, 40.9436259069637]]]}}, {"type": "Feature", "properties": {"zone_id": "0206BSV6OHRBPUUYE7ACOS", "tract_id": "36119000404", "city": "YONKERS, NY", "zone_code": "M", "zone_category": "Residential", "ev_permitted": false}, "geometry": {"type": "Polygon", "coordinates": [[[-73.8944461666496, 40.9440369851879], [-73.8942754910167, 40.9449418213037], [-73.8946132184768, 40.9450563205126], [-73.8946504158846, 40.9451402874911], [-73.8953932457337, 40.9452263610074], [-73.8954615597916, 40.9452352561012], [-73.8954291541825, 40.944152163774], [-73.8944461666496, 40.9440369851879]]]}}, {"type": "Feature", "properties": {"zone_id": "020572GCAOJATQCQJ6GHJN", "tract_id": "36119000404", "city": "YONKERS, NY", "zone_code": "M", "zone_category": "Residential", "ev_permitted": false}, "geometry": {"type": "Polygon", "coordinates": [[[-73.8945473750508, 40.943500421468], [-73.8944461666496, 40.9440369851879], [-73.8954291541825, 40.944152163774], [-73.8954124660591, 40.9435943789594], [-73.8945473750508, 40.943500421468]]]}}, {"type": "Feature", "properties": {"zone_id": "0200JEHNEGR3UHZ2EXVBF7", "tract_id": "36119000404", "city": "YONKERS, NY", "zone_code": "M", "zone_category": "Residential", "ev_permitted": false}, "geometry": {"type": "Polygon", "coordinates": [[[-73.8961173154135, 40.943401695231], [-73.8960906165126, 40.943537092397], [-73.8964209192689, 40.9435708460005], [-73.8964463587076, 40.9434369905968], [-73.8961173154135, 40.943401695231]]]}}, {"type": "Feature", "properties": {"zone_id": "020103QZRM8U1I1R1HMB8P", "tract_id": "36119000404", "city": "YONKERS, NY", "zone_code": "M", "zone_category": "Residential", "ev_permitted": false}, "geometry": {"type": "Polygon", "coordinates": [[[-73.8961441294973, 40.9432657235415], [-73.8961173154135, 40.943401695231], [-73.8964463587076, 40.9434369905968], [-73.8964723158382, 40.9433004332085], [-73.8961441294973, 40.9432657235415]]]}}, {"type": "Feature", "properties": {"zone_id": "020590BNN57POQAYRDTYGJ", "tract_id": "36119000404", "city": "YONKERS, NY", "zone_code": "M", "zone_category": "Residential", "ev_permitted": false}, "geometry": {"type": "Polygon", "coordinates": [[[-73.896170984759, 40.9431295549594], [-73.8961441294973, 40.9432657235415], [-73.8964723158382, 40.9433004332085], [-73.8964982881704, 40.9431637408351], [-73.896170984759, 40.9431295549594]]]}}, {"type": "Feature", "properties": {"zone_id": "02054M16Y1DLLE35ARSHTC", "tract_id": "36119000404", "city": "YONKERS, NY", "zone_code": "M", "zone_category": "Residential", "ev_permitted": false}, "geometry": {"type": "Polygon", "coordinates": [[[-73.895656627647, 40.9434832745997], [-73.8956606820502, 40.9436259069637], [-73.8959166263587, 40.9436524323862], [-73.8959444916287, 40.943516004198], [-73.895656627647, 40.9434832745997]]]}}, {"type": "Feature", "properties": {"zone_id": "02007JZX67WEV4OOJK3GA6", "tract_id": "36119000404", "city": "YONKERS, NY", "zone_code": "M", "zone_category": "Residential", "ev_permitted": false}, "geometry": {"type": "Polygon", "coordinates": [[[-73.8956528818612, 40.9433513549045], [-73.895656627647, 40.9434832745997], [-73.8959444916287, 40.943516004198], [-73.89597093552, 40.9433865202361], [-73.8956528818612, 40.9433513549045]]]}}, {"type": "Feature", "properties": {"zone_id": "0204EW00K721A94PQPU331", "tract_id": "36119000404", "city": "YONKERS, NY", "zone_code": "M", "zone_category": "Residential", "ev_permitted": false}, "geometry": {"type": "Polygon", "coordinates": [[[-73.8956427624816, 40.9429953132644], [-73.8956489187305, 40.9432118735365], [-73.8959989326151, 40.9432494384023], [-73.8960414718352, 40.943041158046], [-73.8956427624816, 40.9429953132644]]]}}, {"type": "Feature", "properties": {"zone_id": "0201B11F141GCEGQ19N4MA", "tract_id": "36119000404", "city": "YONKERS, NY", "zone_code": "M", "zone_category": "Residential", "ev_permitted": false}, "geometry": {"type": "Polygon", "coordinates": [[[-73.8956489187305, 40.9432118735365], [-73.8956528818612, 40.9433513549045], [-73.89597093552, 40.9433865202361], [-73.8959989326151, 40.9432494384023], [-73.8956489187305, 40.9432118735365]]]}}, {"type": "Feature", "properties": {"zone_id": "02067E7I1LJEZGBINDSQUY", "tract_id": "36119000404", "city": "YONKERS, NY", "zone_code": "M", "zone_category": "Residential", "ev_permitted": false}, "geometry": {"type": "Polygon", "coordinates": [[[-73.896197479538, 40.942995194443], [-73.896170984759, 40.9431295549594], [-73.8964982881704, 40.9431637408351], [-73.8965230745908, 40.9430333400618], [-73.896197479538, 40.942995194443]]]}}, {"type": "Feature", "properties": {"zone_id": "0206SOR2KX9OQBVAE6SU6W", "tract_id": "36119000404", "city": "YONKERS, NY", "zone_code": "M", "zone_category": "Residential", "ev_permitted": false}, "geometry": {"type": "Polygon", "coordinates": [[[-73.8962257507154, 40.9428565243385], [-73.896197479538, 40.942995194443], [-73.8965230745908, 40.9430333400618], [-73.896549708472, 40.9428942173136], [-73.8962257507154, 40.9428565243385]]]}}, {"type": "Feature", "properties": {"zone_id": "0201IYG60POXMSG8AOQRKN", "tract_id": "36119000404", "city": "YONKERS, NY", "zone_code": "M", "zone_category": "Residential", "ev_permitted": false}, "geometry": {"type": "Polygon", "coordinates": [[[-73.8956368251704, 40.9427880036865], [-73.8956427624816, 40.9429953132644], [-73.8960414718352, 40.943041158046], [-73.8960826314463, 40.9428398736505], [-73.8956368251704, 40.9427880036865]]]}}, {"type": "Feature", "properties": {"zone_id": "0206D89JN1ZF0XEJU2WBI7", "tract_id": "36119000404", "city": "YONKERS, NY", "zone_code": "M", "zone_category": "Residential", "ev_permitted": false}, "geometry": {"type": "Polygon", "coordinates": [[[-73.8946621887738, 40.9428993865375], [-73.8946467621425, 40.9429735220375], [-73.8945988072141, 40.9432277587525], [-73.8954042358906, 40.9433192426448], [-73.8953984167253, 40.9429779136592], [-73.8946621887738, 40.9428993865375]]]}}, {"type": "Feature", "properties": {"zone_id": "02023MY1JDXC8CGJILAW3F", "tract_id": "36119000404", "city": "YONKERS, NY", "zone_code": "M", "zone_category": "Residential", "ev_permitted": false}, "geometry": {"type": "Polygon", "coordinates": [[[-73.8945988072141, 40.9432277587525], [-73.8945473750508, 40.943500421468], [-73.8954124660591, 40.9435943789594], [-73.8954042358906, 40.9433192426448], [-73.8945988072141, 40.9432277587525]]]}}, {"type": "Feature", "properties": {"zone_id": "0201XS6HN622KEJE47LG10", "tract_id": "36119000404", "city": "YONKERS, NY", "zone_code": "M", "zone_category": "Residential", "ev_permitted": false}, "geometry": {"type": "Polygon", "coordinates": [[[-73.894707871968, 40.9426799082332], [-73.8946621887738, 40.9428993865375], [-73.8953984167253, 40.9429779136592], [-73.895390026718, 40.9427592853287], [-73.894707871968, 40.9426799082332]]]}}, {"type": "Feature", "properties": {"zone_id": "02075VVEIFJJ3YJV58O2ZQ", "tract_id": "36119000404", "city": "YONKERS, NY", "zone_code": "M", "zone_category": "Residential", "ev_permitted": false}, "geometry": {"type": "Polygon", "coordinates": [[[-73.8936477321471, 40.9465816614325], [-73.8936150312661, 40.9466563840492], [-73.8939851590836, 40.946743792528], [-73.8940144682534, 40.9466688949418], [-73.8936477321471, 40.9465816614325]]]}}, {"type": "Feature", "properties": {"zone_id": "0206DSZP7VI1UJLOC00DV6", "tract_id": "36119000404", "city": "YONKERS, NY", "zone_code": "M", "zone_category": "Residential", "ev_permitted": false}, "geometry": {"type": "Polygon", "coordinates": [[[-73.8936823213756, 40.9465026312445], [-73.8936477321471, 40.9465816614325], [-73.8940144682534, 40.9466688949418], [-73.8940456760371, 40.9465891448896], [-73.8936823213756, 40.9465026312445]]]}}, {"type": "Feature", "properties": {"zone_id": "0201XYKV4X3PMR1L2M4JV1", "tract_id": "36119000404", "city": "YONKERS, NY", "zone_code": "M", "zone_category": "Residential", "ev_permitted": false}, "geometry": {"type": "Polygon", "coordinates": [[[-73.8937162091047, 40.9464251950498], [-73.8936823213756, 40.9465026312445], [-73.8940456760371, 40.9465891448896], [-73.8940758004737, 40.9465121580243], [-73.8937162091047, 40.9464251950498]]]}}, {"type": "Feature", "properties": {"zone_id": "02041N0SVUDFC3RV7JA33E", "tract_id": "36119000404", "city": "YONKERS, NY", "zone_code": "M", "zone_category": "Residential", "ev_permitted": false}, "geometry": {"type": "Polygon", "coordinates": [[[-73.8937479586665, 40.9463526468319], [-73.8937162091047, 40.9464251950498], [-73.8940758004737, 40.9465121580243], [-73.8941055873154, 40.9464360326876], [-73.8937479586665, 40.9463526468319]]]}}, {"type": "Feature", "properties": {"zone_id": "0206C2LC278TI1KD4FUUEL", "tract_id": "36119000404", "city": "YONKERS, NY", "zone_code": "M", "zone_category": "Residential", "ev_permitted": false}, "geometry": {"type": "Polygon", "coordinates": [[[-73.8938464824165, 40.9461275235025], [-73.8937479586665, 40.9463526468319], [-73.8941055873154, 40.9464360326876], [-73.8941937744265, 40.9462106711847], [-73.8938464824165, 40.9461275235025]]]}}]}