{"type": "FeatureCollection", "features": [{"type": "Feature", "properties": {"zone_id": "02000DN2IIPDDF2R0IFOS2", "tract_id": "22071004800", "city": "", "zone_code": "OS-N", "zone_category": "Other", "ev_permitted": false}, "geometry": {"type": "Polygon", "coordinates": [[[-90.0746469179748, 29.9610894146724], [-90.074125466969, 29.9616776680706], [-90.0747647271103, 29.9621082424326], [-90.0752854685823, 29.9615193545251], [-90.0746469179748, 29.9610894146724]]]}}, {"type": "Feature", "properties": {"zone_id": "0201SSXT1ZU9P2X0926BZ7", "tract_id": "22071004800", "city": "", "zone_code": "EC OVERLAY", "zone_category": "Other", "ev_permitted": false}, "geometry": {"type": "Polygon", "coordinates": [[[-90.0760634500603, 29.9594876363795], [-90.0754866406593, 29.9601403788829], [-90.0761287539596, 29.9605722245083], [-90.0767055616677, 29.9599194783276], [-90.0760634500603, 29.9594876363795]]]}}, {"type": "Feature", "properties": {"zone_id": "0202TBLSOB9W7G00DZ6EOW", "tract_id": "22071004800", "city": "", "zone_code": "IZD - NON-COMMERCIAL STR SPECIAL EXCEPTION", "zone_category": "Commercial", "ev_permitted": true}, "geometry": {"type": "Polygon", "coordinates": [[[-90.075381697968, 29.9602644009107], [-90.0747466248414, 29.9609822211085], [-90.0753865943307, 29.9614134245362], [-90.0760216655979, 29.9606956012933], [-90.075381697968, 29.9602644009107]]]}}, {"type": "Feature", "properties": {"zone_id": "0203423UOJZAI32M6Q36S6", "tract_id": "22071004800", "city": "", "zone_code": "IZD - BED AND BREAKFAST", "zone_category": "Other", "ev_permitted": false}, "geometry": {"type": "Polygon", "coordinates": [[[-90.0746623023559, 29.9597648590233], [-90.0745984035847, 29.9598364034187], [-90.0744053588585, 29.9599428744714], [-90.07397330077, 29.9604266276527], [-90.0746105678479, 29.9608610760548], [-90.0752410166654, 29.9601551884484], [-90.0746623023559, 29.9597648590233]]]}}, {"type": "Feature", "properties": {"zone_id": "02058HKM6IUT7CDCN9163C", "tract_id": "22071004800", "city": "NEW ORLEANS, LA", "zone_code": "IZD - BED AND BREAKFAST", "zone_category": "Other", "ev_permitted": false}, "geometry": {"type": "Polygon", "coordinates": [[[-90.0736836971865, 29.9607806730073], [-90.0735631019218, 29.960917138857], [-90.0737732007238, 29.9610587543027], [-90.0735710156856, 29.9612876022312], [-90.0739981494989, 29.961575506775], [-90.0745233447737, 29.9609813061199], [-90.0743137138322, 29.9608402331802], [-90.0741123612002, 29.9610677076837], [-90.0736836971865, 29.9607806730073]]]}}, {"type": "Feature", "properties": {"zone_id": "0204KUGSU0J2VNHUQZO7MS", "tract_id": "22071004800", "city": "", "zone_code": "IZD - BED AND BREAKFAST", "zone_category": "Other", "ev_permitted": false}, "geometry": {"type": "Polygon", "coordinates": [[[-90.0741697522215, 29.9607433523111], [-90.0739685567609, 29.9609714163548], [-90.0741123612002, 29.9610677076837], [-90.0743137138322, 29.9608402331802], [-90.0741697522215, 29.9607433523111]]]}}, {"type": "Feature", "properties": {"zone_id": "0200TZFN1NCFLNXTVN1OD1", "tract_id": "22071004800", "city": "NEW ORLEANS, LA", "zone_code": "IZD - NON-COMMERCIAL STR SPECIAL EXCEPTION", "zone_category": "Commercial", "ev_permitted": true}, "geometry": {"type": "Polygon", "coordinates": [[[-90.0735631019218, 29.960917138857], [-90.0734717162638, 29.9610207174867], [-90.0735415583962, 29.9610677948834], [-90.0734311410694, 29.9611933202049], [-90.0735710156856, 29.9612876022312], [-90.0737732007238, 29.9610587543027], [-90.0735631019218, 29.960917138857]]]}}, {"type": "Feature", "properties": {"zone_id": "02046M8GXAJ7MUNQJWGJQM", "tract_id": "22071004800", "city": "NEW ORLEANS, LA", "zone_code": "IZD - NON-COMMERCIAL STR SPECIAL EXCEPTION", "zone_category": "Commercial", "ev_permitted": true}, "geometry": {"type": "Polygon", "coordinates": [[[-90.0734717162638, 29.9610207174867], [-90.0733611119049, 29.9611461173548], [-90.0734311410694, 29.9611933202049], [-90.0735415583962, 29.9610677948834], [-90.0734717162638, 29.9610207174867]]]}}, {"type": "Feature", "properties": {"zone_id": "0204TK90I190MC4WRZBP8M", "tract_id": "22071004800", "city": "NEW ORLEANS, LA", "zone_code": "IZD - BED AND BREAKFAST", "zone_category": "Other", "ev_permitted": false}, "geometry": {"type": "Polygon", "coordinates": [[[-90.0732298807334, 29.9601063496578], [-90.0726952637535, 29.9607048930495], [-90.0732060487891, 29.961046251934], [-90.0737368586769, 29.960451981809], [-90.0732298807334, 29.9601063496578]]]}}, {"type": "Feature", "properties": {"zone_id": "0206U2YW73F8X0DMZXW0Z2", "tract_id": "22071004800", "city": "NEW ORLEANS, LA", "zone_code": "IZD - NON-COMMERCIAL STR SPECIAL EXCEPTION", "zone_category": "Commercial", "ev_permitted": true}, "geometry": {"type": "Polygon", "coordinates": [[[-90.0738285269398, 29.9592025177641], [-90.0732037810936, 29.9599020087396], [-90.0738407877143, 29.9603362888525], [-90.0742716542291, 29.9598538708195], [-90.0743951490389, 29.9597857595195], [-90.073826876964, 29.9593989718552], [-90.0739367784887, 29.95927553262], [-90.0738285269398, 29.9592025177641]]]}}, {"type": "Feature", "properties": {"zone_id": "020451SGJ1ODZPDRVUT1T5", "tract_id": "22071004800", "city": "NEW ORLEANS, LA", "zone_code": "IZD - BED AND BREAKFAST", "zone_category": "Other", "ev_permitted": false}, "geometry": {"type": "Polygon", "coordinates": [[[-90.0740985384852, 29.9606954284633], [-90.0738975803893, 29.9609238907497], [-90.0739685567609, 29.9609714163548], [-90.0741697522215, 29.9607433523111], [-90.0740985384852, 29.9606954284633]]]}}, {"type": "Feature", "properties": {"zone_id": "0202LC6KL8KDBW3CBLJDDO", "tract_id": "22071004800", "city": "NEW ORLEANS, LA", "zone_code": "IZD - NON-COMMERCIAL STR SPECIAL EXCEPTION", "zone_category": "Commercial", "ev_permitted": true}, "geometry": {"type": "Polygon", "coordinates": [[[-90.0738854227209, 29.9605520081672], [-90.0736836971865, 29.9607806730073], [-90.0738975803893, 29.9609238907497], [-90.0740985384852, 29.9606954284633], [-90.0738854227209, 29.9605520081672]]]}}, {"type": "Feature", "properties": {"zone_id": "0207IF2GD08SFWMZG1FNSR", "tract_id": "22071004800", "city": "NEW ORLEANS, LA", "zone_code": "IZD - COMMERCIAL SHORT TERM RENTAL", "zone_category": "Other", "ev_permitted": false}, "geometry": {"type": "Polygon", "coordinates": [[[-90.0723301888116, 29.959492975555], [-90.0717888165774, 29.9600991023907], [-90.0726952637535, 29.9607048930495], [-90.0732298807334, 29.9601063496578], [-90.0723301888116, 29.959492975555]]]}}, {"type": "Feature", "properties": {"zone_id": "0200UZASEUWDRL9JV3NTHE", "tract_id": "22071004800", "city": "NEW ORLEANS, LA", "zone_code": "IZD - NON-COMMERCIAL STR SPECIAL EXCEPTION", "zone_category": "Commercial", "ev_permitted": true}, "geometry": {"type": "Polygon", "coordinates": [[[-90.0752844841845, 29.958958525652], [-90.0748988268534, 29.9593903376432], [-90.0748297071124, 29.9595769915761], [-90.074766481188, 29.959647784617], [-90.0753454448852, 29.9600382819868], [-90.0759230861959, 29.9593914946168], [-90.0752844841845, 29.958958525652]]]}}, {"type": "Feature", "properties": {"zone_id": "0202D7ZJ2FH1ZJT3UD4SMC", "tract_id": "22071004800", "city": "", "zone_code": "IZD - NON-COMMERCIAL STR SPECIAL EXCEPTION", "zone_category": "Commercial", "ev_permitted": true}, "geometry": {"type": "Polygon", "coordinates": [[[-90.0745133806641, 29.9584357125816], [-90.0739329623637, 29.9590855863059], [-90.074641659837, 29.9595635948702], [-90.0746879786682, 29.9595117331037], [-90.0747664319393, 29.9592998763792], [-90.075151701691, 29.9588684986429], [-90.0745133806641, 29.9584357125816]]]}}, {"type": "Feature", "properties": {"zone_id": "02021877H71I8OPDT4YOLR", "tract_id": "22071004800", "city": "", "zone_code": "IZD - COMMERCIAL SHORT TERM RENTAL", "zone_category": "Other", "ev_permitted": false}, "geometry": {"type": "Polygon", "coordinates": [[[-90.0739367784887, 29.95927553262], [-90.073826876964, 29.9593989718552], [-90.0743951490389, 29.9597857595195], [-90.0744906576496, 29.9597330827411], [-90.074537456936, 29.959680683385], [-90.0739367784887, 29.95927553262]]]}}, {"type": "Feature", "properties": {"zone_id": "0205A526QI1K6JB100B7CG", "tract_id": "22071004800", "city": "NEW ORLEANS, LA", "zone_code": "IZD - NON-COMMERCIAL STR SPECIAL EXCEPTION", "zone_category": "Commercial", "ev_permitted": true}, "geometry": {"type": "Polygon", "coordinates": [[[-90.0729184955544, 29.9587849546243], [-90.0728857271463, 29.9588734379606], [-90.0724351129246, 29.9593779590664], [-90.0730677941089, 29.9598092991059], [-90.0736965041974, 29.959113449304], [-90.0735874290371, 29.959039878709], [-90.0734772425051, 29.9591618325702], [-90.0729184955544, 29.9587849546243]]]}}, {"type": "Feature", "properties": {"zone_id": "0203B8NLBNZGK4J8PFINEB", "tract_id": "22071004800", "city": "NEW ORLEANS, LA", "zone_code": "IZD - NON-COMMERCIAL STR SPECIAL EXCEPTION", "zone_category": "Commercial", "ev_permitted": true}, "geometry": {"type": "Polygon", "coordinates": [[[-90.0729876326039, 29.9586353129796], [-90.0729641933966, 29.9586615562197], [-90.0729184955544, 29.9587849546243], [-90.0734772425051, 29.9591618325702], [-90.0735874290371, 29.959039878709], [-90.0729876326039, 29.9586353129796]]]}}, {"type": "Feature", "properties": {"zone_id": "0200J1V55FQ56F7BG9DQ9X", "tract_id": "22071004800", "city": "NEW ORLEANS, LA", "zone_code": "IZD - NON-COMMERCIAL STR SPECIAL EXCEPTION", "zone_category": "Commercial", "ev_permitted": true}, "geometry": {"type": "Polygon", "coordinates": [[[-90.0717165168516, 29.9584109770861], [-90.0714516893631, 29.9587074837621], [-90.0723026078002, 29.95928762146], [-90.0725708773491, 29.9589872601906], [-90.0717165168516, 29.9584109770861]]]}}, {"type": "Feature", "properties": {"zone_id": "0205B6HB6EVXRB0DZGZSUL", "tract_id": "22071004800", "city": "", "zone_code": "IZD - NON-COMMERCIAL STR SPECIAL EXCEPTION", "zone_category": "Commercial", "ev_permitted": true}, "geometry": {"type": "Polygon", "coordinates": [[[-90.0713471503697, 29.9588367448345], [-90.0708017412795, 29.9594453849837], [-90.0716565687969, 29.9600286977155], [-90.0722036092847, 29.9594044413466], [-90.0713471503697, 29.9588367448345]]]}}, {"type": "Feature", "properties": {"zone_id": "0202D82KL8QE731FA1DN53", "tract_id": "22071004800", "city": "NEW ORLEANS, LA", "zone_code": "IZD - NON-COMMERCIAL STR SPECIAL EXCEPTION", "zone_category": "Commercial", "ev_permitted": true}, "geometry": {"type": "Polygon", "coordinates": [[[-90.0737421105744, 29.9579127768957], [-90.0733311891721, 29.9583728673645], [-90.0731147003085, 29.958491245198], [-90.0730910562087, 29.9585177192729], [-90.0737999202787, 29.9589958495659], [-90.074380599562, 29.9583456847878], [-90.0737421105744, 29.9579127768957]]]}}, {"type": "Feature", "properties": {"zone_id": "02078TTMTNO4I3TBNJDIEQ", "tract_id": "22071004800", "city": "NEW ORLEANS, LA", "zone_code": "IZD - NON-COMMERCIAL STR SPECIAL EXCEPTION", "zone_category": "Commercial", "ev_permitted": true}, "geometry": {"type": "Polygon", "coordinates": [[[-90.0732090484472, 29.9575513439403], [-90.0726260676222, 29.9582040782095], [-90.0729662212571, 29.9584335160374], [-90.0730071362512, 29.9583877057583], [-90.0731979247095, 29.9582833813893], [-90.0736093308641, 29.9578227483171], [-90.0732090484472, 29.9575513439403]]]}}, {"type": "Feature", "properties": {"zone_id": "02072Y18LBOGEBTXNCXEHT", "tract_id": "22071004800", "city": "NEW ORLEANS, LA", "zone_code": "IZD - COMMERCIAL SHORT TERM RENTAL", "zone_category": "Other", "ev_permitted": false}, "geometry": {"type": "Polygon", "coordinates": [[[-90.0720693616079, 29.9580159223667], [-90.0717165168516, 29.9584109770861], [-90.0725708773491, 29.9589872601906], [-90.0727533200226, 29.9587829916662], [-90.0728224624068, 29.958596286659], [-90.0728628068368, 29.9585511160515], [-90.0720693616079, 29.9580159223667]]]}}, {"type": "Feature", "properties": {"zone_id": "02010848KFXFPX4K40J482", "tract_id": "22071004800", "city": "NEW ORLEANS, LA", "zone_code": "HU-MU", "zone_category": "Mixed Use", "ev_permitted": true}, "geometry": {"type": "Polygon", "coordinates": [[[-90.072546615652, 29.9579393117117], [-90.0724861609558, 29.9580081209701], [-90.0724172292085, 29.9580843455795], [-90.0724874756866, 29.9581312830976], [-90.0726156662305, 29.9579856070475], [-90.072546615652, 29.9579393117117]]]}}, {"type": "Feature", "properties": {"zone_id": "02034GBHZB7LC3YLWELV5Z", "tract_id": "22071004800", "city": "NEW ORLEANS, LA", "zone_code": "IZD - NON-COMMERCIAL STR SPECIAL EXCEPTION", "zone_category": "Commercial", "ev_permitted": true}, "geometry": {"type": "Polygon", "coordinates": [[[-90.0724073686291, 29.9579556097023], [-90.0723387531655, 29.9580318932401], [-90.0724172292085, 29.9580843455795], [-90.0724861609558, 29.9580081209701], [-90.0724073686291, 29.9579556097023]]]}}, {"type": "Feature", "properties": {"zone_id": "0200QQDS2EN5J9RHO538W5", "tract_id": "22071004800", "city": "NEW ORLEANS, LA", "zone_code": "HU-MU", "zone_category": "Mixed Use", "ev_permitted": true}, "geometry": {"type": "Polygon", "coordinates": [[[-90.0722469837742, 29.9578470478142], [-90.0721792399083, 29.957924539586], [-90.0723387531655, 29.9580318932401], [-90.0724073686291, 29.9579556097023], [-90.0722469837742, 29.9578470478142]]]}}, {"type": "Feature", "properties": {"zone_id": "0207L4CCF401ZX6IZNNASL", "tract_id": "22071004800", "city": "NEW ORLEANS, LA", "zone_code": "HU-MU", "zone_category": "Mixed Use", "ev_permitted": true}, "geometry": {"type": "Polygon", "coordinates": [[[-90.0723074395738, 29.957778238674], [-90.0722469837742, 29.9578470478142], [-90.0724861609558, 29.9580081209701], [-90.072546615652, 29.9579393117117], [-90.0723074395738, 29.957778238674]]]}}, {"type": "Feature", "properties": {"zone_id": "0201146X0A6JZK403VDRKT", "tract_id": "22071004800", "city": "NEW ORLEANS, LA", "zone_code": "EC OVERLAY", "zone_category": "Other", "ev_permitted": false}, "geometry": {"type": "MultiPolygon", "coordinates": [[[[-90.0727386343223, 29.9572872719435], [-90.0723074395738, 29.957778238674], [-90.0726156662305, 29.9579856070475], [-90.0730468692911, 29.9574940141631], [-90.0727386343223, 29.9572872719435]]], [[[-90.073531657602, 29.9571967548153], [-90.0732949769662, 29.9574595080343], [-90.0734584676297, 29.9575656028213], [-90.073718621578, 29.9577367431318], [-90.0739430189999, 29.9574763391985], [-90.073531657602, 29.9571967548153]]], [[[-90.0734529170044, 29.9564642592661], [-90.0732902595342, 29.9566393002015], [-90.0731876058038, 29.9567527151116], [-90.0728178144927, 29.9571567536517], [-90.0731538305488, 29.9573806406177], [-90.0737743462127, 29.9566776916528], [-90.0734529170044, 29.9564642592661]]]]}}]}