{"type": "FeatureCollection", "features": [{"type": "Feature", "properties": {"zone_id": "020333SFB2CVOEK63CFZWP", "tract_id": "17031030702", "city": "", "zone_code": "RM-6.5", "zone_category": "Residential", "ev_permitted": false}, "geometry": {"type": "MultiPolygon", "coordinates": [[[[-87.6523950269999, 41.9819657090001], [-87.652389876, 41.982034888], [-87.652384206, 41.98209067], [-87.65237059, 41.982188009], [-87.652184897, 41.9832328850001], [-87.652112481, 41.983663843], [-87.652111654, 41.983679425], [-87.652112425, 41.9836898030001], [-87.652115075, 41.983703539], [-87.652119565, 41.9837170120001], [-87.6521258989999, 41.983730113], [-87.652131756, 41.9837395320001], [-87.652141044, 41.9837515520001], [-87.652151593, 41.983762536], [-87.6525931799999, 41.9837555510001], [-87.652592225, 41.983727829], [-87.652592311, 41.9835955040001], [-87.652590575, 41.9835029050001], [-87.652586847, 41.983397122], [-87.652582022, 41.983304559], [-87.65256025, 41.983000428], [-87.652550506, 41.9828931820001], [-87.652537614, 41.982770714], [-87.652520838, 41.9826330750001], [-87.6524979979999, 41.982470758], [-87.6524728899999, 41.9823350460001], [-87.652449363, 41.9822164120001], [-87.652424439, 41.9820979340001], [-87.6523950269999, 41.9819657090001]]], [[[-87.652895303, 41.9816130820001], [-87.652929649, 41.9817517590001], [-87.652957208, 41.9818716240001], [-87.6529829259999, 41.9819916970001], [-87.6530169659999, 41.98215924], [-87.653038744, 41.9822761620001], [-87.653063373, 41.9824225740001], [-87.6530809559999, 41.9825399100001], [-87.653096696, 41.9826574000001], [-87.653112133, 41.982789762], [-87.6531239, 41.982907503], [-87.653133753, 41.9830253420001], [-87.653140821, 41.98312851], [-87.6531464889999, 41.983231726], [-87.653151672, 41.9833599660001], [-87.653158651, 41.9835681270001], [-87.653163446, 41.9837464980001], [-87.6534826069999, 41.983741448], [-87.6534910079999, 41.983733155], [-87.65350189, 41.9837197730001], [-87.653508921, 41.983708838], [-87.6535159909999, 41.9836941720001], [-87.653520788, 41.983678942], [-87.653522902, 41.983666935], [-87.653523546, 41.983654754], [-87.653522793, 41.9836426200001], [-87.653495689, 41.9834660080001], [-87.653479873, 41.9834037320001], [-87.6534641, 41.9833305330001], [-87.653453545, 41.983271689], [-87.653429161, 41.9831230840001], [-87.653404617, 41.982989296], [-87.6533808629999, 41.98287807], [-87.653351842, 41.9827642340001], [-87.653326433, 41.982677257], [-87.6532985599999, 41.9825936680001], [-87.653195608, 41.9823281340001], [-87.6530772849999, 41.9820417070001], [-87.652895303, 41.9816130820001]]], [[[-87.6510822129999, 41.978156158], [-87.651754225, 41.9796028850001], [-87.6519553269999, 41.980030582], [-87.6520621609999, 41.980262442], [-87.652152574, 41.9804614390001], [-87.6522150279999, 41.980612905], [-87.652259068, 41.9807254030001], [-87.6523115529999, 41.980866602], [-87.6523612389999, 41.981008387], [-87.652412532, 41.981164947], [-87.652447707, 41.9812878760001], [-87.652509493, 41.9815160100001], [-87.652557851, 41.98170658], [-87.652598905, 41.9818783900001], [-87.6526467909999, 41.982092612], [-87.6526851789999, 41.9822799940001], [-87.65271705, 41.9824507070001], [-87.652738875, 41.982604786], [-87.652759433, 41.9827742800001], [-87.652775075, 41.9829285960001], [-87.652787776, 41.983083005], [-87.652800913, 41.9832722130001], [-87.652808544, 41.983419128], [-87.6528127939999, 41.983579524], [-87.652812994, 41.983726559], [-87.652813827, 41.9837520300001], [-87.6529795869999, 41.9837494070001], [-87.652971985, 41.983482279], [-87.652964647, 41.9832801540001], [-87.65295796, 41.983148338], [-87.652950012, 41.9830312230001], [-87.652937445, 41.982884993], [-87.652920178, 41.982724245], [-87.65289945, 41.982563806], [-87.652875116, 41.9824036210001], [-87.6528499619999, 41.982258249], [-87.652821863, 41.982113188], [-87.652782249, 41.98192333], [-87.652755273, 41.9818041820001], [-87.6527338609999, 41.9817149770001], [-87.652708366, 41.9816154320001], [-87.6526343959999, 41.9813502330001], [-87.6525784089999, 41.9811576980001], [-87.652517878, 41.980956737], [-87.652432284, 41.9807402070001], [-87.652334509, 41.980500223], [-87.6522543139999, 41.9803086960001], [-87.6521526719999, 41.980072696], [-87.6517256239999, 41.9791602400001], [-87.651671777, 41.979050317], [-87.6516189989999, 41.9789505540001], [-87.6515629, 41.9788517590001], [-87.651509049, 41.978762911], [-87.6514583319999, 41.978683742], [-87.651411485, 41.9786139810001], [-87.651375188, 41.9785621190001], [-87.6510822129999, 41.978156158]]], [[[-87.6502186119999, 41.976800328], [-87.649962392, 41.9768664750001], [-87.6500455999999, 41.9791273110001], [-87.650088462, 41.979184317], [-87.650157827, 41.9792942230001], [-87.650205568, 41.9793902800001], [-87.650238338, 41.979496839], [-87.650286831, 41.979715292], [-87.650324498, 41.9798110690001], [-87.650362203, 41.979903279], [-87.650414337, 41.9800081430001], [-87.6505474699999, 41.9802289100001], [-87.6506003959999, 41.9803354250001], [-87.6506297169999, 41.9804276400001], [-87.650646163, 41.9804925010001], [-87.650663745, 41.980574984], [-87.6506746539999, 41.9806623710001], [-87.65067887, 41.9807634360001], [-87.650679178, 41.9808517480001], [-87.65068659, 41.9813904220001], [-87.6506954699999, 41.9817917870001], [-87.6507048189999, 41.9823902970001], [-87.6507037639999, 41.982606149], [-87.650691013, 41.9828150710001], [-87.650670528, 41.983004297], [-87.6506439779999, 41.9831552910001], [-87.6506175759999, 41.9832855930001], [-87.650589859, 41.9834149550001], [-87.650544532, 41.983588393], [-87.650509217, 41.983692187], [-87.6504691929999, 41.9837891500001], [-87.651984509, 41.9837651810001], [-87.6520754809999, 41.983222191], [-87.65225866, 41.982192394], [-87.6522689289999, 41.9821261000001], [-87.652276677, 41.9820616580001], [-87.652283128, 41.9819878220001], [-87.652288003, 41.9818893340001], [-87.652288745, 41.981798945], [-87.65228553, 41.9817003540001], [-87.652278842, 41.981610086], [-87.65226971, 41.981528199], [-87.6522562499999, 41.9814383840001], [-87.652239046, 41.9813478880001], [-87.6521973549999, 41.98120132], [-87.6521559, 41.981074237], [-87.652117157, 41.98096166], [-87.652076573, 41.980849456], [-87.6520341459999, 41.9807376260001], [-87.651989949, 41.9806261680001], [-87.651942833, 41.980512553], [-87.6518373229999, 41.9802807560001], [-87.651730486, 41.9800493340001], [-87.651546066, 41.97965752], [-87.6502186119999, 41.976800328]]], [[[-87.650583115, 41.9767062290001], [-87.65042712, 41.9767465200001], [-87.650828191, 41.9776087170001], [-87.6513203489999, 41.978290228], [-87.650964653, 41.9775241290001], [-87.650583115, 41.9767062290001]]], [[[-87.652284018, 41.976533789], [-87.6514138319999, 41.97654635], [-87.651349379, 41.976548382], [-87.6512786439999, 41.976553122], [-87.65122747, 41.976558251], [-87.651163906, 41.9765665990001], [-87.651119771, 41.976573747], [-87.6510634629999, 41.976584444], [-87.650989435, 41.976601402], [-87.650756884, 41.97666138], [-87.651138353, 41.9774791130001], [-87.651758305, 41.9788132940001], [-87.652327529, 41.9800301010001], [-87.6524305309999, 41.9802695120001], [-87.652510944, 41.980461534], [-87.652589586, 41.9806539300001], [-87.6526852919999, 41.980894998], [-87.653165037, 41.9820212060001], [-87.65328372, 41.9823085140001], [-87.6533871729999, 41.982575368], [-87.653408642, 41.982638611], [-87.6534259969999, 41.9826944770001], [-87.653453482, 41.9827936500001], [-87.653469495, 41.982858014], [-87.653482073, 41.982913411], [-87.653495849, 41.9829806710001], [-87.653515188, 41.9830850640001], [-87.653547268, 41.9832780620001], [-87.653558126, 41.9833359740001], [-87.653572589, 41.9834009320001], [-87.653583533, 41.983444026], [-87.653591702, 41.9834712420001], [-87.6535997349999, 41.9834906090001], [-87.6536112109999, 41.983511423], [-87.653626941, 41.9835331950001], [-87.653643883, 41.9835517920001], [-87.653667351, 41.983572402], [-87.6536915189999, 41.9835893950001], [-87.653717988, 41.983604315], [-87.653746395, 41.9836170520001], [-87.653776517, 41.983627438], [-87.653786199, 41.98363013], [-87.653851689, 41.983641988], [-87.6538977929999, 41.9836437980001], [-87.6541132149999, 41.9836403520001], [-87.6540905269999, 41.9829857830001], [-87.654058474, 41.981994334], [-87.6540261479999, 41.98133312], [-87.6539846759999, 41.9807435870001], [-87.653926072, 41.9803817740001], [-87.6538570879999, 41.9800415240001], [-87.653715698, 41.979447996], [-87.653605064, 41.979192734], [-87.6534555109999, 41.97894509], [-87.653284005, 41.978693913], [-87.653164327, 41.9785146670001], [-87.652924522, 41.97818449], [-87.652852164, 41.978072153], [-87.6527616549999, 41.977916679], [-87.652740971, 41.9778836260001], [-87.6526991099999, 41.9777462230001], [-87.6526635179999, 41.977648758], [-87.652598118, 41.97744958], [-87.652450271, 41.9770149550001], [-87.652284018, 41.976533789]]], [[[-87.6499377929999, 41.976198072], [-87.649955384, 41.9766760960001], [-87.650138869, 41.9766293280001], [-87.6499377929999, 41.976198072]]], [[[-87.649902942, 41.9752510640001], [-87.649917816, 41.975655304], [-87.6503474509999, 41.976575466], [-87.650503224, 41.97653523], [-87.649902942, 41.9752510640001]]], [[[-87.649884318, 41.9747451060001], [-87.6498864609999, 41.9748033180001], [-87.650104638, 41.9752694840001], [-87.650334927, 41.975758279], [-87.650676993, 41.9764903810001], [-87.651006534, 41.9764052940001], [-87.6510169429999, 41.976401679], [-87.651027008, 41.9763959210001], [-87.651036968, 41.9763861000001], [-87.651040563, 41.976380029], [-87.651042839, 41.976373567], [-87.651043264, 41.976361275], [-87.651041063, 41.976353853], [-87.651037672, 41.976347686], [-87.650315101, 41.9753420850001], [-87.649884318, 41.9747451060001]]], [[[-87.649695935, 41.969625852], [-87.649878702, 41.974592462], [-87.650396133, 41.9753096370001], [-87.650796992, 41.975867228], [-87.6508349539999, 41.975914489], [-87.650880104, 41.975963769], [-87.650921454, 41.9760037500001], [-87.6509738569999, 41.9760488480001], [-87.651021059, 41.9760850220001], [-87.651075383, 41.976122337], [-87.651137352, 41.976160081], [-87.651197248, 41.9761922700001], [-87.6512595249999, 41.9762218930001], [-87.651334952, 41.9762529660001], [-87.651401632, 41.9762765780001], [-87.651470035, 41.976297291], [-87.651539941, 41.97631505], [-87.651605111, 41.976328664], [-87.6516711899999, 41.9763397040001], [-87.651750082, 41.9763493930001], [-87.6518173979999, 41.9763547320001], [-87.651891141, 41.97635753], [-87.652058344, 41.9763558880001], [-87.6518737439999, 41.9758713750001], [-87.651695192, 41.975385579], [-87.65150565, 41.9748823200001], [-87.651318542, 41.9743785800001], [-87.6511306739999, 41.9738843310001], [-87.6509505499999, 41.973388427], [-87.6506571749999, 41.972533291], [-87.65036823, 41.971677248], [-87.650236731, 41.9712915630001], [-87.650107739, 41.9709054], [-87.649842943, 41.9701239770001], [-87.649695935, 41.969625852]]]]}}, {"type": "Feature", "properties": {"zone_id": "0205B61128BUUETIT6M9BQ", "tract_id": "17031030702", "city": "CHICAGO, IL", "zone_code": "B3-5", "zone_category": "Commercial", "ev_permitted": true}, "geometry": {"type": "Polygon", "coordinates": [[[-87.65464377, 41.9813234920001], [-87.6540261479999, 41.98133312], [-87.654058474, 41.981994334], [-87.6550007009999, 41.9819792690001], [-87.654984527, 41.981403222], [-87.6546461779999, 41.981408521], [-87.65464377, 41.9813234920001]]]}}, {"type": "Feature", "properties": {"zone_id": "0206R7VXSR3KP47ONM9199", "tract_id": "17031030702", "city": "CHICAGO, IL", "zone_code": "PD 69", "zone_category": "Other", "ev_permitted": false}, "geometry": {"type": "Polygon", "coordinates": [[[-87.654965504, 41.9807283110001], [-87.6539846759999, 41.9807435870001], [-87.6540261479999, 41.98133312], [-87.65464377, 41.9813234920001], [-87.6546461779999, 41.981408521], [-87.654984527, 41.981403222], [-87.654965504, 41.9807283110001]]]}}, {"type": "Feature", "properties": {"zone_id": "0203PYHMRJGD4TSCGJJRM0", "tract_id": "17031030702", "city": "CHICAGO, IL", "zone_code": "PD 69", "zone_category": "Other", "ev_permitted": false}, "geometry": {"type": "Polygon", "coordinates": [[[-87.654941107, 41.9798599580001], [-87.654176067, 41.9798719], [-87.654180717, 41.9800365240001], [-87.6538570879999, 41.9800415240001], [-87.653926072, 41.9803817740001], [-87.6539846759999, 41.9807435870001], [-87.654965504, 41.9807283110001], [-87.654941107, 41.9798599580001]]]}}, {"type": "Feature", "properties": {"zone_id": "020139815GL1Z6F3VUUREJ", "tract_id": "17031030702", "city": "CHICAGO, IL", "zone_code": "PD 372", "zone_category": "Other", "ev_permitted": false}, "geometry": {"type": "Polygon", "coordinates": [[[-87.654907707, 41.978668559], [-87.654517874, 41.9786746520001], [-87.65451904, 41.9787172480001], [-87.654348568, 41.978846151], [-87.6543504859999, 41.978914767], [-87.654323608, 41.9789315130001], [-87.6534555109999, 41.97894509], [-87.653605064, 41.979192734], [-87.653715698, 41.979447996], [-87.6538570879999, 41.9800415240001], [-87.654180717, 41.9800365240001], [-87.654176067, 41.9798719], [-87.654941107, 41.9798599580001], [-87.654907707, 41.978668559]]]}}]}