{"type": "FeatureCollection", "features": [{"type": "Feature", "properties": {"zone_id": "0203BF3FKGG0NJZSH0SGVV", "tract_id": "36061010000", "city": "NEW YORK, NY", "zone_code": "MID", "zone_category": "Other", "ev_permitted": false}, "geometry": {"type": "Polygon", "coordinates": [[[-73.9709657455832, 40.7600874047448], [-73.9707836358121, 40.7603348251534], [-73.9708306991323, 40.7603549252659], [-73.970651207649, 40.7605987850664], [-73.9710728138237, 40.760778707978], [-73.9714310792745, 40.7602861284582], [-73.9709657455832, 40.7600874047448]]]}}, {"type": "Feature", "properties": {"zone_id": "0207GUURG0Z5WTY10SJT6Z", "tract_id": "36061010000", "city": "NEW YORK, NY", "zone_code": "MID", "zone_category": "Other", "ev_permitted": false}, "geometry": {"type": "Polygon", "coordinates": [[[-73.971360502466, 40.7597608830774], [-73.9711771654944, 40.7600116610971], [-73.9715340003857, 40.7601629905641], [-73.97171733643, 40.7599122126847], [-73.971360502466, 40.7597608830774]]]}}, {"type": "Feature", "properties": {"zone_id": "02056KG8TEPV1BTSLQAZ53", "tract_id": "36061010000", "city": "NEW YORK, NY", "zone_code": "MID", "zone_category": "Other", "ev_permitted": false}, "geometry": {"type": "Polygon", "coordinates": [[[-73.9711827023394, 40.7596854797509], [-73.9709993639821, 40.7599362567875], [-73.9711771654944, 40.7600116610971], [-73.971360502466, 40.7597608830774], [-73.9711827023394, 40.7596854797509]]]}}, {"type": "Feature", "properties": {"zone_id": "02049V0YY5ST5RFX24KSJT", "tract_id": "36061010000", "city": "NEW YORK, NY", "zone_code": "C5-2", "zone_category": "Commercial", "ev_permitted": true}, "geometry": {"type": "Polygon", "coordinates": [[[-73.9710644872779, 40.7596353452348], [-73.9708811504611, 40.7598861234909], [-73.9709993639821, 40.7599362567875], [-73.9711827023394, 40.7596854797509], [-73.9710644872779, 40.7596353452348]]]}}, {"type": "Feature", "properties": {"zone_id": "0201T97E05ZWGSC7516CDS", "tract_id": "36061010000", "city": "NEW YORK, NY", "zone_code": "MID", "zone_category": "Other", "ev_permitted": false}, "geometry": {"type": "Polygon", "coordinates": [[[-73.9710539978505, 40.758485458311], [-73.9706948139356, 40.7589767717744], [-73.9719973613073, 40.7595291735078], [-73.9723565385933, 40.7590378560229], [-73.9710539978505, 40.758485458311]]]}}, {"type": "Feature", "properties": {"zone_id": "0204ECC16QSNT4AE7LU7IG", "tract_id": "36061010000", "city": "NEW YORK, NY", "zone_code": "MID", "zone_category": "Other", "ev_permitted": false}, "geometry": {"type": "Polygon", "coordinates": [[[-73.9715989456387, 40.7595376413315], [-73.9714179309867, 40.7597852379927], [-73.97171733643, 40.7599122126847], [-73.9718983456946, 40.7596646134486], [-73.9715989456387, 40.7595376413315]]]}}, {"type": "Feature", "properties": {"zone_id": "0202H1LRDV62QIFE7V8ERM", "tract_id": "36061010000", "city": "NEW YORK, NY", "zone_code": "MID", "zone_category": "Other", "ev_permitted": false}, "geometry": {"type": "Polygon", "coordinates": [[[-73.9714887426617, 40.7594909051538], [-73.9713077286508, 40.7597385023464], [-73.9714179309867, 40.7597852379927], [-73.9715989456387, 40.7595376413315], [-73.9714887426617, 40.7594909051538]]]}}, {"type": "Feature", "properties": {"zone_id": "02026WFXD0WKG2QQEDQKZE", "tract_id": "36061010000", "city": "NEW YORK, NY", "zone_code": "MID", "zone_category": "Other", "ev_permitted": false}, "geometry": {"type": "Polygon", "coordinates": [[[-73.9713840962179, 40.7594465262511], [-73.9712030810151, 40.7596941218754], [-73.9713077286508, 40.7597385023464], [-73.9714887426617, 40.7594909051538], [-73.9713840962179, 40.7594465262511]]]}}, {"type": "Feature", "properties": {"zone_id": "02016NHPK0R4J6TOPWPBYD", "tract_id": "36061010000", "city": "NEW YORK, NY", "zone_code": "MID", "zone_category": "Other", "ev_permitted": false}, "geometry": {"type": "Polygon", "coordinates": [[[-73.9713351309878, 40.759425760475], [-73.9711541156594, 40.759673356023], [-73.9712030810151, 40.7596941218754], [-73.9713840962179, 40.7594465262511], [-73.9713351309878, 40.759425760475]]]}}, {"type": "Feature", "properties": {"zone_id": "02045TLO8I5621DU7FZEZW", "tract_id": "36061010000", "city": "NEW YORK, NY", "zone_code": "MID", "zone_category": "Other", "ev_permitted": false}, "geometry": {"type": "Polygon", "coordinates": [[[-73.9712795718696, 40.7594021978746], [-73.9710985573223, 40.7596497947418], [-73.9711541156594, 40.759673356023], [-73.9713351309878, 40.759425760475], [-73.9712795718696, 40.7594021978746]]]}}, {"type": "Feature", "properties": {"zone_id": "0203T8OGY3U86HOTQQAJFH", "tract_id": "36061010000", "city": "NEW YORK, NY", "zone_code": "MID", "zone_category": "Other", "ev_permitted": false}, "geometry": {"type": "Polygon", "coordinates": [[[-73.9710668630839, 40.7593119884558], [-73.9708858479911, 40.759559584992], [-73.9710985573223, 40.7596497947418], [-73.9712795718696, 40.7594021978746], [-73.9710668630839, 40.7593119884558]]]}}, {"type": "Feature", "properties": {"zone_id": "02044I7O5TEOLWD1NHEXOJ", "tract_id": "36061010000", "city": "NEW YORK, NY", "zone_code": "MID", "zone_category": "Other", "ev_permitted": false}, "geometry": {"type": "Polygon", "coordinates": [[[-73.9719648691405, 40.7572431435434], [-73.9716108282575, 40.7577274824342], [-73.9728865885713, 40.7582645209346], [-73.9732397474728, 40.7577813766864], [-73.9719648691405, 40.7572431435434]]]}}, {"type": "Feature", "properties": {"zone_id": "0202S1NERJ3J4IIA3MEU07", "tract_id": "36061010000", "city": "NEW YORK, NY", "zone_code": "MID", "zone_category": "Other", "ev_permitted": false}, "geometry": {"type": "Polygon", "coordinates": [[[-73.9718689426919, 40.7580164386971], [-73.9716918312667, 40.7582587296454], [-73.971687891785, 40.7582570661965], [-73.9715041875619, 40.7585083730964], [-73.9724240049011, 40.7588973553397], [-73.9727858079229, 40.758402395945], [-73.9718689426919, 40.7580164386971]]]}}, {"type": "Feature", "properties": {"zone_id": "020142O1VNPRGFL75U4Q3Q", "tract_id": "36061010000", "city": "NEW YORK, NY", "zone_code": "MID", "zone_category": "Other", "ev_permitted": false}, "geometry": {"type": "Polygon", "coordinates": [[[-73.9713331793965, 40.7581073095281], [-73.9711492810044, 40.758358881423], [-73.9715041875619, 40.7585083730964], [-73.971687891785, 40.7582570661965], [-73.9713331793965, 40.7581073095281]]]}}, {"type": "Feature", "properties": {"zone_id": "02070WK6YU1MXUFZ208C93", "tract_id": "36061010000", "city": "NEW YORK, NY", "zone_code": "MID", "zone_category": "Other", "ev_permitted": false}, "geometry": {"type": "Polygon", "coordinates": [[[-73.9715100448569, 40.7578653563391], [-73.9713331793965, 40.7581073095281], [-73.9716918312667, 40.7582587296454], [-73.9718689426919, 40.7580164386971], [-73.9715100448569, 40.7578653563391]]]}}, {"type": "Feature", "properties": {"zone_id": "0206OEP6W3GDQ8ULVISMF6", "tract_id": "36061010000", "city": "NEW YORK, NY", "zone_code": "MID", "zone_category": "Other", "ev_permitted": false}, "geometry": {"type": "Polygon", "coordinates": [[[-73.9729986170999, 40.7568575705054], [-73.9728201928429, 40.7571033256025], [-73.972739534094, 40.7570693071894], [-73.9725629075315, 40.7573125763138], [-73.9733543544377, 40.7576463698915], [-73.9737093921933, 40.7571573398629], [-73.9729986170999, 40.7568575705054]]]}}, {"type": "Feature", "properties": {"zone_id": "0205PEWOIQX0NN2RYW2DEF", "tract_id": "36061010000", "city": "NEW YORK, NY", "zone_code": "MID", "zone_category": "Other", "ev_permitted": false}, "geometry": {"type": "Polygon", "coordinates": [[[-73.9724289120128, 40.7566172927581], [-73.9722722710169, 40.7568330397347], [-73.9725183220958, 40.7569368147522], [-73.9724841852335, 40.7569838338793], [-73.9725630985362, 40.7570171163764], [-73.9725754498183, 40.7570001038306], [-73.9728201928429, 40.7571033256025], [-73.9729986170999, 40.7568575705054], [-73.9724289120128, 40.7566172927581]]]}}, {"type": "Feature", "properties": {"zone_id": "0204XXY5NX6N1AQSDYKEI4", "tract_id": "36061010000", "city": "NEW YORK, NY", "zone_code": "MID", "zone_category": "Other", "ev_permitted": false}, "geometry": {"type": "Polygon", "coordinates": [[[-73.9722722710169, 40.7568330397347], [-73.9720738594199, 40.7571063153633], [-73.9725629075315, 40.7573125763138], [-73.972739534094, 40.7570693071894], [-73.9725754498183, 40.7570001038306], [-73.9725630985362, 40.7570171163764], [-73.9724841852335, 40.7569838338793], [-73.9725183220958, 40.7569368147522], [-73.9722722710169, 40.7568330397347]]]}}, {"type": "Feature", "properties": {"zone_id": "0203YUGEUI8SK84LRMU7W3", "tract_id": "36061010000", "city": "NEW YORK, NY", "zone_code": "MID", "zone_category": "Other", "ev_permitted": false}, "geometry": {"type": "Polygon", "coordinates": [[[-73.9710035185956, 40.7563363130027], [-73.9708253545948, 40.7565797308764], [-73.971838573423, 40.7570070804782], [-73.9720167441032, 40.7567636645681], [-73.9716938043152, 40.756627458955], [-73.9717082859049, 40.7566076729435], [-73.9715927957094, 40.7565848567247], [-73.9710035185956, 40.7563363130027]]]}}, {"type": "Feature", "properties": {"zone_id": "0205L85O2MCUWX3CSS65DT", "tract_id": "36061010000", "city": "NEW YORK, NY", "zone_code": "MID", "zone_category": "Other", "ev_permitted": false}, "geometry": {"type": "Polygon", "coordinates": [[[-73.9710258503814, 40.7568466905126], [-73.9708469785681, 40.7570913877582], [-73.9710860022641, 40.7571923049507], [-73.9709103455044, 40.7574326009578], [-73.9710690309422, 40.7574994036548], [-73.9711599492766, 40.7573750312768], [-73.9714747318135, 40.7575079317665], [-73.9717382303665, 40.7571474582632], [-73.9710258503814, 40.7568466905126]]]}}, {"type": "Feature", "properties": {"zone_id": "0205DTJU8C5R660HJUHB26", "tract_id": "36061010000", "city": "NEW YORK, NY", "zone_code": "MID", "zone_category": "Other", "ev_permitted": false}, "geometry": {"type": "Polygon", "coordinates": [[[-73.9711599492766, 40.7573750312768], [-73.9710690309422, 40.7574994036548], [-73.9713840293163, 40.7576320086264], [-73.9714747318135, 40.7575079317665], [-73.9711599492766, 40.7573750312768]]]}}, {"type": "Feature", "properties": {"zone_id": "0203XVQYJLIH7U8UHR2CFV", "tract_id": "36061010000", "city": "NEW YORK, NY", "zone_code": "MID", "zone_category": "Other", "ev_permitted": false}, "geometry": {"type": "Polygon", "coordinates": [[[-73.9728842867437, 40.7559900467519], [-73.9725312119925, 40.756476370973], [-73.9738116986084, 40.7570164204669], [-73.9741647668733, 40.7565300923594], [-73.9728842867437, 40.7559900467519]]]}}, {"type": "Feature", "properties": {"zone_id": "0204ZND3FVQ71GDFAJUFYY", "tract_id": "36061010000", "city": "NEW YORK, NY", "zone_code": "MID", "zone_category": "Other", "ev_permitted": false}, "geometry": {"type": "Polygon", "coordinates": [[[-73.9716108995807, 40.7562722809882], [-73.9714318152434, 40.7565169594347], [-73.9715927957094, 40.7565848567247], [-73.9717082859049, 40.7566076729435], [-73.9718259770442, 40.7566331245402], [-73.9719770514814, 40.7564267129841], [-73.9716108995807, 40.7562722809882]]]}}, {"type": "Feature", "properties": {"zone_id": "0207GRWITPRLFXGK6P2HIU", "tract_id": "36061010000", "city": "NEW YORK, NY", "zone_code": "MID", "zone_category": "Other", "ev_permitted": false}, "geometry": {"type": "Polygon", "coordinates": [[[-73.9719770514814, 40.7564267129841], [-73.9718259770442, 40.7566331245402], [-73.9717082859049, 40.7566076729435], [-73.9716938043152, 40.756627458955], [-73.9720167441032, 40.7567636645681], [-73.9721958177163, 40.7565189817055], [-73.9719770514814, 40.7564267129841]]]}}, {"type": "Feature", "properties": {"zone_id": "0205UUJ1VCAFP7V1JFHGUY", "tract_id": "36061010000", "city": "NEW YORK, NY", "zone_code": "MID", "zone_category": "Other", "ev_permitted": false}, "geometry": {"type": "Polygon", "coordinates": [[[-73.9711743804397, 40.756407010635], [-73.9711736158112, 40.7564080566967], [-73.9714318152434, 40.7565169594347], [-73.9714325807928, 40.7565159140743], [-73.9711743804397, 40.756407010635]]]}}, {"type": "Feature", "properties": {"zone_id": "0204O5L2TQJG406X1HCWFQ", "tract_id": "36061010000", "city": "NEW YORK, NY", "zone_code": "MID", "zone_category": "Other", "ev_permitted": false}, "geometry": {"type": "Polygon", "coordinates": [[[-73.9713526998804, 40.7561633779448], [-73.9711743804397, 40.756407010635], [-73.9714325807928, 40.7565159140743], [-73.9716108995807, 40.7562722809882], [-73.9713526998804, 40.7561633779448]]]}}, {"type": "Feature", "properties": {"zone_id": "0201FW5QT67P6H1OEHCF2Q", "tract_id": "36061010000", "city": "NEW YORK, NY", "zone_code": "MID", "zone_category": "Other", "ev_permitted": false}, "geometry": {"type": "Polygon", "coordinates": [[[-73.9711999273329, 40.7560989422395], [-73.9710208419521, 40.7563436200533], [-73.9711736158112, 40.7564080566967], [-73.9713526998804, 40.7561633779448], [-73.9711999273329, 40.7560989422395]]]}}, {"type": "Feature", "properties": {"zone_id": "02003TUCZN5MI7A3WMTWHF", "tract_id": "36061010000", "city": "NEW YORK, NY", "zone_code": "MID", "zone_category": "Other", "ev_permitted": false}, "geometry": {"type": "Polygon", "coordinates": [[[-73.9722525733943, 40.7557236112134], [-73.9720769350145, 40.7559635886426], [-73.9720969581451, 40.7559715046852], [-73.9719170368976, 40.756217332534], [-73.9722987601283, 40.7563783315046], [-73.9726540228492, 40.7558929296886], [-73.9722525733943, 40.7557236112134]]]}}, {"type": "Feature", "properties": {"zone_id": "02007CZYXKVZKUNH0RR0NE", "tract_id": "36061010000", "city": "", "zone_code": "MID", "zone_category": "Other", "ev_permitted": false}, "geometry": {"type": "Polygon", "coordinates": [[[-73.9719560189362, 40.7555985328822], [-73.9716007536231, 40.7560839325665], [-73.9719170368976, 40.756217332534], [-73.9720969581451, 40.7559715046852], [-73.971838162782, 40.7558626911153], [-73.9720136945084, 40.7556228587675], [-73.9719560189362, 40.7555985328822]]]}}, {"type": "Feature", "properties": {"zone_id": "02075RYJPLGBQ4EK2QBRZJ", "tract_id": "36061010000", "city": "NEW YORK, NY", "zone_code": "MID", "zone_category": "Other", "ev_permitted": false}, "geometry": {"type": "Polygon", "coordinates": [[[-73.9721957900974, 40.7556996622865], [-73.9720203041289, 40.7559394295732], [-73.9720769350145, 40.7559635886426], [-73.9722525733943, 40.7557236112134], [-73.9721957900974, 40.7556996622865]]]}}, {"type": "Feature", "properties": {"zone_id": "0200WAAGPKDJZ5DUX23Q1M", "tract_id": "36061010000", "city": "NEW YORK, NY", "zone_code": "MID", "zone_category": "Other", "ev_permitted": false}, "geometry": {"type": "Polygon", "coordinates": [[[-73.9720136945084, 40.7556228587675], [-73.971838162782, 40.7558626911153], [-73.9720203041289, 40.7559394295732], [-73.9721957900974, 40.7556996622865], [-73.9720136945084, 40.7556228587675]]]}}, {"type": "Feature", "properties": {"zone_id": "0203U2FNT5AO0QR08K1IF0", "tract_id": "36061010000", "city": "NEW YORK, NY", "zone_code": "MID", "zone_category": "Other", "ev_permitted": false}, "geometry": {"type": "Polygon", "coordinates": [[[-73.9717672527347, 40.7555189160261], [-73.971591717623, 40.7557587472986], [-73.9717804861422, 40.7558383651428], [-73.9719560189362, 40.7555985328822], [-73.9717672527347, 40.7555189160261]]]}}, {"type": "Feature", "properties": {"zone_id": "0200UREW96YOH7BO0W0HOC", "tract_id": "36061010000", "city": "NEW YORK, NY", "zone_code": "MID", "zone_category": "Other", "ev_permitted": false}, "geometry": {"type": "Polygon", "coordinates": [[[-73.9713160463949, 40.7553286057143], [-73.9709658174899, 40.7558161288398], [-73.971286490248, 40.7559513831462], [-73.971466347365, 40.7557058682352], [-73.971591717623, 40.7557587472986], [-73.9717672527347, 40.7555189160261], [-73.9713160463949, 40.7553286057143]]]}}, {"type": "Feature", "properties": {"zone_id": "02079AEIMMMZ8N2VWB62K7", "tract_id": "36061010000", "city": "NEW YORK, NY", "zone_code": "MID", "zone_category": "Other", "ev_permitted": false}, "geometry": {"type": "Polygon", "coordinates": [[[-73.971466347365, 40.7557058682352], [-73.971286490248, 40.7559513831462], [-73.9716007536231, 40.7560839325665], [-73.9717804861422, 40.7558383651428], [-73.971466347365, 40.7557058682352]]]}}, {"type": "Feature", "properties": {"zone_id": "0203XH26MREGH6L1VWBBJC", "tract_id": "36061010000", "city": "NEW YORK, NY", "zone_code": "C5-2", "zone_category": "Commercial", "ev_permitted": true}, "geometry": {"type": "Polygon", "coordinates": [[[-73.9706328983001, 40.7602704524926], [-73.9704533721074, 40.7605143604623], [-73.970651207649, 40.7605987850664], [-73.9708306991323, 40.7603549252659], [-73.9706328983001, 40.7602704524926]]]}}, {"type": "Feature", "properties": {"zone_id": "02063XIAZDDDYUD4LKN0N7", "tract_id": "36061010000", "city": "NEW YORK, NY", "zone_code": "C5-2", "zone_category": "Commercial", "ev_permitted": true}, "geometry": {"type": "Polygon", "coordinates": [[[-73.9703196544665, 40.7601366788641], [-73.9701400701596, 40.7603806629249], [-73.9702640804936, 40.760433583094], [-73.9704436422976, 40.7601896290503], [-73.9703196544665, 40.7601366788641]]]}}, {"type": "Feature", "properties": {"zone_id": "0203II1DCN2JXZWEWLFDA3", "tract_id": "36061010000", "city": "NEW YORK, NY", "zone_code": "C5-2", "zone_category": "Commercial", "ev_permitted": true}, "geometry": {"type": "Polygon", "coordinates": [[[-73.9704436422976, 40.7601896290503], [-73.9702640804936, 40.760433583094], [-73.9704533721074, 40.7605143604623], [-73.9706328983001, 40.7602704524926], [-73.9704436422976, 40.7601896290503]]]}}, {"type": "Feature", "properties": {"zone_id": "0201VKWT1EGBQTYZK2Y6X6", "tract_id": "36061010000", "city": "NEW YORK, NY", "zone_code": "C5-2", "zone_category": "Commercial", "ev_permitted": true}, "geometry": {"type": "Polygon", "coordinates": [[[-73.9707309104374, 40.7599871179907], [-73.9705487991441, 40.7602345380315], [-73.9706061353103, 40.7602590233173], [-73.9707882455332, 40.7600116038891], [-73.9707309104374, 40.7599871179907]]]}}, {"type": "Feature", "properties": {"zone_id": "02000PXDI0AXTCX6VK1CRU", "tract_id": "36061010000", "city": "NEW YORK, NY", "zone_code": "C5-2", "zone_category": "Commercial", "ev_permitted": true}, "geometry": {"type": "Polygon", "coordinates": [[[-73.9707882455332, 40.7600116038891], [-73.9706061353103, 40.7602590233173], [-73.9707836358121, 40.7603348251534], [-73.9709657455832, 40.7600874047448], [-73.9707882455332, 40.7600116038891]]]}}, {"type": "Feature", "properties": {"zone_id": "0200D5QE2DH15RR88IW2ET", "tract_id": "36061010000", "city": "NEW YORK, NY", "zone_code": "MID", "zone_category": "Other", "ev_permitted": false}, "geometry": {"type": "Polygon", "coordinates": [[[-73.9704346537559, 40.7598605989722], [-73.9702525426325, 40.7601080178468], [-73.9703712289603, 40.7601587041949], [-73.9705533407059, 40.759911284432], [-73.9704346537559, 40.7598605989722]]]}}, {"type": "Feature", "properties": {"zone_id": "0206YD91HY51HK2JVN9R6A", "tract_id": "36061010000", "city": "NEW YORK, NY", "zone_code": "C5-2", "zone_category": "Commercial", "ev_permitted": true}, "geometry": {"type": "Polygon", "coordinates": [[[-73.9705533407059, 40.759911284432], [-73.9703712289603, 40.7601587041949], [-73.9705487991441, 40.7602345380315], [-73.9707309104374, 40.7599871179907], [-73.9705533407059, 40.759911284432]]]}}, {"type": "Feature", "properties": {"zone_id": "020661WPH54RAUIINJV4CE", "tract_id": "36061010000", "city": "NEW YORK, NY", "zone_code": "C5-2", "zone_category": "Commercial", "ev_permitted": true}, "geometry": {"type": "Polygon", "coordinates": [[[-73.9710063226614, 40.7596106779788], [-73.9708229838456, 40.7598614554402], [-73.9708811504611, 40.7598861234909], [-73.9710644872779, 40.7596353452348], [-73.9710063226614, 40.7596106779788]]]}}, {"type": "Feature", "properties": {"zone_id": "020211GG2LEXXPRRTXHJY0", "tract_id": "36061010000", "city": "NEW YORK, NY", "zone_code": "MID", "zone_category": "Other", "ev_permitted": false}, "geometry": {"type": "Polygon", "coordinates": [[[-73.9703840135408, 40.7598389723141], [-73.9702713570224, 40.7599920285115], [-73.9700321919616, 40.7598899636061], [-73.9697842382916, 40.7602288073355], [-73.9701400701596, 40.7603806629249], [-73.9703196544665, 40.7601366788641], [-73.9702525426325, 40.7601080178468], [-73.9704346537559, 40.7598605989722], [-73.9703840135408, 40.7598389723141]]]}}, {"type": "Feature", "properties": {"zone_id": "0202OPTR57MLBRW7C1BX4H", "tract_id": "36061010000", "city": "NEW YORK, NY", "zone_code": "MID", "zone_category": "Other", "ev_permitted": false}, "geometry": {"type": "Polygon", "coordinates": [[[-73.9701443897106, 40.7597366369993], [-73.9700321919616, 40.7598899636061], [-73.9702713570224, 40.7599920285115], [-73.9703840135408, 40.7598389723141], [-73.9701443897106, 40.7597366369993]]]}}, {"type": "Feature", "properties": {"zone_id": "0200GRY4THE72R2T5YKIEZ", "tract_id": "36061010000", "city": "NEW YORK, NY", "zone_code": "MID", "zone_category": "Other", "ev_permitted": false}, "geometry": {"type": "Polygon", "coordinates": [[[-73.9695160434316, 40.7597381082231], [-73.9694821816629, 40.7597860512084], [-73.9697437627398, 40.7598964095508], [-73.9697786092581, 40.7598488827192], [-73.9695160434316, 40.7597381082231]]]}}, {"type": "Feature", "properties": {"zone_id": "0200TRKSBLZW1RKZ1ANM0L", "tract_id": "36061010000", "city": "NEW YORK, NY", "zone_code": "MID", "zone_category": "Other", "ev_permitted": false}, "geometry": {"type": "Polygon", "coordinates": [[[-73.969551059148, 40.7596885339689], [-73.9695160434316, 40.7597381082231], [-73.9697786092581, 40.7598488827192], [-73.969814644828, 40.7597997372724], [-73.969551059148, 40.7596885339689]]]}}, {"type": "Feature", "properties": {"zone_id": "0205E7FMU2J5XK5415U5D9", "tract_id": "36061010000", "city": "NEW YORK, NY", "zone_code": "MID", "zone_category": "Other", "ev_permitted": false}, "geometry": {"type": "Polygon", "coordinates": [[[-73.9692749128627, 40.7596986076826], [-73.9691030607956, 40.759941913441], [-73.969567366623, 40.7601369842859], [-73.9697437627398, 40.7598964095508], [-73.9692749128627, 40.7596986076826]]]}}, {"type": "Feature", "properties": {"zone_id": "0206MXW5SMQXEK7XO67GYX", "tract_id": "36061010000", "city": "NEW YORK, NY", "zone_code": "C5-2", "zone_category": "Commercial", "ev_permitted": true}, "geometry": {"type": "Polygon", "coordinates": [[[-73.9691456465003, 40.7596440710376], [-73.9689736701926, 40.759887552938], [-73.9691030607956, 40.759941913441], [-73.9692749128627, 40.7596986076826], [-73.9691456465003, 40.7596440710376]]]}}, {"type": "Feature", "properties": {"zone_id": "020305B5JSTCF01VZEC5BR", "tract_id": "36061010000", "city": "NEW YORK, NY", "zone_code": "MID", "zone_category": "Other", "ev_permitted": false}, "geometry": {"type": "Polygon", "coordinates": [[[-73.9694259413581, 40.7586160617261], [-73.9692449220569, 40.7588636557091], [-73.9698713271632, 40.7591293227664], [-73.9699556581974, 40.7590139724313], [-73.9702714834388, 40.7591477062827], [-73.9703680494658, 40.7590156222746], [-73.9694259413581, 40.7586160617261]]]}}, {"type": "Feature", "properties": {"zone_id": "0206MVPROKPEXO7E4ZML1E", "tract_id": "36061010000", "city": "NEW YORK, NY", "zone_code": "MID", "zone_category": "Other", "ev_permitted": false}, "geometry": {"type": "Polygon", "coordinates": [[[-73.9705957974195, 40.7591122106069], [-73.9704147838904, 40.7593598071135], [-73.9708858479911, 40.759559584992], [-73.9710668630839, 40.7593119884558], [-73.9705957974195, 40.7591122106069]]]}}, {"type": "Feature", "properties": {"zone_id": "02051W1045TR06R769BTOF", "tract_id": "36061010000", "city": "NEW YORK, NY", "zone_code": "MID", "zone_category": "Other", "ev_permitted": false}, "geometry": {"type": "Polygon", "coordinates": [[[-73.9704147838904, 40.7593598071135], [-73.9702314435381, 40.7596105836426], [-73.9706870426359, 40.7598038039685], [-73.9708703827289, 40.7595530267216], [-73.9704147838904, 40.7593598071135]]]}}, {"type": "Feature", "properties": {"zone_id": "0201R3BEKDP00E7ER0ZXWB", "tract_id": "36061010000", "city": "NEW YORK, NY", "zone_code": "C5-2", "zone_category": "Commercial", "ev_permitted": true}, "geometry": {"type": "Polygon", "coordinates": [[[-73.9709502830735, 40.7595869120323], [-73.9707669441121, 40.7598376894053], [-73.9708229838456, 40.7598614554402], [-73.9710063226614, 40.7596106779788], [-73.9709502830735, 40.7595869120323]]]}}, {"type": "Feature", "properties": {"zone_id": "0203I4HM8SSSFIADFK358P", "tract_id": "36061010000", "city": "NEW YORK, NY", "zone_code": "C5-2", "zone_category": "Commercial", "ev_permitted": true}, "geometry": {"type": "Polygon", "coordinates": [[[-73.9708703827289, 40.7595530267216], [-73.9706870426359, 40.7598038039685], [-73.9707669441121, 40.7598376894053], [-73.9709502830735, 40.7595869120323], [-73.9708703827289, 40.7595530267216]]]}}, {"type": "Feature", "properties": {"zone_id": "0205K7NA1HYE1LX0KXOL0C", "tract_id": "36061010000", "city": "NEW YORK, NY", "zone_code": "MID", "zone_category": "Other", "ev_permitted": false}, "geometry": {"type": "Polygon", "coordinates": [[[-73.9699556581974, 40.7590139724313], [-73.9698713271632, 40.7591293227664], [-73.9696570468448, 40.7590384435101], [-73.9694737017522, 40.7592892181416], [-73.970003695333, 40.7595139938947], [-73.9702714834388, 40.7591477062827], [-73.9699556581974, 40.7590139724313]]]}}, {"type": "Feature", "properties": {"zone_id": "0205TH1T9A5AOM5HHKHU21", "tract_id": "36061010000", "city": "NEW YORK, NY", "zone_code": "MID", "zone_category": "Other", "ev_permitted": false}, "geometry": {"type": "Polygon", "coordinates": [[[-73.9696614062142, 40.7595323025651], [-73.969551059148, 40.7596885339689], [-73.969814644828, 40.7597997372724], [-73.9699282038694, 40.7596448604724], [-73.9696614062142, 40.7595323025651]]]}}, {"type": "Feature", "properties": {"zone_id": "0204YSBBPF7L19XUNOQ309", "tract_id": "36061010000", "city": "NEW YORK, NY", "zone_code": "MID", "zone_category": "Other", "ev_permitted": false}, "geometry": {"type": "Polygon", "coordinates": [[[-73.9689511543459, 40.7592326546304], [-73.9687719269711, 40.7594864021796], [-73.9691822956925, 40.7596595329219], [-73.9693615210458, 40.7594057847403], [-73.9689511543459, 40.7592326546304]]]}}, {"type": "Feature", "properties": {"zone_id": "0201X610FG9K5VNUU50LDM", "tract_id": "36061010000", "city": "NEW YORK, NY", "zone_code": "MID", "zone_category": "Other", "ev_permitted": false}, "geometry": {"type": "Polygon", "coordinates": [[[-73.9693615210458, 40.7594057847403], [-73.9691822956925, 40.7596595329219], [-73.9694821816629, 40.7597860512084], [-73.9696614062142, 40.7595323025651], [-73.9693615210458, 40.7594057847403]]]}}, {"type": "Feature", "properties": {"zone_id": "0206PVTYVL4EAC54DEEIUL", "tract_id": "36061010000", "city": "NEW YORK, NY", "zone_code": "C5-2", "zone_category": "Commercial", "ev_permitted": true}, "geometry": {"type": "Polygon", "coordinates": [[[-73.9688649224571, 40.7595256361736], [-73.9686926754182, 40.7597694991272], [-73.9689736701926, 40.759887552938], [-73.9691456465003, 40.7596440710376], [-73.9688649224571, 40.7595256361736]]]}}, {"type": "Feature", "properties": {"zone_id": "0200KK7L309EZ2SZBTG9VI", "tract_id": "36061010000", "city": "NEW YORK, NY", "zone_code": "MID", "zone_category": "Other", "ev_permitted": false}, "geometry": {"type": "Polygon", "coordinates": [[[-73.9687087927289, 40.759459767091], [-73.9685363973361, 40.7597038412721], [-73.9686926754182, 40.7597694991272], [-73.9688649224571, 40.7595256361736], [-73.9687087927289, 40.759459767091]]]}}, {"type": "Feature", "properties": {"zone_id": "0205HBZED4JNNH3SY2G623", "tract_id": "36061010000", "city": "NEW YORK, NY", "zone_code": "MID", "zone_category": "Other", "ev_permitted": false}, "geometry": {"type": "Polygon", "coordinates": [[[-73.9685541826969, 40.759552002497], [-73.9684673952609, 40.7596748730417], [-73.9685363973361, 40.7597038412721], [-73.9686231208788, 40.7595810605983], [-73.9685541826969, 40.759552002497]]]}}, {"type": "Feature", "properties": {"zone_id": "0204EWEG0ICL2MTS2H3SRX", "tract_id": "36061010000", "city": "NEW YORK, NY", "zone_code": "MID", "zone_category": "Other", "ev_permitted": false}, "geometry": {"type": "Polygon", "coordinates": [[[-73.9683560572429, 40.7593877730244], [-73.9683116195295, 40.7594496625623], [-73.9686231208788, 40.7595810605983], [-73.9686669985089, 40.7595189396158], [-73.9683560572429, 40.7593877730244]]]}}, {"type": "Feature", "properties": {"zone_id": "0201MJRSD1PR6GB9Q5L202", "tract_id": "36061010000", "city": "NEW YORK, NY", "zone_code": "MID", "zone_category": "Other", "ev_permitted": false}, "geometry": {"type": "Polygon", "coordinates": [[[-73.9683116195295, 40.7594496625623], [-73.9682675941464, 40.7595109753168], [-73.9685107349238, 40.759613515055], [-73.9685541826969, 40.759552002497], [-73.9683116195295, 40.7594496625623]]]}}, {"type": "Feature", "properties": {"zone_id": "0204266NP02IEWW6WR6KR3", "tract_id": "36061010000", "city": "NEW YORK, NY", "zone_code": "MID", "zone_category": "Other", "ev_permitted": false}, "geometry": {"type": "Polygon", "coordinates": [[[-73.9682675941464, 40.7595109753168], [-73.9682234900823, 40.7595723997544], [-73.9684673952609, 40.7596748730417], [-73.9685107349238, 40.759613515055], [-73.9682675941464, 40.7595109753168]]]}}, {"type": "Feature", "properties": {"zone_id": "0203908F5XIMH6M9RNMGZV", "tract_id": "36061010000", "city": "NEW YORK, NY", "zone_code": "MID", "zone_category": "Other", "ev_permitted": false}, "geometry": {"type": "Polygon", "coordinates": [[[-73.9688880211966, 40.7592060196392], [-73.9687087927289, 40.759459767091], [-73.9687719269711, 40.7594864021796], [-73.9689511543459, 40.7592326546304], [-73.9688880211966, 40.7592060196392]]]}}, {"type": "Feature", "properties": {"zone_id": "0202XE9RMGUVHG2UZFQ4L3", "tract_id": "36061010000", "city": "NEW YORK, NY", "zone_code": "MID", "zone_category": "Other", "ev_permitted": false}, "geometry": {"type": "Polygon", "coordinates": [[[-73.9685316407447, 40.7591432348156], [-73.9684853318021, 40.7592077300571], [-73.9687341500526, 40.7593126409351], [-73.9687798758505, 40.7592479037235], [-73.9685316407447, 40.7591432348156]]]}}, {"type": "Feature", "properties": {"zone_id": "02038O79W2NNKYS4QWDMJJ", "tract_id": "36061010000", "city": "NEW YORK, NY", "zone_code": "MID", "zone_category": "Other", "ev_permitted": false}, "geometry": {"type": "Polygon", "coordinates": [[[-73.9684853318021, 40.7592077300571], [-73.9684420418614, 40.7592680207192], [-73.968691383173, 40.7593731918141], [-73.9687341500526, 40.7593126409351], [-73.9684853318021, 40.7592077300571]]]}}, {"type": "Feature", "properties": {"zone_id": "0206JPE4YI9QVEJEMNM9JK", "tract_id": "36061010000", "city": "NEW YORK, NY", "zone_code": "MID", "zone_category": "Other", "ev_permitted": false}, "geometry": {"type": "Polygon", "coordinates": [[[-73.9684420418614, 40.7592680207192], [-73.968398385667, 40.7593288213913], [-73.9687087927289, 40.759459767091], [-73.9687518999327, 40.7593987370883], [-73.9684420418614, 40.7592680207192]]]}}, {"type": "Feature", "properties": {"zone_id": "0200U4J5VGI7Z1LOOOS400", "tract_id": "36061010000", "city": "NEW YORK, NY", "zone_code": "MID", "zone_category": "Other", "ev_permitted": false}, "geometry": {"type": "Polygon", "coordinates": [[[-73.9688275036364, 40.7591804730303], [-73.968691383173, 40.7593731918141], [-73.9687518999327, 40.7593987370883], [-73.9688880211966, 40.7592060196392], [-73.9688275036364, 40.7591804730303]]]}}, {"type": "Feature", "properties": {"zone_id": "0205PVM70UMHT3AYET7NKV", "tract_id": "36061010000", "city": "NEW YORK, NY", "zone_code": "MID", "zone_category": "Other", "ev_permitted": false}, "geometry": {"type": "Polygon", "coordinates": [[[-73.968398385667, 40.7593288213913], [-73.9683560572429, 40.7593877730244], [-73.9686669985089, 40.7595189396158], [-73.9687087927289, 40.759459767091], [-73.968398385667, 40.7593288213913]]]}}, {"type": "Feature", "properties": {"zone_id": "02006GPGU5O33QAFWGZJVZ", "tract_id": "36061010000", "city": "NEW YORK, NY", "zone_code": "MID", "zone_category": "Other", "ev_permitted": false}, "geometry": {"type": "Polygon", "coordinates": [[[-73.9693219816409, 40.7588963377472], [-73.9691386375262, 40.7591471118513], [-73.9692195112081, 40.7591814110836], [-73.9694028551125, 40.7589306375548], [-73.9693219816409, 40.7588963377472]]]}}, {"type": "Feature", "properties": {"zone_id": "0203N20E58FCRDSVTIBVNY", "tract_id": "36061010000", "city": "NEW YORK, NY", "zone_code": "MID", "zone_category": "Other", "ev_permitted": false}, "geometry": {"type": "Polygon", "coordinates": [[[-73.9694028551125, 40.7589306375548], [-73.9692195112081, 40.7591814110836], [-73.9692975477008, 40.7592145079637], [-73.9694808923265, 40.7589637343121], [-73.9694028551125, 40.7589306375548]]]}}, {"type": "Feature", "properties": {"zone_id": "0202UZBJMZIB3MM3RWV4QR", "tract_id": "36061010000", "city": "NEW YORK, NY", "zone_code": "MID", "zone_category": "Other", "ev_permitted": false}, "geometry": {"type": "Polygon", "coordinates": [[[-73.9695933159041, 40.759011414558], [-73.9694099715701, 40.7592621890894], [-73.9694737017522, 40.7592892181416], [-73.9696570468448, 40.7590384435101], [-73.9695933159041, 40.759011414558]]]}}, {"type": "Feature", "properties": {"zone_id": "0202C2130QI1PYNXMWGK0K", "tract_id": "36061010000", "city": "NEW YORK, NY", "zone_code": "MID", "zone_category": "Other", "ev_permitted": false}, "geometry": {"type": "Polygon", "coordinates": [[[-73.9694808923265, 40.7589637343121], [-73.9692975477008, 40.7592145079637], [-73.9694099715701, 40.7592621890894], [-73.9695933159041, 40.759011414558], [-73.9694808923265, 40.7589637343121]]]}}, {"type": "Feature", "properties": {"zone_id": "0200TAE0JDN6JZL0YXUFDE", "tract_id": "36061010000", "city": "NEW YORK, NY", "zone_code": "MID", "zone_category": "Other", "ev_permitted": false}, "geometry": {"type": "Polygon", "coordinates": [[[-73.9691647813894, 40.7588296665597], [-73.9689814359429, 40.7590804390104], [-73.9691386375262, 40.7591471118513], [-73.9693219816409, 40.7588963377472], [-73.9691647813894, 40.7588296665597]]]}}, {"type": "Feature", "properties": {"zone_id": "0205SAQZJ85FK18M154A50", "tract_id": "36061010000", "city": "NEW YORK, NY", "zone_code": "MID", "zone_category": "Other", "ev_permitted": false}, "geometry": {"type": "Polygon", "coordinates": [[[-73.9685798997438, 40.7590760236244], [-73.9685316407447, 40.7591432348156], [-73.9687798758505, 40.7592479037235], [-73.9688275036364, 40.7591804730303], [-73.9685798997438, 40.7590760236244]]]}}, {"type": "Feature", "properties": {"zone_id": "0202G5BBOGW1OY02GK9EPD", "tract_id": "36061010000", "city": "NEW YORK, NY", "zone_code": "MID", "zone_category": "Other", "ev_permitted": false}, "geometry": {"type": "Polygon", "coordinates": [[[-73.9687671190062, 40.7588222679859], [-73.9686737688384, 40.758949950103], [-73.9689814359429, 40.7590804390104], [-73.9690765601179, 40.7589503315594], [-73.9689579940614, 40.7589001238132], [-73.9689563352256, 40.7589023929403], [-73.9687671190062, 40.7588222679859]]]}}, {"type": "Feature", "properties": {"zone_id": "0203FTWFXKQGJTHHPBKJIW", "tract_id": "36061010000", "city": "NEW YORK, NY", "zone_code": "MID", "zone_category": "Other", "ev_permitted": false}, "geometry": {"type": "Polygon", "coordinates": [[[-73.9705738721096, 40.7574720349078], [-73.9702143757291, 40.7579638169416], [-73.9709226701181, 40.7582631524021], [-73.9712832483627, 40.7577698830381], [-73.9705738721096, 40.7574720349078]]]}}, {"type": "Feature", "properties": {"zone_id": "0203RLHFUQ5VIWRESB7XVR", "tract_id": "36061010000", "city": "NEW YORK, NY", "zone_code": "MID", "zone_category": "Other", "ev_permitted": false}, "geometry": {"type": "Polygon", "coordinates": [[[-73.9698000697354, 40.7579604157316], [-73.9696207382908, 40.7582057095766], [-73.9693124136474, 40.7580764166969], [-73.9691344402488, 40.7583198502163], [-73.9704657995599, 40.75888191676], [-73.9708252148813, 40.7583902899755], [-73.9698000697354, 40.7579604157316]]]}}, {"type": "Feature", "properties": {"zone_id": "0205WEBZ06RJVJQY2J6GKI", "tract_id": "36061010000", "city": "NEW YORK, NY", "zone_code": "MID", "zone_category": "Other", "ev_permitted": false}, "geometry": {"type": "Polygon", "coordinates": [[[-73.9702359590969, 40.7576448805465], [-73.9700527096962, 40.7578955599101], [-73.9702143757291, 40.7579638169416], [-73.9703976256331, 40.7577131373236], [-73.9702359590969, 40.7576448805465]]]}}, {"type": "Feature", "properties": {"zone_id": "0200RPVC7K0OPQJAW1YRF2", "tract_id": "36061010000", "city": "NEW YORK, NY", "zone_code": "MID", "zone_category": "Other", "ev_permitted": false}, "geometry": {"type": "Polygon", "coordinates": [[[-73.9690381298364, 40.7584515826481], [-73.9687671190062, 40.7588222679859], [-73.9689563352256, 40.7589023929403], [-73.9689579940614, 40.7589001238132], [-73.9690765601179, 40.7589503315594], [-73.9691647813894, 40.7588296665597], [-73.9692449220569, 40.7588636557091], [-73.9694259413581, 40.7586160617261], [-73.9690381298364, 40.7584515826481]]]}}, {"type": "Feature", "properties": {"zone_id": "0203OW1PJRLDEV765CXPVK", "tract_id": "36061010000", "city": "NEW YORK, NY", "zone_code": "TA", "zone_category": "Other", "ev_permitted": false}, "geometry": {"type": "Polygon", "coordinates": [[[-73.9694917449557, 40.7578311226243], [-73.9693124136474, 40.7580764166969], [-73.9696207382908, 40.7582057095766], [-73.9698000697354, 40.7579604157316], [-73.9694917449557, 40.7578311226243]]]}}, {"type": "Feature", "properties": {"zone_id": "0205APUILWV59PX6JNL6B8", "tract_id": "36061010000", "city": "NEW YORK, NY", "zone_code": "MID", "zone_category": "Other", "ev_permitted": false}, "geometry": {"type": "Polygon", "coordinates": [[[-73.9706132447496, 40.7569927037518], [-73.9704372631977, 40.7572334437424], [-73.9709103455044, 40.7574326009578], [-73.9710860022641, 40.7571923049507], [-73.9706132447496, 40.7569927037518]]]}}, {"type": "Feature", "properties": {"zone_id": "0201JLEFB3DFICYL0733Y6", "tract_id": "36061010000", "city": "NEW YORK, NY", "zone_code": "MID", "zone_category": "Other", "ev_permitted": false}, "geometry": {"type": "Polygon", "coordinates": [[[-73.9702930854306, 40.7573534840175], [-73.9700986859561, 40.7575869223616], [-73.9703976256331, 40.7577131373236], [-73.9705738721096, 40.7574720349078], [-73.9702930854306, 40.7573534840175]]]}}, {"type": "Feature", "properties": {"zone_id": "02054FQIFB1HVFAVM3WSSA", "tract_id": "36061010000", "city": "NEW YORK, NY", "zone_code": "TA", "zone_category": "Other", "ev_permitted": false}, "geometry": {"type": "Polygon", "coordinates": [[[-73.9699510333776, 40.7572090510531], [-73.9695889543687, 40.757699730124], [-73.9700527096962, 40.7578955599101], [-73.9702359590969, 40.7576448805465], [-73.9700986859561, 40.7575869223616], [-73.9702930854306, 40.7573534840175], [-73.9699510333776, 40.7572090510531]]]}}, {"type": "Feature", "properties": {"zone_id": "0206RKGQLMYHLBL8NFUKFQ", "tract_id": "36061010000", "city": "NEW YORK, NY", "zone_code": "MID", "zone_category": "Other", "ev_permitted": false}, "geometry": {"type": "Polygon", "coordinates": [[[-73.9704102209116, 40.756586765369], [-73.9700525460962, 40.7570714843428], [-73.9704372631977, 40.7572334437424], [-73.9706132447496, 40.7569927037518], [-73.9708469785681, 40.7570913877582], [-73.9710258503814, 40.7568466905126], [-73.9704102209116, 40.756586765369]]]}}, {"type": "Feature", "properties": {"zone_id": "02009NH8NWOJGNCF6F6EDW", "tract_id": "36061010000", "city": "NEW YORK, NY", "zone_code": "MID", "zone_category": "Other", "ev_permitted": false}, "geometry": {"type": "Polygon", "coordinates": [[[-73.9706877881297, 40.7562031432483], [-73.9705121500928, 40.7564476265099], [-73.9708253545948, 40.7565797308764], [-73.9710035185956, 40.7563363130027], [-73.9706877881297, 40.7562031432483]]]}}, {"type": "Feature", "properties": {"zone_id": "0204RDS4CXKFXVGXNPEZ0I", "tract_id": "36061010000", "city": "NEW YORK, NY", "zone_code": "MID", "zone_category": "Other", "ev_permitted": false}, "geometry": {"type": "Polygon", "coordinates": [[[-73.9708643328257, 40.7559573944586], [-73.9706877881297, 40.7562031432483], [-73.9710208419521, 40.7563436200533], [-73.9711999273329, 40.7560989422395], [-73.9708643328257, 40.7559573944586]]]}}]}