{"type": "FeatureCollection", "features": [{"type": "Feature", "properties": {"zone_id": "0206W25PYUFEM7JY9IWBYF", "tract_id": "36081084902", "city": "FLUSHING, NY", "zone_code": "C1-2", "zone_category": "Commercial", "ev_permitted": true}, "geometry": {"type": "Polygon", "coordinates": [[[-73.8298341492153, 40.7578948222758], [-73.8295572504125, 40.7580164818207], [-73.829584838295, 40.7580709644158], [-73.82987342862, 40.7579441687936], [-73.8298341492153, 40.7578948222758]]]}}, {"type": "Feature", "properties": {"zone_id": "0201FFL64EB4IR1N8M47MN", "tract_id": "36081084902", "city": "FLUSHING, NY", "zone_code": "C1-2", "zone_category": "Commercial", "ev_permitted": true}, "geometry": {"type": "Polygon", "coordinates": [[[-73.8299163144916, 40.7576023914104], [-73.8298578284467, 40.7576280883014], [-73.8299166308733, 40.7577495392761], [-73.8298916228633, 40.7577605270221], [-73.8299484722217, 40.7578319473968], [-73.8299334672165, 40.7578385400489], [-73.8299802039032, 40.7578972555112], [-73.8301067602788, 40.7578416506417], [-73.8299163144916, 40.7576023914104]]]}}, {"type": "Feature", "properties": {"zone_id": "0201R4MXIVELVPBK5RDVEM", "tract_id": "36081084902", "city": "FLUSHING, NY", "zone_code": "C1-2", "zone_category": "Commercial", "ev_permitted": true}, "geometry": {"type": "Polygon", "coordinates": [[[-73.8298916228633, 40.7577605270221], [-73.8297698427229, 40.7578140321515], [-73.82987342862, 40.7579441687936], [-73.8299802039032, 40.7578972555112], [-73.8299334672165, 40.7578385400489], [-73.8299484722217, 40.7578319473968], [-73.8298916228633, 40.7577605270221]]]}}, {"type": "Feature", "properties": {"zone_id": "0202CS8NLOWPY8WSCE0AYG", "tract_id": "36081084902", "city": "FLUSHING, NY", "zone_code": "C1-2", "zone_category": "Commercial", "ev_permitted": true}, "geometry": {"type": "Polygon", "coordinates": [[[-73.8297698427229, 40.7578140321515], [-73.829512085315, 40.7579272823804], [-73.8295572504125, 40.7580164818207], [-73.8298341492153, 40.7578948222758], [-73.8297698427229, 40.7578140321515]]]}}, {"type": "Feature", "properties": {"zone_id": "0203T6RBPDF13T8XPK9G0E", "tract_id": "36081084902", "city": "FLUSHING, NY", "zone_code": "C1-2", "zone_category": "Commercial", "ev_permitted": true}, "geometry": {"type": "Polygon", "coordinates": [[[-73.8298965168169, 40.7577079959611], [-73.8294912175038, 40.7578860702362], [-73.829512085315, 40.7579272823804], [-73.8299166308733, 40.7577495392761], [-73.8298965168169, 40.7577079959611]]]}}, {"type": "Feature", "properties": {"zone_id": "0201LX6V2BKTQYWR9UAKID", "tract_id": "36081084902", "city": "FLUSHING, NY", "zone_code": "C1-2", "zone_category": "Commercial", "ev_permitted": true}, "geometry": {"type": "Polygon", "coordinates": [[[-73.8298778679962, 40.7576694790374], [-73.8294718694966, 40.7578478599759], [-73.8294912175038, 40.7578860702362], [-73.8298965168169, 40.7577079959611], [-73.8298778679962, 40.7576694790374]]]}}, {"type": "Feature", "properties": {"zone_id": "0200FSGVL487SXT1FPSTYM", "tract_id": "36081084902", "city": "FLUSHING, NY", "zone_code": "R6", "zone_category": "Residential", "ev_permitted": false}, "geometry": {"type": "Polygon", "coordinates": [[[-73.8298574488158, 40.7576273042794], [-73.8294506863869, 40.7578060219932], [-73.8294718694966, 40.7578478599759], [-73.8298778679962, 40.7576694790374], [-73.8298574488158, 40.7576273042794]]]}}, {"type": "Feature", "properties": {"zone_id": "02034262WBBDEALLYTV736", "tract_id": "36081084902", "city": "FLUSHING, NY", "zone_code": "C1-2", "zone_category": "Commercial", "ev_permitted": true}, "geometry": {"type": "Polygon", "coordinates": [[[-73.8298763797314, 40.7575763461164], [-73.8294330236914, 40.7577711412969], [-73.8294506863869, 40.7578060219932], [-73.8298574488158, 40.7576273042794], [-73.8298578284467, 40.7576280883014], [-73.829895044825, 40.7576117369485], [-73.8298763797314, 40.7575763461164]]]}}, {"type": "Feature", "properties": {"zone_id": "0205KACZ884CT10E4RW1QO", "tract_id": "36081084902", "city": "FLUSHING, NY", "zone_code": "R6", "zone_category": "Residential", "ev_permitted": false}, "geometry": {"type": "Polygon", "coordinates": [[[-73.8322159138913, 40.756591982908], [-73.8321502687141, 40.7566208268674], [-73.8323407206449, 40.7568600817384], [-73.8324063650531, 40.7568312369674], [-73.8322159138913, 40.756591982908]]]}}, {"type": "Feature", "properties": {"zone_id": "0206Q1EY2IO9GZE6KTEJP1", "tract_id": "36081084902", "city": "FLUSHING, NY", "zone_code": "R6", "zone_category": "Residential", "ev_permitted": false}, "geometry": {"type": "Polygon", "coordinates": [[[-73.8322815590135, 40.7565631382084], [-73.8322159138913, 40.756591982908], [-73.8324063650531, 40.7568312369674], [-73.832472009401, 40.7568023935643], [-73.8322815590135, 40.7565631382084]]]}}, {"type": "Feature", "properties": {"zone_id": "0205UENZHNIZE8P8UK136M", "tract_id": "36081084902", "city": "FLUSHING, NY", "zone_code": "R6", "zone_category": "Residential", "ev_permitted": false}, "geometry": {"type": "Polygon", "coordinates": [[[-73.832343575068, 40.7565358881375], [-73.8322815590135, 40.7565631382084], [-73.832472009401, 40.7568023935643], [-73.8325340265244, 40.7567751433931], [-73.832343575068, 40.7565358881375]]]}}, {"type": "Feature", "properties": {"zone_id": "02011GC70S04MBHIK0ZXOW", "tract_id": "36081084902", "city": "", "zone_code": "R6", "zone_category": "Residential", "ev_permitted": false}, "geometry": {"type": "Polygon", "coordinates": [[[-73.8324253503361, 40.7564999559516], [-73.832343575068, 40.7565358881375], [-73.8325340265244, 40.7567751433931], [-73.8326158019853, 40.7567392103707], [-73.8324253503361, 40.7564999559516]]]}}, {"type": "Feature", "properties": {"zone_id": "0200HDCDM7RP40777FTXL8", "tract_id": "36081084902", "city": "FLUSHING, NY", "zone_code": "R6", "zone_category": "Residential", "ev_permitted": false}, "geometry": {"type": "Polygon", "coordinates": [[[-73.831249999984, 40.7570163998102], [-73.8310896244563, 40.7570868667155], [-73.8312800739099, 40.7573261233238], [-73.8314404488863, 40.7572556568571], [-73.831249999984, 40.7570163998102]]]}}, {"type": "Feature", "properties": {"zone_id": "0202F7SRY4FW3QWBQSGGQR", "tract_id": "36081084902", "city": "FLUSHING, NY", "zone_code": "R6", "zone_category": "Residential", "ev_permitted": false}, "geometry": {"type": "Polygon", "coordinates": [[[-73.8310896244563, 40.7570868667155], [-73.8309283401633, 40.7571577325775], [-73.8311187883161, 40.7573969894486], [-73.8312800739099, 40.7573261233238], [-73.8310896244563, 40.7570868667155]]]}}, {"type": "Feature", "properties": {"zone_id": "020125P6ST11B7DRODLJ6U", "tract_id": "36081084902", "city": "", "zone_code": "R6", "zone_category": "Residential", "ev_permitted": false}, "geometry": {"type": "Polygon", "coordinates": [[[-73.8309283401633, 40.7571577325775], [-73.8306989844604, 40.7572585065204], [-73.8308894329998, 40.7574977644711], [-73.8311187883161, 40.7573969894486], [-73.8309283401633, 40.7571577325775]]]}}, {"type": "Feature", "properties": {"zone_id": "0203KP1FZ36SJ0N2O2AKXZ", "tract_id": "36081084902", "city": "", "zone_code": "R6", "zone_category": "Residential", "ev_permitted": false}, "geometry": {"type": "Polygon", "coordinates": [[[-73.8317961401011, 40.7567764306598], [-73.831718891435, 40.7568103734681], [-73.8319093432823, 40.757049629047], [-73.8319865912048, 40.7570156861109], [-73.8317961401011, 40.7567764306598]]]}}, {"type": "Feature", "properties": {"zone_id": "020139ONNUPGQTGYKUO66A", "tract_id": "36081084902", "city": "FLUSHING, NY", "zone_code": "R6", "zone_category": "Residential", "ev_permitted": false}, "geometry": {"type": "Polygon", "coordinates": [[[-73.831718891435, 40.7568103734681], [-73.8316368360344, 40.7568464277074], [-73.831827286766, 40.7570856834194], [-73.8319093432823, 40.757049629047], [-73.831718891435, 40.7568103734681]]]}}, {"type": "Feature", "properties": {"zone_id": "0202THNEHLRV8P2AHGCP87", "tract_id": "36081084902", "city": "FLUSHING, NY", "zone_code": "R6", "zone_category": "Residential", "ev_permitted": false}, "geometry": {"type": "Polygon", "coordinates": [[[-73.8316368360344, 40.7568464277074], [-73.8315625946075, 40.756879048894], [-73.8317530451657, 40.7571183047276], [-73.831827286766, 40.7570856834194], [-73.8316368360344, 40.7568464277074]]]}}, {"type": "Feature", "properties": {"zone_id": "0203IO3JZ0YJAV3LKB8S0P", "tract_id": "36081084902", "city": "FLUSHING, NY", "zone_code": "R6", "zone_category": "Residential", "ev_permitted": false}, "geometry": {"type": "Polygon", "coordinates": [[[-73.8315625946075, 40.756879048894], [-73.831484447459, 40.7569133865293], [-73.8316748959848, 40.7571526431908], [-73.8317530451657, 40.7571183047276], [-73.8315625946075, 40.756879048894]]]}}, {"type": "Feature", "properties": {"zone_id": "0207HSAZGUD1YDX7ODG79I", "tract_id": "36081084902", "city": "FLUSHING, NY", "zone_code": "R6", "zone_category": "Residential", "ev_permitted": false}, "geometry": {"type": "Polygon", "coordinates": [[[-73.8319519535631, 40.7567079671164], [-73.8318751879401, 40.7567416978295], [-73.8320656392302, 40.7569809524484], [-73.8321424041067, 40.7569472223109], [-73.8319519535631, 40.7567079671164]]]}}, {"type": "Feature", "properties": {"zone_id": "0202ZDZAWBWX1YQ547DVX8", "tract_id": "36081084902", "city": "FLUSHING, NY", "zone_code": "R6", "zone_category": "Residential", "ev_permitted": false}, "geometry": {"type": "Polygon", "coordinates": [[[-73.8318751879401, 40.7567416978295], [-73.8317961401011, 40.7567764306598], [-73.8319865912048, 40.7570156861109], [-73.8320656392302, 40.7569809524484], [-73.8318751879401, 40.7567416978295]]]}}, {"type": "Feature", "properties": {"zone_id": "0205PRTVSTQ00559KGOUBO", "tract_id": "36081084902", "city": "FLUSHING, NY", "zone_code": "R6", "zone_category": "Residential", "ev_permitted": false}, "geometry": {"type": "Polygon", "coordinates": [[[-73.8321502687141, 40.7566208268674], [-73.8320846253281, 40.756649670792], [-73.8322750761797, 40.7568889264718], [-73.8323407206449, 40.7568600817384], [-73.8321502687141, 40.7566208268674]]]}}, {"type": "Feature", "properties": {"zone_id": "0204FL5SILVSGOHPS7CU04", "tract_id": "36081084902", "city": "FLUSHING, NY", "zone_code": "R6", "zone_category": "Residential", "ev_permitted": false}, "geometry": {"type": "Polygon", "coordinates": [[[-73.8320846253281, 40.756649670792], [-73.8320189809612, 40.7566785146776], [-73.8322094316595, 40.7569177704649], [-73.8322750761797, 40.7568889264718], [-73.8320846253281, 40.756649670792]]]}}, {"type": "Feature", "properties": {"zone_id": "020772EISY09N0HH7OJ5IC", "tract_id": "36081084902", "city": "FLUSHING, NY", "zone_code": "R6", "zone_category": "Residential", "ev_permitted": false}, "geometry": {"type": "Polygon", "coordinates": [[[-73.8320189809612, 40.7566785146776], [-73.8319519535631, 40.7567079671164], [-73.8321424041067, 40.7569472223109], [-73.8322094316595, 40.7569177704649], [-73.8320189809612, 40.7566785146776]]]}}, {"type": "Feature", "properties": {"zone_id": "0207FJDRQRV8JPFW6EXPPB", "tract_id": "36081084902", "city": "FLUSHING, NY", "zone_code": "R6", "zone_category": "Residential", "ev_permitted": false}, "geometry": {"type": "Polygon", "coordinates": [[[-73.8314811290708, 40.7565116774413], [-73.8314005467603, 40.7565495823565], [-73.8316368360344, 40.7568464277074], [-73.831718891435, 40.7568103734681], [-73.8314811290708, 40.7565116774413]]]}}, {"type": "Feature", "properties": {"zone_id": "0201MEL24S31JRHN0LC09D", "tract_id": "36081084902", "city": "", "zone_code": "R6", "zone_category": "Residential", "ev_permitted": false}, "geometry": {"type": "Polygon", "coordinates": [[[-73.8315569903196, 40.7564759922836], [-73.8314811290708, 40.7565116774413], [-73.831718891435, 40.7568103734681], [-73.8317961401011, 40.7567764306598], [-73.8315569903196, 40.7564759922836]]]}}, {"type": "Feature", "properties": {"zone_id": "0205O6CLCVNIMX2AZB5P3F", "tract_id": "36081084902", "city": "FLUSHING, NY", "zone_code": "R6", "zone_category": "Residential", "ev_permitted": false}, "geometry": {"type": "Polygon", "coordinates": [[[-73.8314005467603, 40.7565495823565], [-73.8310597979223, 40.7567098677014], [-73.831289856762, 40.7569988875731], [-73.8316368360344, 40.7568464277074], [-73.8314005467603, 40.7565495823565]]]}}, {"type": "Feature", "properties": {"zone_id": "02032N4L6MY25NCQ0KXJC8", "tract_id": "36081084902", "city": "FLUSHING, NY", "zone_code": "R6", "zone_category": "Residential", "ev_permitted": false}, "geometry": {"type": "Polygon", "coordinates": [[[-73.831484447459, 40.7569133865293], [-73.8314034066087, 40.7569489944943], [-73.8315938567934, 40.7571882512912], [-73.8316748959848, 40.7571526431908], [-73.831484447459, 40.7569133865293]]]}}, {"type": "Feature", "properties": {"zone_id": "0207N4KM8Q6JY7VG7XYMU2", "tract_id": "36081084902", "city": "FLUSHING, NY", "zone_code": "R6", "zone_category": "Residential", "ev_permitted": false}, "geometry": {"type": "Polygon", "coordinates": [[[-73.8314034066087, 40.7569489944943], [-73.8313228624345, 40.7569843846035], [-73.8315133133569, 40.7572236408311], [-73.8315938567934, 40.7571882512912], [-73.8314034066087, 40.7569489944943]]]}}, {"type": "Feature", "properties": {"zone_id": "020561GNT8CPW0M4F794MV", "tract_id": "36081084902", "city": "", "zone_code": "R6", "zone_category": "Residential", "ev_permitted": false}, "geometry": {"type": "Polygon", "coordinates": [[[-73.8313228624345, 40.7569843846035], [-73.831249999984, 40.7570163998102], [-73.8314404488863, 40.7572556568571], [-73.8315133133569, 40.7572236408311], [-73.8313228624345, 40.7569843846035]]]}}, {"type": "Feature", "properties": {"zone_id": "0203RNRD8XYM85I9JEPBZG", "tract_id": "36081084902", "city": "", "zone_code": "R6", "zone_category": "Residential", "ev_permitted": false}, "geometry": {"type": "Polygon", "coordinates": [[[-73.8309953015374, 40.7567402058318], [-73.830937447634, 40.7567674191263], [-73.8311652696837, 40.7570536295542], [-73.8312241811796, 40.7570277443102], [-73.8309953015374, 40.7567402058318]]]}}, {"type": "Feature", "properties": {"zone_id": "0205MYDSVUNYCV8I36SOT7", "tract_id": "36081084902", "city": "FLUSHING, NY", "zone_code": "R6", "zone_category": "Residential", "ev_permitted": false}, "geometry": {"type": "Polygon", "coordinates": [[[-73.830937447634, 40.7567674191263], [-73.8308735143989, 40.7567975521368], [-73.8311001323875, 40.7570822495116], [-73.8311652696837, 40.7570536295542], [-73.830937447634, 40.7567674191263]]]}}, {"type": "Feature", "properties": {"zone_id": "02023GXOTM55FTC1BOC1MX", "tract_id": "36081084902", "city": "FLUSHING, NY", "zone_code": "R6", "zone_category": "Residential", "ev_permitted": false}, "geometry": {"type": "Polygon", "coordinates": [[[-73.8308735143989, 40.7567975521368], [-73.8308129702214, 40.7568259713925], [-73.831038515873, 40.7571093231319], [-73.8311001323875, 40.7570822495116], [-73.8308735143989, 40.7567975521368]]]}}, {"type": "Feature", "properties": {"zone_id": "0202AQOGBWD72D7RN0DYEO", "tract_id": "36081084902", "city": "FLUSHING, NY", "zone_code": "R6", "zone_category": "Residential", "ev_permitted": false}, "geometry": {"type": "Polygon", "coordinates": [[[-73.8308129702214, 40.7568259713925], [-73.8307483644447, 40.7568563605178], [-73.8309727290613, 40.7571382294508], [-73.831038515873, 40.7571093231319], [-73.8308129702214, 40.7568259713925]]]}}, {"type": "Feature", "properties": {"zone_id": "0204OTUEGXIKZHDIQ02FV3", "tract_id": "36081084902", "city": "", "zone_code": "R6", "zone_category": "Residential", "ev_permitted": false}, "geometry": {"type": "Polygon", "coordinates": [[[-73.8310597979223, 40.7567098677014], [-73.8309953015374, 40.7567402058318], [-73.8312241811796, 40.7570277443102], [-73.831289856762, 40.7569988875731], [-73.8310597979223, 40.7567098677014]]]}}, {"type": "Feature", "properties": {"zone_id": "0200GMNNE8Q2UAT3PIGRMW", "tract_id": "36081084902", "city": "", "zone_code": "R6", "zone_category": "Residential", "ev_permitted": false}, "geometry": {"type": "Polygon", "coordinates": [[[-73.8333812405482, 40.7560048190542], [-73.8329969762269, 40.7561736715821], [-73.8332317237709, 40.7564685685904], [-73.8335008547292, 40.7563503081022], [-73.8333812405482, 40.7560048190542]]]}}, {"type": "Feature", "properties": {"zone_id": "0204CFVGVHYSOQLZHP15G4", "tract_id": "36081084902", "city": "", "zone_code": "R6", "zone_category": "Residential", "ev_permitted": false}, "geometry": {"type": "Polygon", "coordinates": [[[-73.8330412688352, 40.7562293151776], [-73.8328102710757, 40.7563308189], [-73.833000724548, 40.7565700726899], [-73.8332317237709, 40.7564685685904], [-73.8330412688352, 40.7562293151776]]]}}, {"type": "Feature", "properties": {"zone_id": "0205KLHUTJMKUSZEJSZPCR", "tract_id": "36081084902", "city": "", "zone_code": "R6", "zone_category": "Residential", "ev_permitted": false}, "geometry": {"type": "Polygon", "coordinates": [[[-73.8327797615761, 40.7559007961813], [-73.832558739721, 40.7560047675591], [-73.8328162062248, 40.7563282108228], [-73.8330412688352, 40.7562293151776], [-73.8327797615761, 40.7559007961813]]]}}, {"type": "Feature", "properties": {"zone_id": "0204VDO7WP1IYBEDY1RZH4", "tract_id": "36081084902", "city": "", "zone_code": "R6", "zone_category": "Residential", "ev_permitted": false}, "geometry": {"type": "Polygon", "coordinates": [[[-73.832558739721, 40.7560047675591], [-73.8322272042585, 40.7561607238256], [-73.8324786096684, 40.7564765541641], [-73.8325750756298, 40.7564341654486], [-73.8327655276269, 40.756673420325], [-73.833000724548, 40.7565700726899], [-73.8328102710757, 40.7563308189], [-73.8328162062248, 40.7563282108228], [-73.832558739721, 40.7560047675591]]]}}, {"type": "Feature", "properties": {"zone_id": "0205ALHXZF4YA1ZPNUOOYX", "tract_id": "36081084902", "city": "FLUSHING, NY", "zone_code": "R6", "zone_category": "Residential", "ev_permitted": false}, "geometry": {"type": "Polygon", "coordinates": [[[-73.8325750756298, 40.7564341654486], [-73.832498741716, 40.7564677067854], [-73.8326891944588, 40.7567069617882], [-73.8327655276269, 40.756673420325], [-73.8325750756298, 40.7564341654486]]]}}, {"type": "Feature", "properties": {"zone_id": "020657GY07HKY4KVB9BSOD", "tract_id": "36081084902", "city": "", "zone_code": "R6", "zone_category": "Residential", "ev_permitted": false}, "geometry": {"type": "Polygon", "coordinates": [[[-73.832498741716, 40.7564677067854], [-73.8324253503361, 40.7564999559516], [-73.8326158019853, 40.7567392103707], [-73.8326891944588, 40.7567069617882], [-73.832498741716, 40.7564677067854]]]}}, {"type": "Feature", "properties": {"zone_id": "02057FX4GV1AY7ICJE3ROB", "tract_id": "36081084902", "city": "", "zone_code": "R6", "zone_category": "Residential", "ev_permitted": false}, "geometry": {"type": "Polygon", "coordinates": [[[-73.8322272042585, 40.7561607238256], [-73.8321166930167, 40.7562127090363], [-73.8323660771512, 40.7565260007871], [-73.8324786096684, 40.7564765541641], [-73.8322272042585, 40.7561607238256]]]}}, {"type": "Feature", "properties": {"zone_id": "02003Q3V1F2CTJMGZCTLAO", "tract_id": "36081084902", "city": "FLUSHING, NY", "zone_code": "R6", "zone_category": "Residential", "ev_permitted": false}, "geometry": {"type": "Polygon", "coordinates": [[[-73.8332112902098, 40.7556977976798], [-73.8331494517912, 40.7557268880305], [-73.8333734257563, 40.7560082528732], [-73.8333812405482, 40.7560048190542], [-73.8333239407142, 40.7558393133539], [-73.8332112902098, 40.7556977976798]]]}}, {"type": "Feature", "properties": {"zone_id": "02040RXI1BUYDTDQ4ZSB96", "tract_id": "36081084902", "city": "FLUSHING, NY", "zone_code": "R6", "zone_category": "Residential", "ev_permitted": false}, "geometry": {"type": "Polygon", "coordinates": [[[-73.8330278267044, 40.7557841026435], [-73.8329676329865, 40.7558124188455], [-73.8331882830251, 40.7560896082592], [-73.8332495776556, 40.7560626742557], [-73.8330278267044, 40.7557841026435]]]}}, {"type": "Feature", "properties": {"zone_id": "0205FZSR5TKZ56098B7ILV", "tract_id": "36081084902", "city": "FLUSHING, NY", "zone_code": "R6", "zone_category": "Residential", "ev_permitted": false}, "geometry": {"type": "Polygon", "coordinates": [[[-73.8329676329865, 40.7558124188455], [-73.8329027710665, 40.7558429310713], [-73.8331222354407, 40.7561186306651], [-73.8331882830251, 40.7560896082592], [-73.8329676329865, 40.7558124188455]]]}}, {"type": "Feature", "properties": {"zone_id": "0201Y3Y4OA56YF7OD8RR7Z", "tract_id": "36081084902", "city": "FLUSHING, NY", "zone_code": "R6", "zone_category": "Residential", "ev_permitted": false}, "geometry": {"type": "Polygon", "coordinates": [[[-73.8329027710665, 40.7558429310713], [-73.8328400868204, 40.7558724184348], [-73.8330584051441, 40.7561466788519], [-73.8331222354407, 40.7561186306651], [-73.8329027710665, 40.7558429310713]]]}}, {"type": "Feature", "properties": {"zone_id": "0203XE8SS3D2WIJUBSEFW2", "tract_id": "36081084902", "city": "FLUSHING, NY", "zone_code": "R6", "zone_category": "Residential", "ev_permitted": false}, "geometry": {"type": "Polygon", "coordinates": [[[-73.8328400868204, 40.7558724184348], [-73.8327797615761, 40.7559007961813], [-73.8329969762269, 40.7561736715821], [-73.8330584051441, 40.7561466788519], [-73.8328400868204, 40.7558724184348]]]}}, {"type": "Feature", "properties": {"zone_id": "0207AVOI93YZS4XRTW7VMW", "tract_id": "36081084902", "city": "FLUSHING, NY", "zone_code": "R6", "zone_category": "Residential", "ev_permitted": false}, "geometry": {"type": "Polygon", "coordinates": [[[-73.8315146124526, 40.7554968303299], [-73.830907058299, 40.7557829526541], [-73.8311301323338, 40.7560540694989], [-73.8314307932448, 40.7559124306887], [-73.8316864048957, 40.7562230889488], [-73.8319932452546, 40.7560785374648], [-73.8315146124526, 40.7554968303299]]]}}, {"type": "Feature", "properties": {"zone_id": "02062H45TMMXYPBLC0J67U", "tract_id": "36081084902", "city": "", "zone_code": "R6", "zone_category": "Residential", "ev_permitted": false}, "geometry": {"type": "Polygon", "coordinates": [[[-73.8321166930167, 40.7562127090363], [-73.8320148352785, 40.7562606222206], [-73.8322623575235, 40.7565715751477], [-73.8323660771512, 40.7565260007871], [-73.8321166930167, 40.7562127090363]]]}}, {"type": "Feature", "properties": {"zone_id": "02044S6OE0W87EELBB8XQW", "tract_id": "36081084902", "city": "", "zone_code": "R6", "zone_category": "Residential", "ev_permitted": false}, "geometry": {"type": "Polygon", "coordinates": [[[-73.8320148352785, 40.7562606222206], [-73.831912611038, 40.7563087090386], [-73.8321582640278, 40.7566173139943], [-73.8322623575235, 40.7565715751477], [-73.8320148352785, 40.7562606222206]]]}}, {"type": "Feature", "properties": {"zone_id": "0204EJ9H22KJ0E67VP9DWM", "tract_id": "36081084902", "city": "FLUSHING, NY", "zone_code": "R6", "zone_category": "Residential", "ev_permitted": false}, "geometry": {"type": "Polygon", "coordinates": [[[-73.831912611038, 40.7563087090386], [-73.8318113090071, 40.7563563621681], [-73.8320551084046, 40.7566626402497], [-73.8321582640278, 40.7566173139943], [-73.831912611038, 40.7563087090386]]]}}, {"type": "Feature", "properties": {"zone_id": "0200P58ZS4D0RWOJF82SKN", "tract_id": "36081084902", "city": "FLUSHING, NY", "zone_code": "R6", "zone_category": "Residential", "ev_permitted": false}, "geometry": {"type": "Polygon", "coordinates": [[[-73.8318113090071, 40.7563563621681], [-73.8317100059072, 40.7564040152069], [-73.8319519535631, 40.7567079671164], [-73.8320551084046, 40.7566626402497], [-73.8318113090071, 40.7563563621681]]]}}, {"type": "Feature", "properties": {"zone_id": "0201EYVFQ8336HX35HZR08", "tract_id": "36081084902", "city": "", "zone_code": "R6", "zone_category": "Residential", "ev_permitted": false}, "geometry": {"type": "Polygon", "coordinates": [[[-73.8317100059072, 40.7564040152069], [-73.8315569903196, 40.7564759922836], [-73.8317961401011, 40.7567764306598], [-73.8319519535631, 40.7567079671164], [-73.8317100059072, 40.7564040152069]]]}}, {"type": "Feature", "properties": {"zone_id": "0207IIL3FINJO4WBEHR825", "tract_id": "36081084902", "city": "FLUSHING, NY", "zone_code": "R6", "zone_category": "Residential", "ev_permitted": false}, "geometry": {"type": "Polygon", "coordinates": [[[-73.8314307932448, 40.7559124306887], [-73.8311301323338, 40.7560540694989], [-73.8313857431242, 40.7563647291225], [-73.8316864048957, 40.7562230889488], [-73.8314307932448, 40.7559124306887]]]}}, {"type": "Feature", "properties": {"zone_id": "02014X9KABU27H71MP17N8", "tract_id": "36081084902", "city": "FLUSHING, NY", "zone_code": "R6", "zone_category": "Residential", "ev_permitted": false}, "geometry": {"type": "Polygon", "coordinates": [[[-73.8309429749224, 40.7562476360167], [-73.8308834995119, 40.756275669716], [-73.8310783533851, 40.756514631717], [-73.8311378289305, 40.7564865965127], [-73.8309429749224, 40.7562476360167]]]}}, {"type": "Feature", "properties": {"zone_id": "0205T9AP0I45YWNZ214BMD", "tract_id": "36081084902", "city": "FLUSHING, NY", "zone_code": "R6", "zone_category": "Residential", "ev_permitted": false}, "geometry": {"type": "Polygon", "coordinates": [[[-73.8308834995119, 40.756275669716], [-73.8308227501304, 40.7563043043925], [-73.8310176038693, 40.7565432664953], [-73.8310783533851, 40.756514631717], [-73.8308834995119, 40.756275669716]]]}}, {"type": "Feature", "properties": {"zone_id": "0206NAUZ52WM6FJK4ESPP6", "tract_id": "36081084902", "city": "FLUSHING, NY", "zone_code": "R6", "zone_category": "Residential", "ev_permitted": false}, "geometry": {"type": "Polygon", "coordinates": [[[-73.8308227501304, 40.7563043043925], [-73.8307611541925, 40.7563333376046], [-73.8309560077955, 40.7565722998105], [-73.8310176038693, 40.7565432664953], [-73.8308227501304, 40.7563043043925]]]}}, {"type": "Feature", "properties": {"zone_id": "0207KYM23UXWXFHYNQHWZB", "tract_id": "36081084902", "city": "FLUSHING, NY", "zone_code": "R6", "zone_category": "Residential", "ev_permitted": false}, "geometry": {"type": "Polygon", "coordinates": [[[-73.8303868608421, 40.7573956470954], [-73.8299163144916, 40.7576023914104], [-73.8301067602788, 40.7578416506417], [-73.8305773077301, 40.7576349048534], [-73.8303868608421, 40.7573956470954]]]}}, {"type": "Feature", "properties": {"zone_id": "0204F31DO4EMYBK2Y7410C", "tract_id": "36081084902", "city": "FLUSHING, NY", "zone_code": "R6", "zone_category": "Residential", "ev_permitted": false}, "geometry": {"type": "Polygon", "coordinates": [[[-73.830611721596, 40.7572968486551], [-73.8305427086542, 40.7573271714574], [-73.8307331559063, 40.7575664289601], [-73.830794605526, 40.7575394297406], [-73.8306554130569, 40.7573645639062], [-73.830611721596, 40.7572968486551]]]}}, {"type": "Feature", "properties": {"zone_id": "0202OXWFQ1VXJO8Q53RQ21", "tract_id": "36081084902", "city": "FLUSHING, NY", "zone_code": "R6", "zone_category": "Residential", "ev_permitted": false}, "geometry": {"type": "Polygon", "coordinates": [[[-73.8305427086542, 40.7573271714574], [-73.8303868608421, 40.7573956470954], [-73.8305773077301, 40.7576349048534], [-73.8307331559063, 40.7575664289601], [-73.8305427086542, 40.7573271714574]]]}}, {"type": "Feature", "properties": {"zone_id": "0200ZIJR8NO8PXOS0DDDAD", "tract_id": "36081084902", "city": "FLUSHING, NY", "zone_code": "R6", "zone_category": "Residential", "ev_permitted": false}, "geometry": {"type": "Polygon", "coordinates": [[[-73.8304020004987, 40.7570192832721], [-73.8303409626602, 40.7570479938576], [-73.8305578781497, 40.7573205058915], [-73.8306200325266, 40.7572931965244], [-73.8304020004987, 40.7570192832721]]]}}, {"type": "Feature", "properties": {"zone_id": "0204V75XM36O2CTIEVSMU9", "tract_id": "36081084902", "city": "FLUSHING, NY", "zone_code": "R6", "zone_category": "Residential", "ev_permitted": false}, "geometry": {"type": "Polygon", "coordinates": [[[-73.8303409626602, 40.7570479938576], [-73.830286885622, 40.7570734304517], [-73.830502812627, 40.7573447016471], [-73.8305578781497, 40.7573205058915], [-73.8303409626602, 40.7570479938576]]]}}, {"type": "Feature", "properties": {"zone_id": "0203QJ818F8IS2O0OFA9BA", "tract_id": "36081084902", "city": "FLUSHING, NY", "zone_code": "R6", "zone_category": "Residential", "ev_permitted": false}, "geometry": {"type": "Polygon", "coordinates": [[[-73.830286885622, 40.7570734304517], [-73.8302275906736, 40.7571013214372], [-73.830442433391, 40.7573712301023], [-73.830502812627, 40.7573447016471], [-73.830286885622, 40.7570734304517]]]}}, {"type": "Feature", "properties": {"zone_id": "0200UYOK7H62K3RX8H6B46", "tract_id": "36081084902", "city": "FLUSHING, NY", "zone_code": "R6", "zone_category": "Residential", "ev_permitted": false}, "geometry": {"type": "Polygon", "coordinates": [[[-73.8302275906736, 40.7571013214372], [-73.830173015816, 40.7571269919313], [-73.8303868608421, 40.7573956470954], [-73.830442433391, 40.7573712301023], [-73.8302275906736, 40.7571013214372]]]}}, {"type": "Feature", "properties": {"zone_id": "0203853VV42IZOHELWJP3W", "tract_id": "36081084902", "city": "FLUSHING, NY", "zone_code": "R6", "zone_category": "Residential", "ev_permitted": false}, "geometry": {"type": "Polygon", "coordinates": [[[-73.830173015816, 40.7571269919313], [-73.8301102958481, 40.7571564932131], [-73.8303229939426, 40.7574237084666], [-73.8303868608421, 40.7573956470954], [-73.830173015816, 40.7571269919313]]]}}, {"type": "Feature", "properties": {"zone_id": "0200UF6F6GSOYHSWFRMDO4", "tract_id": "36081084902", "city": "FLUSHING, NY", "zone_code": "R6", "zone_category": "Residential", "ev_permitted": false}, "geometry": {"type": "Polygon", "coordinates": [[[-73.8301102958481, 40.7571564932131], [-73.8300545635281, 40.7571827086103], [-73.8302662418222, 40.7574486436295], [-73.8303229939426, 40.7574237084666], [-73.8301102958481, 40.7571564932131]]]}}, {"type": "Feature", "properties": {"zone_id": "02030QZ3LCQMGH1ZHXIV6P", "tract_id": "36081084902", "city": "FLUSHING, NY", "zone_code": "R6", "zone_category": "Residential", "ev_permitted": false}, "geometry": {"type": "Polygon", "coordinates": [[[-73.8298778547536, 40.7572658270519], [-73.8298218113985, 40.7572921880294], [-73.8300292354836, 40.7575527777133], [-73.8300863032365, 40.7575277040071], [-73.8298778547536, 40.7572658270519]]]}}, {"type": "Feature", "properties": {"zone_id": "0200S469NFORS60JE5U6BY", "tract_id": "36081084902", "city": "FLUSHING, NY", "zone_code": "R6", "zone_category": "Residential", "ev_permitted": false}, "geometry": {"type": "Polygon", "coordinates": [[[-73.8298218113985, 40.7572921880294], [-73.829759795165, 40.7573213585062], [-73.8298633360656, 40.757451438889], [-73.8299379366112, 40.7575928911016], [-73.8300292354836, 40.7575527777133], [-73.8298218113985, 40.7572921880294]]]}}, {"type": "Feature", "properties": {"zone_id": "0206D3DVBMGHKYLCV11E53", "tract_id": "36081084902", "city": "FLUSHING, NY", "zone_code": "C1-2", "zone_category": "Commercial", "ev_permitted": true}, "geometry": {"type": "Polygon", "coordinates": [[[-73.829759795165, 40.7573213585062], [-73.8297188309121, 40.7573406266222], [-73.8298173204826, 40.757464362325], [-73.829895044825, 40.7576117369485], [-73.8299379366112, 40.7575928911016], [-73.8298633360656, 40.757451438889], [-73.829759795165, 40.7573213585062]]]}}, {"type": "Feature", "properties": {"zone_id": "0201X0QP0638UEES4K6V43", "tract_id": "36081084902", "city": "FLUSHING, NY", "zone_code": "C1-2", "zone_category": "Commercial", "ev_permitted": true}, "geometry": {"type": "Polygon", "coordinates": [[[-73.8297188309121, 40.7573406266222], [-73.8296298211453, 40.7573824941698], [-73.8297343062774, 40.7575888465585], [-73.8298550046081, 40.7575358155658], [-73.8298173204826, 40.757464362325], [-73.8297188309121, 40.7573406266222]]]}}, {"type": "Feature", "properties": {"zone_id": "0203TXN210RQU5GQFNL8LQ", "tract_id": "36081084902", "city": "FLUSHING, NY", "zone_code": "C1-2", "zone_category": "Commercial", "ev_permitted": true}, "geometry": {"type": "Polygon", "coordinates": [[[-73.8298550046081, 40.7575358155658], [-73.8294123453733, 40.7577303039335], [-73.8294330236914, 40.7577711412969], [-73.8298763797314, 40.7575763461164], [-73.8298550046081, 40.7575358155658]]]}}, {"type": "Feature", "properties": {"zone_id": "0206VP0NSDYWL8UFSWVJE5", "tract_id": "36081084902", "city": "FLUSHING, NY", "zone_code": "C1-2", "zone_category": "Commercial", "ev_permitted": true}, "geometry": {"type": "Polygon", "coordinates": [[[-73.8296298211453, 40.7573824941698], [-73.8293119422228, 40.7575320118496], [-73.8294123453733, 40.7577303039335], [-73.8297343062774, 40.7575888465585], [-73.8296298211453, 40.7573824941698]]]}}, {"type": "Feature", "properties": {"zone_id": "0203UPWHUPJ3EEW96PQL5G", "tract_id": "36081084902", "city": "FLUSHING, NY", "zone_code": "R6", "zone_category": "Residential", "ev_permitted": false}, "geometry": {"type": "Polygon", "coordinates": [[[-73.8300545635281, 40.7571827086103], [-73.8299954127099, 40.7572105315312], [-73.83020601041, 40.7574751075341], [-73.8302662418222, 40.7574486436295], [-73.8300545635281, 40.7571827086103]]]}}, {"type": "Feature", "properties": {"zone_id": "0204GOMCI3OQIZGNAJEPMQ", "tract_id": "36081084902", "city": "FLUSHING, NY", "zone_code": "R6", "zone_category": "Residential", "ev_permitted": false}, "geometry": {"type": "Polygon", "coordinates": [[[-73.8299954127099, 40.7572105315312], [-73.8299385849136, 40.7572372617077], [-73.830148143473, 40.7575005321521], [-73.83020601041, 40.7574751075341], [-73.8299954127099, 40.7572105315312]]]}}, {"type": "Feature", "properties": {"zone_id": "02067QFCXE921EIUVEBIO9", "tract_id": "36081084902", "city": "FLUSHING, NY", "zone_code": "R6", "zone_category": "Residential", "ev_permitted": false}, "geometry": {"type": "Polygon", "coordinates": [[[-73.8299385849136, 40.7572372617077], [-73.8298778547536, 40.7572658270519], [-73.8300863032365, 40.7575277040071], [-73.830148143473, 40.7575005321521], [-73.8299385849136, 40.7572372617077]]]}}, {"type": "Feature", "properties": {"zone_id": "0206CI995Z8Q3OJCTXV8W5", "tract_id": "36081084902", "city": "", "zone_code": "R6", "zone_category": "Residential", "ev_permitted": false}, "geometry": {"type": "Polygon", "coordinates": [[[-73.8306085320024, 40.7569221350877], [-73.8304020004987, 40.7570192832721], [-73.8306200325266, 40.7572931965244], [-73.8308303401781, 40.7572007922096], [-73.8306085320024, 40.7569221350877]]]}}, {"type": "Feature", "properties": {"zone_id": "020704HX3JPAH7ZAQ7OKOQ", "tract_id": "36081084902", "city": "FLUSHING, NY", "zone_code": "R6", "zone_category": "Residential", "ev_permitted": false}, "geometry": {"type": "Polygon", "coordinates": [[[-73.8304695136227, 40.7564708036217], [-73.8303161168498, 40.7565431073337], [-73.8305109685475, 40.7567820695811], [-73.8306643656575, 40.7567097663148], [-73.8304695136227, 40.7564708036217]]]}}, {"type": "Feature", "properties": {"zone_id": "0205DSQA9FUP6MWLULZ13A", "tract_id": "36081084902", "city": "FLUSHING, NY", "zone_code": "R6", "zone_category": "Residential", "ev_permitted": false}, "geometry": {"type": "Polygon", "coordinates": [[[-73.8303161168498, 40.7565431073337], [-73.8302394183402, 40.7565792584101], [-73.8304342698668, 40.7568182214887], [-73.8305109685475, 40.7567820695811], [-73.8303161168498, 40.7565431073337]]]}}, {"type": "Feature", "properties": {"zone_id": "020219O0GOI8U7DISP0EGP", "tract_id": "36081084902", "city": "", "zone_code": "C1-2", "zone_category": "Commercial", "ev_permitted": true}, "geometry": {"type": "Polygon", "coordinates": [[[-73.8297468580311, 40.7567282780316], [-73.8294200039654, 40.7568823359649], [-73.8296652394272, 40.7571806980716], [-73.8300701812864, 40.7569898329008], [-73.82989433399, 40.7567741762704], [-73.8298094259928, 40.7568022976317], [-73.8297468580311, 40.7567282780316]]]}}, {"type": "Feature", "properties": {"zone_id": "02014AD1THN9813SKGFO0G", "tract_id": "36081084902", "city": "", "zone_code": "C1-2", "zone_category": "Commercial", "ev_permitted": true}, "geometry": {"type": "Polygon", "coordinates": [[[-73.8295362265965, 40.7564200240023], [-73.8291783574162, 40.7565873717681], [-73.8293025729382, 40.7569018420064], [-73.8294142576953, 40.7568753451628], [-73.8294200039654, 40.7568823359649], [-73.8297468580311, 40.7567282780316], [-73.8298094259928, 40.7568022976317], [-73.82989433399, 40.7567741762704], [-73.8298753287141, 40.7567508699123], [-73.8298252436474, 40.7567744768486], [-73.8295362265965, 40.7564200240023]]]}}, {"type": "Feature", "properties": {"zone_id": "0205A3A0OE5HP8O52KFCGO", "tract_id": "36081084902", "city": "", "zone_code": "R6", "zone_category": "Residential", "ev_permitted": false}, "geometry": {"type": "Polygon", "coordinates": [[[-73.830087141424, 40.7566510343671], [-73.8298753287141, 40.7567508699123], [-73.8300701812864, 40.7569898329008], [-73.8302819926161, 40.756889996998], [-73.830087141424, 40.7566510343671]]]}}, {"type": "Feature", "properties": {"zone_id": "020270U3XO1ZD8PHT3L5J6", "tract_id": "36081084902", "city": "FLUSHING, NY", "zone_code": "R6", "zone_category": "Residential", "ev_permitted": false}, "geometry": {"type": "Polygon", "coordinates": [[[-73.82957102866, 40.7570660784984], [-73.8291502418327, 40.7571659075994], [-73.8292359985248, 40.7573830128198], [-73.8296652394272, 40.7571806980716], [-73.82957102866, 40.7570660784984]]]}}, {"type": "Feature", "properties": {"zone_id": "0205TMRL9G6N87PNG8D5OI", "tract_id": "36081084902", "city": "FLUSHING, NY", "zone_code": "C1-2", "zone_category": "Commercial", "ev_permitted": true}, "geometry": {"type": "Polygon", "coordinates": [[[-73.8295432441329, 40.7570322761724], [-73.8291356534846, 40.7571289740365], [-73.8291502418327, 40.7571659075994], [-73.82957102866, 40.7570660784984], [-73.8295432441329, 40.7570322761724]]]}}, {"type": "Feature", "properties": {"zone_id": "0200OPRQBDDLUSHT3VU5VH", "tract_id": "36081084902", "city": "FLUSHING, NY", "zone_code": "C1-2", "zone_category": "Commercial", "ev_permitted": true}, "geometry": {"type": "Polygon", "coordinates": [[[-73.8295155351751, 40.7569985638914], [-73.8291211037065, 40.7570921403058], [-73.8291356534846, 40.7571289740365], [-73.8295432441329, 40.7570322761724], [-73.8295155351751, 40.7569985638914]]]}}, {"type": "Feature", "properties": {"zone_id": "0201K5ITIKT91RUP31QONU", "tract_id": "36081084902", "city": "FLUSHING, NY", "zone_code": "C1-2", "zone_category": "Commercial", "ev_permitted": true}, "geometry": {"type": "Polygon", "coordinates": [[[-73.829484040221, 40.7569602450077], [-73.8291045663038, 40.7570502726073], [-73.8291211037065, 40.7570921403058], [-73.8295155351751, 40.7569985638914], [-73.829484040221, 40.7569602450077]]]}}, {"type": "Feature", "properties": {"zone_id": "0207KTGKAKLGIPXDDR9T4N", "tract_id": "36081084902", "city": "FLUSHING, NY", "zone_code": "C1-2", "zone_category": "Commercial", "ev_permitted": true}, "geometry": {"type": "Polygon", "coordinates": [[[-73.8294478519264, 40.7569162164103], [-73.8290855565316, 40.757002146194], [-73.8291045663038, 40.7570502726073], [-73.829484040221, 40.7569602450077], [-73.8294478519264, 40.7569162164103]]]}}, {"type": "Feature", "properties": {"zone_id": "0206XGBJXGDJ62CL4NVCCC", "tract_id": "36081084902", "city": "FLUSHING, NY", "zone_code": "C1-2", "zone_category": "Commercial", "ev_permitted": true}, "geometry": {"type": "Polygon", "coordinates": [[[-73.8294142576953, 40.7568753451628], [-73.8290679257414, 40.7569575105105], [-73.8290855565316, 40.757002146194], [-73.8294478519264, 40.7569162164103], [-73.8294142576953, 40.7568753451628]]]}}, {"type": "Feature", "properties": {"zone_id": "0204FF0HP0QD9CMUA5KLBL", "tract_id": "36081084902", "city": "", "zone_code": "C1-2", "zone_category": "Commercial", "ev_permitted": true}, "geometry": {"type": "Polygon", "coordinates": [[[-73.8291783574162, 40.7565873717681], [-73.8289617347849, 40.7566886691628], [-73.8290679257414, 40.7569575105105], [-73.8293025729382, 40.7569018420064], [-73.8291783574162, 40.7565873717681]]]}}, {"type": "Feature", "properties": {"zone_id": "0201N8S77B6VIM47EW1C7T", "tract_id": "36081084902", "city": "FLUSHING, NY", "zone_code": "R6", "zone_category": "Residential", "ev_permitted": false}, "geometry": {"type": "Polygon", "coordinates": [[[-73.8307218100891, 40.7558656017331], [-73.8304143471046, 40.7560093844311], [-73.8307014482667, 40.7563614804855], [-73.8310082398046, 40.7562168725291], [-73.8307218100891, 40.7558656017331]]]}}, {"type": "Feature", "properties": {"zone_id": "02000HAVA1X75UDD0C54WI", "tract_id": "36081084902", "city": "", "zone_code": "R6", "zone_category": "Residential", "ev_permitted": false}, "geometry": {"type": "Polygon", "coordinates": [[[-73.8304143471046, 40.7560093844311], [-73.8300281722465, 40.7561899747721], [-73.8303161168498, 40.7565431073337], [-73.8307014482667, 40.7563614804855], [-73.8304143471046, 40.7560093844311]]]}}, {"type": "Feature", "properties": {"zone_id": "02011T1PLJW1LIDI0QJ6FN", "tract_id": "36081084902", "city": "FLUSHING, NY", "zone_code": "R6", "zone_category": "Residential", "ev_permitted": false}, "geometry": {"type": "Polygon", "coordinates": [[[-73.8305848061463, 40.7564164604768], [-73.8305262426279, 40.7564440639017], [-73.830721095712, 40.7566830265012], [-73.8307796593615, 40.7566554222755], [-73.8305848061463, 40.7564164604768]]]}}, {"type": "Feature", "properties": {"zone_id": "02022DM998T3ARKPHHUL2U", "tract_id": "36081084902", "city": "FLUSHING, NY", "zone_code": "R6", "zone_category": "Residential", "ev_permitted": false}, "geometry": {"type": "Polygon", "coordinates": [[[-73.8305262426279, 40.7564440639017], [-73.8304695136227, 40.7564708036217], [-73.8306643656575, 40.7567097663148], [-73.830721095712, 40.7566830265012], [-73.8305262426279, 40.7564440639017]]]}}, {"type": "Feature", "properties": {"zone_id": "020333VWXLUQN5YWWQU7T0", "tract_id": "36081084902", "city": "FLUSHING, NY", "zone_code": "C1-2", "zone_category": "Commercial", "ev_permitted": true}, "geometry": {"type": "Polygon", "coordinates": [[[-73.8300281722465, 40.7561899747721], [-73.8297986955426, 40.7562972856728], [-73.8302819926161, 40.756889996998], [-73.8304342698668, 40.7568182214887], [-73.8302394183402, 40.7565792584101], [-73.8303161168498, 40.7565431073337], [-73.8300281722465, 40.7561899747721]]]}}, {"type": "Feature", "properties": {"zone_id": "020788FASVIT375G25ZSF9", "tract_id": "36081084902", "city": "FLUSHING, NY", "zone_code": "C1-2", "zone_category": "Commercial", "ev_permitted": true}, "geometry": {"type": "Polygon", "coordinates": [[[-73.8297986955426, 40.7562972856728], [-73.8295362265965, 40.7564200240023], [-73.8298252436474, 40.7567744768486], [-73.830087141424, 40.7566510343671], [-73.8297986955426, 40.7562972856728]]]}}, {"type": "Feature", "properties": {"zone_id": "02079U9HS7Q971H8RCVKF6", "tract_id": "36081084902", "city": "FLUSHING, NY", "zone_code": "R6", "zone_category": "Residential", "ev_permitted": false}, "geometry": {"type": "Polygon", "coordinates": [[[-73.8303548780973, 40.7554123005327], [-73.8300442584197, 40.7555570437538], [-73.8302844799654, 40.7558560935375], [-73.8305935797637, 40.7557094565908], [-73.8303548780973, 40.7554123005327]]]}}, {"type": "Feature", "properties": {"zone_id": "0206UQCT2D6BP8SRGZNTL9", "tract_id": "36081084902", "city": "FLUSHING, NY", "zone_code": "R6", "zone_category": "Residential", "ev_permitted": false}, "geometry": {"type": "Polygon", "coordinates": [[[-73.8297808879002, 40.7554947712476], [-73.8293210127186, 40.7557090614131], [-73.8296723730523, 40.7561464719783], [-73.8301299970948, 40.755929378422], [-73.8297808879002, 40.7554947712476]]]}}, {"type": "Feature", "properties": {"zone_id": "0205CD2RS0SIY3MWNUAPYL", "tract_id": "36081084902", "city": "FLUSHING, NY", "zone_code": "R6", "zone_category": "Residential", "ev_permitted": false}, "geometry": {"type": "Polygon", "coordinates": [[[-73.8300442584197, 40.7555570437538], [-73.8299807717986, 40.7555866274548], [-73.830221304503, 40.7558860635866], [-73.8302844799654, 40.7558560935375], [-73.8300442584197, 40.7555570437538]]]}}, {"type": "Feature", "properties": {"zone_id": "0202NFX2PNBK10JWQI4CNP", "tract_id": "36081084902", "city": "FLUSHING, NY", "zone_code": "R6", "zone_category": "Residential", "ev_permitted": false}, "geometry": {"type": "Polygon", "coordinates": [[[-73.8299807717986, 40.7555866274548], [-73.8298890179208, 40.7556293828301], [-73.8301299970948, 40.755929378422], [-73.830221304503, 40.7558860635866], [-73.8299807717986, 40.7555866274548]]]}}, {"type": "Feature", "properties": {"zone_id": "0203COX46ORAH1GS1POWP0", "tract_id": "36081084902", "city": "FLUSHING, NY", "zone_code": "R6", "zone_category": "Residential", "ev_permitted": false}, "geometry": {"type": "Polygon", "coordinates": [[[-73.8289695510097, 40.7556861268031], [-73.8286292218432, 40.7558447072837], [-73.828899028938, 40.7565133322119], [-73.8292383903379, 40.756352346427], [-73.8289695510097, 40.7556861268031]]]}}, {"type": "Feature", "properties": {"zone_id": "0205MLLXEKHJPZA47N3ATB", "tract_id": "36081084902", "city": "", "zone_code": "R6", "zone_category": "Residential", "ev_permitted": false}, "geometry": {"type": "Polygon", "coordinates": [[[-73.82907437858, 40.7556372805583], [-73.8289695510097, 40.7556861268031], [-73.8292383903379, 40.756352346427], [-73.8296723730523, 40.7561464719783], [-73.8293084824962, 40.7556938157608], [-73.8291484723785, 40.7557295220491], [-73.82907437858, 40.7556372805583]]]}}, {"type": "Feature", "properties": {"zone_id": "0207H26VCGT9JH6GBHXSAI", "tract_id": "36081084902", "city": "FLUSHING, NY", "zone_code": "R6", "zone_category": "Residential", "ev_permitted": false}, "geometry": {"type": "Polygon", "coordinates": [[[-73.8331494517912, 40.7557268880305], [-73.8330878270214, 40.7557558774751], [-73.8333106742767, 40.7560358270623], [-73.8333734257563, 40.7560082528732], [-73.8331494517912, 40.7557268880305]]]}}, {"type": "Feature", "properties": {"zone_id": "02031HZ26WYXJE6ETC3A4A", "tract_id": "36081084902", "city": "FLUSHING, NY", "zone_code": "R6", "zone_category": "Residential", "ev_permitted": false}, "geometry": {"type": "Polygon", "coordinates": [[[-73.8330878270214, 40.7557558774751], [-73.8330278267044, 40.7557841026435], [-73.8332495776556, 40.7560626742557], [-73.8333106742767, 40.7560358270623], [-73.8330878270214, 40.7557558774751]]]}}, {"type": "Feature", "properties": {"zone_id": "0205D2KJYRKNX6QICLZ36C", "tract_id": "36081084902", "city": "FLUSHING, NY", "zone_code": "R6", "zone_category": "Residential", "ev_permitted": false}, "geometry": {"type": "Polygon", "coordinates": [[[-73.8332660310963, 40.7556720465847], [-73.8332112902098, 40.7556977976798], [-73.8333239407142, 40.7558393133539], [-73.8332660310963, 40.7556720465847]]]}}, {"type": "Feature", "properties": {"zone_id": "02055QB31GWBOV00EZWME7", "tract_id": "36081084902", "city": "FLUSHING, NY", "zone_code": "R6", "zone_category": "Residential", "ev_permitted": false}, "geometry": {"type": "Polygon", "coordinates": [[[-73.8324684282498, 40.7554406479189], [-73.8323671721658, 40.7554883507935], [-73.8326126771612, 40.7557867204169], [-73.8327139335212, 40.7557390180312], [-73.8324684282498, 40.7554406479189]]]}}, {"type": "Feature", "properties": {"zone_id": "0201LGYA46UIXUI4KLAL89", "tract_id": "36081084902", "city": "", "zone_code": "R6", "zone_category": "Residential", "ev_permitted": false}, "geometry": {"type": "Polygon", "coordinates": [[[-73.8321340963176, 40.7552050833666], [-73.8315146124526, 40.7554968303299], [-73.8319932452546, 40.7560785374648], [-73.8326126771612, 40.7557867204169], [-73.8321340963176, 40.7552050833666]]]}}, {"type": "Feature", "properties": {"zone_id": "0207IAPLO8H4QDRQ3WNH5V", "tract_id": "36081084902", "city": "FLUSHING, NY", "zone_code": "R6", "zone_category": "Residential", "ev_permitted": false}, "geometry": {"type": "Polygon", "coordinates": [[[-73.8310082398046, 40.7562168725291], [-73.8309429749224, 40.7562476360167], [-73.8311378289305, 40.7564865965127], [-73.8312030939533, 40.7564558343212], [-73.8310082398046, 40.7562168725291]]]}}, {"type": "Feature", "properties": {"zone_id": "0207MW0JAIVLTCO5P5K8SC", "tract_id": "36081084902", "city": "", "zone_code": "R6", "zone_category": "Residential", "ev_permitted": false}, "geometry": {"type": "Polygon", "coordinates": [[[-73.8306989844604, 40.7572585065204], [-73.830611721596, 40.7572968486551], [-73.8306554130569, 40.7573645639062], [-73.830794605526, 40.7575394297406], [-73.8308894329998, 40.7574977644711], [-73.8306989844604, 40.7572585065204]]]}}, {"type": "Feature", "properties": {"zone_id": "0204R1HMF5HB71BK84939Y", "tract_id": "36081084902", "city": "FLUSHING, NY", "zone_code": "R6", "zone_category": "Residential", "ev_permitted": false}, "geometry": {"type": "Polygon", "coordinates": [[[-73.8307483644447, 40.7568563605178], [-73.8306901615574, 40.7568837382993], [-73.8309134621417, 40.7571642700341], [-73.8309727290613, 40.7571382294508], [-73.8307483644447, 40.7568563605178]]]}}, {"type": "Feature", "properties": {"zone_id": "0201NFC9KRSO554H0253XQ", "tract_id": "36081084902", "city": "FLUSHING, NY", "zone_code": "R6", "zone_category": "Residential", "ev_permitted": false}, "geometry": {"type": "Polygon", "coordinates": [[[-73.8306901615574, 40.7568837382993], [-73.8306085320024, 40.7569221350877], [-73.8308303401781, 40.7572007922096], [-73.8309134621417, 40.7571642700341], [-73.8306901615574, 40.7568837382993]]]}}, {"type": "Feature", "properties": {"zone_id": "0201YJ6TQYJ9M4PXV3IGMA", "tract_id": "36081084902", "city": "FLUSHING, NY", "zone_code": "R6", "zone_category": "Residential", "ev_permitted": false}, "geometry": {"type": "Polygon", "coordinates": [[[-73.8307014482667, 40.7563614804855], [-73.8306406552454, 40.7563901360814], [-73.83083550766, 40.7566290977852], [-73.8308963017377, 40.7566004427915], [-73.8307014482667, 40.7563614804855]]]}}, {"type": "Feature", "properties": {"zone_id": "0201MQGLWQC08OILK19J7P", "tract_id": "36081084902", "city": "FLUSHING, NY", "zone_code": "R6", "zone_category": "Residential", "ev_permitted": false}, "geometry": {"type": "Polygon", "coordinates": [[[-73.8306406552454, 40.7563901360814], [-73.8305848061463, 40.7564164604768], [-73.8307796593615, 40.7566554222755], [-73.83083550766, 40.7566290977852], [-73.8306406552454, 40.7563901360814]]]}}, {"type": "Feature", "properties": {"zone_id": "0203D732K0DK4GWDEVDTAU", "tract_id": "36081084902", "city": "FLUSHING, NY", "zone_code": "R6", "zone_category": "Residential", "ev_permitted": false}, "geometry": {"type": "Polygon", "coordinates": [[[-73.8307611541925, 40.7563333376046], [-73.8307014482667, 40.7563614804855], [-73.8308963017377, 40.7566004427915], [-73.8309560077955, 40.7565722998105], [-73.8307611541925, 40.7563333376046]]]}}, {"type": "Feature", "properties": {"zone_id": "0204L1HM49BCMEJKN9KEJD", "tract_id": "36081084902", "city": "FLUSHING, NY", "zone_code": "R6", "zone_category": "Residential", "ev_permitted": false}, "geometry": {"type": "Polygon", "coordinates": [[[-73.8328728572122, 40.7552501157279], [-73.8327691270263, 40.7552989852892], [-73.8330146331242, 40.7555973540641], [-73.8331183635928, 40.7555484849864], [-73.8328728572122, 40.7552501157279]]]}}, {"type": "Feature", "properties": {"zone_id": "0203IE1KP29L9TWCQ44NUR", "tract_id": "36081084902", "city": "FLUSHING, NY", "zone_code": "R6", "zone_category": "Residential", "ev_permitted": false}, "geometry": {"type": "Polygon", "coordinates": [[[-73.8331684027095, 40.7553933379185], [-73.8330403457148, 40.755453667943], [-73.8331183635928, 40.7555484849864], [-73.833207156095, 40.7555066530705], [-73.8331684027095, 40.7553933379185]]]}}, {"type": "Feature", "properties": {"zone_id": "0203I7JQ7KZPD9M8XA3D5V", "tract_id": "36081084902", "city": "FLUSHING, NY", "zone_code": "R6", "zone_category": "Residential", "ev_permitted": false}, "geometry": {"type": "Polygon", "coordinates": [[[-73.8331395599645, 40.7553090048097], [-73.8329822815418, 40.7553831017398], [-73.8330403457148, 40.755453667943], [-73.8331684027095, 40.7553933379185], [-73.8331395599645, 40.7553090048097]]]}}, {"type": "Feature", "properties": {"zone_id": "020004CHNZ7AIR3WRJS6XW", "tract_id": "36081084902", "city": "FLUSHING, NY", "zone_code": "R6", "zone_category": "Residential", "ev_permitted": false}, "geometry": {"type": "Polygon", "coordinates": [[[-73.8331172503051, 40.7552437709197], [-73.8329373677966, 40.7553285168186], [-73.8329822815418, 40.7553831017398], [-73.8331395599645, 40.7553090048097], [-73.8331172503051, 40.7552437709197]]]}}, {"type": "Feature", "properties": {"zone_id": "0206JKOJPXCLCX5ANXGBMH", "tract_id": "36081084902", "city": "", "zone_code": "R6", "zone_category": "Residential", "ev_permitted": false}, "geometry": {"type": "Polygon", "coordinates": [[[-73.832969466976, 40.7548116557609], [-73.8326275517479, 40.7549726860789], [-73.8328605837403, 40.755255898347], [-73.8328728572122, 40.7552501157279], [-73.8329373677966, 40.7553285168186], [-73.8331172503051, 40.7552437709197], [-73.832969466976, 40.7548116557609]]]}}, {"type": "Feature", "properties": {"zone_id": "0201FVW0ITPI7550QF2KKU", "tract_id": "36081084902", "city": "FLUSHING, NY", "zone_code": "R6", "zone_category": "Residential", "ev_permitted": false}, "geometry": {"type": "Polygon", "coordinates": [[[-73.8327691270263, 40.7552989852892], [-73.8326698261423, 40.7553457672758], [-73.8329153310438, 40.755644136259], [-73.8330146331242, 40.7555973540641], [-73.8327691270263, 40.7552989852892]]]}}, {"type": "Feature", "properties": {"zone_id": "0207DXBA69VU0LB1F1WNFK", "tract_id": "36081084902", "city": "FLUSHING, NY", "zone_code": "R6", "zone_category": "Residential", "ev_permitted": false}, "geometry": {"type": "Polygon", "coordinates": [[[-73.8326698261423, 40.7553457672758], [-73.8325704474095, 40.7553925856017], [-73.8328159538864, 40.7556909547972], [-73.8329153310438, 40.755644136259], [-73.8326698261423, 40.7553457672758]]]}}, {"type": "Feature", "properties": {"zone_id": "0200C6NK30RM9LORTRIAJ5", "tract_id": "36081084902", "city": "", "zone_code": "R6", "zone_category": "Residential", "ev_permitted": false}, "geometry": {"type": "Polygon", "coordinates": [[[-73.8325704474095, 40.7553925856017], [-73.8324684282498, 40.7554406479189], [-73.8327139335212, 40.7557390180312], [-73.8328159538864, 40.7556909547972], [-73.8325704474095, 40.7553925856017]]]}}, {"type": "Feature", "properties": {"zone_id": "0202NSOPRSQXSJVZNQKEF7", "tract_id": "36081084902", "city": "FLUSHING, NY", "zone_code": "R6", "zone_category": "Residential", "ev_permitted": false}, "geometry": {"type": "Polygon", "coordinates": [[[-73.8321957469803, 40.7551760487951], [-73.8321340963176, 40.7552050833666], [-73.8323671721658, 40.7554883507935], [-73.8324288174627, 40.7554593090639], [-73.8321957469803, 40.7551760487951]]]}}, {"type": "Feature", "properties": {"zone_id": "02028SPKNO9OUMETE360C9", "tract_id": "36081084902", "city": "FLUSHING, NY", "zone_code": "R6", "zone_category": "Residential", "ev_permitted": false}, "geometry": {"type": "Polygon", "coordinates": [[[-73.8325620095194, 40.7550035540765], [-73.8325010752117, 40.7550322519083], [-73.8327341179295, 40.7553154777963], [-73.8327950477917, 40.7552867735118], [-73.8325620095194, 40.7550035540765]]]}}, {"type": "Feature", "properties": {"zone_id": "02075A5V6OJ720F87BJ65R", "tract_id": "36081084902", "city": "FLUSHING, NY", "zone_code": "R6", "zone_category": "Residential", "ev_permitted": false}, "geometry": {"type": "Polygon", "coordinates": [[[-73.8326275517479, 40.7549726860789], [-73.8325620095194, 40.7550035540765], [-73.8327950477917, 40.7552867735118], [-73.8328605837403, 40.755255898347], [-73.8326275517479, 40.7549726860789]]]}}, {"type": "Feature", "properties": {"zone_id": "0201KFTL13IK9VWCILPOCW", "tract_id": "36081084902", "city": "FLUSHING, NY", "zone_code": "R6", "zone_category": "Residential", "ev_permitted": false}, "geometry": {"type": "Polygon", "coordinates": [[[-73.8325010752117, 40.7550322519083], [-73.8324367762174, 40.7550625342217], [-73.8326698261423, 40.7553457672758], [-73.8327341179295, 40.7553154777963], [-73.8325010752117, 40.7550322519083]]]}}, {"type": "Feature", "properties": {"zone_id": "0205S5XDRKDL63JXZV2A70", "tract_id": "36081084902", "city": "FLUSHING, NY", "zone_code": "R6", "zone_category": "Residential", "ev_permitted": false}, "geometry": {"type": "Polygon", "coordinates": [[[-73.832256611241, 40.7551473847505], [-73.8321957469803, 40.7551760487951], [-73.8324288174627, 40.7554593090639], [-73.8324896754315, 40.7554306378614], [-73.832256611241, 40.7551473847505]]]}}, {"type": "Feature", "properties": {"zone_id": "020519YZMLGI013T3KAPU2", "tract_id": "36081084902", "city": "FLUSHING, NY", "zone_code": "R6", "zone_category": "Residential", "ev_permitted": false}, "geometry": {"type": "Polygon", "coordinates": [[[-73.832315440199, 40.7551196789447], [-73.832256611241, 40.7551473847505], [-73.8324896754315, 40.7554306378614], [-73.8325484990144, 40.7554029256058], [-73.832315440199, 40.7551196789447]]]}}, {"type": "Feature", "properties": {"zone_id": "020716W53ELE1BLQF0UN1L", "tract_id": "36081084902", "city": "FLUSHING, NY", "zone_code": "R6", "zone_category": "Residential", "ev_permitted": false}, "geometry": {"type": "Polygon", "coordinates": [[[-73.8323795626084, 40.7550894793555], [-73.832315440199, 40.7551196789447], [-73.8325484990144, 40.7554029256058], [-73.8326126160644, 40.7553727188535], [-73.8323795626084, 40.7550894793555]]]}}, {"type": "Feature", "properties": {"zone_id": "0206KM6PAN0JOAGIT00JBE", "tract_id": "36081084902", "city": "FLUSHING, NY", "zone_code": "R6", "zone_category": "Residential", "ev_permitted": false}, "geometry": {"type": "Polygon", "coordinates": [[[-73.8324367762174, 40.7550625342217], [-73.8323795626084, 40.7550894793555], [-73.8326126160644, 40.7553727188535], [-73.8326698261423, 40.7553457672758], [-73.8324367762174, 40.7550625342217]]]}}, {"type": "Feature", "properties": {"zone_id": "02005AGGQV2F60NGX9LFQ4", "tract_id": "36081084902", "city": "FLUSHING, NY", "zone_code": "R6", "zone_category": "Residential", "ev_permitted": false}, "geometry": {"type": "Polygon", "coordinates": [[[-73.8295073790233, 40.7550265431839], [-73.8292629951902, 40.7551163249895], [-73.8296252457539, 40.7555672976876], [-73.8297808879002, 40.7554947712476], [-73.8298890179208, 40.7556293828301], [-73.8300442584197, 40.7555570437538], [-73.8298302541729, 40.7552906291092], [-73.8297496723813, 40.7553281787375], [-73.8295073790233, 40.7550265431839]]]}}, {"type": "Feature", "properties": {"zone_id": "02041U5Y8B045902CAU9R8", "tract_id": "36081084902", "city": "FLUSHING, NY", "zone_code": "R6", "zone_category": "Residential", "ev_permitted": false}, "geometry": {"type": "Polygon", "coordinates": [[[-73.8302152211038, 40.7552384424342], [-73.8299046028557, 40.7553831859864], [-73.8299485860041, 40.7554379407623], [-73.8302592053342, 40.7552931977966], [-73.8302152211038, 40.7552384424342]]]}}, {"type": "Feature", "properties": {"zone_id": "0204P6F2OQ4IM931NNE4WG", "tract_id": "36081084902", "city": "FLUSHING, NY", "zone_code": "R6", "zone_category": "Residential", "ev_permitted": false}, "geometry": {"type": "Polygon", "coordinates": [[[-73.8302592053342, 40.7552931977966], [-73.8299485860041, 40.7554379407623], [-73.8300024212683, 40.7555049608708], [-73.8303130407939, 40.7553602177614], [-73.8302592053342, 40.7552931977966]]]}}, {"type": "Feature", "properties": {"zone_id": "0203O4CF8V58HIOKR0208Z", "tract_id": "36081084902", "city": "FLUSHING, NY", "zone_code": "R6", "zone_category": "Residential", "ev_permitted": false}, "geometry": {"type": "Polygon", "coordinates": [[[-73.8303130407939, 40.7553602177614], [-73.8300024212683, 40.7555049608708], [-73.8300442584197, 40.7555570437538], [-73.8303548780973, 40.7554123005327], [-73.8303130407939, 40.7553602177614]]]}}, {"type": "Feature", "properties": {"zone_id": "02022U9YIQAJEY81CSCNF9", "tract_id": "36081084902", "city": "FLUSHING, NY", "zone_code": "R6", "zone_category": "Residential", "ev_permitted": false}, "geometry": {"type": "Polygon", "coordinates": [[[-73.8300931623004, 40.7550864908337], [-73.8297019618267, 40.7552687829511], [-73.8297496723813, 40.7553281787375], [-73.8298302541729, 40.7552906291092], [-73.8298251743608, 40.7552843047257], [-73.8301357932427, 40.7551395620897], [-73.8300931623004, 40.7550864908337]]]}}, {"type": "Feature", "properties": {"zone_id": "0200CIYAAKVI9PLTWZY2MC", "tract_id": "36081084902", "city": "FLUSHING, NY", "zone_code": "R6", "zone_category": "Residential", "ev_permitted": false}, "geometry": {"type": "Polygon", "coordinates": [[[-73.8301357932427, 40.7551395620897], [-73.8298251743608, 40.7552843047257], [-73.8298645123149, 40.7553332761357], [-73.8301751304156, 40.7551885333932], [-73.8301357932427, 40.7551395620897]]]}}, {"type": "Feature", "properties": {"zone_id": "020223AXW99L1BHQBFS3GT", "tract_id": "36081084902", "city": "FLUSHING, NY", "zone_code": "R6", "zone_category": "Residential", "ev_permitted": false}, "geometry": {"type": "Polygon", "coordinates": [[[-73.8301751304156, 40.7551885333932], [-73.8298645123149, 40.7553332761357], [-73.8299046028557, 40.7553831859864], [-73.8302152211038, 40.7552384424342], [-73.8301751304156, 40.7551885333932]]]}}, {"type": "Feature", "properties": {"zone_id": "0205G92J1LV0SHV8PKLFV1", "tract_id": "36081084902", "city": "FLUSHING, NY", "zone_code": "R6", "zone_category": "Residential", "ev_permitted": false}, "geometry": {"type": "Polygon", "coordinates": [[[-73.8295780754188, 40.7550005701165], [-73.8295073790233, 40.7550265431839], [-73.8297019618267, 40.7552687829511], [-73.8297685853513, 40.7552377382976], [-73.8295780754188, 40.7550005701165]]]}}, {"type": "Feature", "properties": {"zone_id": "0207FAU3ZJUPN62W87SJNC", "tract_id": "36081084902", "city": "FLUSHING, NY", "zone_code": "R6", "zone_category": "Residential", "ev_permitted": false}, "geometry": {"type": "Polygon", "coordinates": [[[-73.8296461950306, 40.7549755438889], [-73.8295780754188, 40.7550005701165], [-73.8297685853513, 40.7552377382976], [-73.8298327785253, 40.7552078255078], [-73.8296461950306, 40.7549755438889]]]}}, {"type": "Feature", "properties": {"zone_id": "0207888P3AP5XM3R6V8VCN", "tract_id": "36081084902", "city": "FLUSHING, NY", "zone_code": "R6", "zone_category": "Residential", "ev_permitted": false}, "geometry": {"type": "Polygon", "coordinates": [[[-73.8297105364402, 40.7549519061057], [-73.8296461950306, 40.7549755438889], [-73.8298327785253, 40.7552078255078], [-73.8298934127097, 40.7551795706138], [-73.8297105364402, 40.7549519061057]]]}}, {"type": "Feature", "properties": {"zone_id": "02009VZSMJ3G4UQB4YAABR", "tract_id": "36081084902", "city": "FLUSHING, NY", "zone_code": "R6", "zone_category": "Residential", "ev_permitted": false}, "geometry": {"type": "Polygon", "coordinates": [[[-73.8299225010502, 40.7548740325904], [-73.8298460031376, 40.7549021368881], [-73.8300210725589, 40.75512008317], [-73.8300931623004, 40.7550864908337], [-73.8299225010502, 40.7548740325904]]]}}, {"type": "Feature", "properties": {"zone_id": "0200W1DIGUW7E89P1ELLK0", "tract_id": "36081084902", "city": "FLUSHING, NY", "zone_code": "R6", "zone_category": "Residential", "ev_permitted": false}, "geometry": {"type": "Polygon", "coordinates": [[[-73.8298460031376, 40.7549021368881], [-73.8297791405905, 40.7549267020411], [-73.82995806278, 40.7551494448213], [-73.8300210725589, 40.75512008317], [-73.8298460031376, 40.7549021368881]]]}}, {"type": "Feature", "properties": {"zone_id": "0204XEAL6EHIL29WY0T96S", "tract_id": "36081084902", "city": "FLUSHING, NY", "zone_code": "R6", "zone_category": "Residential", "ev_permitted": false}, "geometry": {"type": "Polygon", "coordinates": [[[-73.8297791405905, 40.7549267020411], [-73.8297105364402, 40.7549519061057], [-73.8298934127097, 40.7551795706138], [-73.82995806278, 40.7551494448213], [-73.8297791405905, 40.7549267020411]]]}}, {"type": "Feature", "properties": {"zone_id": "0202AZX0QW6FG2QFZBAYCQ", "tract_id": "36081084902", "city": "FLUSHING, NY", "zone_code": "C1-2", "zone_category": "Commercial", "ev_permitted": true}, "geometry": {"type": "Polygon", "coordinates": [[[-73.8291181871606, 40.7551695247877], [-73.8287942467069, 40.7552885332883], [-73.8291484723785, 40.7557295220491], [-73.8293084824962, 40.7556938157608], [-73.8293210127186, 40.7557090614131], [-73.8294887811778, 40.7556308864128], [-73.8291181871606, 40.7551695247877]]]}}, {"type": "Feature", "properties": {"zone_id": "02025H2M7ZT3EP86J414DV", "tract_id": "36081084902", "city": "", "zone_code": "R6", "zone_category": "Residential", "ev_permitted": false}, "geometry": {"type": "Polygon", "coordinates": [[[-73.8292629951902, 40.7551163249895], [-73.8291181871606, 40.7551695247877], [-73.8294887811778, 40.7556308864128], [-73.8296252457539, 40.7555672976876], [-73.8292629951902, 40.7551163249895]]]}}, {"type": "Feature", "properties": {"zone_id": "0202LC5XLY4UCLYI3R0R1S", "tract_id": "36081084902", "city": "FLUSHING, NY", "zone_code": "C1-2", "zone_category": "Commercial", "ev_permitted": true}, "geometry": {"type": "Polygon", "coordinates": [[[-73.8287942467069, 40.7552885332883], [-73.8284550748275, 40.7554131352298], [-73.8286292218432, 40.7558447072837], [-73.82907437858, 40.7556372805583], [-73.8287942467069, 40.7552885332883]]]}}]}