{"type": "FeatureCollection", "features": [{"type": "Feature", "properties": {"zone_id": "0206WZ5LY5EWQDUP6N0CFO", "tract_id": "06037212202", "city": "LOS ANGELES, CA", "zone_code": "C2-1", "zone_category": "Commercial", "ev_permitted": true}, "geometry": {"type": "Polygon", "coordinates": [[[-118.291505545417, 34.0572564260838], [-118.291168996599, 34.0572581447475], [-118.291170638209, 34.0576159962973], [-118.291183845202, 34.0576162667214], [-118.291183893022, 34.0576300059715], [-118.29150657719, 34.0576283482148], [-118.291505545417, 34.0572564260838]]]}}, {"type": "Feature", "properties": {"zone_id": "0207BCSDWUIYB0M460D6HN", "tract_id": "06037212202", "city": "LOS ANGELES, CA", "zone_code": "R4-2", "zone_category": "Residential", "ev_permitted": false}, "geometry": {"type": "Polygon", "coordinates": [[[-118.291003924564, 34.057258982272], [-118.290673813499, 34.0572606565646], [-118.290675333689, 34.0576031752768], [-118.29100554769, 34.057611722823], [-118.291003924564, 34.057258982272]]]}}, {"type": "Feature", "properties": {"zone_id": "0200TOVQAD3AJ8B889BGNM", "tract_id": "06037212202", "city": "LOS ANGELES, CA", "zone_code": "C2-1", "zone_category": "Commercial", "ev_permitted": true}, "geometry": {"type": "Polygon", "coordinates": [[[-118.291168996599, 34.0572581447475], [-118.291003924564, 34.057258982272], [-118.29100554769, 34.057611722823], [-118.291170638209, 34.0576159962973], [-118.291168996599, 34.0572581447475]]]}}, {"type": "Feature", "properties": {"zone_id": "0204RX897TN0C40Q4GAR38", "tract_id": "06037212202", "city": "LOS ANGELES, CA", "zone_code": "R4-2", "zone_category": "Residential", "ev_permitted": false}, "geometry": {"type": "Polygon", "coordinates": [[[-118.290673813499, 34.0572606565646], [-118.29050870844, 34.0572614934917], [-118.290510286731, 34.0576114313217], [-118.29067541253, 34.0576163648776], [-118.290673813499, 34.0572606565646]]]}}, {"type": "Feature", "properties": {"zone_id": "02038YXWXV8TO9JNM5A1D7", "tract_id": "06037212202", "city": "LOS ANGELES, CA", "zone_code": "R4-2", "zone_category": "Residential", "ev_permitted": false}, "geometry": {"type": "Polygon", "coordinates": [[[-118.2903441318, 34.0568913660756], [-118.289848917832, 34.0568938745897], [-118.289849939, 34.0572648624594], [-118.289589257079, 34.0572661473069], [-118.289590749781, 34.0575966424264], [-118.289981974493, 34.0575947539592], [-118.289980477855, 34.0572641643921], [-118.290343636392, 34.0572623301136], [-118.2903441318, 34.0568913660756]]]}}, {"type": "Feature", "properties": {"zone_id": "02035OVD2WW5PRVOYR92SX", "tract_id": "06037212202", "city": "LOS ANGELES, CA", "zone_code": "R4-2", "zone_category": "Residential", "ev_permitted": false}, "geometry": {"type": "Polygon", "coordinates": [[[-118.29050870844, 34.0572614934917], [-118.289980477855, 34.057264164392], [-118.289982034412, 34.0576084691363], [-118.290350377775, 34.0576066223918], [-118.290510286731, 34.0576114313217], [-118.29050870844, 34.0572614934917]]]}}, {"type": "Feature", "properties": {"zone_id": "02041VK372ZVU802ZAEUZT", "tract_id": "06037212202", "city": "LOS ANGELES, CA", "zone_code": "C2-1", "zone_category": "Commercial", "ev_permitted": true}, "geometry": {"type": "Polygon", "coordinates": [[[-118.291504483988, 34.0568854657865], [-118.291169488252, 34.0568871532276], [-118.291168996599, 34.0572581447475], [-118.291505545417, 34.0572564260838], [-118.291504483988, 34.0568854657865]]]}}, {"type": "Feature", "properties": {"zone_id": "0205RRUYTKPRKIBT1KJ9LG", "tract_id": "06037212202", "city": "LOS ANGELES, CA", "zone_code": "C2-1", "zone_category": "Commercial", "ev_permitted": true}, "geometry": {"type": "Polygon", "coordinates": [[[-118.291469963813, 34.0563491368209], [-118.291055043617, 34.0563513465618], [-118.291057491662, 34.0567228805606], [-118.291421473092, 34.0567210135735], [-118.291470883877, 34.0566795663236], [-118.291469963813, 34.0563491368209]]]}}, {"type": "Feature", "properties": {"zone_id": "0204ARZPTSX3351ITY9PVC", "tract_id": "06037212202", "city": "LOS ANGELES, CA", "zone_code": "C2-1", "zone_category": "Commercial", "ev_permitted": true}, "geometry": {"type": "Polygon", "coordinates": [[[-118.291419430094, 34.0559858044909], [-118.291107286232, 34.0559875448209], [-118.29111179472, 34.0563510449051], [-118.291469963813, 34.0563491368209], [-118.29146921793, 34.0560817328027], [-118.291455186874, 34.0560817666652], [-118.291455099831, 34.0561349656947], [-118.291443033382, 34.0561084160138], [-118.29144308631, 34.0560714844743], [-118.291426579188, 34.0560715243087], [-118.291426627688, 34.0560368735145], [-118.291443135001, 34.0560368903544], [-118.291443174219, 34.0560090543074], [-118.291419430094, 34.0559858044909]]]}}, {"type": "Feature", "properties": {"zone_id": "0205FUXNPYGEL6NYZHQCI4", "tract_id": "06037212202", "city": "LOS ANGELES, CA", "zone_code": "R4-2", "zone_category": "Residential", "ev_permitted": false}, "geometry": {"type": "Polygon", "coordinates": [[[-118.291004417044, 34.0568880182313], [-118.290839345738, 34.0568888555308], [-118.290838852526, 34.0572598195708], [-118.291003924564, 34.057258982272], [-118.291004417044, 34.0568880182313]]]}}, {"type": "Feature", "properties": {"zone_id": "0204BGDIWQ8LT9D806SU0F", "tract_id": "06037212202", "city": "LOS ANGELES, CA", "zone_code": "C2-1", "zone_category": "Commercial", "ev_permitted": true}, "geometry": {"type": "Polygon", "coordinates": [[[-118.291169488252, 34.0568871532276], [-118.291004417044, 34.0568880182313], [-118.291003924564, 34.057258982272], [-118.291168996599, 34.0572581447475], [-118.291169488252, 34.0568871532276]]]}}, {"type": "Feature", "properties": {"zone_id": "0202D22P5D126TVUSURGHX", "tract_id": "06037212202", "city": "LOS ANGELES, CA", "zone_code": "R4-2", "zone_category": "Residential", "ev_permitted": false}, "geometry": {"type": "Polygon", "coordinates": [[[-118.290674274429, 34.0568896926046], [-118.290509203116, 34.056890529453], [-118.29050870844, 34.0572614934917], [-118.290673813499, 34.0572606565646], [-118.290674274429, 34.0568896926046]]]}}, {"type": "Feature", "properties": {"zone_id": "0200BLJ1VEV4L1S8MJ9KTY", "tract_id": "06037212202", "city": "LOS ANGELES, CA", "zone_code": "R4-2", "zone_category": "Residential", "ev_permitted": false}, "geometry": {"type": "Polygon", "coordinates": [[[-118.290839345738, 34.0568888555308], [-118.290674274429, 34.0568896926046], [-118.290673813499, 34.0572606565646], [-118.290838852526, 34.0572598195708], [-118.290839345738, 34.0568888555308]]]}}, {"type": "Feature", "properties": {"zone_id": "0204B1XJQFC3AZLVAPB8A0", "tract_id": "06037212202", "city": "LOS ANGELES, CA", "zone_code": "R4-2", "zone_category": "Residential", "ev_permitted": false}, "geometry": {"type": "Polygon", "coordinates": [[[-118.290509203116, 34.056890529453], [-118.2903441318, 34.0568913660755], [-118.290343636392, 34.0572623301136], [-118.29050870844, 34.0572614934917], [-118.290509203116, 34.056890529453]]]}}, {"type": "Feature", "properties": {"zone_id": "0200NBQDSIIK6FW3KUUO7T", "tract_id": "06037212202", "city": "LOS ANGELES, CA", "zone_code": "C2-1", "zone_category": "Commercial", "ev_permitted": true}, "geometry": {"type": "Polygon", "coordinates": [[[-118.291107286232, 34.0559875448209], [-118.29057904814, 34.0559904880118], [-118.290582645883, 34.0563538305814], [-118.290889973466, 34.056352211409], [-118.290892420683, 34.0567237179327], [-118.291057491662, 34.0567228805606], [-118.291055043617, 34.0563513465618], [-118.29111179472, 34.0563510449051], [-118.291107286232, 34.0559875448209]]]}}, {"type": "Feature", "properties": {"zone_id": "02049JWWF3P1AIVPJT7RH6", "tract_id": "06037212202", "city": "LOS ANGELES, CA", "zone_code": "R4-1", "zone_category": "Residential", "ev_permitted": false}, "geometry": {"type": "Polygon", "coordinates": [[[-118.290724903311, 34.0563530760306], [-118.290559833249, 34.056353967905], [-118.290562278618, 34.0567253645214], [-118.2907273497, 34.0567245550791], [-118.290724903311, 34.0563530760306]]]}}, {"type": "Feature", "properties": {"zone_id": "02018I5YXYKUNTS1IWT5KZ", "tract_id": "06037212202", "city": "LOS ANGELES, CA", "zone_code": "R4-1", "zone_category": "Residential", "ev_permitted": false}, "geometry": {"type": "Polygon", "coordinates": [[[-118.290889973466, 34.056352211409], [-118.290724903311, 34.0563530760306], [-118.2907273497, 34.0567245550791], [-118.290892420683, 34.0567237179327], [-118.290889973466, 34.056352211409]]]}}, {"type": "Feature", "properties": {"zone_id": "0204JHW5K51L3GKWN8SBK1", "tract_id": "06037212202", "city": "LOS ANGELES, CA", "zone_code": "R4-1", "zone_category": "Residential", "ev_permitted": false}, "geometry": {"type": "Polygon", "coordinates": [[[-118.290559833249, 34.056353967905], [-118.290394763087, 34.0563548320753], [-118.290397207723, 34.056726228695], [-118.290562278618, 34.0567253645214], [-118.290559833249, 34.056353967905]]]}}, {"type": "Feature", "properties": {"zone_id": "0202LKX1QTRTIGQ9837I4E", "tract_id": "06037212202", "city": "LOS ANGELES, CA", "zone_code": "R4-1", "zone_category": "Residential", "ev_permitted": false}, "geometry": {"type": "Polygon", "coordinates": [[[-118.290394763087, 34.0563548320753], [-118.290064622849, 34.0563565872176], [-118.290067065734, 34.0567279014085], [-118.290397207723, 34.056726228695], [-118.290394763087, 34.0563548320753]]]}}, {"type": "Feature", "properties": {"zone_id": "02061ENFF69J72DXK0A4TR", "tract_id": "06037212202", "city": "LOS ANGELES, CA", "zone_code": "R4-1", "zone_category": "Residential", "ev_permitted": false}, "geometry": {"type": "Polygon", "coordinates": [[[-118.289899552678, 34.056357450711], [-118.289734482598, 34.0563583414573], [-118.289736923732, 34.0567295732195], [-118.289901994735, 34.0567287374267], [-118.289899552678, 34.056357450711]]]}}, {"type": "Feature", "properties": {"zone_id": "02047MVPYOYRIYBUHDFDS5", "tract_id": "06037212202", "city": "LOS ANGELES, CA", "zone_code": "R4-1", "zone_category": "Residential", "ev_permitted": false}, "geometry": {"type": "Polygon", "coordinates": [[[-118.290064622849, 34.0563565872176], [-118.289899552678, 34.056357450711], [-118.289901994735, 34.0567287374267], [-118.290067065734, 34.0567279014085], [-118.290064622849, 34.0563565872176]]]}}, {"type": "Feature", "properties": {"zone_id": "0202IM6YS1XX4XI0VRJI3T", "tract_id": "06037212202", "city": "LOS ANGELES, CA", "zone_code": "C2-1", "zone_category": "Commercial", "ev_permitted": true}, "geometry": {"type": "Polygon", "coordinates": [[[-118.290579030342, 34.0559877401818], [-118.290116836325, 34.0559902802689], [-118.290121373959, 34.0563562860262], [-118.290582645883, 34.0563538305814], [-118.290579030342, 34.0559877401818]]]}}, {"type": "Feature", "properties": {"zone_id": "02013MS7S0P64GXSEXV805", "tract_id": "06037212202", "city": "LOS ANGELES, CA", "zone_code": "C2-1", "zone_category": "Commercial", "ev_permitted": true}, "geometry": {"type": "Polygon", "coordinates": [[[-118.291419430094, 34.0559858044909], [-118.291443174219, 34.0560090543074], [-118.291443135001, 34.0560368903544], [-118.291426627688, 34.0560368735145], [-118.291426579188, 34.0560715243087], [-118.29144308631, 34.0560714844743], [-118.291443033382, 34.0561084160138], [-118.291455099831, 34.0561349656947], [-118.291455186874, 34.0560817666652], [-118.29146921793, 34.0560817328027], [-118.291469065674, 34.0560267757122], [-118.291419430094, 34.0559858044909]]]}}, {"type": "Feature", "properties": {"zone_id": "0202BIDT2S6ML5IZ6OUFOI", "tract_id": "06037212202", "city": "LOS ANGELES, CA", "zone_code": "C2-1", "zone_category": "Commercial", "ev_permitted": true}, "geometry": {"type": "Polygon", "coordinates": [[[-118.29146697833, 34.0553026441227], [-118.291234562769, 34.0553039467496], [-118.291234941988, 34.0554413394747], [-118.291077797089, 34.0554422129493], [-118.291079166473, 34.0555796032887], [-118.291467770548, 34.0555774294926], [-118.29146697833, 34.0553026441227]]]}}, {"type": "Feature", "properties": {"zone_id": "02079A1SZFGJYQ4U4F0WP4", "tract_id": "06037212202", "city": "LOS ANGELES, CA", "zone_code": "C2-1", "zone_category": "Commercial", "ev_permitted": true}, "geometry": {"type": "Polygon", "coordinates": [[[-118.291499343175, 34.0550688869053], [-118.291233881783, 34.0550703792065], [-118.291234562769, 34.0553039467496], [-118.291499991888, 34.0553024545265], [-118.291499343175, 34.0550688869053]]]}}, {"type": "Feature", "properties": {"zone_id": "0205AMIB5DT278OB8JT4LF", "tract_id": "06037212202", "city": "LOS ANGELES, CA", "zone_code": "C2-1", "zone_category": "Commercial", "ev_permitted": true}, "geometry": {"type": "Polygon", "coordinates": [[[-118.291077797089, 34.0554422129493], [-118.290246976089, 34.0554468779976], [-118.290250595503, 34.0558109418289], [-118.291418930812, 34.0558045525661], [-118.291468328528, 34.0557630624137], [-118.291467770548, 34.0555774294926], [-118.291079166473, 34.0555796032887], [-118.291077797089, 34.0554422129493]]]}}, {"type": "Feature", "properties": {"zone_id": "0206B4D46LH1722GMKP2N6", "tract_id": "06037212202", "city": "LOS ANGELES, CA", "zone_code": "C2-1", "zone_category": "Commercial", "ev_permitted": true}, "geometry": {"type": "Polygon", "coordinates": [[[-118.290246976089, 34.0554468779976], [-118.290081907905, 34.0554477966972], [-118.290085608807, 34.0558200970846], [-118.290250677726, 34.0558191783799], [-118.290246976089, 34.0554468779976]]]}}, {"type": "Feature", "properties": {"zone_id": "0205V3N24BX3NCOOP6DPSQ", "tract_id": "06037212202", "city": "LOS ANGELES, CA", "zone_code": "C2-1", "zone_category": "Commercial", "ev_permitted": true}, "geometry": {"type": "Polygon", "coordinates": [[[-118.290081907905, 34.0554477966972], [-118.289916839717, 34.0554487151712], [-118.289920539789, 34.0558209880851], [-118.290085608807, 34.0558200970846], [-118.290081907905, 34.0554477966972]]]}}, {"type": "Feature", "properties": {"zone_id": "0206NGGYGK4JDIIRXZTXVH", "tract_id": "06037212202", "city": "LOS ANGELES, CA", "zone_code": "C2-1", "zone_category": "Commercial", "ev_permitted": true}, "geometry": {"type": "Polygon", "coordinates": [[[-118.289916839717, 34.0554487151712], [-118.289751771525, 34.0554496334197], [-118.289755385801, 34.0558164107972], [-118.289920487731, 34.0558154924646], [-118.289916839717, 34.0554487151712]]]}}, {"type": "Feature", "properties": {"zone_id": "0202JPDM31IB77M8I0KXN7", "tract_id": "06037212202", "city": "LOS ANGELES, CA", "zone_code": "C2-1", "zone_category": "Commercial", "ev_permitted": true}, "geometry": {"type": "Polygon", "coordinates": [[[-118.291233881783, 34.0550703792065], [-118.291035833898, 34.0550714886538], [-118.291036860212, 34.0554424490033], [-118.291234941988, 34.0554413394747], [-118.291233881783, 34.0550703792065]]]}}, {"type": "Feature", "properties": {"zone_id": "0201WSRQPV44ERGNU43OTW", "tract_id": "06037212202", "city": "LOS ANGELES, CA", "zone_code": "C2-1", "zone_category": "Commercial", "ev_permitted": true}, "geometry": {"type": "Polygon", "coordinates": [[[-118.291035833898, 34.0550714886538], [-118.290854259729, 34.055072503145], [-118.290855285237, 34.055443463496], [-118.291036860212, 34.0554424490033], [-118.291035833898, 34.0550714886538]]]}}, {"type": "Feature", "properties": {"zone_id": "02036Q875VBHI8FJV6MWLT", "tract_id": "06037212202", "city": "LOS ANGELES, CA", "zone_code": "C2-1", "zone_category": "Commercial", "ev_permitted": true}, "geometry": {"type": "Polygon", "coordinates": [[[-118.290854259729, 34.055072503145], [-118.290689192195, 34.0550733951961], [-118.290690217066, 34.0554443830271], [-118.290855285237, 34.055443463496], [-118.290854259729, 34.055072503145]]]}}, {"type": "Feature", "properties": {"zone_id": "02041JUYMCJI3X4G81WC29", "tract_id": "06037212202", "city": "LOS ANGELES, CA", "zone_code": "C2-1", "zone_category": "Commercial", "ev_permitted": true}, "geometry": {"type": "Polygon", "coordinates": [[[-118.290689192195, 34.0550733951961], [-118.290408577702, 34.0550750045922], [-118.290409601234, 34.0554459649471], [-118.290690217066, 34.0554443830271], [-118.290689192195, 34.0550733951961]]]}}, {"type": "Feature", "properties": {"zone_id": "02000EXS63NJSZNZ78WPMP", "tract_id": "06037212202", "city": "LOS ANGELES, CA", "zone_code": "C2-1", "zone_category": "Commercial", "ev_permitted": true}, "geometry": {"type": "Polygon", "coordinates": [[[-118.290408577702, 34.0550750045922], [-118.290243510253, 34.0550759235127], [-118.290244533053, 34.0554468838691], [-118.290409601234, 34.0554459649471], [-118.290408577702, 34.0550750045922]]]}}, {"type": "Feature", "properties": {"zone_id": "0201WMRL1MJ7MPJ69ZWLR7", "tract_id": "06037212202", "city": "LOS ANGELES, CA", "zone_code": "C2-1", "zone_category": "Commercial", "ev_permitted": true}, "geometry": {"type": "Polygon", "coordinates": [[[-118.290243510253, 34.0550759235127], [-118.2900784428, 34.0550768422076], [-118.290079464869, 34.0554478025653], [-118.290244533053, 34.0554468838691], [-118.290243510253, 34.0550759235127]]]}}, {"type": "Feature", "properties": {"zone_id": "0200MGMLI31JBB9OM73Z22", "tract_id": "06037212202", "city": "LOS ANGELES, CA", "zone_code": "C2-1", "zone_category": "Commercial", "ev_permitted": true}, "geometry": {"type": "Polygon", "coordinates": [[[-118.2900784428, 34.0550768422076], [-118.289913375439, 34.0550777881554], [-118.289914396776, 34.0554487485145], [-118.290079464869, 34.0554478025653], [-118.2900784428, 34.0550768422076]]]}}, {"type": "Feature", "properties": {"zone_id": "0202Q6BSOZRSB0YKSAEEDI", "tract_id": "06037212202", "city": "LOS ANGELES, CA", "zone_code": "C2-1", "zone_category": "Commercial", "ev_permitted": true}, "geometry": {"type": "Polygon", "coordinates": [[[-118.289913375439, 34.0550777881554], [-118.28974830798, 34.055078706399], [-118.289749361598, 34.0554496666803], [-118.289914396776, 34.0554487485145], [-118.289913375439, 34.0550777881554]]]}}, {"type": "Feature", "properties": {"zone_id": "0204P3ODSS2JUSSD0X6PEL", "tract_id": "06037212202", "city": "LOS ANGELES, CA", "zone_code": "R4-2", "zone_category": "Residential", "ev_permitted": false}, "geometry": {"type": "Polygon", "coordinates": [[[-118.289589257079, 34.0572661473069], [-118.289391170675, 34.0572671717009], [-118.289392724521, 34.0576113940173], [-118.289590811836, 34.0576103970992], [-118.289589257079, 34.0572661473069]]]}}, {"type": "Feature", "properties": {"zone_id": "0206061VEEE12OYLX95FYR", "tract_id": "06037212202", "city": "LOS ANGELES, CA", "zone_code": "R4-2", "zone_category": "Residential", "ev_permitted": false}, "geometry": {"type": "Polygon", "coordinates": [[[-118.289391170675, 34.0572671717009], [-118.28918965064, 34.0572681765133], [-118.289190609295, 34.0576123727767], [-118.289392724521, 34.0576113940173], [-118.289391170675, 34.0572671717009]]]}}, {"type": "Feature", "properties": {"zone_id": "0200O9ZC9F8OK6U1LSQIQV", "tract_id": "06037212202", "city": "LOS ANGELES, CA", "zone_code": "R4-2", "zone_category": "Residential", "ev_permitted": false}, "geometry": {"type": "Polygon", "coordinates": [[[-118.288991564132, 34.0572691727733], [-118.288811767678, 34.057270097492], [-118.288813318761, 34.0576142099019], [-118.288992521972, 34.0576133690384], [-118.288991564132, 34.0572691727733]]]}}, {"type": "Feature", "properties": {"zone_id": "0204S5MRLXXHD1033SVKT3", "tract_id": "06037212202", "city": "LOS ANGELES, CA", "zone_code": "R4-2", "zone_category": "Residential", "ev_permitted": false}, "geometry": {"type": "Polygon", "coordinates": [[[-118.288811767678, 34.057270097492], [-118.288646695502, 34.057270904316], [-118.288648246095, 34.057615071685], [-118.288813318761, 34.0576142099019], [-118.288811767678, 34.057270097492]]]}}, {"type": "Feature", "properties": {"zone_id": "0203584CBFDC11ZE5A20MH", "tract_id": "06037212202", "city": "LOS ANGELES, CA", "zone_code": "R4-2", "zone_category": "Residential", "ev_permitted": false}, "geometry": {"type": "Polygon", "coordinates": [[[-118.288646695502, 34.057270904316], [-118.288481623511, 34.0572717658713], [-118.288483173236, 34.0576158782854], [-118.288648246095, 34.057615071685], [-118.288646695502, 34.057270904316]]]}}, {"type": "Feature", "properties": {"zone_id": "0204SJPZIHGPSEXF54OPWH", "tract_id": "06037212202", "city": "LOS ANGELES, CA", "zone_code": "R4-2", "zone_category": "Residential", "ev_permitted": false}, "geometry": {"type": "Polygon", "coordinates": [[[-118.288481623511, 34.0572717658713], [-118.288316551423, 34.0572725997226], [-118.288318100374, 34.0576166846604], [-118.288483173236, 34.0576158782854], [-118.288481623511, 34.0572717658713]]]}}, {"type": "Feature", "properties": {"zone_id": "0203YR44257T0NN5CZJUV0", "tract_id": "06037212202", "city": "LOS ANGELES, CA", "zone_code": "R4-2", "zone_category": "Residential", "ev_permitted": false}, "geometry": {"type": "Polygon", "coordinates": [[[-118.288316551423, 34.0572725997226], [-118.288151446316, 34.057273433427], [-118.288153027604, 34.0576175182881], [-118.288318100374, 34.0576166846604], [-118.288316551423, 34.0572725997226]]]}}, {"type": "Feature", "properties": {"zone_id": "02010HACJUV0HAKUJD4Q1N", "tract_id": "06037212202", "city": "LOS ANGELES, CA", "zone_code": "R4-2", "zone_category": "Residential", "ev_permitted": false}, "geometry": {"type": "Polygon", "coordinates": [[[-118.287821335138, 34.0572750999226], [-118.287656263036, 34.0572759328713], [-118.287657809083, 34.0576199628606], [-118.287822848943, 34.0576191574669], [-118.287821335138, 34.0572750999226]]]}}, {"type": "Feature", "properties": {"zone_id": "0201LSQCJFFNCRMJEX3UPW", "tract_id": "06037212202", "city": "LOS ANGELES, CA", "zone_code": "R4-2", "zone_category": "Residential", "ev_permitted": false}, "geometry": {"type": "Polygon", "coordinates": [[[-118.288151446316, 34.057273433427], [-118.287821335138, 34.0572750999226], [-118.287822820583, 34.0576109139161], [-118.288152966196, 34.0576092748161], [-118.288151446316, 34.057273433427]]]}}, {"type": "Feature", "properties": {"zone_id": "0207FWV1C52K401YKK80CS", "tract_id": "06037212202", "city": "LOS ANGELES, CA", "zone_code": "R4-2", "zone_category": "Residential", "ev_permitted": false}, "geometry": {"type": "Polygon", "coordinates": [[[-118.287656263036, 34.0572759328713], [-118.287491190931, 34.0572767655944], [-118.287492736205, 34.0576207681073], [-118.287657809083, 34.0576199628606], [-118.287656263036, 34.0572759328713]]]}}, {"type": "Feature", "properties": {"zone_id": "0203QONXQNB44LGX6XZ3PF", "tract_id": "06037212202", "city": "LOS ANGELES, CA", "zone_code": "R4-2", "zone_category": "Residential", "ev_permitted": false}, "geometry": {"type": "Polygon", "coordinates": [[[-118.287491190931, 34.0572767655944], [-118.287326118823, 34.0572775980918], [-118.287327630403, 34.0576216006854], [-118.287492736205, 34.0576207681073], [-118.287491190931, 34.0572767655944]]]}}, {"type": "Feature", "properties": {"zone_id": "0204F33QGWJVRBE8K52MOT", "tract_id": "06037212202", "city": "LOS ANGELES, CA", "zone_code": "R4-2", "zone_category": "Residential", "ev_permitted": false}, "geometry": {"type": "Polygon", "coordinates": [[[-118.287326118823, 34.0572775980918], [-118.287161046711, 34.0572784303637], [-118.287162557518, 34.0576224054808], [-118.287327630403, 34.0576216006854], [-118.287326118823, 34.0572775980918]]]}}, {"type": "Feature", "properties": {"zone_id": "0204SO9YNJ2CVBSEUH2GRQ", "tract_id": "06037212202", "city": "LOS ANGELES, CA", "zone_code": "R4-2", "zone_category": "Residential", "ev_permitted": false}, "geometry": {"type": "Polygon", "coordinates": [[[-118.287161046711, 34.0572784303637], [-118.286995578043, 34.0572791534374], [-118.286997121467, 34.0576232109137], [-118.287162557518, 34.0576224054808], [-118.287161046711, 34.0572784303637]]]}}, {"type": "Feature", "properties": {"zone_id": "0201Y5GJB81V1V69C4OBQB", "tract_id": "06037212202", "city": "LOS ANGELES, CA", "zone_code": "C2-1", "zone_category": "Commercial", "ev_permitted": true}, "geometry": {"type": "Polygon", "coordinates": [[[-118.286995578043, 34.0572791534374], [-118.286830505925, 34.0572799852575], [-118.28683204867, 34.0576240427359], [-118.286997121467, 34.0576232109137], [-118.286995578043, 34.0572791534374]]]}}, {"type": "Feature", "properties": {"zone_id": "02061KNDJM4PJE7M5BH6OU", "tract_id": "06037212202", "city": "LOS ANGELES, CA", "zone_code": "C2-1", "zone_category": "Commercial", "ev_permitted": true}, "geometry": {"type": "Polygon", "coordinates": [[[-118.286830505925, 34.0572799852575], [-118.286665433992, 34.0572808718088], [-118.286666975871, 34.0576248743324], [-118.28683204867, 34.0576240427359], [-118.286830505925, 34.0572799852575]]]}}, {"type": "Feature", "properties": {"zone_id": "0202URGB043A1JIWYOONDC", "tract_id": "06037212202", "city": "LOS ANGELES, CA", "zone_code": "C2-1", "zone_category": "Commercial", "ev_permitted": true}, "geometry": {"type": "Polygon", "coordinates": [[[-118.286665433992, 34.0572808718088], [-118.286500361773, 34.0572816756992], [-118.286501902973, 34.0576256782248], [-118.286666975871, 34.0576248743324], [-118.286665433992, 34.0572808718088]]]}}, {"type": "Feature", "properties": {"zone_id": "02033BFVTAJBKGS5LXLXN5", "tract_id": "06037212202", "city": "LOS ANGELES, CA", "zone_code": "C2-1", "zone_category": "Commercial", "ev_permitted": true}, "geometry": {"type": "Polygon", "coordinates": [[[-118.286500361773, 34.0572816756992], [-118.286335289646, 34.0572825068423], [-118.286336830167, 34.0576265093701], [-118.286501902973, 34.0576256782248], [-118.286500361773, 34.0572816756992]]]}}, {"type": "Feature", "properties": {"zone_id": "02066SW1B4TVZNLVVSKELV", "tract_id": "06037212202", "city": "LOS ANGELES, CA", "zone_code": "C2-1", "zone_category": "Commercial", "ev_permitted": true}, "geometry": {"type": "Polygon", "coordinates": [[[-118.286335289646, 34.0572825068423], [-118.286170217515, 34.0572833377598], [-118.286171757357, 34.0576273402897], [-118.286336830167, 34.0576265093701], [-118.286335289646, 34.0572825068423]]]}}, {"type": "Feature", "properties": {"zone_id": "02007PMK5232CTM9I8C345", "tract_id": "06037212202", "city": "LOS ANGELES, CA", "zone_code": "C2-1", "zone_category": "Commercial", "ev_permitted": true}, "geometry": {"type": "Polygon", "coordinates": [[[-118.286170217515, 34.0572833377598], [-118.286005145474, 34.0572841959303], [-118.28600668445, 34.0576281435053], [-118.286171757357, 34.0576273402897], [-118.286170217515, 34.0572833377598]]]}}, {"type": "Feature", "properties": {"zone_id": "020111ZQ4D5Z6ESZVHFZ2E", "tract_id": "06037212202", "city": "LOS ANGELES, CA", "zone_code": "C2-1", "zone_category": "Commercial", "ev_permitted": true}, "geometry": {"type": "Polygon", "coordinates": [[[-118.286005145474, 34.0572841959303], [-118.285509896037, 34.0572866867303], [-118.28551140475, 34.0576223632817], [-118.285676477557, 34.0576215332647], [-118.28567653872, 34.0576297767379], [-118.28600668445, 34.0576281435053], [-118.286005145474, 34.0572841959303]]]}}, {"type": "Feature", "properties": {"zone_id": "0200FA355V1XF3Y0TGFO9X", "tract_id": "06037212202", "city": "LOS ANGELES, CA", "zone_code": "C2-1", "zone_category": "Commercial", "ev_permitted": true}, "geometry": {"type": "Polygon", "coordinates": [[[-118.285509896037, 34.0572866867303], [-118.285344856998, 34.0572875439201], [-118.285346392978, 34.0576314090681], [-118.285511465897, 34.057630606755], [-118.285509896037, 34.0572866867303]]]}}, {"type": "Feature", "properties": {"zone_id": "0204U4Q4J9366DVXE9ZELS", "tract_id": "06037212202", "city": "LOS ANGELES, CA", "zone_code": "C2-1", "zone_category": "Commercial", "ev_permitted": true}, "geometry": {"type": "Polygon", "coordinates": [[[-118.285344856998, 34.0572875439201], [-118.285179784753, 34.0572883460053], [-118.285181353163, 34.057632238556], [-118.285346392978, 34.0576314090681], [-118.285344856998, 34.0572875439201]]]}}, {"type": "Feature", "properties": {"zone_id": "0207J02C6IAOJQ6GKZ4Y2C", "tract_id": "06037212202", "city": "LOS ANGELES, CA", "zone_code": "C2-1", "zone_category": "Commercial", "ev_permitted": true}, "geometry": {"type": "Polygon", "coordinates": [[[-118.285179784753, 34.0572883460053], [-118.285014712693, 34.057289202822], [-118.285016247222, 34.0576330404956], [-118.285181353163, 34.057632238556], [-118.285179784753, 34.0572883460053]]]}}, {"type": "Feature", "properties": {"zone_id": "0203DPFI1J2A6ZGLVM1AU2", "tract_id": "06037212202", "city": "LOS ANGELES, CA", "zone_code": "C2-1", "zone_category": "Commercial", "ev_permitted": true}, "geometry": {"type": "Polygon", "coordinates": [[[-118.285014712693, 34.057289202822], [-118.284849640535, 34.0572900319345], [-118.284851141372, 34.0576338696882], [-118.285016247222, 34.0576330404956], [-118.285014712693, 34.057289202822]]]}}, {"type": "Feature", "properties": {"zone_id": "0201U1YRRS7DEPTZHYHY32", "tract_id": "06037212202", "city": "LOS ANGELES, CA", "zone_code": "C2-1", "zone_category": "Commercial", "ev_permitted": true}, "geometry": {"type": "Polygon", "coordinates": [[[-118.284849640535, 34.0572900319345], [-118.284684568468, 34.0572908882999], [-118.284686068439, 34.0576346710985], [-118.284851141372, 34.0576338696882], [-118.284849640535, 34.0572900319345]]]}}, {"type": "Feature", "properties": {"zone_id": "0207GQPDOD6YWKJYW9TYW2", "tract_id": "06037212202", "city": "LOS ANGELES, CA", "zone_code": "C2-1", "zone_category": "Commercial", "ev_permitted": true}, "geometry": {"type": "Polygon", "coordinates": [[[-118.284684568468, 34.0572908882999], [-118.284372747133, 34.0572924490138], [-118.284368766839, 34.0575729388862], [-118.284369646532, 34.0575819747382], [-118.284372311027, 34.0575907670555], [-118.284376687508, 34.0575990755616], [-118.284382656376, 34.0576066732016], [-118.284390054512, 34.0576133523474], [-118.28439867974, 34.0576189304711], [-118.28440829635, 34.057623255134], [-118.284418641538, 34.0576262081518], [-118.284429432592, 34.0576277088245], [-118.284686040481, 34.0576264550255], [-118.284684568468, 34.0572908882999]]]}}, {"type": "Feature", "properties": {"zone_id": "0204YG8KCHTYMA8DP2I1K0", "tract_id": "06037212202", "city": "LOS ANGELES, CA", "zone_code": "R4-2", "zone_category": "Residential", "ev_permitted": false}, "geometry": {"type": "Polygon", "coordinates": [[[-118.289848917832, 34.0568938745897], [-118.289683846503, 34.0568947103098], [-118.289684866844, 34.0572656707024], [-118.289849939, 34.0572648624594], [-118.289848917832, 34.0568938745897]]]}}, {"type": "Feature", "properties": {"zone_id": "02056HD7BOBNC7EKDJ1HGH", "tract_id": "06037212202", "city": "LOS ANGELES, CA", "zone_code": "R4-2", "zone_category": "Residential", "ev_permitted": false}, "geometry": {"type": "Polygon", "coordinates": [[[-118.289683846503, 34.0568947103098], [-118.28951880809, 34.0568955182466], [-118.289519794779, 34.0572665061983], [-118.289684866844, 34.0572656707024], [-118.289683846503, 34.0568947103098]]]}}, {"type": "Feature", "properties": {"zone_id": "02075CZXIV28U1JGTJX4NK", "tract_id": "06037212202", "city": "LOS ANGELES, CA", "zone_code": "R4-2", "zone_category": "Residential", "ev_permitted": false}, "geometry": {"type": "Polygon", "coordinates": [[[-118.28951880809, 34.0568955182466], [-118.289353703835, 34.0568963810731], [-118.289354722711, 34.0572673414686], [-118.289519794779, 34.0572665061983], [-118.28951880809, 34.0568955182466]]]}}, {"type": "Feature", "properties": {"zone_id": "02075SOVG0AGVMTXEXUNZA", "tract_id": "06037212202", "city": "LOS ANGELES, CA", "zone_code": "R4-2", "zone_category": "Residential", "ev_permitted": false}, "geometry": {"type": "Polygon", "coordinates": [[[-118.289353703835, 34.0568963810731], [-118.289188632495, 34.0568972161164], [-118.28918965064, 34.0572681765133], [-118.289354722711, 34.0572673414686], [-118.289353703835, 34.0568963810731]]]}}, {"type": "Feature", "properties": {"zone_id": "020548RTNJPEIBI4QLHNO2", "tract_id": "06037212202", "city": "LOS ANGELES, CA", "zone_code": "R4-2", "zone_category": "Residential", "ev_permitted": false}, "geometry": {"type": "Polygon", "coordinates": [[[-118.288792659412, 34.056899235313], [-118.288132340977, 34.0569025711435], [-118.288135071109, 34.0572734999749], [-118.288795359552, 34.0572701916869], [-118.288792659412, 34.056899235313]]]}}, {"type": "Feature", "properties": {"zone_id": "0203O88J095AOIA5F3XNOW", "tract_id": "06037212202", "city": "LOS ANGELES, CA", "zone_code": "R4-2", "zone_category": "Residential", "ev_permitted": false}, "geometry": {"type": "Polygon", "coordinates": [[[-118.288990546865, 34.0568982123747], [-118.288792659412, 34.056899235313], [-118.288795359552, 34.0572701916869], [-118.288991564132, 34.0572691727733], [-118.288990546865, 34.0568982123747]]]}}, {"type": "Feature", "properties": {"zone_id": "0206QR6IBAWVMMH56R9LON", "tract_id": "06037212202", "city": "LOS ANGELES, CA", "zone_code": "C2-1", "zone_category": "Commercial", "ev_permitted": true}, "geometry": {"type": "Polygon", "coordinates": [[[-118.290116836325, 34.0559902802689], [-118.289456559176, 34.0559939255238], [-118.289461093351, 34.056359766435], [-118.290121373959, 34.0563562860262], [-118.290116836325, 34.0559902802689]]]}}, {"type": "Feature", "properties": {"zone_id": "0203YW9HD0VYW0TB1VB0H0", "tract_id": "06037212202", "city": "LOS ANGELES, CA", "zone_code": "R4-1", "zone_category": "Residential", "ev_permitted": false}, "geometry": {"type": "Polygon", "coordinates": [[[-118.289734482598, 34.0563583414573], [-118.289569412419, 34.0563592044994], [-118.289571852726, 34.0567304087865], [-118.289736923732, 34.0567295732195], [-118.289734482598, 34.0563583414573]]]}}, {"type": "Feature", "properties": {"zone_id": "0200IMHJZUB7L6SQDXUGXZ", "tract_id": "06037212202", "city": "LOS ANGELES, CA", "zone_code": "R4-1", "zone_category": "Residential", "ev_permitted": false}, "geometry": {"type": "Polygon", "coordinates": [[[-118.289569412419, 34.0563592044994], [-118.289187142946, 34.0563612196162], [-118.289188161648, 34.0567323448748], [-118.289571852726, 34.0567304087865], [-118.289569412419, 34.0563592044994]]]}}, {"type": "Feature", "properties": {"zone_id": "02052ARW9UF2QXXNBW3OJY", "tract_id": "06037212202", "city": "LOS ANGELES, CA", "zone_code": "C2-1", "zone_category": "Commercial", "ev_permitted": true}, "geometry": {"type": "Polygon", "coordinates": [[[-118.289456474133, 34.0559884299822], [-118.28918609067, 34.0559899295721], [-118.289187142946, 34.0563612196162], [-118.289461093351, 34.056359766435], [-118.289456474133, 34.0559884299822]]]}}, {"type": "Feature", "properties": {"zone_id": "020189FBRLNCTWOY683O2T", "tract_id": "06037212202", "city": "LOS ANGELES, CA", "zone_code": "R4-1", "zone_category": "Residential", "ev_permitted": false}, "geometry": {"type": "Polygon", "coordinates": [[[-118.288989058775, 34.0563622708291], [-118.288775557081, 34.056363413541], [-118.288777960377, 34.0567344805305], [-118.288990076408, 34.0567333411324], [-118.288989058775, 34.0563622708291]]]}}, {"type": "Feature", "properties": {"zone_id": "0207AS6OMCVA2PMV6X6WPP", "tract_id": "06037212202", "city": "LOS ANGELES, CA", "zone_code": "R4-1", "zone_category": "Residential", "ev_permitted": false}, "geometry": {"type": "Polygon", "coordinates": [[[-118.288775557081, 34.056363413541], [-118.288593946877, 34.0563643697556], [-118.288596382097, 34.0567353542344], [-118.288777960377, 34.0567344805305], [-118.288775557081, 34.056363413541]]]}}, {"type": "Feature", "properties": {"zone_id": "02077DX0ZPJSTO9P479SRC", "tract_id": "06037212202", "city": "LOS ANGELES, CA", "zone_code": "R4-1", "zone_category": "Residential", "ev_permitted": false}, "geometry": {"type": "Polygon", "coordinates": [[[-118.288593946877, 34.0563643697556], [-118.288412402697, 34.0563653255395], [-118.288414803908, 34.0567362551438], [-118.288596382097, 34.0567353542344], [-118.288593946877, 34.0563643697556]]]}}, {"type": "Feature", "properties": {"zone_id": "020614SN6SKV9JGAES3SBI", "tract_id": "06037212202", "city": "LOS ANGELES, CA", "zone_code": "R4-1", "zone_category": "Residential", "ev_permitted": false}, "geometry": {"type": "Polygon", "coordinates": [[[-118.288988007472, 34.0559910082617], [-118.288631160709, 34.0559929882643], [-118.28863574268, 34.0563641599568], [-118.288989058775, 34.0563622708291], [-118.288988007472, 34.0559910082617]]]}}, {"type": "Feature", "properties": {"zone_id": "0200WUZ5OPXI2DQHW8IGNQ", "tract_id": "06037212202", "city": "LOS ANGELES, CA", "zone_code": "R4-1", "zone_category": "Residential", "ev_permitted": false}, "geometry": {"type": "Polygon", "coordinates": [[[-118.288631160709, 34.0559929882643], [-118.288466058415, 34.0559939048343], [-118.288470672479, 34.0563650214971], [-118.28863574268, 34.0563641599568], [-118.288631160709, 34.0559929882643]]]}}, {"type": "Feature", "properties": {"zone_id": "0205DCY8JLZ1M2TZH1ZUKI", "tract_id": "06037212202", "city": "LOS ANGELES, CA", "zone_code": "R4-2", "zone_category": "Residential", "ev_permitted": false}, "geometry": {"type": "Polygon", "coordinates": [[[-118.288132340977, 34.0569025711435], [-118.287967269613, 34.0569034045173], [-118.287969999014, 34.0572743333525], [-118.288135071109, 34.0572734999749], [-118.288132340977, 34.0569025711435]]]}}, {"type": "Feature", "properties": {"zone_id": "02057YX863W93H0RCN89F9", "tract_id": "06037212202", "city": "LOS ANGELES, CA", "zone_code": "R4-2", "zone_category": "Residential", "ev_permitted": false}, "geometry": {"type": "Polygon", "coordinates": [[[-118.287967269613, 34.0569034045173], [-118.287802198246, 34.0569042376655], [-118.287804926915, 34.0572751665044], [-118.287969999014, 34.0572743333525], [-118.287967269613, 34.0569034045173]]]}}, {"type": "Feature", "properties": {"zone_id": "0204F39HT7WP97CMM6ESDG", "tract_id": "06037212202", "city": "LOS ANGELES, CA", "zone_code": "R4-2", "zone_category": "Residential", "ev_permitted": false}, "geometry": {"type": "Polygon", "coordinates": [[[-118.287802198246, 34.0569042376655], [-118.287637126876, 34.056905070588], [-118.287639854813, 34.0572759994308], [-118.287804926915, 34.0572751665044], [-118.287802198246, 34.0569042376655]]]}}, {"type": "Feature", "properties": {"zone_id": "02031UQWY2LHS7FZP63U6I", "tract_id": "06037212202", "city": "LOS ANGELES, CA", "zone_code": "R4-2", "zone_category": "Residential", "ev_permitted": false}, "geometry": {"type": "Polygon", "coordinates": [[[-118.287637126876, 34.056905070588], [-118.287306984126, 34.0569067357563], [-118.287309710694, 34.057277692085], [-118.287639854813, 34.0572759994308], [-118.287637126876, 34.056905070588]]]}}, {"type": "Feature", "properties": {"zone_id": "0201YC9DGF3D9SK8ULRNGB", "tract_id": "06037212202", "city": "LOS ANGELES, CA", "zone_code": "R4-2", "zone_category": "Residential", "ev_permitted": false}, "geometry": {"type": "Polygon", "coordinates": [[[-118.287306984126, 34.0569067357563], [-118.286976477826, 34.056908290971], [-118.286979169913, 34.0572792473856], [-118.287309710694, 34.057277692085], [-118.287306984126, 34.0569067357563]]]}}, {"type": "Feature", "properties": {"zone_id": "02059FR8SH18LGOK8YQBZ6", "tract_id": "06037212202", "city": "LOS ANGELES, CA", "zone_code": "R4-1", "zone_category": "Residential", "ev_permitted": false}, "geometry": {"type": "Polygon", "coordinates": [[[-118.288412402697, 34.0563653255395], [-118.288247332586, 34.0563662142531], [-118.288249732876, 34.0567370889037], [-118.288414803908, 34.0567362551438], [-118.288412402697, 34.0563653255395]]]}}, {"type": "Feature", "properties": {"zone_id": "0201OAVTNK5W294B0ACLBD", "tract_id": "06037212202", "city": "LOS ANGELES, CA", "zone_code": "R4-1", "zone_category": "Residential", "ev_permitted": false}, "geometry": {"type": "Polygon", "coordinates": [[[-118.288247332586, 34.0563662142531], [-118.288082262376, 34.0563670752626], [-118.28808466184, 34.0567379224379], [-118.288249732876, 34.0567370889037], [-118.288247332586, 34.0563662142531]]]}}, {"type": "Feature", "properties": {"zone_id": "0206JJU0L4V2WCKJRKYOET", "tract_id": "06037212202", "city": "LOS ANGELES, CA", "zone_code": "R4-1", "zone_category": "Residential", "ev_permitted": false}, "geometry": {"type": "Polygon", "coordinates": [[[-118.288082262376, 34.0563670752626], [-118.287917192258, 34.0563679635249], [-118.287919590801, 34.0567387557466], [-118.28808466184, 34.0567379224379], [-118.288082262376, 34.0563670752626]]]}}, {"type": "Feature", "properties": {"zone_id": "0206MJXYT3S2JLO3B1907X", "tract_id": "06037212202", "city": "LOS ANGELES, CA", "zone_code": "R4-1", "zone_category": "Residential", "ev_permitted": false}, "geometry": {"type": "Polygon", "coordinates": [[[-118.287917192258, 34.0563679635249], [-118.287587018902, 34.0563697119728], [-118.287589448713, 34.056740421687], [-118.287919590801, 34.0567387557466], [-118.287917192258, 34.0563679635249]]]}}, {"type": "Feature", "properties": {"zone_id": "02035K4CZKI3RXTXARAS4V", "tract_id": "06037212202", "city": "LOS ANGELES, CA", "zone_code": "R4-1", "zone_category": "Residential", "ev_permitted": false}, "geometry": {"type": "Polygon", "coordinates": [[[-118.288466058415, 34.0559939048343], [-118.288300989037, 34.0559947936212], [-118.288305602369, 34.0563659102903], [-118.288470672479, 34.0563650214971], [-118.288466058415, 34.0559939048343]]]}}, {"type": "Feature", "properties": {"zone_id": "0205OS071PRLEQ45D40YCM", "tract_id": "06037212202", "city": "LOS ANGELES, CA", "zone_code": "R4-1", "zone_category": "Residential", "ev_permitted": false}, "geometry": {"type": "Polygon", "coordinates": [[[-118.288300989037, 34.0559947936212], [-118.28813591975, 34.055995709661], [-118.28814053216, 34.0563667713795], [-118.288305602369, 34.0563659102903], [-118.288300989037, 34.0559947936212]]]}}, {"type": "Feature", "properties": {"zone_id": "0200LNUM833WN0Y4WNJ2BX", "tract_id": "06037212202", "city": "LOS ANGELES, CA", "zone_code": "R4-1", "zone_category": "Residential", "ev_permitted": false}, "geometry": {"type": "Polygon", "coordinates": [[[-118.28813591975, 34.055995709661], [-118.28797085046, 34.0559966254752], [-118.287975429029, 34.0563676598002], [-118.28814053216, 34.0563667713795], [-118.28813591975, 34.055995709661]]]}}, {"type": "Feature", "properties": {"zone_id": "020234AJ8FCHVTMK8QG4J6", "tract_id": "06037212202", "city": "LOS ANGELES, CA", "zone_code": "R4-1", "zone_category": "Residential", "ev_permitted": false}, "geometry": {"type": "Polygon", "coordinates": [[[-118.28797085046, 34.0559966254752], [-118.287805748151, 34.0559975411424], [-118.287810358814, 34.056368520438], [-118.287975429029, 34.0563676598002], [-118.28797085046, 34.0559966254752]]]}}, {"type": "Feature", "properties": {"zone_id": "0204WTGYYDQAC3SYKIRF1O", "tract_id": "06037212202", "city": "LOS ANGELES, CA", "zone_code": "R4-1", "zone_category": "Residential", "ev_permitted": false}, "geometry": {"type": "Polygon", "coordinates": [[[-118.287587018902, 34.0563697119728], [-118.287088440945, 34.0563723545788], [-118.287090834778, 34.0567428445536], [-118.287589448713, 34.056740421687], [-118.287587018902, 34.0563697119728]]]}}, {"type": "Feature", "properties": {"zone_id": "0207FZPGFKFZI4QWK6QCMC", "tract_id": "06037212202", "city": "LOS ANGELES, CA", "zone_code": "R4-1", "zone_category": "Residential", "ev_permitted": false}, "geometry": {"type": "Polygon", "coordinates": [[[-118.287805748151, 34.0559975411424], [-118.287640711773, 34.0559984289482], [-118.28764528869, 34.0563694083287], [-118.287810358814, 34.056368520438], [-118.287805748151, 34.0559975411424]]]}}, {"type": "Feature", "properties": {"zone_id": "020680Q8RQAKKI45M7Z1SI", "tract_id": "06037212202", "city": "LOS ANGELES, CA", "zone_code": "R4-1", "zone_category": "Residential", "ev_permitted": false}, "geometry": {"type": "Polygon", "coordinates": [[[-118.287475642472, 34.0559993440855], [-118.287310573167, 34.0560002589972], [-118.287315148337, 34.0563711559547], [-118.287480218373, 34.0563702410368], [-118.287475642472, 34.0559993440855]]]}}, {"type": "Feature", "properties": {"zone_id": "0206ITB1U5JM24IMG2XRU4", "tract_id": "06037212202", "city": "LOS ANGELES, CA", "zone_code": "R4-1", "zone_category": "Residential", "ev_permitted": false}, "geometry": {"type": "Polygon", "coordinates": [[[-118.287310625149, 34.0560057820974], [-118.286989168964, 34.0560075081755], [-118.286993655943, 34.0563723600318], [-118.287315148337, 34.0563711559547], [-118.287310625149, 34.0560057820974]]]}}, {"type": "Feature", "properties": {"zone_id": "02058YJRF42YQIQXNMP87F", "tract_id": "06037212202", "city": "LOS ANGELES, CA", "zone_code": "C2-1", "zone_category": "Commercial", "ev_permitted": true}, "geometry": {"type": "Polygon", "coordinates": [[[-118.289753398968, 34.0556145018768], [-118.289185101106, 34.0556176776289], [-118.289185148596, 34.0556314168784], [-118.289423408589, 34.0556301041918], [-118.289425333, 34.0558237421687], [-118.289755470863, 34.0558219063386], [-118.289753398968, 34.0556145018768]]]}}, {"type": "Feature", "properties": {"zone_id": "020490RQZAZJQU971F75B3", "tract_id": "06037212202", "city": "LOS ANGELES, CA", "zone_code": "C2-1", "zone_category": "Commercial", "ev_permitted": true}, "geometry": {"type": "Polygon", "coordinates": [[[-118.289751771525, 34.0554496334197], [-118.289184630273, 34.0554528063972], [-118.289185101106, 34.0556176776289], [-118.289753398968, 34.0556145018768], [-118.289751771525, 34.0554496334197]]]}}, {"type": "Feature", "properties": {"zone_id": "0206QZS0PSIULVSW1C613K", "tract_id": "06037212202", "city": "LOS ANGELES, CA", "zone_code": "C2-1", "zone_category": "Commercial", "ev_permitted": true}, "geometry": {"type": "Polygon", "coordinates": [[[-118.289423408589, 34.0556301041918], [-118.289185148596, 34.0556314168784], [-118.289185652846, 34.0558250582585], [-118.289425333, 34.0558237421687], [-118.289423408589, 34.0556301041918]]]}}, {"type": "Feature", "properties": {"zone_id": "0205G9V76IUARWQA3F7VVI", "tract_id": "06037212202", "city": "LOS ANGELES, CA", "zone_code": "C2-1", "zone_category": "Commercial", "ev_permitted": true}, "geometry": {"type": "Polygon", "coordinates": [[[-118.288979912722, 34.0554539559202], [-118.288759843844, 34.0554551967601], [-118.288763486502, 34.055821891653], [-118.288940148267, 34.0558202918322], [-118.288956149322, 34.0558153915069], [-118.288963153168, 34.0558113121354], [-118.288969208189, 34.0558062975413], [-118.288974134755, 34.0558004964906], [-118.28897778671, 34.055794081081], [-118.288980055712, 34.0557872416361], [-118.288980874449, 34.0557801810594], [-118.288979912722, 34.0554539559202]]]}}, {"type": "Feature", "properties": {"zone_id": "02027I0DOZPBR8PDUI6INW", "tract_id": "06037212202", "city": "LOS ANGELES, CA", "zone_code": "C2-1", "zone_category": "Commercial", "ev_permitted": true}, "geometry": {"type": "Polygon", "coordinates": [[[-118.288759843844, 34.0554551967601], [-118.288594775627, 34.055456113427], [-118.288598417467, 34.0558227808464], [-118.288763486502, 34.055821891653], [-118.288759843844, 34.0554551967601]]]}}, {"type": "Feature", "properties": {"zone_id": "02012RF45MRPUL8OSW1EME", "tract_id": "06037212202", "city": "LOS ANGELES, CA", "zone_code": "R4-1", "zone_category": "Residential", "ev_permitted": false}, "geometry": {"type": "Polygon", "coordinates": [[[-118.287640711773, 34.0559984289482], [-118.287475642472, 34.0559993440855], [-118.287480218373, 34.0563702410368], [-118.28764528869, 34.0563694083287], [-118.287640711773, 34.0559984289482]]]}}, {"type": "Feature", "properties": {"zone_id": "02061GLVE1T0XTK20RVCL1", "tract_id": "06037212202", "city": "LOS ANGELES, CA", "zone_code": "R4-1", "zone_category": "Residential", "ev_permitted": false}, "geometry": {"type": "Polygon", "coordinates": [[[-118.288594775627, 34.055456113427], [-118.288429707406, 34.0554570298683], [-118.288433320384, 34.0558209220087], [-118.288598391481, 34.0558200330359], [-118.288594775627, 34.055456113427]]]}}, {"type": "Feature", "properties": {"zone_id": "0207F2CBTOIZR1EMQLHXK9", "tract_id": "06037212202", "city": "LOS ANGELES, CA", "zone_code": "C2-1", "zone_category": "Commercial", "ev_permitted": true}, "geometry": {"type": "Polygon", "coordinates": [[[-118.28974830798, 34.055078706399], [-118.289583240516, 34.0550796244171], [-118.289584260294, 34.0554505573005], [-118.289749361598, 34.0554496666803], [-118.28974830798, 34.055078706399]]]}}, {"type": "Feature", "properties": {"zone_id": "0200IGY0HJ6KM7MC4RDVQI", "tract_id": "06037212202", "city": "LOS ANGELES, CA", "zone_code": "C2-1", "zone_category": "Commercial", "ev_permitted": true}, "geometry": {"type": "Polygon", "coordinates": [[[-118.289583240516, 34.0550796244171], [-118.289385093546, 34.0550807313948], [-118.289386178568, 34.0554516916002], [-118.289584260294, 34.0554505573005], [-118.289583240516, 34.0550796244171]]]}}, {"type": "Feature", "properties": {"zone_id": "0202CFFW7EV8U9A7CWE015", "tract_id": "06037212202", "city": "LOS ANGELES, CA", "zone_code": "C2-1", "zone_category": "Commercial", "ev_permitted": true}, "geometry": {"type": "Polygon", "coordinates": [[[-118.289385093546, 34.0550807313948], [-118.289183579158, 34.0550818461109], [-118.289184630273, 34.0554528063972], [-118.289386178568, 34.0554516916002], [-118.289385093546, 34.0550807313948]]]}}, {"type": "Feature", "properties": {"zone_id": "0200G347CGNJXA6ZYQS4W1", "tract_id": "06037212202", "city": "LOS ANGELES, CA", "zone_code": "C2-1", "zone_category": "Commercial", "ev_permitted": true}, "geometry": {"type": "Polygon", "coordinates": [[[-118.288985498206, 34.0550829522749], [-118.288803593943, 34.0550839919512], [-118.288806921244, 34.0554549193148], [-118.288986515428, 34.0554539126419], [-118.288985498206, 34.0550829522749]]]}}, {"type": "Feature", "properties": {"zone_id": "02019UMFUP2MO4VNOY1ASP", "tract_id": "06037212202", "city": "LOS ANGELES, CA", "zone_code": "R4-1", "zone_category": "Residential", "ev_permitted": false}, "geometry": {"type": "Polygon", "coordinates": [[[-118.288803593943, 34.0550839919512], [-118.288589006241, 34.0550851918956], [-118.288594775627, 34.055456113427], [-118.288806921244, 34.0554549193148], [-118.288803593943, 34.0550839919512]]]}}, {"type": "Feature", "properties": {"zone_id": "0206OR1NPW1ZZ6DBQ5KVP9", "tract_id": "06037212202", "city": "LOS ANGELES, CA", "zone_code": "R4-1", "zone_category": "Residential", "ev_permitted": false}, "geometry": {"type": "Polygon", "coordinates": [[[-118.288589006241, 34.0550851918956], [-118.288423938752, 34.055086108329], [-118.288429707406, 34.0554570298683], [-118.288594775627, 34.055456113427], [-118.288589006241, 34.0550851918956]]]}}, {"type": "Feature", "properties": {"zone_id": "0206L7AEHTP7995HZCVCLG", "tract_id": "06037212202", "city": "LOS ANGELES, CA", "zone_code": "R4-1", "zone_category": "Residential", "ev_permitted": false}, "geometry": {"type": "Polygon", "coordinates": [[[-118.288429707406, 34.0554570298683], [-118.288099571049, 34.0554588895527], [-118.288103262468, 34.0558309976514], [-118.288433400483, 34.0558291929139], [-118.288429707406, 34.0554570298683]]]}}, {"type": "Feature", "properties": {"zone_id": "020335CC3SY69L8UZ81TJS", "tract_id": "06037212202", "city": "LOS ANGELES, CA", "zone_code": "R4-1", "zone_category": "Residential", "ev_permitted": false}, "geometry": {"type": "Polygon", "coordinates": [[[-118.288099571049, 34.0554588895527], [-118.287934502817, 34.0554598053171], [-118.287938193502, 34.0558319134209], [-118.288103262468, 34.0558309976514], [-118.288099571049, 34.0554588895527]]]}}, {"type": "Feature", "properties": {"zone_id": "0204IXCM900X3D5AZKRGZ2", "tract_id": "06037212202", "city": "LOS ANGELES, CA", "zone_code": "R4-1", "zone_category": "Residential", "ev_permitted": false}, "geometry": {"type": "Polygon", "coordinates": [[[-118.287934502817, 34.0554598053171], [-118.287769434582, 34.055460720856], [-118.287773124532, 34.0558328289648], [-118.287938193502, 34.0558319134209], [-118.287934502817, 34.0554598053171]]]}}, {"type": "Feature", "properties": {"zone_id": "0203ALIEKINXAW2Z7Y4B28", "tract_id": "06037212202", "city": "LOS ANGELES, CA", "zone_code": "R4-1", "zone_category": "Residential", "ev_permitted": false}, "geometry": {"type": "Polygon", "coordinates": [[[-118.287604366343, 34.0554616361692], [-118.2874392981, 34.0554625512568], [-118.287442901673, 34.0558291638328], [-118.287607970639, 34.0558282487402], [-118.287604366343, 34.0554616361692]]]}}, {"type": "Feature", "properties": {"zone_id": "0205ZU3HY9FOV0LDWFONXR", "tract_id": "06037212202", "city": "LOS ANGELES, CA", "zone_code": "R4-1", "zone_category": "Residential", "ev_permitted": false}, "geometry": {"type": "Polygon", "coordinates": [[[-118.287769434582, 34.055460720856], [-118.287604366343, 34.0554616361692], [-118.287608055559, 34.0558337442831], [-118.287773124532, 34.0558328289648], [-118.287769434582, 34.055460720856]]]}}, {"type": "Feature", "properties": {"zone_id": "0200FQUB0FQANGISJI5V9Z", "tract_id": "06037212202", "city": "LOS ANGELES, CA", "zone_code": "R4-1", "zone_category": "Residential", "ev_permitted": false}, "geometry": {"type": "Polygon", "coordinates": [[[-118.2874392981, 34.0554625512568], [-118.287274229948, 34.0554634935973], [-118.287277884588, 34.0558355743213], [-118.287442953569, 34.0558346594543], [-118.2874392981, 34.0554625512568]]]}}, {"type": "Feature", "properties": {"zone_id": "02065LGYIUNJXYDD25SI9C", "tract_id": "06037212202", "city": "LOS ANGELES, CA", "zone_code": "R4-1", "zone_category": "Residential", "ev_permitted": false}, "geometry": {"type": "Polygon", "coordinates": [[[-118.287274229948, 34.0554634935973], [-118.287109161699, 34.0554644082337], [-118.28711281551, 34.0558364614842], [-118.287277884588, 34.0558355743213], [-118.287274229948, 34.0554634935973]]]}}, {"type": "Feature", "properties": {"zone_id": "0207258FMEXMG2NCHAV6N7", "tract_id": "06037212202", "city": "LOS ANGELES, CA", "zone_code": "R4-1", "zone_category": "Residential", "ev_permitted": false}, "geometry": {"type": "Polygon", "coordinates": [[[-118.288423938752, 34.055086108329], [-118.28825887126, 34.0550870245367], [-118.288264639182, 34.0554579460841], [-118.288429707406, 34.0554570298683], [-118.288423938752, 34.055086108329]]]}}, {"type": "Feature", "properties": {"zone_id": "0207LU6NSBKOHJ69EIBDSG", "tract_id": "06037212202", "city": "LOS ANGELES, CA", "zone_code": "R4-1", "zone_category": "Residential", "ev_permitted": false}, "geometry": {"type": "Polygon", "coordinates": [[[-118.28825887126, 34.0550870245367], [-118.288093803763, 34.055087940519], [-118.288099571049, 34.0554588895527], [-118.288264639182, 34.0554579460841], [-118.28825887126, 34.0550870245367]]]}}, {"type": "Feature", "properties": {"zone_id": "0202WTW1F4EUNTXDPF5Y1C", "tract_id": "06037212202", "city": "LOS ANGELES, CA", "zone_code": "R4-1", "zone_category": "Residential", "ev_permitted": false}, "geometry": {"type": "Polygon", "coordinates": [[[-118.288093803763, 34.055087940519], [-118.287928736263, 34.0550888562755], [-118.287934502817, 34.0554598053171], [-118.288099571049, 34.0554588895527], [-118.288093803763, 34.055087940519]]]}}, {"type": "Feature", "properties": {"zone_id": "0205HRHFA9T7BE154PRFTI", "tract_id": "06037212202", "city": "LOS ANGELES, CA", "zone_code": "R4-1", "zone_category": "Residential", "ev_permitted": false}, "geometry": {"type": "Polygon", "coordinates": [[[-118.287928736263, 34.0550888562755], [-118.287763668854, 34.055089799285], [-118.287769434582, 34.055460720856], [-118.287934502817, 34.0554598053171], [-118.287928736263, 34.0550888562755]]]}}, {"type": "Feature", "properties": {"zone_id": "02006NESCZ7QAS9VJYP3XF", "tract_id": "06037212202", "city": "LOS ANGELES, CA", "zone_code": "R4-1", "zone_category": "Residential", "ev_permitted": false}, "geometry": {"type": "Polygon", "coordinates": [[[-118.287598601347, 34.0550907145903], [-118.287433533837, 34.0550916296701], [-118.2874392981, 34.0554625512568], [-118.287604366343, 34.0554616361692], [-118.287598601347, 34.0550907145903]]]}}, {"type": "Feature", "properties": {"zone_id": "0201RRV56VY4T8U2H1TEQH", "tract_id": "06037212202", "city": "LOS ANGELES, CA", "zone_code": "R4-1", "zone_category": "Residential", "ev_permitted": false}, "geometry": {"type": "Polygon", "coordinates": [[[-118.287763668854, 34.055089799285], [-118.287598601347, 34.0550907145903], [-118.287604366343, 34.0554616361692], [-118.287769434582, 34.055460720856], [-118.287763668854, 34.055089799285]]]}}, {"type": "Feature", "properties": {"zone_id": "0204I6ALO84QV8MVECBD7R", "tract_id": "06037212202", "city": "LOS ANGELES, CA", "zone_code": "R4-1", "zone_category": "Residential", "ev_permitted": false}, "geometry": {"type": "Polygon", "coordinates": [[[-118.287433533837, 34.0550916296701], [-118.287268466322, 34.0550925445242], [-118.287274229948, 34.0554634935973], [-118.2874392981, 34.0554625512568], [-118.287433533837, 34.0550916296701]]]}}, {"type": "Feature", "properties": {"zone_id": "0200CB2KNZUTBRZG5C8AN3", "tract_id": "06037212202", "city": "LOS ANGELES, CA", "zone_code": "R4-1", "zone_category": "Residential", "ev_permitted": false}, "geometry": {"type": "Polygon", "coordinates": [[[-118.287268466322, 34.0550925445242], [-118.286941302342, 34.0550943115388], [-118.286944258421, 34.0554652947736], [-118.287274229948, 34.0554634935973], [-118.287268466322, 34.0550925445242]]]}}, {"type": "Feature", "properties": {"zone_id": "0204GQSJRG8BGN3TYVVMHR", "tract_id": "06037212202", "city": "LOS ANGELES, CA", "zone_code": "C2-1", "zone_category": "Commercial", "ev_permitted": true}, "geometry": {"type": "Polygon", "coordinates": [[[-118.286976477826, 34.056908290971], [-118.286811373425, 34.0569091228433], [-118.28681413081, 34.0572800791048], [-118.286979169913, 34.0572792473856], [-118.286976477826, 34.056908290971]]]}}, {"type": "Feature", "properties": {"zone_id": "0203DOQ93OHQDGTR840WFV", "tract_id": "06037212202", "city": "LOS ANGELES, CA", "zone_code": "C2-1", "zone_category": "Commercial", "ev_permitted": true}, "geometry": {"type": "Polygon", "coordinates": [[[-118.286811373425, 34.0569091228433], [-118.286316192355, 34.0569116442714], [-118.286318881515, 34.0572826007008], [-118.28681413081, 34.0572800791048], [-118.286811373425, 34.0569091228433]]]}}, {"type": "Feature", "properties": {"zone_id": "0203O6HQU81IDMOI83Y7QD", "tract_id": "06037212202", "city": "LOS ANGELES, CA", "zone_code": "C2-1", "zone_category": "Commercial", "ev_permitted": true}, "geometry": {"type": "Polygon", "coordinates": [[[-118.286316192355, 34.0569116442714], [-118.286147984664, 34.0569125100726], [-118.286151465337, 34.0572834371499], [-118.286318881515, 34.0572826007008], [-118.286316192355, 34.0569116442714]]]}}, {"type": "Feature", "properties": {"zone_id": "0202BJSLG104XVVKKSEN2O", "tract_id": "06037212202", "city": "LOS ANGELES, CA", "zone_code": "C2-1", "zone_category": "Commercial", "ev_permitted": true}, "geometry": {"type": "Polygon", "coordinates": [[[-118.286147984664, 34.0569125100726], [-118.285982946276, 34.0569133406559], [-118.285986393203, 34.0572842678162], [-118.286151465337, 34.0572834371499], [-118.286147984664, 34.0569125100726]]]}}, {"type": "Feature", "properties": {"zone_id": "0203A3IIBYXK7VYFLSSQ7R", "tract_id": "06037212202", "city": "LOS ANGELES, CA", "zone_code": "C2-1", "zone_category": "Commercial", "ev_permitted": true}, "geometry": {"type": "Polygon", "coordinates": [[[-118.285982946276, 34.0569133406559], [-118.28581787487, 34.0569141710919], [-118.285821321159, 34.0572851257353], [-118.285986393203, 34.0572842678162], [-118.285982946276, 34.0569133406559]]]}}, {"type": "Feature", "properties": {"zone_id": "0203W3FMPVB654TY2QQFV0", "tract_id": "06037212202", "city": "LOS ANGELES, CA", "zone_code": "R4-1", "zone_category": "Residential", "ev_permitted": false}, "geometry": {"type": "Polygon", "coordinates": [[[-118.287019506004, 34.0563722436419], [-118.286939876011, 34.0563726252153], [-118.286942270788, 34.0567435823275], [-118.287090834778, 34.0567428445536], [-118.287088440945, 34.0563723545788], [-118.287019506004, 34.0563722436419]]]}}, {"type": "Feature", "properties": {"zone_id": "0202HVZH9D0N1KPF69YL8O", "tract_id": "06037212202", "city": "LOS ANGELES, CA", "zone_code": "R4-1", "zone_category": "Residential", "ev_permitted": false}, "geometry": {"type": "Polygon", "coordinates": [[[-118.286939876011, 34.0563726252153], [-118.286774805775, 34.0563734844376], [-118.286777166712, 34.056744414153], [-118.286942270788, 34.0567435823275], [-118.286939876011, 34.0563726252153]]]}}, {"type": "Feature", "properties": {"zone_id": "0206VMUJI4GRRXFS8FRVRK", "tract_id": "06037212202", "city": "LOS ANGELES, CA", "zone_code": "R4-1", "zone_category": "Residential", "ev_permitted": false}, "geometry": {"type": "Polygon", "coordinates": [[[-118.286774805775, 34.0563734844376], [-118.286609735536, 34.0563743434344], [-118.286612128755, 34.0567452730747], [-118.286777166712, 34.056744414153], [-118.286774805775, 34.0563734844376]]]}}, {"type": "Feature", "properties": {"zone_id": "0200YD9MHQZ4TPDVKL4ZUC", "tract_id": "06037212202", "city": "LOS ANGELES, CA", "zone_code": "R4-1", "zone_category": "Residential", "ev_permitted": false}, "geometry": {"type": "Polygon", "coordinates": [[[-118.286609735536, 34.0563743434344], [-118.286444665106, 34.0563751472485], [-118.286447057687, 34.0567461043706], [-118.286612128755, 34.0567452730747], [-118.286609735536, 34.0563743434344]]]}}, {"type": "Feature", "properties": {"zone_id": "0205E8R3ZZG7DW4GRSDTOX", "tract_id": "06037212202", "city": "LOS ANGELES, CA", "zone_code": "R4-1", "zone_category": "Residential", "ev_permitted": false}, "geometry": {"type": "Polygon", "coordinates": [[[-118.286444665106, 34.0563751472485], [-118.286279594766, 34.0563759783155], [-118.286281986615, 34.0567469354408], [-118.286447057687, 34.0567461043706], [-118.286444665106, 34.0563751472485]]]}}, {"type": "Feature", "properties": {"zone_id": "0204JT31K9BO0NKQOHNMAU", "tract_id": "06037212202", "city": "LOS ANGELES, CA", "zone_code": "R4-1", "zone_category": "Residential", "ev_permitted": false}, "geometry": {"type": "Polygon", "coordinates": [[[-118.286989168964, 34.0560075081755], [-118.286659040531, 34.0560093089403], [-118.286663515377, 34.0563740509195], [-118.286993655943, 34.0563723600318], [-118.286989168964, 34.0560075081755]]]}}, {"type": "Feature", "properties": {"zone_id": "0205MKTNASJ076AZZ9PAK1", "tract_id": "06037212202", "city": "LOS ANGELES, CA", "zone_code": "R4-1", "zone_category": "Residential", "ev_permitted": false}, "geometry": {"type": "Polygon", "coordinates": [[[-118.286658978276, 34.0560037858644], [-118.286493941873, 34.056004672103], [-118.286498445042, 34.0563748822856], [-118.286663515377, 34.0563740509195], [-118.286658978276, 34.0560037858644]]]}}, {"type": "Feature", "properties": {"zone_id": "02056W15SUTBSPYGQAQKOU", "tract_id": "06037212202", "city": "LOS ANGELES, CA", "zone_code": "R4-1", "zone_category": "Residential", "ev_permitted": false}, "geometry": {"type": "Polygon", "coordinates": [[[-118.286493941873, 34.056004672103], [-118.286328839533, 34.0560055857511], [-118.286333374703, 34.0563757134261], [-118.286498445042, 34.0563748822856], [-118.286493941873, 34.056004672103]]]}}, {"type": "Feature", "properties": {"zone_id": "02014T7EJ5EHIPVFOGDWCO", "tract_id": "06037212202", "city": "LOS ANGELES, CA", "zone_code": "PF-1XL", "zone_category": "Other", "ev_permitted": false}, "geometry": {"type": "Polygon", "coordinates": [[[-118.286279594766, 34.0563759783155], [-118.286114524517, 34.0563768366354], [-118.286116915635, 34.056747793764], [-118.286281986615, 34.0567469354408], [-118.286279594766, 34.0563759783155]]]}}, {"type": "Feature", "properties": {"zone_id": "0200VVL4EIDXMDNHY3MCV5", "tract_id": "06037212202", "city": "LOS ANGELES, CA", "zone_code": "PF-1XL", "zone_category": "Other", "ev_permitted": false}, "geometry": {"type": "Polygon", "coordinates": [[[-118.286114524517, 34.0563768366354], [-118.285949454171, 34.0563776672512], [-118.285951844556, 34.056748624383], [-118.286116915635, 34.056747793764], [-118.286114524517, 34.0563768366354]]]}}, {"type": "Feature", "properties": {"zone_id": "02045CKRQOMTXEHJ7JVHDQ", "tract_id": "06037212202", "city": "LOS ANGELES, CA", "zone_code": "PF-1XL", "zone_category": "Other", "ev_permitted": false}, "geometry": {"type": "Polygon", "coordinates": [[[-118.285949454171, 34.0563776672512], [-118.285784383821, 34.0563784976413], [-118.285786773475, 34.0567494547764], [-118.285951844556, 34.056748624383], [-118.285949454171, 34.0563776672512]]]}}, {"type": "Feature", "properties": {"zone_id": "0203C7TUEG9NDVLDY2II16", "tract_id": "06037212202", "city": "LOS ANGELES, CA", "zone_code": "PF-1XL", "zone_category": "Other", "ev_permitted": false}, "geometry": {"type": "Polygon", "coordinates": [[[-118.285784383821, 34.0563784976413], [-118.285619346483, 34.0563793277277], [-118.28562170239, 34.0567502849443], [-118.285786773475, 34.0567494547764], [-118.285784383821, 34.0563784976413]]]}}, {"type": "Feature", "properties": {"zone_id": "0205NVVDQE860MDHL8N23W", "tract_id": "06037212202", "city": "LOS ANGELES, CA", "zone_code": "PF-1XL", "zone_category": "Other", "ev_permitted": false}, "geometry": {"type": "Polygon", "coordinates": [[[-118.286328839533, 34.0560055857511], [-118.286163737189, 34.0560064991735], [-118.286168271347, 34.0563765444192], [-118.286333374703, 34.0563757134261], [-118.286328839533, 34.0560055857511]]]}}, {"type": "Feature", "properties": {"zone_id": "0200MIP9LM6FQFUBFZ7QX9", "tract_id": "06037212202", "city": "LOS ANGELES, CA", "zone_code": "PF-1XL", "zone_category": "Other", "ev_permitted": false}, "geometry": {"type": "Polygon", "coordinates": [[[-118.286163737189, 34.0560064991735], [-118.285998667762, 34.0560073848135], [-118.28600323411, 34.0563774025088], [-118.286168271347, 34.0563765444192], [-118.286163737189, 34.0560064991735]]]}}, {"type": "Feature", "properties": {"zone_id": "0201X3XCOCCGE3YQZA4KRX", "tract_id": "06037212202", "city": "LOS ANGELES, CA", "zone_code": "PF-1XL", "zone_category": "Other", "ev_permitted": false}, "geometry": {"type": "Polygon", "coordinates": [[[-118.285998667762, 34.0560073848135], [-118.285668562099, 34.0560092102955], [-118.28567309341, 34.0563790632104], [-118.28600323411, 34.0563774025088], [-118.285998667762, 34.0560073848135]]]}}, {"type": "Feature", "properties": {"zone_id": "0204TZXATWWB8NTCTZRLF7", "tract_id": "06037212202", "city": "LOS ANGELES, CA", "zone_code": "PF-1XL", "zone_category": "Other", "ev_permitted": false}, "geometry": {"type": "Polygon", "coordinates": [[[-118.285668562099, 34.0560092102955], [-118.284414001662, 34.0560160458445], [-118.284380585995, 34.0560437131732], [-118.284370865534, 34.05672916535], [-118.28440347777, 34.0567564298858], [-118.285291560305, 34.0567519720814], [-118.285289172847, 34.0563810149364], [-118.28567309341, 34.0563790632104], [-118.285668562099, 34.0560092102955]]]}}, {"type": "Feature", "properties": {"zone_id": "02032EKU52Y14HU2NV4ZXE", "tract_id": "06037212202", "city": "LOS ANGELES, CA", "zone_code": "C2-1", "zone_category": "Commercial", "ev_permitted": true}, "geometry": {"type": "Polygon", "coordinates": [[[-118.28581787487, 34.0569141710919], [-118.285322660725, 34.0569166885244], [-118.285326104819, 34.057287643182], [-118.285821321159, 34.0572851257353], [-118.28581787487, 34.0569141710919]]]}}, {"type": "Feature", "properties": {"zone_id": "0205F40RJJZJSPLSUAGPPR", "tract_id": "06037212202", "city": "LOS ANGELES, CA", "zone_code": "C2-1", "zone_category": "Commercial", "ev_permitted": true}, "geometry": {"type": "Polygon", "coordinates": [[[-118.285322660725, 34.0569166885244], [-118.2851575894, 34.0569175455363], [-118.285161032667, 34.0572884727201], [-118.285326104819, 34.057287643182], [-118.285322660725, 34.0569166885244]]]}}, {"type": "Feature", "properties": {"zone_id": "0200D7GZXSLWYMXV9XJLTL", "tract_id": "06037212202", "city": "LOS ANGELES, CA", "zone_code": "C2-1", "zone_category": "Commercial", "ev_permitted": true}, "geometry": {"type": "Polygon", "coordinates": [[[-118.2851575894, 34.0569175455363], [-118.284992517884, 34.0569183473655], [-118.284995960513, 34.0572893020326], [-118.285161032667, 34.0572884727201], [-118.2851575894, 34.0569175455363]]]}}, {"type": "Feature", "properties": {"zone_id": "0205HHHY6NXEFH7OJAR756", "tract_id": "06037212202", "city": "LOS ANGELES, CA", "zone_code": "C2-1", "zone_category": "Commercial", "ev_permitted": true}, "geometry": {"type": "Polygon", "coordinates": [[[-118.284992517884, 34.0569183473655], [-118.284401133135, 34.0569213627114], [-118.284367716915, 34.0569489750807], [-118.284362842801, 34.057292498096], [-118.284995960513, 34.0572893020326], [-118.284992517884, 34.0569183473655]]]}}, {"type": "Feature", "properties": {"zone_id": "02062P8NJCPIJS4B8GF2Y9", "tract_id": "06037212202", "city": "LOS ANGELES, CA", "zone_code": "PF-1XL", "zone_category": "Other", "ev_permitted": false}, "geometry": {"type": "Polygon", "coordinates": [[[-118.285619346483, 34.0563793277277], [-118.285454243206, 34.0563801852231], [-118.285456631396, 34.0567511423649], [-118.28562170239, 34.0567502849443], [-118.285619346483, 34.0563793277277]]]}}, {"type": "Feature", "properties": {"zone_id": "0206CR06DL0OZALRU2QM5E", "tract_id": "06037212202", "city": "LOS ANGELES, CA", "zone_code": "PF-1XL", "zone_category": "Other", "ev_permitted": false}, "geometry": {"type": "Polygon", "coordinates": [[[-118.285454243206, 34.0563801852231], [-118.285289172847, 34.0563810149364], [-118.285291560305, 34.0567519720814], [-118.285456631396, 34.0567511423649], [-118.285454243206, 34.0563801852231]]]}}, {"type": "Feature", "properties": {"zone_id": "0204IIH3TCCWCHI8TOY2LN", "tract_id": "06037212202", "city": "LOS ANGELES, CA", "zone_code": "R4-1", "zone_category": "Residential", "ev_permitted": false}, "geometry": {"type": "Polygon", "coordinates": [[[-118.286944258421, 34.0554652947736], [-118.286779157056, 34.0554661815589], [-118.286782149117, 34.0558382363874], [-118.286947218108, 34.055837322198], [-118.286944258421, 34.0554652947736]]]}}, {"type": "Feature", "properties": {"zone_id": "02037L1L6T2RBIV6MU3OK2", "tract_id": "06037212202", "city": "LOS ANGELES, CA", "zone_code": "R4-1", "zone_category": "Residential", "ev_permitted": false}, "geometry": {"type": "Polygon", "coordinates": [[[-118.287109161699, 34.0554644082337], [-118.286944258421, 34.0554652947736], [-118.286947166245, 34.0558318265762], [-118.287112763542, 34.0558309383839], [-118.287109161699, 34.0554644082337]]]}}, {"type": "Feature", "properties": {"zone_id": "02043FMLRPUPSWX4PDOJEF", "tract_id": "06037212202", "city": "LOS ANGELES, CA", "zone_code": "R4-1", "zone_category": "Residential", "ev_permitted": false}, "geometry": {"type": "Polygon", "coordinates": [[[-118.286779157056, 34.0554661815589], [-118.286614088701, 34.0554670680401], [-118.286617080122, 34.0558391503512], [-118.286782149117, 34.0558382363874], [-118.286779157056, 34.0554661815589]]]}}, {"type": "Feature", "properties": {"zone_id": "0204H4MF310OKGFFX1UBCK", "tract_id": "06037212202", "city": "LOS ANGELES, CA", "zone_code": "R4-1", "zone_category": "Residential", "ev_permitted": false}, "geometry": {"type": "Polygon", "coordinates": [[[-118.286614088701, 34.0554670680401], [-118.286449020437, 34.0554679817742], [-118.286451959294, 34.0558345684673], [-118.286617028281, 34.0558336547293], [-118.286614088701, 34.0554670680401]]]}}, {"type": "Feature", "properties": {"zone_id": "02071E8K35IL52LYQAEEDH", "tract_id": "06037212202", "city": "LOS ANGELES, CA", "zone_code": "R4-1", "zone_category": "Residential", "ev_permitted": false}, "geometry": {"type": "Polygon", "coordinates": [[[-118.286449020437, 34.0554679817742], [-118.286283952169, 34.0554688952826], [-118.286286941934, 34.0558409226449], [-118.286451978016, 34.0558400366891], [-118.286449020437, 34.0554679817742]]]}}, {"type": "Feature", "properties": {"zone_id": "0205GXOOS7GJAL7FE9GMDR", "tract_id": "06037212202", "city": "LOS ANGELES, CA", "zone_code": "R4-1", "zone_category": "Residential", "ev_permitted": false}, "geometry": {"type": "Polygon", "coordinates": [[[-118.286118883898, 34.0554698085653], [-118.285953815529, 34.055470694144], [-118.28595680392, 34.055842748993], [-118.286121872929, 34.0558418359318], [-118.286118883898, 34.0554698085653]]]}}, {"type": "Feature", "properties": {"zone_id": "0206G9NO8ZBHQPBCEJ0CMR", "tract_id": "06037212202", "city": "LOS ANGELES, CA", "zone_code": "R4-1", "zone_category": "Residential", "ev_permitted": false}, "geometry": {"type": "Polygon", "coordinates": [[[-118.286283952169, 34.0554688952826], [-118.286118883898, 34.0554698085653], [-118.286121872929, 34.0558418359318], [-118.286286941934, 34.0558409226449], [-118.286283952169, 34.0554688952826]]]}}, {"type": "Feature", "properties": {"zone_id": "0206PGRAJ5VX4HDFWR90TC", "tract_id": "06037212202", "city": "LOS ANGELES, CA", "zone_code": "R4-1", "zone_category": "Residential", "ev_permitted": false}, "geometry": {"type": "Polygon", "coordinates": [[[-118.285953815529, 34.055470694144], [-118.285788747345, 34.0554716344541], [-118.285791734908, 34.0558436618287], [-118.28595680392, 34.055842748993], [-118.285953815529, 34.055470694144]]]}}, {"type": "Feature", "properties": {"zone_id": "0206FPD35AMD8WMS63U47S", "tract_id": "06037212202", "city": "LOS ANGELES, CA", "zone_code": "R4-1", "zone_category": "Residential", "ev_permitted": false}, "geometry": {"type": "Polygon", "coordinates": [[[-118.285788747345, 34.0554716344541], [-118.285623678969, 34.0554725195815], [-118.28562659977, 34.0558445471164], [-118.285791734908, 34.0558436618287], [-118.285788747345, 34.0554716344541]]]}}, {"type": "Feature", "properties": {"zone_id": "0204HU49THFL2ETJMOE0VU", "tract_id": "06037212202", "city": "LOS ANGELES, CA", "zone_code": "R4-1", "zone_category": "Residential", "ev_permitted": false}, "geometry": {"type": "Polygon", "coordinates": [[[-118.286941302342, 34.0550943115388], [-118.286446066648, 34.0550970260056], [-118.286449020437, 34.0554679817742], [-118.286944258421, 34.0554652947736], [-118.286941302342, 34.0550943115388]]]}}, {"type": "Feature", "properties": {"zone_id": "02058Z4XN6641EADRGAXQW", "tract_id": "06037212202", "city": "LOS ANGELES, CA", "zone_code": "R4-1", "zone_category": "Residential", "ev_permitted": false}, "geometry": {"type": "Polygon", "coordinates": [[[-118.286446066648, 34.0550970260056], [-118.286280999206, 34.0550979669884], [-118.286283952169, 34.0554688952826], [-118.286449020437, 34.0554679817742], [-118.286446066648, 34.0550970260056]]]}}, {"type": "Feature", "properties": {"zone_id": "020249TO2ANNNSKTN2FHM5", "tract_id": "06037212202", "city": "LOS ANGELES, CA", "zone_code": "R4-1", "zone_category": "Residential", "ev_permitted": false}, "geometry": {"type": "Polygon", "coordinates": [[[-118.286280999206, 34.0550979669884], [-118.286115931573, 34.0550988527887], [-118.286118883898, 34.0554698085653], [-118.286283952169, 34.0554688952826], [-118.286280999206, 34.0550979669884]]]}}, {"type": "Feature", "properties": {"zone_id": "0202VIGJ4ZILL93H6KTT4C", "tract_id": "06037212202", "city": "LOS ANGELES, CA", "zone_code": "R4-1", "zone_category": "Residential", "ev_permitted": false}, "geometry": {"type": "Polygon", "coordinates": [[[-118.286115931573, 34.0550988527887], [-118.28595086403, 34.0550997658418], [-118.285953815529, 34.055470694144], [-118.286118883898, 34.0554698085653], [-118.286115931573, 34.0550988527887]]]}}, {"type": "Feature", "properties": {"zone_id": "0203LL44SZC45LWGD74QSN", "tract_id": "06037212202", "city": "LOS ANGELES, CA", "zone_code": "R4-1", "zone_category": "Residential", "ev_permitted": false}, "geometry": {"type": "Polygon", "coordinates": [[[-118.285785796389, 34.0551006511909], [-118.285620695825, 34.0551015638708], [-118.285623678969, 34.0554725195815], [-118.285788747345, 34.0554716344541], [-118.285785796389, 34.0551006511909]]]}}, {"type": "Feature", "properties": {"zone_id": "0202PCOMQ0RCEUO4ZOAIK2", "tract_id": "06037212202", "city": "LOS ANGELES, CA", "zone_code": "R4-1", "zone_category": "Residential", "ev_permitted": false}, "geometry": {"type": "Polygon", "coordinates": [[[-118.28595086403, 34.0550997658418], [-118.285785796389, 34.0551006511909], [-118.285788747345, 34.0554716344541], [-118.285953815529, 34.055470694144], [-118.28595086403, 34.0550997658418]]]}}, {"type": "Feature", "properties": {"zone_id": "02077PMKTSGWL4D3OZ2HPI", "tract_id": "06037212202", "city": "LOS ANGELES, CA", "zone_code": "R4-1", "zone_category": "Residential", "ev_permitted": false}, "geometry": {"type": "Polygon", "coordinates": [[[-118.285623678969, 34.0554725195815], [-118.28545861059, 34.0554734044833], [-118.285461563764, 34.0558454594226], [-118.28562659977, 34.0558445471164], [-118.285623678969, 34.0554725195815]]]}}, {"type": "Feature", "properties": {"zone_id": "0204D40NG9ANISOOZSGAX2", "tract_id": "06037212202", "city": "LOS ANGELES, CA", "zone_code": "R4-1", "zone_category": "Residential", "ev_permitted": false}, "geometry": {"type": "Polygon", "coordinates": [[[-118.28545861059, 34.0554734044833], [-118.2852935423, 34.055474316638], [-118.285296494647, 34.0558463441029], [-118.285461563764, 34.0558454594226], [-118.28545861059, 34.0554734044833]]]}}, {"type": "Feature", "properties": {"zone_id": "0203U9BQGAXQZBGNXKGQTY", "tract_id": "06037212202", "city": "LOS ANGELES, CA", "zone_code": "R4-1", "zone_category": "Residential", "ev_permitted": false}, "geometry": {"type": "Polygon", "coordinates": [[[-118.2852935423, 34.055474316638], [-118.285128474008, 34.0554752285671], [-118.28513142562, 34.055847256036], [-118.285296494647, 34.0558463441029], [-118.2852935423, 34.055474316638]]]}}, {"type": "Feature", "properties": {"zone_id": "0200JXXW8SSAU5CG2UW56O", "tract_id": "06037212202", "city": "LOS ANGELES, CA", "zone_code": "R4-1", "zone_category": "Residential", "ev_permitted": false}, "geometry": {"type": "Polygon", "coordinates": [[[-118.285128474008, 34.0554752285671], [-118.284963405711, 34.0554761402705], [-118.284966337871, 34.0558426720429], [-118.285131406891, 34.0558417603355], [-118.285128474008, 34.0554752285671]]]}}, {"type": "Feature", "properties": {"zone_id": "0200VFFHF0E0M0S1L8X8BP", "tract_id": "06037212202", "city": "LOS ANGELES, CA", "zone_code": "R4-1", "zone_category": "Residential", "ev_permitted": false}, "geometry": {"type": "Polygon", "coordinates": [[[-118.284798337318, 34.0554770242698], [-118.284633269108, 34.0554779630005], [-118.284636218425, 34.0558499630031], [-118.284801287463, 34.0558490517468], [-118.284798337318, 34.0554770242698]]]}}, {"type": "Feature", "properties": {"zone_id": "0204LB44P81Z1O0V00Z396", "tract_id": "06037212202", "city": "LOS ANGELES, CA", "zone_code": "R4-1", "zone_category": "Residential", "ev_permitted": false}, "geometry": {"type": "Polygon", "coordinates": [[[-118.284963405711, 34.0554761402705], [-118.284798337318, 34.0554770242698], [-118.284801287463, 34.0558490517468], [-118.28496635659, 34.0558481677435], [-118.284963405711, 34.0554761402705]]]}}, {"type": "Feature", "properties": {"zone_id": "0200RPZ8Y69MJFF6PTRLCD", "tract_id": "06037212202", "city": "LOS ANGELES, CA", "zone_code": "R4-1", "zone_category": "Residential", "ev_permitted": false}, "geometry": {"type": "Polygon", "coordinates": [[[-118.284634721935, 34.055661185984], [-118.2845630986, 34.0556615694473], [-118.284564905228, 34.0558414786956], [-118.284636149013, 34.0558410841042], [-118.284634721935, 34.055661185984]]]}}, {"type": "Feature", "properties": {"zone_id": "0204KVFC83V5LTR3X96BXR", "tract_id": "06037212202", "city": "LOS ANGELES, CA", "zone_code": "R4-1", "zone_category": "Residential", "ev_permitted": false}, "geometry": {"type": "Polygon", "coordinates": [[[-118.284508444336, 34.0556618630879], [-118.284453235023, 34.0556621580111], [-118.284454769809, 34.0558319746223], [-118.284476692321, 34.0558419595882], [-118.284509871201, 34.0558417783837], [-118.284508444336, 34.0556618630879]]]}}, {"type": "Feature", "properties": {"zone_id": "0204FF4WZ68JWUS7TW4CLD", "tract_id": "06037212202", "city": "LOS ANGELES, CA", "zone_code": "R4-1", "zone_category": "Residential", "ev_permitted": false}, "geometry": {"type": "Polygon", "coordinates": [[[-118.2845630986, 34.0556615694473], [-118.284508444336, 34.0556618630879], [-118.284509871201, 34.0558417783837], [-118.284564905228, 34.0558414786956], [-118.2845630986, 34.0556615694473]]]}}, {"type": "Feature", "properties": {"zone_id": "0200LPEQNV5O500NW87RRA", "tract_id": "06037212202", "city": "LOS ANGELES, CA", "zone_code": "R4-1", "zone_category": "Residential", "ev_permitted": false}, "geometry": {"type": "Polygon", "coordinates": [[[-118.284453135775, 34.0556511736254], [-118.284396808122, 34.0556514728744], [-118.284398024463, 34.0557737760887], [-118.284398820978, 34.0557820994647], [-118.284401129155, 34.0557902270188], [-118.28440489579, 34.0557979714174], [-118.284410034066, 34.0558051541588], [-118.284416425551, 34.0558116096868], [-118.284423922926, 34.055817189207], [-118.284432353383, 34.0558217641162], [-118.284454769809, 34.0558319746223], [-118.284453135775, 34.0556511736254]]]}}, {"type": "Feature", "properties": {"zone_id": "0204AI00E301VHGZ7D1ZP7", "tract_id": "06037212202", "city": "LOS ANGELES, CA", "zone_code": "R4-1", "zone_category": "Residential", "ev_permitted": false}, "geometry": {"type": "Polygon", "coordinates": [[[-118.284633269108, 34.0554779630005], [-118.284561645491, 34.0554782176574], [-118.2845630986, 34.0556615694473], [-118.284634721935, 34.055661185984], [-118.284633269108, 34.0554779630005]]]}}, {"type": "Feature", "properties": {"zone_id": "02045FFZ2HD6524WJKK8H8", "tract_id": "06037212202", "city": "LOS ANGELES, CA", "zone_code": "R4-1", "zone_category": "Residential", "ev_permitted": false}, "geometry": {"type": "Polygon", "coordinates": [[[-118.284506989278, 34.0554785095849], [-118.284451579945, 34.0554788066963], [-118.284453235023, 34.0556621580111], [-118.284508444336, 34.0556618630879], [-118.284506989278, 34.0554785095849]]]}}, {"type": "Feature", "properties": {"zone_id": "0201PEFQFMYKF7HXQ8605D", "tract_id": "06037212202", "city": "LOS ANGELES, CA", "zone_code": "R4-1", "zone_category": "Residential", "ev_permitted": false}, "geometry": {"type": "Polygon", "coordinates": [[[-118.284561645491, 34.0554782176574], [-118.284506989278, 34.0554785095849], [-118.284508444336, 34.0556618630879], [-118.2845630986, 34.0556615694473], [-118.284561645491, 34.0554782176574]]]}}, {"type": "Feature", "properties": {"zone_id": "0205OCJMKO942CE8SG4KMA", "tract_id": "06037212202", "city": "LOS ANGELES, CA", "zone_code": "R4-1", "zone_category": "Residential", "ev_permitted": false}, "geometry": {"type": "Polygon", "coordinates": [[[-118.284451579945, 34.0554788066963], [-118.284395093528, 34.0554791063187], [-118.284396808122, 34.0556514728744], [-118.284453135775, 34.0556511736254], [-118.284451579945, 34.0554788066963]]]}}, {"type": "Feature", "properties": {"zone_id": "020361NMCUH4VG036SCVQK", "tract_id": "06037212202", "city": "LOS ANGELES, CA", "zone_code": "R4-1", "zone_category": "Residential", "ev_permitted": false}, "geometry": {"type": "Polygon", "coordinates": [[[-118.285455661285, 34.055102476169], [-118.285290593634, 34.0551033608411], [-118.2852935423, 34.055474316638], [-118.28545861059, 34.0554734044833], [-118.285455661285, 34.055102476169]]]}}, {"type": "Feature", "properties": {"zone_id": "0203GFP3YJYQZ7G3DKNMWN", "tract_id": "06037212202", "city": "LOS ANGELES, CA", "zone_code": "R4-1", "zone_category": "Residential", "ev_permitted": false}, "geometry": {"type": "Polygon", "coordinates": [[[-118.285620695825, 34.0551015638708], [-118.285455661285, 34.055102476169], [-118.28545861059, 34.0554734044833], [-118.285623678969, 34.0554725195815], [-118.285620695825, 34.0551015638708]]]}}, {"type": "Feature", "properties": {"zone_id": "0203XZSZ1E8YSGCYF47XP5", "tract_id": "06037212202", "city": "LOS ANGELES, CA", "zone_code": "R4-1", "zone_category": "Residential", "ev_permitted": false}, "geometry": {"type": "Polygon", "coordinates": [[[-118.285125526167, 34.0551043002446], [-118.284960458509, 34.0551051844655], [-118.284963405711, 34.0554761402705], [-118.285128474008, 34.0554752285671], [-118.285125526167, 34.0551043002446]]]}}, {"type": "Feature", "properties": {"zone_id": "020490IZCZGVXTAXBSDUME", "tract_id": "06037212202", "city": "LOS ANGELES, CA", "zone_code": "R4-1", "zone_category": "Residential", "ev_permitted": false}, "geometry": {"type": "Polygon", "coordinates": [[[-118.285290593634, 34.0551033608411], [-118.285125526167, 34.0551043002446], [-118.285128474008, 34.0554752285671], [-118.2852935423, 34.055474316638], [-118.285290593634, 34.0551033608411]]]}}, {"type": "Feature", "properties": {"zone_id": "0205HAG8KAPCWVW62KL36B", "tract_id": "06037212202", "city": "LOS ANGELES, CA", "zone_code": "R4-1", "zone_category": "Residential", "ev_permitted": false}, "geometry": {"type": "Polygon", "coordinates": [[[-118.284960458509, 34.0551051844655], [-118.284795390847, 34.0551060684608], [-118.284798337318, 34.0554770242698], [-118.284963405711, 34.0554761402705], [-118.284960458509, 34.0551051844655]]]}}, {"type": "Feature", "properties": {"zone_id": "0201LRIN920HQPVQNYL5LR", "tract_id": "06037212202", "city": "LOS ANGELES, CA", "zone_code": "R4-1", "zone_category": "Residential", "ev_permitted": false}, "geometry": {"type": "Polygon", "coordinates": [[[-118.284795390847, 34.0551060684608], [-118.284380576057, 34.0551083649505], [-118.284384147861, 34.0554792918141], [-118.284798337318, 34.0554770242698], [-118.284795390847, 34.0551060684608]]]}}]}