{"type": "FeatureCollection", "features": [{"type": "Feature", "properties": {"zone_id": "0202NLE95ZSY4QMFBE5E59", "tract_id": "36047082000", "city": "BROOKLYN, NY", "zone_code": "R6", "zone_category": "Residential", "ev_permitted": false}, "geometry": {"type": "Polygon", "coordinates": [[[-73.9528922156238, 40.6559564675087], [-73.9526650964618, 40.655970326363], [-73.9526715316947, 40.6560304299747], [-73.9528986501373, 40.6560165711074], [-73.9528922156238, 40.6559564675087]]]}}, {"type": "Feature", "properties": {"zone_id": "0205TIVHJDBS765HOJ9AXN", "tract_id": "36047082000", "city": "BROOKLYN, NY", "zone_code": "R6", "zone_category": "Residential", "ev_permitted": false}, "geometry": {"type": "Polygon", "coordinates": [[[-73.9528860753558, 40.6558991023115], [-73.9526589573105, 40.6559129611542], [-73.9526650964618, 40.655970326363], [-73.9528922156238, 40.6559564675087], [-73.9528860753558, 40.6558991023115]]]}}, {"type": "Feature", "properties": {"zone_id": "0200U410J7JBZRXZDLHNIU", "tract_id": "36047082000", "city": "BROOKLYN, NY", "zone_code": "C2-3", "zone_category": "Commercial", "ev_permitted": true}, "geometry": {"type": "Polygon", "coordinates": [[[-73.9528803658961, 40.6558457628525], [-73.9526532471085, 40.6558596216836], [-73.9526589573105, 40.6559129611542], [-73.9528860753558, 40.6558991023115], [-73.9528803658961, 40.6558457628525]]]}}, {"type": "Feature", "properties": {"zone_id": "0200Z504EQC4TQFWI2YD66", "tract_id": "36047082000", "city": "BROOKLYN, NY", "zone_code": "C2-3", "zone_category": "Commercial", "ev_permitted": true}, "geometry": {"type": "Polygon", "coordinates": [[[-73.9528743209657, 40.6557892999137], [-73.9526472032917, 40.6558031587334], [-73.9526532471085, 40.6558596216836], [-73.9528803658961, 40.6558457628525], [-73.9528743209657, 40.6557892999137]]]}}, {"type": "Feature", "properties": {"zone_id": "02074FMH7VJSRPMYKE6OKD", "tract_id": "36047082000", "city": "BROOKLYN, NY", "zone_code": "R6", "zone_category": "Residential", "ev_permitted": false}, "geometry": {"type": "Polygon", "coordinates": [[[-73.9528686142738, 40.6557359871558], [-73.9526414967801, 40.6557498459642], [-73.9526472032917, 40.6558031587334], [-73.9528743209657, 40.6557892999137], [-73.9528686142738, 40.6557359871558]]]}}, {"type": "Feature", "properties": {"zone_id": "0202LFIIJEQU9XZXXPH3AF", "tract_id": "36047082000", "city": "BROOKLYN, NY", "zone_code": "C2-3", "zone_category": "Commercial", "ev_permitted": true}, "geometry": {"type": "Polygon", "coordinates": [[[-73.9528626390275, 40.6556801699925], [-73.9526355217227, 40.6556940287892], [-73.9526414967801, 40.6557498459642], [-73.9528686142738, 40.6557359871558], [-73.9528626390275, 40.6556801699925]]]}}, {"type": "Feature", "properties": {"zone_id": "02044VKJG7KYV4KTZOK2XH", "tract_id": "36047082000", "city": "BROOKLYN, NY", "zone_code": "R6", "zone_category": "Residential", "ev_permitted": false}, "geometry": {"type": "Polygon", "coordinates": [[[-73.952631050746, 40.655652264109], [-73.9524483973615, 40.6556634095841], [-73.952488876359, 40.6560415755132], [-73.9526715316947, 40.6560304299747], [-73.952631050746, 40.655652264109]]]}}, {"type": "Feature", "properties": {"zone_id": "02026JAWOBQW01PETR1MN1", "tract_id": "36047082000", "city": "BROOKLYN, NY", "zone_code": "R6", "zone_category": "Residential", "ev_permitted": false}, "geometry": {"type": "Polygon", "coordinates": [[[-73.9524477342486, 40.6556572144479], [-73.9523622183475, 40.6556624223409], [-73.9524033611145, 40.6560467932744], [-73.952488876359, 40.6560415755132], [-73.9524477342486, 40.6556572144479]]]}}, {"type": "Feature", "properties": {"zone_id": "0205HGA4YGUDNP3WJAHUXL", "tract_id": "36047082000", "city": "BROOKLYN, NY", "zone_code": "C2-3", "zone_category": "Commercial", "ev_permitted": true}, "geometry": {"type": "Polygon", "coordinates": [[[-73.9528567270386, 40.6556249395789], [-73.9526296089979, 40.6556387983637], [-73.9526355217227, 40.6556940287892], [-73.9528626390275, 40.6556801699925], [-73.9528567270386, 40.6556249395789]]]}}, {"type": "Feature", "properties": {"zone_id": "0200E5ZAVPHBDIGOIRZEFZ", "tract_id": "36047082000", "city": "BROOKLYN, NY", "zone_code": "M1-1", "zone_category": "Industrial", "ev_permitted": true}, "geometry": {"type": "Polygon", "coordinates": [[[-73.9520865256458, 40.6557238866713], [-73.9518199247108, 40.655740152297], [-73.9518563173402, 40.6560801712124], [-73.9521229196256, 40.6560639048003], [-73.9520865256458, 40.6557238866713]]]}}, {"type": "Feature", "properties": {"zone_id": "0201M68280D9IC5SYSMZ5L", "tract_id": "36047082000", "city": "BROOKLYN, NY", "zone_code": "R6", "zone_category": "Residential", "ev_permitted": false}, "geometry": {"type": "Polygon", "coordinates": [[[-73.9523661610069, 40.655699255692], [-73.9520857209689, 40.6557163678305], [-73.9521229196256, 40.6560639048003], [-73.9524033611145, 40.6560467932744], [-73.9523661610069, 40.655699255692]]]}}, {"type": "Feature", "properties": {"zone_id": "0205Z4L0LH3NAQPEVAUV2Y", "tract_id": "36047082000", "city": "BROOKLYN, NY", "zone_code": "M1-1", "zone_category": "Industrial", "ev_permitted": true}, "geometry": {"type": "Polygon", "coordinates": [[[-73.9515322024487, 40.6557451699975], [-73.9510279242169, 40.6557759347477], [-73.9510656461413, 40.656128408497], [-73.9515702065934, 40.6560976268363], [-73.9515322024487, 40.6557451699975]]]}}, {"type": "Feature", "properties": {"zone_id": "0200RI91IW45D3AVEBW1A1", "tract_id": "36047082000", "city": "BROOKLYN, NY", "zone_code": "R6", "zone_category": "Residential", "ev_permitted": false}, "geometry": {"type": "Polygon", "coordinates": [[[-73.9518193757551, 40.6557350219167], [-73.9515329924423, 40.6557524949006], [-73.9515702065934, 40.6560976268363], [-73.9518563173402, 40.6560801712124], [-73.9518193757551, 40.6557350219167]]]}}, {"type": "Feature", "properties": {"zone_id": "0204F2ILC57RR5E0CT0LA2", "tract_id": "36047082000", "city": "BROOKLYN, NY", "zone_code": "M1-1", "zone_category": "Industrial", "ev_permitted": true}, "geometry": {"type": "Polygon", "coordinates": [[[-73.9510279242169, 40.6557759347477], [-73.9505280411769, 40.6558064293547], [-73.9505657614001, 40.6561589032671], [-73.9510656461413, 40.656128408497], [-73.9510279242169, 40.6557759347477]]]}}, {"type": "Feature", "properties": {"zone_id": "0200E0UUFSR8PV7MFSBGLD", "tract_id": "36047082000", "city": "BROOKLYN, NY", "zone_code": "R6", "zone_category": "Residential", "ev_permitted": false}, "geometry": {"type": "Polygon", "coordinates": [[[-73.9505593207275, 40.656098722945], [-73.9502797993887, 40.656115773457], [-73.9502870563888, 40.6561759042584], [-73.9505657614001, 40.6561589032671], [-73.9505593207275, 40.656098722945]]]}}, {"type": "Feature", "properties": {"zone_id": "0206PZMRKVY4TGO45N9CWG", "tract_id": "36047082000", "city": "BROOKLYN, NY", "zone_code": "R6", "zone_category": "Residential", "ev_permitted": false}, "geometry": {"type": "Polygon", "coordinates": [[[-73.9505530431737, 40.6560400583385], [-73.9502727230332, 40.6560571576764], [-73.9502797993887, 40.656115773457], [-73.9505593207275, 40.656098722945], [-73.9505530431737, 40.6560400583385]]]}}, {"type": "Feature", "properties": {"zone_id": "02029G7W3KQRZFFZ708V2U", "tract_id": "36047082000", "city": "BROOKLYN, NY", "zone_code": "R6", "zone_category": "Residential", "ev_permitted": false}, "geometry": {"type": "Polygon", "coordinates": [[[-73.9505475490626, 40.6559887158276], [-73.9502665297414, 40.6560058577123], [-73.9502727230332, 40.6560571576764], [-73.9505530431737, 40.6560400583385], [-73.9505475490626, 40.6559887158276]]]}}, {"type": "Feature", "properties": {"zone_id": "02032U74MRGDZS1M5TD11L", "tract_id": "36047082000", "city": "BROOKLYN, NY", "zone_code": "R6", "zone_category": "Residential", "ev_permitted": false}, "geometry": {"type": "Polygon", "coordinates": [[[-73.9505414410393, 40.6559316414214], [-73.9502596450568, 40.6559488307365], [-73.9502665297414, 40.6560058577123], [-73.9505475490626, 40.6559887158276], [-73.9505414410393, 40.6559316414214]]]}}, {"type": "Feature", "properties": {"zone_id": "02008JPDQK5BSPOA1FSBAG", "tract_id": "36047082000", "city": "BROOKLYN, NY", "zone_code": "C2-3", "zone_category": "Commercial", "ev_permitted": true}, "geometry": {"type": "Polygon", "coordinates": [[[-73.9505358095014, 40.6558790157856], [-73.9502532977371, 40.6558962490452], [-73.9502596450568, 40.6559488307365], [-73.9505414410393, 40.6559316414214], [-73.9505358095014, 40.6558790157856]]]}}, {"type": "Feature", "properties": {"zone_id": "0201IFWCH9G1T9DZMVP175", "tract_id": "36047082000", "city": "BROOKLYN, NY", "zone_code": "C2-3", "zone_category": "Commercial", "ev_permitted": true}, "geometry": {"type": "Polygon", "coordinates": [[[-73.9505295887971, 40.6558208845229], [-73.9502462865384, 40.655838165909], [-73.9502532977371, 40.6558962490452], [-73.9505358095014, 40.6558790157856], [-73.9505295887971, 40.6558208845229]]]}}, {"type": "Feature", "properties": {"zone_id": "0206ZXIQ54N902CGQU9V9Z", "tract_id": "36047082000", "city": "BROOKLYN, NY", "zone_code": "R6", "zone_category": "Residential", "ev_permitted": false}, "geometry": {"type": "Polygon", "coordinates": [[[-73.9504633241128, 40.655755901034], [-73.9502380154306, 40.6557696448549], [-73.9502462865384, 40.655838165909], [-73.9505295887971, 40.6558208845229], [-73.9505280411769, 40.6558064293547], [-73.9504691150109, 40.6558100241199], [-73.9504633241128, 40.655755901034]]]}}, {"type": "Feature", "properties": {"zone_id": "0202NGBE9INN13946JN192", "tract_id": "36047082000", "city": "BROOKLYN, NY", "zone_code": "R6", "zone_category": "Residential", "ev_permitted": false}, "geometry": {"type": "Polygon", "coordinates": [[[-73.9505258169985, 40.6554713489775], [-73.9504334754489, 40.6554769705857], [-73.9504691150109, 40.6558100241199], [-73.9505614561041, 40.6558043912404], [-73.9505258169985, 40.6554713489775]]]}}, {"type": "Feature", "properties": {"zone_id": "020642KQHSV0LHWDIWWRJX", "tract_id": "36047082000", "city": "BROOKLYN, NY", "zone_code": "R6", "zone_category": "Residential", "ev_permitted": false}, "geometry": {"type": "Polygon", "coordinates": [[[-73.9525981776145, 40.6553451638764], [-73.9524155223135, 40.6553562868133], [-73.9524483973615, 40.6556634095841], [-73.952631050746, 40.655652264109], [-73.9525981776145, 40.6553451638764]]]}}, {"type": "Feature", "properties": {"zone_id": "0200ALGMHWBK2CZBOKDAZX", "tract_id": "36047082000", "city": "BROOKLYN, NY", "zone_code": "R6", "zone_category": "Residential", "ev_permitted": false}, "geometry": {"type": "Polygon", "coordinates": [[[-73.9528452816371, 40.655518018224], [-73.952618163958, 40.6555318769863], [-73.9526236330481, 40.655582966431], [-73.9528507499773, 40.6555691076575], [-73.9528452816371, 40.655518018224]]]}}, {"type": "Feature", "properties": {"zone_id": "0204YAFZDFF6O4CHAUERGM", "tract_id": "36047082000", "city": "BROOKLYN, NY", "zone_code": "C2-3", "zone_category": "Commercial", "ev_permitted": true}, "geometry": {"type": "Polygon", "coordinates": [[[-73.9528507499773, 40.6555691076575], [-73.9526236330481, 40.655582966431], [-73.9526296089979, 40.6556387983637], [-73.9528567270386, 40.6556249395789], [-73.9528507499773, 40.6555691076575]]]}}, {"type": "Feature", "properties": {"zone_id": "02073JDDN3E8E4KCE6ZN6Q", "tract_id": "36047082000", "city": "BROOKLYN, NY", "zone_code": "C2-3", "zone_category": "Commercial", "ev_permitted": true}, "geometry": {"type": "Polygon", "coordinates": [[[-73.9528330764233, 40.655404003161], [-73.9526059591299, 40.6554178618994], [-73.9526122246852, 40.6554763935889], [-73.9528393421766, 40.6554625348382], [-73.9528330764233, 40.655404003161]]]}}, {"type": "Feature", "properties": {"zone_id": "02060XHWMKNLW32YP1V0VH", "tract_id": "36047082000", "city": "BROOKLYN, NY", "zone_code": "R6", "zone_category": "Residential", "ev_permitted": false}, "geometry": {"type": "Polygon", "coordinates": [[[-73.9528393421766, 40.6554625348382], [-73.9526122246852, 40.6554763935889], [-73.952618163958, 40.6555318769863], [-73.9528452816371, 40.655518018224], [-73.9528393421766, 40.6554625348382]]]}}, {"type": "Feature", "properties": {"zone_id": "0203MWV1QMAOJ2AUB8JMQN", "tract_id": "36047082000", "city": "BROOKLYN, NY", "zone_code": "R6", "zone_category": "Residential", "ev_permitted": false}, "geometry": {"type": "Polygon", "coordinates": [[[-73.9528252974111, 40.6553313318556], [-73.9525981776145, 40.6553451638764], [-73.9526059591299, 40.6554178618994], [-73.9528330764233, 40.655404003161], [-73.9528252974111, 40.6553313318556]]]}}, {"type": "Feature", "properties": {"zone_id": "0201GH6USSG3COT3R02987", "tract_id": "36047082000", "city": "BROOKLYN, NY", "zone_code": "R6", "zone_category": "Residential", "ev_permitted": false}, "geometry": {"type": "Polygon", "coordinates": [[[-73.9521943406798, 40.6553697565132], [-73.9514963083828, 40.6554122818111], [-73.9515329924423, 40.6557524949006], [-73.9518193757551, 40.6557350219167], [-73.9518199247108, 40.655740152297], [-73.9520865256458, 40.6557238866713], [-73.9520857209689, 40.6557163678305], [-73.9522304958113, 40.6557075344295], [-73.9521943406798, 40.6553697565132]]]}}, {"type": "Feature", "properties": {"zone_id": "02079SFIQ7SVBLT902BJYZ", "tract_id": "36047082000", "city": "BROOKLYN, NY", "zone_code": "C2-3", "zone_category": "Commercial", "ev_permitted": true}, "geometry": {"type": "Polygon", "coordinates": [[[-73.9523300079489, 40.655361494683], [-73.9521943406798, 40.6553697565132], [-73.9522304958113, 40.6557075344295], [-73.9523661610069, 40.655699255692], [-73.9523300079489, 40.655361494683]]]}}, {"type": "Feature", "properties": {"zone_id": "0203I9LG49X6MM7IA9PCE9", "tract_id": "36047082000", "city": "BROOKLYN, NY", "zone_code": "R6", "zone_category": "Residential", "ev_permitted": false}, "geometry": {"type": "Polygon", "coordinates": [[[-73.9524155223135, 40.6553562868133], [-73.9523300079489, 40.655361494683], [-73.9523622183475, 40.6556624223409], [-73.9524477342486, 40.6556572144479], [-73.9524155223135, 40.6553562868133]]]}}, {"type": "Feature", "properties": {"zone_id": "0201S9FIAPSS36LA1PLQZ8", "tract_id": "36047082000", "city": "BROOKLYN, NY", "zone_code": "R7-1", "zone_category": "Residential", "ev_permitted": false}, "geometry": {"type": "Polygon", "coordinates": [[[-73.9527497646471, 40.6546285060312], [-73.9522607521711, 40.6546576557895], [-73.9523207302729, 40.6552112795218], [-73.9528092032307, 40.6551822993321], [-73.9527497646471, 40.6546285060312]]]}}, {"type": "Feature", "properties": {"zone_id": "020277V8TJR09RGOH4D2I6", "tract_id": "36047082000", "city": "BROOKLYN, NY", "zone_code": "R7-1", "zone_category": "Residential", "ev_permitted": false}, "geometry": {"type": "Polygon", "coordinates": [[[-73.9527438875706, 40.6545737471071], [-73.9524391884614, 40.6545919097557], [-73.9524451206489, 40.6546466659075], [-73.9527497646471, 40.6546285060312], [-73.9527438875706, 40.6545737471071]]]}}, {"type": "Feature", "properties": {"zone_id": "0200O9UADPV84VWLW2E7BR", "tract_id": "36047082000", "city": "BROOKLYN, NY", "zone_code": "R7-1", "zone_category": "Residential", "ev_permitted": false}, "geometry": {"type": "Polygon", "coordinates": [[[-73.9522607521711, 40.6546576557895], [-73.9517212418363, 40.6546898135766], [-73.9517811999148, 40.6552432858062], [-73.9523207302729, 40.6552112795218], [-73.9522607521711, 40.6546576557895]]]}}, {"type": "Feature", "properties": {"zone_id": "0203FNCGNUPBPNFJPZCT67", "tract_id": "36047082000", "city": "BROOKLYN, NY", "zone_code": "R7-1", "zone_category": "Residential", "ev_permitted": false}, "geometry": {"type": "Polygon", "coordinates": [[[-73.9525251405518, 40.6540661360396], [-73.9524525718614, 40.6540704618784], [-73.9524954921947, 40.6544666276265], [-73.9525680613132, 40.6544623017607], [-73.9525251405518, 40.6540661360396]]]}}, {"type": "Feature", "properties": {"zone_id": "0201OLDZMHMBZEO9GN68DK", "tract_id": "36047082000", "city": "BROOKLYN, NY", "zone_code": "R7-1", "zone_category": "Residential", "ev_permitted": false}, "geometry": {"type": "Polygon", "coordinates": [[[-73.9525950436822, 40.6540619685611], [-73.9525251405518, 40.6540661360396], [-73.9525680613132, 40.6544623017607], [-73.9526379648555, 40.6544581349591], [-73.9525950436822, 40.6540619685611]]]}}, {"type": "Feature", "properties": {"zone_id": "0200NCHMYKAESX0ZHN4X1X", "tract_id": "36047082000", "city": "BROOKLYN, NY", "zone_code": "R7-1", "zone_category": "Residential", "ev_permitted": false}, "geometry": {"type": "Polygon", "coordinates": [[[-73.9526883637888, 40.6540564060492], [-73.9525950436822, 40.6540619685611], [-73.9526379648555, 40.6544581349591], [-73.9527308850781, 40.6544525961386], [-73.9526883637888, 40.6540564060492]]]}}, {"type": "Feature", "properties": {"zone_id": "0204UTRCRZM5FQHFBMUALY", "tract_id": "36047082000", "city": "BROOKLYN, NY", "zone_code": "R7-1", "zone_category": "Residential", "ev_permitted": false}, "geometry": {"type": "Polygon", "coordinates": [[[-73.9524525718614, 40.6540704618784], [-73.9523831438815, 40.6540745999551], [-73.9524260638046, 40.6544707664316], [-73.9524954921947, 40.6544666276265], [-73.9524525718614, 40.6540704618784]]]}}, {"type": "Feature", "properties": {"zone_id": "0204IDWTDFROHSBPC1AWRV", "tract_id": "36047082000", "city": "BROOKLYN, NY", "zone_code": "R7-1", "zone_category": "Residential", "ev_permitted": false}, "geometry": {"type": "Polygon", "coordinates": [[[-73.9527382753967, 40.6545214511291], [-73.9524335230098, 40.6545396179568], [-73.9524391884614, 40.6545919097557], [-73.9527438875706, 40.6545737471071], [-73.9527382753967, 40.6545214511291]]]}}, {"type": "Feature", "properties": {"zone_id": "02051KKQZUFNC5PHQAXLTE", "tract_id": "36047082000", "city": "BROOKLYN, NY", "zone_code": "R7-1", "zone_category": "Residential", "ev_permitted": false}, "geometry": {"type": "Polygon", "coordinates": [[[-73.9527308850781, 40.6544525961386], [-73.9524260638046, 40.6544707664316], [-73.9524335230098, 40.6545396179568], [-73.9527382753967, 40.6545214511291], [-73.9527308850781, 40.6544525961386]]]}}, {"type": "Feature", "properties": {"zone_id": "02058RPVVO6NZ770JFUSVD", "tract_id": "36047082000", "city": "BROOKLYN, NY", "zone_code": "R7-1", "zone_category": "Residential", "ev_permitted": false}, "geometry": {"type": "Polygon", "coordinates": [[[-73.9523831438815, 40.6540745999551], [-73.9521987760518, 40.6540855897381], [-73.9522607521711, 40.6546576557895], [-73.9524451206489, 40.6546466659075], [-73.9523831438815, 40.6540745999551]]]}}, {"type": "Feature", "properties": {"zone_id": "0205F3WPWATACTOV2W4GKA", "tract_id": "36047082000", "city": "BROOKLYN, NY", "zone_code": "R7-1", "zone_category": "Residential", "ev_permitted": false}, "geometry": {"type": "Polygon", "coordinates": [[[-73.9521987760518, 40.6540855897381], [-73.9520232379806, 40.6540960531003], [-73.9520852126044, 40.6546681192455], [-73.9522607521711, 40.6546576557895], [-73.9521987760518, 40.6540855897381]]]}}, {"type": "Feature", "properties": {"zone_id": "02031IT1NIABAOMK3CD82T", "tract_id": "36047082000", "city": "BROOKLYN, NY", "zone_code": "R7-1", "zone_category": "Residential", "ev_permitted": false}, "geometry": {"type": "Polygon", "coordinates": [[[-73.9520232379806, 40.6540960531003], [-73.9516592712359, 40.654117747237], [-73.9517212418363, 40.6546898135766], [-73.9520852126044, 40.6546681192455], [-73.9520232379806, 40.6540960531003]]]}}, {"type": "Feature", "properties": {"zone_id": "0204FAXDXE2G7XOIKLK5G8", "tract_id": "36047082000", "city": "BROOKLYN, NY", "zone_code": "R7-1", "zone_category": "Residential", "ev_permitted": false}, "geometry": {"type": "Polygon", "coordinates": [[[-73.9526361997284, 40.6535395701275], [-73.9525550085725, 40.6535443773182], [-73.9525935693185, 40.6539010023399], [-73.9526747599831, 40.6538961951217], [-73.9526361997284, 40.6535395701275]]]}}, {"type": "Feature", "properties": {"zone_id": "02039JDYKZ1ZPY97T0KBMF", "tract_id": "36047082000", "city": "BROOKLYN, NY", "zone_code": "R7-1", "zone_category": "Residential", "ev_permitted": false}, "geometry": {"type": "Polygon", "coordinates": [[[-73.9525550085725, 40.6535443773182], [-73.952478537671, 40.6535489060391], [-73.9525170980108, 40.6539055310861], [-73.9525935693185, 40.6539010023399], [-73.9525550085725, 40.6535443773182]]]}}, {"type": "Feature", "properties": {"zone_id": "0203RN9IP41U85ANA9XRMO", "tract_id": "36047082000", "city": "BROOKLYN, NY", "zone_code": "R7-1", "zone_category": "Residential", "ev_permitted": false}, "geometry": {"type": "Polygon", "coordinates": [[[-73.952478537671, 40.6535489060391], [-73.9524129152556, 40.6535527913415], [-73.9524514752464, 40.6539094171131], [-73.9525170980108, 40.6539055310861], [-73.952478537671, 40.6535489060391]]]}}, {"type": "Feature", "properties": {"zone_id": "0201H404OQAZBPQM7NLJH7", "tract_id": "36047082000", "city": "BROOKLYN, NY", "zone_code": "R7-1", "zone_category": "Residential", "ev_permitted": false}, "geometry": {"type": "Polygon", "coordinates": [[[-73.9521184472358, 40.6534445361301], [-73.9520427966529, 40.6534490150136], [-73.9520948577756, 40.6539305331577], [-73.9521705089016, 40.6539260535376], [-73.9521184472358, 40.6534445361301]]]}}, {"type": "Feature", "properties": {"zone_id": "0205IGSVDH6XGR3DMM4T68", "tract_id": "36047082000", "city": "BROOKLYN, NY", "zone_code": "R7-1", "zone_category": "Residential", "ev_permitted": false}, "geometry": {"type": "Polygon", "coordinates": [[[-73.9524129152556, 40.6535527913415], [-73.9523364111198, 40.6535573213594], [-73.9523749716264, 40.6539139478596], [-73.9524514752464, 40.6539094171131], [-73.9524129152556, 40.6535527913415]]]}}, {"type": "Feature", "properties": {"zone_id": "0205P85HMEICH3WXXZ46V5", "tract_id": "36047082000", "city": "BROOKLYN, NY", "zone_code": "R7-1", "zone_category": "Residential", "ev_permitted": false}, "geometry": {"type": "Polygon", "coordinates": [[[-73.9523364111198, 40.6535573213594], [-73.9522733158207, 40.6535610579621], [-73.9523118750706, 40.6539176830775], [-73.9523749716264, 40.6539139478596], [-73.9523364111198, 40.6535573213594]]]}}, {"type": "Feature", "properties": {"zone_id": "0202IP7SG7J4ZNCVLQ5W6R", "tract_id": "36047082000", "city": "BROOKLYN, NY", "zone_code": "R7-1", "zone_category": "Residential", "ev_permitted": false}, "geometry": {"type": "Polygon", "coordinates": [[[-73.9522733158207, 40.6535610579621], [-73.9522057954932, 40.6535650561904], [-73.9522443534619, 40.6539216813279], [-73.9523118750706, 40.6539176830775], [-73.9522733158207, 40.6535610579621]]]}}, {"type": "Feature", "properties": {"zone_id": "0204BXZFXLNJQ1FLOPKMHS", "tract_id": "36047082000", "city": "BROOKLYN, NY", "zone_code": "R7-1", "zone_category": "Residential", "ev_permitted": false}, "geometry": {"type": "Polygon", "coordinates": [[[-73.9522057954932, 40.6535650561904], [-73.9521319504025, 40.6535694283751], [-73.9521705089016, 40.6539260535376], [-73.9522443534619, 40.6539216813279], [-73.9522057954932, 40.6535650561904]]]}}, {"type": "Feature", "properties": {"zone_id": "02038W5JHPTO40Q0TTDZSV", "tract_id": "36047082000", "city": "BROOKLYN, NY", "zone_code": "R6", "zone_category": "Residential", "ev_permitted": false}, "geometry": {"type": "Polygon", "coordinates": [[[-73.9514963083828, 40.6554122818111], [-73.9514048361723, 40.6554178307859], [-73.9514404686432, 40.6557507666715], [-73.9515322024487, 40.6557451699975], [-73.9514963083828, 40.6554122818111]]]}}, {"type": "Feature", "properties": {"zone_id": "0206ZXZXHCBGIRM7RDO139", "tract_id": "36047082000", "city": "BROOKLYN, NY", "zone_code": "R6", "zone_category": "Residential", "ev_permitted": false}, "geometry": {"type": "Polygon", "coordinates": [[[-73.9514048361723, 40.6554178307859], [-73.9513292699423, 40.6554224314992], [-73.9513649038765, 40.6557553772461], [-73.9514404686432, 40.6557507666715], [-73.9514048361723, 40.6554178307859]]]}}, {"type": "Feature", "properties": {"zone_id": "0201LN8J8TO6NZF21ZOUTD", "tract_id": "36047082000", "city": "BROOKLYN, NY", "zone_code": "R6", "zone_category": "Residential", "ev_permitted": false}, "geometry": {"type": "Polygon", "coordinates": [[[-73.9513292699423, 40.6554224314992], [-73.9512628778695, 40.6554264739192], [-73.9512985114689, 40.6557594274158], [-73.9513649038765, 40.6557553772461], [-73.9513292699423, 40.6554224314992]]]}}, {"type": "Feature", "properties": {"zone_id": "0202MU1HU4E8JXDCQCX0JH", "tract_id": "36047082000", "city": "BROOKLYN, NY", "zone_code": "R6", "zone_category": "Residential", "ev_permitted": false}, "geometry": {"type": "Polygon", "coordinates": [[[-73.9512628778695, 40.6554264739192], [-73.9511894762177, 40.655430943357], [-73.9512251103696, 40.6557639053085], [-73.9512985114689, 40.6557594274158], [-73.9512628778695, 40.6554264739192]]]}}, {"type": "Feature", "properties": {"zone_id": "02031UAHV0NQKZTVHNI4AK", "tract_id": "36047082000", "city": "BROOKLYN, NY", "zone_code": "R6", "zone_category": "Residential", "ev_permitted": false}, "geometry": {"type": "Polygon", "coordinates": [[[-73.9511894762177, 40.655430943357], [-73.9511178940738, 40.6554353017977], [-73.9511535287873, 40.6557682722035], [-73.9512251103696, 40.6557639053085], [-73.9511894762177, 40.655430943357]]]}}, {"type": "Feature", "properties": {"zone_id": "0201RAV90QUJ5J88XGDEP8", "tract_id": "36047082000", "city": "BROOKLYN, NY", "zone_code": "R6", "zone_category": "Residential", "ev_permitted": false}, "geometry": {"type": "Polygon", "coordinates": [[[-73.9511178940738, 40.6554353017977], [-73.9510448079582, 40.6554397516025], [-73.9510804432251, 40.655772731166], [-73.9511535287873, 40.6557682722035], [-73.9511178940738, 40.6554353017977]]]}}, {"type": "Feature", "properties": {"zone_id": "0204F37O3HX1RE2AKU3EYS", "tract_id": "36047082000", "city": "BROOKLYN, NY", "zone_code": "R6", "zone_category": "Residential", "ev_permitted": false}, "geometry": {"type": "Polygon", "coordinates": [[[-73.9510448079582, 40.6554397516025], [-73.9509797481956, 40.6554437129172], [-73.9510153849796, 40.6557767002307], [-73.9510804432251, 40.655772731166], [-73.9510448079582, 40.6554397516025]]]}}, {"type": "Feature", "properties": {"zone_id": "0207A5JHXQ48IIIJSXF9S7", "tract_id": "36047082000", "city": "BROOKLYN, NY", "zone_code": "R6", "zone_category": "Residential", "ev_permitted": false}, "geometry": {"type": "Polygon", "coordinates": [[[-73.9509797481956, 40.6554437129172], [-73.95090071172, 40.6554485247772], [-73.9509363481053, 40.6557815212496], [-73.9510153849796, 40.6557767002307], [-73.9509797481956, 40.6554437129172]]]}}, {"type": "Feature", "properties": {"zone_id": "0205SV7X8T4SSDVCAJQM7R", "tract_id": "36047082000", "city": "BROOKLYN, NY", "zone_code": "R6", "zone_category": "Residential", "ev_permitted": false}, "geometry": {"type": "Polygon", "coordinates": [[[-73.95090071172, 40.6554485247772], [-73.9508303364, 40.6554528090716], [-73.9508659733522, 40.6557858147007], [-73.9509363481053, 40.6557815212496], [-73.95090071172, 40.6554485247772]]]}}, {"type": "Feature", "properties": {"zone_id": "0201VWZ3VDWMX25W4X7JPV", "tract_id": "36047082000", "city": "BROOKLYN, NY", "zone_code": "R6", "zone_category": "Residential", "ev_permitted": false}, "geometry": {"type": "Polygon", "coordinates": [[[-73.9508303364, 40.6554528090716], [-73.9507561771726, 40.6554573242848], [-73.9507918146739, 40.6557903376664], [-73.9508659733522, 40.6557858147007], [-73.9508303364, 40.6554528090716]]]}}, {"type": "Feature", "properties": {"zone_id": "0207CPFCXX0CDUKKOPNQ77", "tract_id": "36047082000", "city": "BROOKLYN, NY", "zone_code": "C2-3", "zone_category": "Commercial", "ev_permitted": true}, "geometry": {"type": "Polygon", "coordinates": [[[-73.9507561771726, 40.6554573242848], [-73.9506880310213, 40.6554614731297], [-73.950723668178, 40.6557944956669], [-73.9507918146739, 40.6557903376664], [-73.9507561771726, 40.6554573242848]]]}}, {"type": "Feature", "properties": {"zone_id": "0207AB0KHFF0ZOAN46C510", "tract_id": "36047082000", "city": "BROOKLYN, NY", "zone_code": "R6", "zone_category": "Residential", "ev_permitted": false}, "geometry": {"type": "Polygon", "coordinates": [[[-73.9506880310213, 40.6554614731297], [-73.9506128992729, 40.65546604756], [-73.9506485388187, 40.6557990785535], [-73.950723668178, 40.6557944956669], [-73.9506880310213, 40.6554614731297]]]}}, {"type": "Feature", "properties": {"zone_id": "02006L264CUW78D2UD65G2", "tract_id": "36047082000", "city": "BROOKLYN, NY", "zone_code": "C2-3", "zone_category": "Commercial", "ev_permitted": true}, "geometry": {"type": "Polygon", "coordinates": [[[-73.9506128992729, 40.65546604756], [-73.9505258169985, 40.6554713489775], [-73.9505614561041, 40.6558043912404], [-73.9506485388187, 40.6557990785535], [-73.9506128992729, 40.65546604756]]]}}, {"type": "Feature", "properties": {"zone_id": "020526KTCGS024L52WTMD4", "tract_id": "36047082000", "city": "BROOKLYN, NY", "zone_code": "C2-3", "zone_category": "Commercial", "ev_permitted": true}, "geometry": {"type": "Polygon", "coordinates": [[[-73.9504334754489, 40.6554769705857], [-73.9503005305323, 40.6554850641212], [-73.9503303804771, 40.6557640107659], [-73.9504633241128, 40.655755901034], [-73.9504334754489, 40.6554769705857]]]}}, {"type": "Feature", "properties": {"zone_id": "0202QZXHJ0113H0WB7EYWW", "tract_id": "36047082000", "city": "BROOKLYN, NY", "zone_code": "R7-1", "zone_category": "Residential", "ev_permitted": false}, "geometry": {"type": "Polygon", "coordinates": [[[-73.9505140358777, 40.6552499316397], [-73.9501862588453, 40.6552694633397], [-73.9501936223653, 40.6553374499839], [-73.9505214098109, 40.6553180096137], [-73.9505140358777, 40.6552499316397]]]}}, {"type": "Feature", "properties": {"zone_id": "0202J7D40M578QQHMA1QQC", "tract_id": "36047082000", "city": "BROOKLYN, NY", "zone_code": "R7-1", "zone_category": "Residential", "ev_permitted": false}, "geometry": {"type": "Polygon", "coordinates": [[[-73.9517212418363, 40.6546898135766], [-73.9511828990759, 40.6547218990624], [-73.9511974969914, 40.6548566614846], [-73.9511788111322, 40.6548577750066], [-73.9512241493258, 40.6552763283985], [-73.9517811999148, 40.6552432858062], [-73.9517212418363, 40.6546898135766]]]}}, {"type": "Feature", "properties": {"zone_id": "0200DY5YIIZYXWDVH3Y5DI", "tract_id": "36047082000", "city": "BROOKLYN, NY", "zone_code": "R7-1", "zone_category": "Residential", "ev_permitted": false}, "geometry": {"type": "Polygon", "coordinates": [[[-73.9506408606901, 40.6547514768502], [-73.9504612073748, 40.6547621826975], [-73.9505214098109, 40.6553180096137], [-73.9512241493258, 40.6552763283985], [-73.9511788111322, 40.6548577750066], [-73.9506557507554, 40.6548889468315], [-73.9506408606901, 40.6547514768502]]]}}, {"type": "Feature", "properties": {"zone_id": "020421NIADINXM3OD7WRIW", "tract_id": "36047082000", "city": "BROOKLYN, NY", "zone_code": "R6", "zone_category": "Residential", "ev_permitted": false}, "geometry": {"type": "Polygon", "coordinates": [[[-73.9503005305323, 40.6554850641212], [-73.9502043690582, 40.6554909185846], [-73.9502380154306, 40.6557696448549], [-73.9503303804771, 40.6557640107659], [-73.9503005305323, 40.6554850641212]]]}}, {"type": "Feature", "properties": {"zone_id": "0206IE5C9ENY66DV98TMUI", "tract_id": "36047082000", "city": "BROOKLYN, NY", "zone_code": "R7-1", "zone_category": "Residential", "ev_permitted": false}, "geometry": {"type": "Polygon", "coordinates": [[[-73.9505077176065, 40.655191592341], [-73.9501799399356, 40.6552111247254], [-73.9501862588453, 40.6552694633397], [-73.9505140358777, 40.6552499316397], [-73.9505077176065, 40.655191592341]]]}}, {"type": "Feature", "properties": {"zone_id": "02033U5KELZ1ETBX2SVLM0", "tract_id": "36047082000", "city": "BROOKLYN, NY", "zone_code": "R7-1", "zone_category": "Residential", "ev_permitted": false}, "geometry": {"type": "Polygon", "coordinates": [[[-73.9504851515064, 40.6549832553632], [-73.9501573757752, 40.6550027876843], [-73.9501799399356, 40.6552111247254], [-73.9505077176065, 40.655191592341], [-73.9504851515064, 40.6549832553632]]]}}, {"type": "Feature", "properties": {"zone_id": "02017HAD3B1IT7WOUTNQQN", "tract_id": "36047082000", "city": "BROOKLYN, NY", "zone_code": "R7-1", "zone_category": "Residential", "ev_permitted": false}, "geometry": {"type": "Polygon", "coordinates": [[[-73.9504612073748, 40.6547621826975], [-73.9501334327228, 40.6547817149507], [-73.9501573757752, 40.6550027876843], [-73.9504851515064, 40.6549832553632], [-73.9504612073748, 40.6547621826975]]]}}, {"type": "Feature", "properties": {"zone_id": "0201IKKS2KPW4BW6T4VVU4", "tract_id": "36047082000", "city": "BROOKLYN, NY", "zone_code": "R7-1", "zone_category": "Residential", "ev_permitted": false}, "geometry": {"type": "Polygon", "coordinates": [[[-73.9504500454152, 40.6546591230562], [-73.9501222703437, 40.6546786552775], [-73.9501334327228, 40.6547817149507], [-73.9504612073748, 40.6547621826975], [-73.9504500454152, 40.6546591230562]]]}}, {"type": "Feature", "properties": {"zone_id": "02075SSZN34QLZFIBPYU5K", "tract_id": "36047082000", "city": "BROOKLYN, NY", "zone_code": "R7-1", "zone_category": "Residential", "ev_permitted": false}, "geometry": {"type": "Polygon", "coordinates": [[[-73.9504362105217, 40.6545314008565], [-73.9501084379193, 40.6545509323368], [-73.9501222703437, 40.6546786552775], [-73.9504500454152, 40.6546591230562], [-73.9504362105217, 40.6545314008565]]]}}, {"type": "Feature", "properties": {"zone_id": "0202ZLQH4ODC70PO3AHNR9", "tract_id": "36047082000", "city": "BROOKLYN, NY", "zone_code": "R7-1", "zone_category": "Residential", "ev_permitted": false}, "geometry": {"type": "Polygon", "coordinates": [[[-73.9516592712359, 40.654117747237], [-73.9514863514958, 40.6541280541861], [-73.9515483206235, 40.6547001199155], [-73.9517212418363, 40.6546898135766], [-73.9516592712359, 40.654117747237]]]}}, {"type": "Feature", "properties": {"zone_id": "02009IRDG45EDCBO1N708W", "tract_id": "36047082000", "city": "BROOKLYN, NY", "zone_code": "R7-1", "zone_category": "Residential", "ev_permitted": false}, "geometry": {"type": "Polygon", "coordinates": [[[-73.9514863514958, 40.6541280541861], [-73.9511209330621, 40.6541498324348], [-73.9511828990759, 40.6547218990624], [-73.9515483206235, 40.6547001199155], [-73.9514863514958, 40.6541280541861]]]}}, {"type": "Feature", "properties": {"zone_id": "02012AI7URCDS24ELYXABH", "tract_id": "36047082000", "city": "BROOKLYN, NY", "zone_code": "R7-1", "zone_category": "Residential", "ev_permitted": false}, "geometry": {"type": "Polygon", "coordinates": [[[-73.9511209330621, 40.6541498324348], [-73.9505791925282, 40.6541821181264], [-73.9506557507554, 40.6548889468315], [-73.9511974969914, 40.6548566614846], [-73.9511209330621, 40.6541498324348]]]}}, {"type": "Feature", "properties": {"zone_id": "0206DOB7NB24O0LGZ1JB5H", "tract_id": "36047082000", "city": "BROOKLYN, NY", "zone_code": "R7-1", "zone_category": "Residential", "ev_permitted": false}, "geometry": {"type": "Polygon", "coordinates": [[[-73.9505791925282, 40.6541821181264], [-73.9502300602801, 40.6542029238383], [-73.9502667301341, 40.6545415001682], [-73.9504362105217, 40.6545314008565], [-73.9504612073748, 40.6547621826975], [-73.9506408606901, 40.6547514768502], [-73.9505791925282, 40.6541821181264]]]}}, {"type": "Feature", "properties": {"zone_id": "0204WJW6DESMIBWKPQVFIN", "tract_id": "36047082000", "city": "BROOKLYN, NY", "zone_code": "R7-1", "zone_category": "Residential", "ev_permitted": false}, "geometry": {"type": "Polygon", "coordinates": [[[-73.9521100344771, 40.6533667238041], [-73.9518620355568, 40.6533814078452], [-73.951869482964, 40.6534502910308], [-73.9511584749961, 40.6534923872503], [-73.9512114947535, 40.6539828349558], [-73.9520948577756, 40.6539305331577], [-73.9520427966529, 40.6534490150136], [-73.9521184472358, 40.6534445361301], [-73.9521100344771, 40.6533667238041]]]}}, {"type": "Feature", "properties": {"zone_id": "0203EWNKTSY87VK19YEM8D", "tract_id": "36047082000", "city": "BROOKLYN, NY", "zone_code": "R7-1", "zone_category": "Residential", "ev_permitted": false}, "geometry": {"type": "Polygon", "coordinates": [[[-73.9511584749961, 40.6534923872503], [-73.9510542738627, 40.6534985559115], [-73.951107292859, 40.6539890036647], [-73.9512114947535, 40.6539828349558], [-73.9511584749961, 40.6534923872503]]]}}, {"type": "Feature", "properties": {"zone_id": "0206MMR4IO9LZBGSO7KV2X", "tract_id": "36047082000", "city": "BROOKLYN, NY", "zone_code": "R7-1", "zone_category": "Residential", "ev_permitted": false}, "geometry": {"type": "Polygon", "coordinates": [[[-73.950752450576, 40.6535164244129], [-73.950341819074, 40.6535407328948], [-73.9503948328663, 40.654031180974], [-73.9508054673676, 40.6540068723041], [-73.950752450576, 40.6535164244129]]]}}, {"type": "Feature", "properties": {"zone_id": "02015K4S3E69THYFEZUWOK", "tract_id": "36047082000", "city": "BROOKLYN, NY", "zone_code": "R7-1", "zone_category": "Residential", "ev_permitted": false}, "geometry": {"type": "Polygon", "coordinates": [[[-73.9510542738627, 40.6534985559115], [-73.950752450576, 40.6535164244129], [-73.9508054673676, 40.6540068723041], [-73.951107292859, 40.6539890036647], [-73.9510542738627, 40.6534985559115]]]}}, {"type": "Feature", "properties": {"zone_id": "02071Z1YKETHB8BZ6YM9FQ", "tract_id": "36047082000", "city": "BROOKLYN, NY", "zone_code": "R7-1", "zone_category": "Residential", "ev_permitted": false}, "geometry": {"type": "Polygon", "coordinates": [[[-73.9502300602801, 40.6542029238383], [-73.9500717688635, 40.6542123559569], [-73.9501084379193, 40.6545509323368], [-73.9502667301341, 40.6545415001682], [-73.9502300602801, 40.6542029238383]]]}}, {"type": "Feature", "properties": {"zone_id": "02054MAA5WJSWQR430SHJ2", "tract_id": "36047082000", "city": "BROOKLYN, NY", "zone_code": "R7-1", "zone_category": "Residential", "ev_permitted": false}, "geometry": {"type": "Polygon", "coordinates": [[[-73.9505171667776, 40.6534668811612], [-73.9499865754162, 40.6534982898249], [-73.9500452936402, 40.6540518714154], [-73.9503948328663, 40.654031180974], [-73.950341819074, 40.6535407328948], [-73.9505239842089, 40.6535299489135], [-73.9505171667776, 40.6534668811612]]]}}, {"type": "Feature", "properties": {"zone_id": "0200U3DRL7CRFBYGRBMDYT", "tract_id": "36047082000", "city": "BROOKLYN, NY", "zone_code": "R7-1", "zone_category": "Residential", "ev_permitted": false}, "geometry": {"type": "Polygon", "coordinates": [[[-73.9525873338591, 40.6530876385024], [-73.9520830888493, 40.6531174972404], [-73.9520952143531, 40.6532296545359], [-73.9525994611273, 40.6531997964482], [-73.9525873338591, 40.6530876385024]]]}}, {"type": "Feature", "properties": {"zone_id": "0204R70X0Z20P5L3XB1028", "tract_id": "36047082000", "city": "BROOKLYN, NY", "zone_code": "R7-1", "zone_category": "Residential", "ev_permitted": false}, "geometry": {"type": "Polygon", "coordinates": [[[-73.9525753569523, 40.6529768676751], [-73.9520711127754, 40.6530067249557], [-73.9520830888493, 40.6531174972404], [-73.9525873338591, 40.6530876385024], [-73.9525753569523, 40.6529768676751]]]}}, {"type": "Feature", "properties": {"zone_id": "0207NF5Y37TS97W17IAVNF", "tract_id": "36047082000", "city": "BROOKLYN, NY", "zone_code": "R7-1", "zone_category": "Residential", "ev_permitted": false}, "geometry": {"type": "Polygon", "coordinates": [[[-73.9526297964332, 40.6534803476506], [-73.9521255475516, 40.6535102065731], [-73.9521319504025, 40.6535694283751], [-73.9526361997284, 40.6535395701275], [-73.9526297964332, 40.6534803476506]]]}}, {"type": "Feature", "properties": {"zone_id": "02017C03G0G3MMTNWV8R7M", "tract_id": "36047082000", "city": "BROOKLYN, NY", "zone_code": "R7-1", "zone_category": "Residential", "ev_permitted": false}, "geometry": {"type": "Polygon", "coordinates": [[[-73.9526226956243, 40.6534146772386], [-73.9521184472358, 40.6534445361301], [-73.9521255475516, 40.6535102065731], [-73.9526297964332, 40.6534803476506], [-73.9526226956243, 40.6534146772386]]]}}, {"type": "Feature", "properties": {"zone_id": "0201CA7GZJ0BRA0TG5GQR9", "tract_id": "36047082000", "city": "BROOKLYN, NY", "zone_code": "R7-1", "zone_category": "Residential", "ev_permitted": false}, "geometry": {"type": "Polygon", "coordinates": [[[-73.9526142822807, 40.6533368656518], [-73.9521100344771, 40.6533667238041], [-73.9521184472358, 40.6534445361301], [-73.9526226956243, 40.6534146772386], [-73.9526142822807, 40.6533368656518]]]}}, {"type": "Feature", "properties": {"zone_id": "02061WFFDICBW4CK5YUG6U", "tract_id": "36047082000", "city": "BROOKLYN, NY", "zone_code": "R7-1", "zone_category": "Residential", "ev_permitted": false}, "geometry": {"type": "Polygon", "coordinates": [[[-73.9526074766418, 40.65327392521], [-73.952103230233, 40.6533037840357], [-73.9521100344771, 40.6533667238041], [-73.9526142822807, 40.6533368656518], [-73.9526074766418, 40.65327392521]]]}}, {"type": "Feature", "properties": {"zone_id": "0207GFIU5XXZCDWXAA7ZCT", "tract_id": "36047082000", "city": "BROOKLYN, NY", "zone_code": "R7-1", "zone_category": "Residential", "ev_permitted": false}, "geometry": {"type": "Polygon", "coordinates": [[[-73.9525994611273, 40.6531997964482], [-73.9520952143531, 40.6532296545359], [-73.952103230233, 40.6533037840357], [-73.9526074766418, 40.65327392521], [-73.9525994611273, 40.6531997964482]]]}}, {"type": "Feature", "properties": {"zone_id": "0200ED9XTPS089KOTB7XYC", "tract_id": "36047082000", "city": "BROOKLYN, NY", "zone_code": "R7-1", "zone_category": "Residential", "ev_permitted": false}, "geometry": {"type": "Polygon", "coordinates": [[[-73.9525364842987, 40.6526173383692], [-73.9523774209544, 40.6526256385394], [-73.9524164137467, 40.6529862788611], [-73.9525753569523, 40.6529768676751], [-73.9525364842987, 40.6526173383692]]]}}, {"type": "Feature", "properties": {"zone_id": "02022B14DQMI33PO940MDO", "tract_id": "36047082000", "city": "BROOKLYN, NY", "zone_code": "R7-1", "zone_category": "Residential", "ev_permitted": false}, "geometry": {"type": "Polygon", "coordinates": [[[-73.9520318606342, 40.6526436693517], [-73.9517836765055, 40.6526566189712], [-73.9518620355568, 40.6533814078452], [-73.9521100344771, 40.6533667238041], [-73.9520318606342, 40.6526436693517]]]}}, {"type": "Feature", "properties": {"zone_id": "0203N6PYLI3DZ0ZLF715QS", "tract_id": "36047082000", "city": "BROOKLYN, NY", "zone_code": "R7-1", "zone_category": "Residential", "ev_permitted": false}, "geometry": {"type": "Polygon", "coordinates": [[[-73.9523774209544, 40.6526256385394], [-73.9522039599157, 40.6526346899796], [-73.9522430828405, 40.6529965418073], [-73.9524164137467, 40.6529862788611], [-73.9523774209544, 40.6526256385394]]]}}, {"type": "Feature", "properties": {"zone_id": "0204FBC7MVMBJGXJFK2YGO", "tract_id": "36047082000", "city": "BROOKLYN, NY", "zone_code": "R7-1", "zone_category": "Residential", "ev_permitted": false}, "geometry": {"type": "Polygon", "coordinates": [[[-73.9522039599157, 40.6526346899796], [-73.9520318606342, 40.6526436693517], [-73.9520711127754, 40.6530067249557], [-73.9522430828405, 40.6529965418073], [-73.9522039599157, 40.6526346899796]]]}}, {"type": "Feature", "properties": {"zone_id": "0203Y7FJWU321BKFAQWS2Z", "tract_id": "36047082000", "city": "BROOKLYN, NY", "zone_code": "R7-1", "zone_category": "Residential", "ev_permitted": false}, "geometry": {"type": "Polygon", "coordinates": [[[-73.9524606639862, 40.6519174962315], [-73.951987945933, 40.651942457361], [-73.9520371594458, 40.6524057831489], [-73.9525098807651, 40.6523808197105], [-73.9524606639862, 40.6519174962315]]]}}, {"type": "Feature", "properties": {"zone_id": "0200CWW1DVY315UVDJHG19", "tract_id": "36047082000", "city": "BROOKLYN, NY", "zone_code": "R7-1", "zone_category": "Residential", "ev_permitted": false}, "geometry": {"type": "Polygon", "coordinates": [[[-73.9519583818629, 40.6516641231671], [-73.9519490726469, 40.6516646146566], [-73.9520371594458, 40.6524057831489], [-73.9519583818629, 40.6516641231671]]]}}, {"type": "Feature", "properties": {"zone_id": "02013D5JK1973H8XQ8MB7X", "tract_id": "36047082000", "city": "BROOKLYN, NY", "zone_code": "R7-1", "zone_category": "Residential", "ev_permitted": false}, "geometry": {"type": "Polygon", "coordinates": [[[-73.9519825433071, 40.6519462438719], [-73.9517214984516, 40.6519600269685], [-73.9517703399184, 40.6524198682018], [-73.9520371594458, 40.6524057831489], [-73.9519825433071, 40.6519462438719]]]}}, {"type": "Feature", "properties": {"zone_id": "0205PSSDC0KO5NL21NY24M", "tract_id": "36047082000", "city": "BROOKLYN, NY", "zone_code": "R7-1", "zone_category": "Residential", "ev_permitted": false}, "geometry": {"type": "Polygon", "coordinates": [[[-73.9511077858522, 40.652691882833], [-73.9504371765611, 40.6527268667439], [-73.9505239842089, 40.6535299489135], [-73.9511940938303, 40.6534902782162], [-73.9511077858522, 40.652691882833]]]}}, {"type": "Feature", "properties": {"zone_id": "0207BVMSWQYQ4QZKU53UVZ", "tract_id": "36047082000", "city": "BROOKLYN, NY", "zone_code": "R7-1", "zone_category": "Residential", "ev_permitted": false}, "geometry": {"type": "Polygon", "coordinates": [[[-73.9504371765611, 40.6527268667439], [-73.9501589748458, 40.6527413781025], [-73.950227141934, 40.6533720382827], [-73.9505051355078, 40.6533555816948], [-73.9504371765611, 40.6527268667439]]]}}, {"type": "Feature", "properties": {"zone_id": "0203AOIFVQNQC9194AYM41", "tract_id": "36047082000", "city": "BROOKLYN, NY", "zone_code": "C2-3", "zone_category": "Commercial", "ev_permitted": true}, "geometry": {"type": "Polygon", "coordinates": [[[-73.9524310979546, 40.651639162861], [-73.9519583818629, 40.6516641231671], [-73.951987945933, 40.651942457361], [-73.9524606639862, 40.6519174962315], [-73.9524310979546, 40.651639162861]]]}}, {"type": "Feature", "properties": {"zone_id": "02018VEEMWYNRXXQMP9LGN", "tract_id": "36047082000", "city": "BROOKLYN, NY", "zone_code": "R6", "zone_category": "Residential", "ev_permitted": false}, "geometry": {"type": "Polygon", "coordinates": [[[-73.9519490726469, 40.6516646146566], [-73.9516915652829, 40.651678210849], [-73.9517214984516, 40.6519600269685], [-73.9519825433071, 40.6519462438719], [-73.9519490726469, 40.6516646146566]]]}}, {"type": "Feature", "properties": {"zone_id": "0206SQHTW7DZC523PJT720", "tract_id": "36047082000", "city": "BROOKLYN, NY", "zone_code": "R7-1", "zone_category": "Residential", "ev_permitted": false}, "geometry": {"type": "Polygon", "coordinates": [[[-73.9517836765055, 40.6526566189712], [-73.9511077858522, 40.652691882833], [-73.9511940938303, 40.6534902782162], [-73.951869482964, 40.6534502910308], [-73.9517836765055, 40.6526566189712]]]}}, {"type": "Feature", "properties": {"zone_id": "0205CQTIBCRST99FTWKQ1V", "tract_id": "36047082000", "city": "BROOKLYN, NY", "zone_code": "R7-1", "zone_category": "Residential", "ev_permitted": false}, "geometry": {"type": "Polygon", "coordinates": [[[-73.9505051355078, 40.6533555816948], [-73.9499747692294, 40.6533869770503], [-73.9499865754162, 40.6534982898249], [-73.9505171667776, 40.6534668811612], [-73.9505051355078, 40.6533555816948]]]}}, {"type": "Feature", "properties": {"zone_id": "0203RLZJPEACK8QG78TISE", "tract_id": "36047082000", "city": "BROOKLYN, NY", "zone_code": "R7-1", "zone_category": "Residential", "ev_permitted": false}, "geometry": {"type": "Polygon", "coordinates": [[[-73.9502212282535, 40.6533173269862], [-73.9499689655494, 40.6533322594648], [-73.9499747692294, 40.6533869770503], [-73.950227141934, 40.6533720382827], [-73.9502212282535, 40.6533173269862]]]}}, {"type": "Feature", "properties": {"zone_id": "02000VF67JQSVTJU6XD9IP", "tract_id": "36047082000", "city": "BROOKLYN, NY", "zone_code": "R7-1", "zone_category": "Residential", "ev_permitted": false}, "geometry": {"type": "Polygon", "coordinates": [[[-73.9502153164201, 40.6532626262299], [-73.9499631627942, 40.6532775517162], [-73.9499689655494, 40.6533322594648], [-73.9502212282535, 40.6533173269862], [-73.9502153164201, 40.6532626262299]]]}}, {"type": "Feature", "properties": {"zone_id": "0200RSISSR7MHT4S8I9R1Y", "tract_id": "36047082000", "city": "BROOKLYN, NY", "zone_code": "R7-1", "zone_category": "Residential", "ev_permitted": false}, "geometry": {"type": "Polygon", "coordinates": [[[-73.9502094687278, 40.6532085297919], [-73.9499574241765, 40.6532234496916], [-73.9499631627942, 40.6532775517162], [-73.9502153164201, 40.6532626262299], [-73.9502094687278, 40.6532085297919]]]}}, {"type": "Feature", "properties": {"zone_id": "0207LBKJJ9I6NKER0S3AH3", "tract_id": "36047082000", "city": "BROOKLYN, NY", "zone_code": "R7-1", "zone_category": "Residential", "ev_permitted": false}, "geometry": {"type": "Polygon", "coordinates": [[[-73.9502034533675, 40.6531528803927], [-73.9499515206654, 40.6531677933012], [-73.9499574241765, 40.6532234496916], [-73.9502094687278, 40.6532085297919], [-73.9502034533675, 40.6531528803927]]]}}, {"type": "Feature", "properties": {"zone_id": "0205X0JFKE8YAIIZDKATLK", "tract_id": "36047082000", "city": "BROOKLYN, NY", "zone_code": "R7-1", "zone_category": "Residential", "ev_permitted": false}, "geometry": {"type": "Polygon", "coordinates": [[[-73.95019724469, 40.6530954334938], [-73.9499454256883, 40.6531103401143], [-73.9499515206654, 40.6531677933012], [-73.9502034533675, 40.6531528803927], [-73.95019724469, 40.6530954334938]]]}}, {"type": "Feature", "properties": {"zone_id": "0205BTTYAJJ90PGPTMI88Z", "tract_id": "36047082000", "city": "BROOKLYN, NY", "zone_code": "R7-1", "zone_category": "Residential", "ev_permitted": false}, "geometry": {"type": "Polygon", "coordinates": [[[-73.9501589748458, 40.6527413781025], [-73.9500143962644, 40.6527489195927], [-73.9500527743788, 40.6531039855104], [-73.95019724469, 40.6530954334938], [-73.9501589748458, 40.6527413781025]]]}}, {"type": "Feature", "properties": {"zone_id": "0203XDZ1H322F80TJNQMIE", "tract_id": "36047082000", "city": "BROOKLYN, NY", "zone_code": "R7-1", "zone_category": "Residential", "ev_permitted": false}, "geometry": {"type": "Polygon", "coordinates": [[[-73.9500143962644, 40.6527489195927], [-73.9499076825581, 40.652754486048], [-73.9499454256883, 40.6531103401143], [-73.9500527743788, 40.6531039855104], [-73.9500143962644, 40.6527489195927]]]}}, {"type": "Feature", "properties": {"zone_id": "0201KJX42801783NOFQVOT", "tract_id": "36047082000", "city": "BROOKLYN, NY", "zone_code": "R7-1", "zone_category": "Residential", "ev_permitted": false}, "geometry": {"type": "Polygon", "coordinates": [[[-73.9517278047367, 40.652019399836], [-73.9514557388048, 40.6520337637253], [-73.9514982723621, 40.6524342328938], [-73.9517703399184, 40.6524198682018], [-73.9517278047367, 40.652019399836]]]}}, {"type": "Feature", "properties": {"zone_id": "0202EB6P8H65WNBUOTTSTN", "tract_id": "36047082000", "city": "BROOKLYN, NY", "zone_code": "R7-1", "zone_category": "Residential", "ev_permitted": false}, "geometry": {"type": "Polygon", "coordinates": [[[-73.9514557388048, 40.6520337637253], [-73.9513680969455, 40.6520383909867], [-73.9514106309027, 40.652438859485], [-73.9514982723621, 40.6524342328938], [-73.9514557388048, 40.6520337637253]]]}}, {"type": "Feature", "properties": {"zone_id": "0203LYDEC1V8P7A6SAQQKZ", "tract_id": "36047082000", "city": "BROOKLYN, NY", "zone_code": "R7-1", "zone_category": "Residential", "ev_permitted": false}, "geometry": {"type": "Polygon", "coordinates": [[[-73.9513680969455, 40.6520383909867], [-73.951181931767, 40.6520482154705], [-73.9511842362003, 40.6520699133189], [-73.951030120107, 40.6520780535181], [-73.9510703476496, 40.6524568242899], [-73.9514106309027, 40.652438859485], [-73.9513680969455, 40.6520383909867]]]}}, {"type": "Feature", "properties": {"zone_id": "0201DTG9WFQR35SM010TL2", "tract_id": "36047082000", "city": "BROOKLYN, NY", "zone_code": "R7-1", "zone_category": "Residential", "ev_permitted": false}, "geometry": {"type": "Polygon", "coordinates": [[[-73.9506427888186, 40.6520355938795], [-73.9503791489173, 40.6520495098354], [-73.9504260141438, 40.652490837689], [-73.9506896567023, 40.6524769209241], [-73.9506427888186, 40.6520355938795]]]}}, {"type": "Feature", "properties": {"zone_id": "0207H7AEJVHXDBDOF7304Y", "tract_id": "36047082000", "city": "BROOKLYN, NY", "zone_code": "R7-1", "zone_category": "Residential", "ev_permitted": false}, "geometry": {"type": "Polygon", "coordinates": [[[-73.9509133212849, 40.6520040939773], [-73.9506409701491, 40.6520184712763], [-73.9506896567023, 40.6524769209241], [-73.9509620096991, 40.6524625435105], [-73.9509133212849, 40.6520040939773]]]}}, {"type": "Feature", "properties": {"zone_id": "02056UPM6458JGOX2ACDNV", "tract_id": "36047082000", "city": "BROOKLYN, NY", "zone_code": "R7-1", "zone_category": "Residential", "ev_permitted": false}, "geometry": {"type": "Polygon", "coordinates": [[[-73.951030120107, 40.6520780535181], [-73.9509217827686, 40.6520837719983], [-73.9509620096991, 40.6524625435105], [-73.9510703476496, 40.6524568242899], [-73.951030120107, 40.6520780535181]]]}}, {"type": "Feature", "properties": {"zone_id": "0200FDO57RWWFTNHRR383X", "tract_id": "36047082000", "city": "BROOKLYN, NY", "zone_code": "R6", "zone_category": "Residential", "ev_permitted": false}, "geometry": {"type": "Polygon", "coordinates": [[[-73.9516915652829, 40.651678210849], [-73.9516046121803, 40.6516828020414], [-73.9516408502699, 40.6520239903525], [-73.9517278047367, 40.652019399836], [-73.9516915652829, 40.651678210849]]]}}, {"type": "Feature", "properties": {"zone_id": "0206EZCON3P07TRXOJZUTS", "tract_id": "36047082000", "city": "BROOKLYN, NY", "zone_code": "R6", "zone_category": "Residential", "ev_permitted": false}, "geometry": {"type": "Polygon", "coordinates": [[[-73.9516046121803, 40.6516828020414], [-73.9515120726097, 40.65168768804], [-73.9515483102287, 40.6520288763801], [-73.9516408502699, 40.6520239903525], [-73.9516046121803, 40.6516828020414]]]}}, {"type": "Feature", "properties": {"zone_id": "02007MKT61F2M81F9FBKM4", "tract_id": "36047082000", "city": "BROOKLYN, NY", "zone_code": "R6", "zone_category": "Residential", "ev_permitted": false}, "geometry": {"type": "Polygon", "coordinates": [[[-73.9515120726097, 40.65168768804], [-73.9514195007341, 40.6516925753559], [-73.9514557388048, 40.6520337637253], [-73.9515483102287, 40.6520288763801], [-73.9515120726097, 40.65168768804]]]}}, {"type": "Feature", "properties": {"zone_id": "0203BUM90LTVGLDV0Q5O35", "tract_id": "36047082000", "city": "BROOKLYN, NY", "zone_code": "R6", "zone_category": "Residential", "ev_permitted": false}, "geometry": {"type": "Polygon", "coordinates": [[[-73.9514195007341, 40.6516925753559], [-73.9513318602435, 40.6516972018876], [-73.9513680969455, 40.6520383909867], [-73.9514557388048, 40.6520337637253], [-73.9514195007341, 40.6516925753559]]]}}, {"type": "Feature", "properties": {"zone_id": "0201IBNS9KZHU1XX62ILRQ", "tract_id": "36047082000", "city": "BROOKLYN, NY", "zone_code": "R6", "zone_category": "Residential", "ev_permitted": false}, "geometry": {"type": "Polygon", "coordinates": [[[-73.9513318602435, 40.6516972018876], [-73.9512425221209, 40.6517019189792], [-73.9512787592917, 40.6520431074041], [-73.9513680969455, 40.6520383909867], [-73.9513318602435, 40.6516972018876]]]}}, {"type": "Feature", "properties": {"zone_id": "0207I7M7EX07UP73LA3XZO", "tract_id": "36047082000", "city": "BROOKLYN, NY", "zone_code": "R6", "zone_category": "Residential", "ev_permitted": false}, "geometry": {"type": "Polygon", "coordinates": [[[-73.9512425221209, 40.6517019189792], [-73.9511456960087, 40.651707030529], [-73.951181931767, 40.6520482154705], [-73.9512787592917, 40.6520431074041], [-73.9512425221209, 40.6517019189792]]]}}, {"type": "Feature", "properties": {"zone_id": "0206SEE7WIMV86XKS7NZ3S", "tract_id": "36047082000", "city": "BROOKLYN, NY", "zone_code": "R6", "zone_category": "Residential", "ev_permitted": false}, "geometry": {"type": "Polygon", "coordinates": [[[-73.9511456960087, 40.651707030529], [-73.9510641503032, 40.6517113355172], [-73.9511033386556, 40.6520741883953], [-73.9511842362003, 40.6520699133189], [-73.9511456960087, 40.651707030529]]]}}, {"type": "Feature", "properties": {"zone_id": "0205E3NZHS0FVJ0NSZW49Y", "tract_id": "36047082000", "city": "BROOKLYN, NY", "zone_code": "R6", "zone_category": "Residential", "ev_permitted": false}, "geometry": {"type": "Polygon", "coordinates": [[[-73.9510641503032, 40.6517113355172], [-73.9509660149672, 40.6517165152198], [-73.9510045541834, 40.6520794029881], [-73.9511033386556, 40.6520741883953], [-73.9510641503032, 40.6517113355172]]]}}, {"type": "Feature", "properties": {"zone_id": "0206K272C6IHG6TFO4PAF7", "tract_id": "36047082000", "city": "BROOKLYN, NY", "zone_code": "R6", "zone_category": "Residential", "ev_permitted": false}, "geometry": {"type": "Polygon", "coordinates": [[[-73.9509660149672, 40.6517165152198], [-73.9508832439991, 40.6517208856078], [-73.9509217827686, 40.6520837719983], [-73.9510045541834, 40.6520794029881], [-73.9509660149672, 40.6517165152198]]]}}, {"type": "Feature", "properties": {"zone_id": "0205L5GE159UHTGZGCOYGM", "tract_id": "36047082000", "city": "BROOKLYN, NY", "zone_code": "R6", "zone_category": "Residential", "ev_permitted": false}, "geometry": {"type": "Polygon", "coordinates": [[[-73.9508832439991, 40.6517208856078], [-73.9507972696847, 40.6517254246106], [-73.9508273466081, 40.6520086322998], [-73.9509133212849, 40.6520040939773], [-73.9508832439991, 40.6517208856078]]]}}, {"type": "Feature", "properties": {"zone_id": "0205GWQ1DH1BGLZLFHJX6B", "tract_id": "36047082000", "city": "BROOKLYN, NY", "zone_code": "R6", "zone_category": "Residential", "ev_permitted": false}, "geometry": {"type": "Polygon", "coordinates": [[[-73.9507972696847, 40.6517254246106], [-73.9507043729425, 40.6517303280759], [-73.9507344494733, 40.6520135364919], [-73.9508273466081, 40.6520086322998], [-73.9507972696847, 40.6517254246106]]]}}, {"type": "Feature", "properties": {"zone_id": "0207774N42HDO1KP01SKX8", "tract_id": "36047082000", "city": "BROOKLYN, NY", "zone_code": "R6", "zone_category": "Residential", "ev_permitted": false}, "geometry": {"type": "Polygon", "coordinates": [[[-73.9507043729425, 40.6517303280759], [-73.950610894013, 40.651735262836], [-73.9506409701491, 40.6520184712763], [-73.9507344494733, 40.6520135364919], [-73.9507043729425, 40.6517303280759]]]}}, {"type": "Feature", "properties": {"zone_id": "0202JX6SN8G48GW5ZXHVZZ", "tract_id": "36047082000", "city": "BROOKLYN, NY", "zone_code": "R6", "zone_category": "Residential", "ev_permitted": false}, "geometry": {"type": "Polygon", "coordinates": [[[-73.950610894013, 40.651735262836], [-73.9504825501758, 40.6517420382515], [-73.9505144444074, 40.6520423686276], [-73.9506427888186, 40.6520355938795], [-73.950610894013, 40.651735262836]]]}}, {"type": "Feature", "properties": {"zone_id": "02006DP1D558F9W0M9GWEZ", "tract_id": "36047082000", "city": "BROOKLYN, NY", "zone_code": "R6", "zone_category": "Residential", "ev_permitted": false}, "geometry": {"type": "Polygon", "coordinates": [[[-73.9504825501758, 40.6517420382515], [-73.9503472543688, 40.6517491794215], [-73.9503791489173, 40.6520495098354], [-73.9505144444074, 40.6520423686276], [-73.9504825501758, 40.6517420382515]]]}}, {"type": "Feature", "properties": {"zone_id": "0205X0NBNMKJV8U64FGNFC", "tract_id": "36047082000", "city": "BROOKLYN, NY", "zone_code": "R7-1", "zone_category": "Residential", "ev_permitted": false}, "geometry": {"type": "Polygon", "coordinates": [[[-73.9502377978666, 40.6520648553839], [-73.9501593747504, 40.6520689952528], [-73.9501747632475, 40.6522139060681], [-73.9501075092752, 40.6522174562856], [-73.9501381533338, 40.6525060327419], [-73.9502838302952, 40.6524983433087], [-73.9502377978666, 40.6520648553839]]]}}, {"type": "Feature", "properties": {"zone_id": "0201VSQBXQZCWP2XDF51KC", "tract_id": "36047082000", "city": "BROOKLYN, NY", "zone_code": "R7-1", "zone_category": "Residential", "ev_permitted": false}, "geometry": {"type": "Polygon", "coordinates": [[[-73.9503799798734, 40.6520573505229], [-73.9502377978666, 40.6520648553839], [-73.9502838302952, 40.6524983433087], [-73.9504260141438, 40.652490837689], [-73.9503799798734, 40.6520573505229]]]}}, {"type": "Feature", "properties": {"zone_id": "0201VS5NFQNYV35FR54J8E", "tract_id": "36047082000", "city": "BROOKLYN, NY", "zone_code": "R7-1", "zone_category": "Residential", "ev_permitted": false}, "geometry": {"type": "Polygon", "coordinates": [[[-73.9501075092752, 40.6522174562856], [-73.9500363922563, 40.6522212099637], [-73.9500670350864, 40.6525097864384], [-73.9501381533338, 40.6525060327419], [-73.9501075092752, 40.6522174562856]]]}}, {"type": "Feature", "properties": {"zone_id": "0204KSUZLK7SH9BNS06NTV", "tract_id": "36047082000", "city": "BROOKLYN, NY", "zone_code": "R7-1", "zone_category": "Residential", "ev_permitted": false}, "geometry": {"type": "Polygon", "coordinates": [[[-73.9500363922563, 40.6522212099637], [-73.9499614038855, 40.6522251677942], [-73.9499920473152, 40.6525137449919], [-73.9500670350864, 40.6525097864384], [-73.9500363922563, 40.6522212099637]]]}}, {"type": "Feature", "properties": {"zone_id": "0204IY87GVPNG5I1LR81HY", "tract_id": "36047082000", "city": "BROOKLYN, NY", "zone_code": "R7-1", "zone_category": "Residential", "ev_permitted": false}, "geometry": {"type": "Polygon", "coordinates": [[[-73.9499614038855, 40.6522251677942], [-73.9498581120654, 40.6522306197526], [-73.9498887550512, 40.6525191962748], [-73.9499920473152, 40.6525137449919], [-73.9499614038855, 40.6522251677942]]]}}, {"type": "Feature", "properties": {"zone_id": "0207DEBBM3KNET6U08TYM1", "tract_id": "36047082000", "city": "BROOKLYN, NY", "zone_code": "R7-1", "zone_category": "Residential", "ev_permitted": false}, "geometry": {"type": "Polygon", "coordinates": [[[-73.9501683722104, 40.6521537193941], [-73.9498517213124, 40.6521704330611], [-73.9498581120654, 40.6522306197526], [-73.9501747632475, 40.6522139060681], [-73.9501683722104, 40.6521537193941]]]}}, {"type": "Feature", "properties": {"zone_id": "0205C7U8EMIN6AT3Z4R4WB", "tract_id": "36047082000", "city": "BROOKLYN, NY", "zone_code": "R7-1", "zone_category": "Residential", "ev_permitted": false}, "geometry": {"type": "Polygon", "coordinates": [[[-73.950162409023, 40.6520975633876], [-73.94984575839, 40.6521142770382], [-73.9498517213124, 40.6521704330611], [-73.9501683722104, 40.6521537193941], [-73.950162409023, 40.6520975633876]]]}}, {"type": "Feature", "properties": {"zone_id": "0202IEOTWEC95VP0806Z9J", "tract_id": "36047082000", "city": "BROOKLYN, NY", "zone_code": "C1-3", "zone_category": "Commercial", "ev_permitted": true}, "geometry": {"type": "Polygon", "coordinates": [[[-73.9501504887635, 40.6520425487362], [-73.9498398825054, 40.65205894317], [-73.94984575839, 40.6521142770382], [-73.950162409023, 40.6520975633876], [-73.9501593747504, 40.6520689952528], [-73.9501533306342, 40.6520693144538], [-73.9501504887635, 40.6520425487362]]]}}, {"type": "Feature", "properties": {"zone_id": "020353H1H7L1PJYFH7CZG4", "tract_id": "36047082000", "city": "BROOKLYN, NY", "zone_code": "C1-3", "zone_category": "Commercial", "ev_permitted": true}, "geometry": {"type": "Polygon", "coordinates": [[[-73.9503472543688, 40.6517491794215], [-73.9502713522297, 40.6517531862461], [-73.9503040773857, 40.652061357369], [-73.9503799798734, 40.6520573505229], [-73.9503472543688, 40.6517491794215]]]}}, {"type": "Feature", "properties": {"zone_id": "0201NA5BB574DJX8EM0JRC", "tract_id": "36047082000", "city": "BROOKLYN, NY", "zone_code": "C1-3", "zone_category": "Commercial", "ev_permitted": true}, "geometry": {"type": "Polygon", "coordinates": [[[-73.9502713522297, 40.6517531862461], [-73.9502000659526, 40.6517569490869], [-73.9502327898586, 40.6520651202295], [-73.9503040773857, 40.652061357369], [-73.9502713522297, 40.6517531862461]]]}}, {"type": "Feature", "properties": {"zone_id": "0200D0DSP8ZSWHN7IAGRZH", "tract_id": "36047082000", "city": "BROOKLYN, NY", "zone_code": "R6", "zone_category": "Residential", "ev_permitted": false}, "geometry": {"type": "Polygon", "coordinates": [[[-73.9502000659526, 40.6517569490869], [-73.9501206061706, 40.6517611432883], [-73.9501533306342, 40.6520693144538], [-73.9502327898586, 40.6520651202295], [-73.9502000659526, 40.6517569490869]]]}}, {"type": "Feature", "properties": {"zone_id": "020739EGZW8CCED9FF9QW4", "tract_id": "36047082000", "city": "BROOKLYN, NY", "zone_code": "C1-3", "zone_category": "Commercial", "ev_permitted": true}, "geometry": {"type": "Polygon", "coordinates": [[[-73.9501206061706, 40.6517611432883], [-73.9500444484385, 40.6517651632029], [-73.9500743307119, 40.6520465686705], [-73.9501504887635, 40.6520425487362], [-73.9501206061706, 40.6517611432883]]]}}, {"type": "Feature", "properties": {"zone_id": "02059GE18BPCAIH5KD11W7", "tract_id": "36047082000", "city": "BROOKLYN, NY", "zone_code": "C1-3", "zone_category": "Commercial", "ev_permitted": true}, "geometry": {"type": "Polygon", "coordinates": [[[-73.9500444484385, 40.6517651632029], [-73.9499091073289, 40.6517723066485], [-73.9499389890347, 40.6520537121511], [-73.9500743307119, 40.6520465686705], [-73.9500444484385, 40.6517651632029]]]}}, {"type": "Feature", "properties": {"zone_id": "02036ZW19G8HA2SOMQ83TD", "tract_id": "36047082000", "city": "BROOKLYN, NY", "zone_code": "C1-3", "zone_category": "Commercial", "ev_permitted": true}, "geometry": {"type": "Polygon", "coordinates": [[[-73.9499091073289, 40.6517723066485], [-73.9498100021379, 40.6517775376423], [-73.9498398825054, 40.65205894317], [-73.9499389890347, 40.6520537121511], [-73.9499091073289, 40.6517723066485]]]}}, {"type": "Feature", "properties": {"zone_id": "0203OXM6RS1BQAER6SIR3A", "tract_id": "36047082000", "city": "BROOKLYN, NY", "zone_code": "C1-3", "zone_category": "Commercial", "ev_permitted": true}, "geometry": {"type": "Polygon", "coordinates": [[[-73.9500838051464, 40.6515244671404], [-73.9497833031735, 40.6515401343326], [-73.9497895862269, 40.6515986107], [-73.9500900893837, 40.6515829441946], [-73.9500838051464, 40.6515244671404]]]}}, {"type": "Feature", "properties": {"zone_id": "0203Y7KNBDFOK05MQWZ6YM", "tract_id": "36047082000", "city": "BROOKLYN, NY", "zone_code": "C1-3", "zone_category": "Commercial", "ev_permitted": true}, "geometry": {"type": "Polygon", "coordinates": [[[-73.9500780404139, 40.6514708133996], [-73.9497775377588, 40.6514864805763], [-73.9497833031735, 40.6515401343326], [-73.9500838051464, 40.6515244671404], [-73.9500780404139, 40.6514708133996]]]}}, {"type": "Feature", "properties": {"zone_id": "0201RIYK3M0PSGRNM2K6UO", "tract_id": "36047082000", "city": "BROOKLYN, NY", "zone_code": "R6", "zone_category": "Residential", "ev_permitted": false}, "geometry": {"type": "Polygon", "coordinates": [[[-73.9523807315037, 40.6511685233934], [-73.9522749117668, 40.6511740425259], [-73.952306440545, 40.651467367408], [-73.9524122625902, 40.6514618475449], [-73.9523807315037, 40.6511685233934]]]}}, {"type": "Feature", "properties": {"zone_id": "020591EBWEGLRSMY749KXE", "tract_id": "36047082000", "city": "BROOKLYN, NY", "zone_code": "R6", "zone_category": "Residential", "ev_permitted": false}, "geometry": {"type": "Polygon", "coordinates": [[[-73.9522749117668, 40.6511740425259], [-73.9522082706768, 40.6511775183383], [-73.9522398010093, 40.6514708425367], [-73.952306440545, 40.651467367408], [-73.9522749117668, 40.6511740425259]]]}}, {"type": "Feature", "properties": {"zone_id": "0203SD77MIURZA5457OTQP", "tract_id": "36047082000", "city": "BROOKLYN, NY", "zone_code": "R6", "zone_category": "Residential", "ev_permitted": false}, "geometry": {"type": "Polygon", "coordinates": [[[-73.9522082706768, 40.6511775183383], [-73.9521398351014, 40.6511810882251], [-73.9521713632897, 40.6514744124414], [-73.9522398010093, 40.6514708425367], [-73.9522082706768, 40.6511775183383]]]}}, {"type": "Feature", "properties": {"zone_id": "0204O01WB5E214ULLUEV6D", "tract_id": "36047082000", "city": "BROOKLYN, NY", "zone_code": "R6", "zone_category": "Residential", "ev_permitted": false}, "geometry": {"type": "Polygon", "coordinates": [[[-73.9521398351014, 40.6511810882251], [-73.9520805056887, 40.6511841826484], [-73.9521120336175, 40.6514775068809], [-73.9521713632897, 40.6514744124414], [-73.9521398351014, 40.6511810882251]]]}}, {"type": "Feature", "properties": {"zone_id": "02008T65WKVCHJQQN7NVVG", "tract_id": "36047082000", "city": "BROOKLYN, NY", "zone_code": "C2-3", "zone_category": "Commercial", "ev_permitted": true}, "geometry": {"type": "Polygon", "coordinates": [[[-73.9520805056887, 40.6511841826484], [-73.9520115645092, 40.6511877782468], [-73.9520430930592, 40.6514811024985], [-73.9521120336175, 40.6514775068809], [-73.9520805056887, 40.6511841826484]]]}}, {"type": "Feature", "properties": {"zone_id": "0203H1DN6AL45UMLOYKNE2", "tract_id": "36047082000", "city": "BROOKLYN, NY", "zone_code": "R6", "zone_category": "Residential", "ev_permitted": false}, "geometry": {"type": "Polygon", "coordinates": [[[-73.9520066129655, 40.6511417144191], [-73.951940375075, 40.651145168462], [-73.9519768548337, 40.6514845565622], [-73.9520430930592, 40.6514811024985], [-73.9520066129655, 40.6511417144191]]]}}, {"type": "Feature", "properties": {"zone_id": "0200KZK5HIVMKU4Y9PJIFO", "tract_id": "36047082000", "city": "BROOKLYN, NY", "zone_code": "R6", "zone_category": "Residential", "ev_permitted": false}, "geometry": {"type": "Polygon", "coordinates": [[[-73.9518799929862, 40.6511483178524], [-73.9518173089782, 40.6511515871052], [-73.9518537871919, 40.6514909752438], [-73.9519164724395, 40.6514877059717], [-73.9518799929862, 40.6511483178524]]]}}, {"type": "Feature", "properties": {"zone_id": "02066TJ8ZX49UKJC9LQ2CI", "tract_id": "36047082000", "city": "BROOKLYN, NY", "zone_code": "C2-3", "zone_category": "Commercial", "ev_permitted": true}, "geometry": {"type": "Polygon", "coordinates": [[[-73.951940375075, 40.651145168462], [-73.9518799929862, 40.6511483178524], [-73.9519164724395, 40.6514877059717], [-73.9519768548337, 40.6514845565622], [-73.951940375075, 40.651145168462]]]}}, {"type": "Feature", "properties": {"zone_id": "0205ECW3YTZX3VSS70OUWM", "tract_id": "36047082000", "city": "BROOKLYN, NY", "zone_code": "R6", "zone_category": "Residential", "ev_permitted": false}, "geometry": {"type": "Polygon", "coordinates": [[[-73.9518173089782, 40.6511515871052], [-73.9517426817687, 40.6511554787926], [-73.9517791596048, 40.6514948669547], [-73.9518537871919, 40.6514909752438], [-73.9518173089782, 40.6511515871052]]]}}, {"type": "Feature", "properties": {"zone_id": "0205WDLQ27WLXCFKEZW6Z0", "tract_id": "36047082000", "city": "BROOKLYN, NY", "zone_code": "R6", "zone_category": "Residential", "ev_permitted": false}, "geometry": {"type": "Polygon", "coordinates": [[[-73.9517426817687, 40.6511554787926], [-73.9516733927765, 40.6511590923116], [-73.9517098702615, 40.6514984811983], [-73.9517791596048, 40.6514948669547], [-73.9517426817687, 40.6511554787926]]]}}, {"type": "Feature", "properties": {"zone_id": "02053QKYZVNT4JF9H825ZJ", "tract_id": "36047082000", "city": "BROOKLYN, NY", "zone_code": "C2-3", "zone_category": "Commercial", "ev_permitted": true}, "geometry": {"type": "Polygon", "coordinates": [[[-73.9523687126729, 40.6510567027222], [-73.9520200429851, 40.6510748882024], [-73.9520259494679, 40.6511298369174], [-73.9523746194413, 40.6511116514193], [-73.9523687126729, 40.6510567027222]]]}}, {"type": "Feature", "properties": {"zone_id": "0203G3VLX07I53H949TEAC", "tract_id": "36047082000", "city": "BROOKLYN, NY", "zone_code": "C2-3", "zone_category": "Commercial", "ev_permitted": true}, "geometry": {"type": "Polygon", "coordinates": [[[-73.9523628645731, 40.6510022943976], [-73.9520141951681, 40.6510204798602], [-73.9520200429851, 40.6510748882024], [-73.9523687126729, 40.6510567027222], [-73.9523628645731, 40.6510022943976]]]}}, {"type": "Feature", "properties": {"zone_id": "0205KQF8H8B2TMICGNE8ZJ", "tract_id": "36047082000", "city": "BROOKLYN, NY", "zone_code": "C2-3", "zone_category": "Commercial", "ev_permitted": true}, "geometry": {"type": "Polygon", "coordinates": [[[-73.9523570467246, 40.650948170664], [-73.9520083776008, 40.6509663561092], [-73.9520141951681, 40.6510204798602], [-73.9523628645731, 40.6510022943976], [-73.9523570467246, 40.650948170664]]]}}, {"type": "Feature", "properties": {"zone_id": "0203I8U9X05K3X664UKE5J", "tract_id": "36047082000", "city": "BROOKLYN, NY", "zone_code": "R6", "zone_category": "Residential", "ev_permitted": false}, "geometry": {"type": "Polygon", "coordinates": [[[-73.9523746194413, 40.6511116514193], [-73.9520259494679, 40.6511298369174], [-73.9520271115221, 40.6511406450838], [-73.9520066129655, 40.6511417144191], [-73.9520115645092, 40.6511877782468], [-73.9523807315037, 40.6511685233934], [-73.9523746194413, 40.6511116514193]]]}}, {"type": "Feature", "properties": {"zone_id": "0201NQM7XXZAY6VA96QZ24", "tract_id": "36047082000", "city": "BROOKLYN, NY", "zone_code": "R6", "zone_category": "Residential", "ev_permitted": false}, "geometry": {"type": "Polygon", "coordinates": [[[-73.9518786679548, 40.6507955839603], [-73.9517838120925, 40.6508005310429], [-73.9518215216183, 40.6511513675306], [-73.951916377054, 40.6511464204168], [-73.9518786679548, 40.6507955839603]]]}}, {"type": "Feature", "properties": {"zone_id": "0206AYS2ABP397XCBPPVQX", "tract_id": "36047082000", "city": "BROOKLYN, NY", "zone_code": "C1-3", "zone_category": "Commercial", "ev_permitted": true}, "geometry": {"type": "Polygon", "coordinates": [[[-73.9517838120925, 40.6508005310429], [-73.9516867364263, 40.650805593757], [-73.9517244445219, 40.651156430276], [-73.9518215216183, 40.6511513675306], [-73.9517838120925, 40.6508005310429]]]}}, {"type": "Feature", "properties": {"zone_id": "0207DBKLJPM3YIOD28IP6H", "tract_id": "36047082000", "city": "BROOKLYN, NY", "zone_code": "C1-3", "zone_category": "Commercial", "ev_permitted": true}, "geometry": {"type": "Polygon", "coordinates": [[[-73.9519894018439, 40.6507898086634], [-73.9518786679548, 40.6507955839603], [-73.951916377054, 40.6511464204168], [-73.9520271115221, 40.6511406450838], [-73.9519894018439, 40.6507898086634]]]}}, {"type": "Feature", "properties": {"zone_id": "0204YNVJEN4WL6KU7H451V", "tract_id": "36047082000", "city": "BROOKLYN, NY", "zone_code": "R6", "zone_category": "Residential", "ev_permitted": false}, "geometry": {"type": "Polygon", "coordinates": [[[-73.952350797221, 40.650890032429], [-73.952002129322, 40.6509082178556], [-73.9520083776008, 40.6509663561092], [-73.9523570467246, 40.650948170664], [-73.952350797221, 40.650890032429]]]}}, {"type": "Feature", "properties": {"zone_id": "0200VKY7KG9NOZ1IWMU7AC", "tract_id": "36047082000", "city": "BROOKLYN, NY", "zone_code": "R6", "zone_category": "Residential", "ev_permitted": false}, "geometry": {"type": "Polygon", "coordinates": [[[-73.9523443332727, 40.6508298978346], [-73.9519956656861, 40.6508480832418], [-73.952002129322, 40.6509082178556], [-73.952350797221, 40.650890032429], [-73.9523443332727, 40.6508298978346]]]}}, {"type": "Feature", "properties": {"zone_id": "0201P8EXD9MRAU9LRW5G55", "tract_id": "36047082000", "city": "BROOKLYN, NY", "zone_code": "R6", "zone_category": "Residential", "ev_permitted": false}, "geometry": {"type": "Polygon", "coordinates": [[[-73.9523380700497, 40.6507716239781], [-73.9519894018439, 40.6507898086634], [-73.9519956656861, 40.6508480832418], [-73.9523443332727, 40.6508298978346], [-73.9523380700497, 40.6507716239781]]]}}, {"type": "Feature", "properties": {"zone_id": "02062B7MNZB0SUXXSGR1GO", "tract_id": "36047082000", "city": "BROOKLYN, NY", "zone_code": "R6", "zone_category": "Residential", "ev_permitted": false}, "geometry": {"type": "Polygon", "coordinates": [[[-73.9516733927765, 40.6511590923116], [-73.9515499585063, 40.6511655301887], [-73.95158643629, 40.651504918412], [-73.9517098702615, 40.6514984811983], [-73.9516733927765, 40.6511590923116]]]}}, {"type": "Feature", "properties": {"zone_id": "0200HND67I0LM8Q45JI4N9", "tract_id": "36047082000", "city": "BROOKLYN, NY", "zone_code": "R6", "zone_category": "Residential", "ev_permitted": false}, "geometry": {"type": "Polygon", "coordinates": [[[-73.9515499585063, 40.6511655301887], [-73.951479889887, 40.6511691840173], [-73.9515163663937, 40.6515085722623], [-73.95158643629, 40.651504918412], [-73.9515499585063, 40.6511655301887]]]}}, {"type": "Feature", "properties": {"zone_id": "02001G6LI3LN0P4JBG3XOM", "tract_id": "36047082000", "city": "BROOKLYN, NY", "zone_code": "R6", "zone_category": "Residential", "ev_permitted": false}, "geometry": {"type": "Polygon", "coordinates": [[[-73.951479889887, 40.6511691840173], [-73.9514189726402, 40.6511723610465], [-73.9514554488388, 40.6515117493108], [-73.9515163663937, 40.6515085722623], [-73.951479889887, 40.6511691840173]]]}}, {"type": "Feature", "properties": {"zone_id": "02050YW9R7URPBPHEPF9NG", "tract_id": "36047082000", "city": "BROOKLYN, NY", "zone_code": "R6", "zone_category": "Residential", "ev_permitted": false}, "geometry": {"type": "Polygon", "coordinates": [[[-73.9514189726402, 40.6511723610465], [-73.9513564445086, 40.651175621682], [-73.9513929213134, 40.6515150099663], [-73.9514554488388, 40.6515117493108], [-73.9514189726402, 40.6511723610465]]]}}, {"type": "Feature", "properties": {"zone_id": "0200SAW67Q7XZ060UB4NBM", "tract_id": "36047082000", "city": "BROOKLYN, NY", "zone_code": "R6", "zone_category": "Residential", "ev_permitted": false}, "geometry": {"type": "Polygon", "coordinates": [[[-73.9513564445086, 40.651175621682], [-73.9512926976013, 40.6511789457098], [-73.9513291731611, 40.6515183340138], [-73.9513929213134, 40.6515150099663], [-73.9513564445086, 40.651175621682]]]}}, {"type": "Feature", "properties": {"zone_id": "02001PDTGMXZ3BWI8GG224", "tract_id": "36047082000", "city": "BROOKLYN, NY", "zone_code": "R6", "zone_category": "Residential", "ev_permitted": false}, "geometry": {"type": "Polygon", "coordinates": [[[-73.9512926976013, 40.6511789457098], [-73.9512224674958, 40.6511826091505], [-73.9512589436235, 40.6515219967743], [-73.9513291731611, 40.6515183340138], [-73.9512926976013, 40.6511789457098]]]}}, {"type": "Feature", "properties": {"zone_id": "0202S7VILFZ56W4FBSEXGZ", "tract_id": "36047082000", "city": "BROOKLYN, NY", "zone_code": "R6", "zone_category": "Residential", "ev_permitted": false}, "geometry": {"type": "Polygon", "coordinates": [[[-73.951225909283, 40.6512146303257], [-73.9510993573607, 40.6512212301179], [-73.9511323901994, 40.6515285958996], [-73.9512589436235, 40.6515219967743], [-73.951225909283, 40.6512146303257]]]}}, {"type": "Feature", "properties": {"zone_id": "02058FOE6R57AEGQWQWN5U", "tract_id": "36047082000", "city": "BROOKLYN, NY", "zone_code": "R6", "zone_category": "Residential", "ev_permitted": false}, "geometry": {"type": "Polygon", "coordinates": [[[-73.9510993573607, 40.6512212301179], [-73.9510290792256, 40.6512248941227], [-73.9510621126644, 40.6515322606275], [-73.9511323901994, 40.6515285958996], [-73.9510993573607, 40.6512212301179]]]}}, {"type": "Feature", "properties": {"zone_id": "0203A91CNIZ166Q9VDLUW4", "tract_id": "36047082000", "city": "BROOKLYN, NY", "zone_code": "C1-3", "zone_category": "Commercial", "ev_permitted": true}, "geometry": {"type": "Polygon", "coordinates": [[[-73.9516867364263, 40.650805593757], [-73.9515815962458, 40.6508110767011], [-73.9516193037916, 40.6511619132544], [-73.9517244445219, 40.651156430276], [-73.9516867364263, 40.650805593757]]]}}, {"type": "Feature", "properties": {"zone_id": "0206210586BG6MWE5ZP133", "tract_id": "36047082000", "city": "BROOKLYN, NY", "zone_code": "C1-3", "zone_category": "Commercial", "ev_permitted": true}, "geometry": {"type": "Polygon", "coordinates": [[[-73.9515815962458, 40.6508110767011], [-73.9514848766745, 40.6508161211256], [-73.9515225837145, 40.6511669577103], [-73.9516193037916, 40.6511619132544], [-73.9515815962458, 40.6508110767011]]]}}, {"type": "Feature", "properties": {"zone_id": "0202A7BSWC3RYD0BFZ6QY5", "tract_id": "36047082000", "city": "BROOKLYN, NY", "zone_code": "R6", "zone_category": "Residential", "ev_permitted": false}, "geometry": {"type": "Polygon", "coordinates": [[[-73.9514848766745, 40.6508161211256], [-73.951381267065, 40.6508215237258], [-73.9514189726402, 40.6511723610465], [-73.9515225837145, 40.6511669577103], [-73.9514848766745, 40.6508161211256]]]}}, {"type": "Feature", "properties": {"zone_id": "0207MJ3EHX17JLR9J8ME0V", "tract_id": "36047082000", "city": "BROOKLYN, NY", "zone_code": "C1-3", "zone_category": "Commercial", "ev_permitted": true}, "geometry": {"type": "Polygon", "coordinates": [[[-73.951381267065, 40.6508215237258], [-73.9513187383373, 40.6508247850431], [-73.9513564445086, 40.651175621682], [-73.9514189726402, 40.6511723610465], [-73.951381267065, 40.6508215237258]]]}}, {"type": "Feature", "properties": {"zone_id": "02042WKH4K1HNW40DNQBVK", "tract_id": "36047082000", "city": "BROOKLYN, NY", "zone_code": "R6", "zone_category": "Residential", "ev_permitted": false}, "geometry": {"type": "Polygon", "coordinates": [[[-73.9513187383373, 40.6508247850431], [-73.9512530136949, 40.6508282122061], [-73.951290720445, 40.6511790488668], [-73.9513564445086, 40.651175621682], [-73.9513187383373, 40.6508247850431]]]}}, {"type": "Feature", "properties": {"zone_id": "02027VXRBNBQ7VYVV5FBND", "tract_id": "36047082000", "city": "BROOKLYN, NY", "zone_code": "R6", "zone_category": "Residential", "ev_permitted": false}, "geometry": {"type": "Polygon", "coordinates": [[[-73.9512530136949, 40.6508282122061], [-73.9511828872891, 40.6508318693426], [-73.9512205927499, 40.6511827060257], [-73.951290720445, 40.6511790488668], [-73.9512530136949, 40.6508282122061]]]}}, {"type": "Feature", "properties": {"zone_id": "02003X35V3ZHCV011V7XAD", "tract_id": "36047082000", "city": "BROOKLYN, NY", "zone_code": "R6", "zone_category": "Residential", "ev_permitted": false}, "geometry": {"type": "Polygon", "coordinates": [[[-73.9511828872891, 40.6508318693426], [-73.9511217599821, 40.6508350566652], [-73.9511629068795, 40.6512179159507], [-73.951225909283, 40.6512146303257], [-73.9512224674958, 40.6511826091505], [-73.9512205927499, 40.6511827060257], [-73.9511828872891, 40.6508318693426]]]}}, {"type": "Feature", "properties": {"zone_id": "0200BNAM3R1XD9879MRGHT", "tract_id": "36047082000", "city": "BROOKLYN, NY", "zone_code": "C1-3", "zone_category": "Commercial", "ev_permitted": true}, "geometry": {"type": "Polygon", "coordinates": [[[-73.9511217599821, 40.6508350566652], [-73.9510518734397, 40.6508387011758], [-73.9510930199382, 40.6512215604861], [-73.9511629068795, 40.6512179159507], [-73.9511217599821, 40.6508350566652]]]}}, {"type": "Feature", "properties": {"zone_id": "0202GGNJHK8E13KBA7BHUN", "tract_id": "36047082000", "city": "BROOKLYN, NY", "zone_code": "R6", "zone_category": "Residential", "ev_permitted": false}, "geometry": {"type": "Polygon", "coordinates": [[[-73.9510518734397, 40.6508387011758], [-73.9509808142566, 40.6508424062759], [-73.9510219612722, 40.6512252656119], [-73.9510930199382, 40.6512215604861], [-73.9510518734397, 40.6508387011758]]]}}, {"type": "Feature", "properties": {"zone_id": "0204SM3GPSCDL0SA6MZ8S8", "tract_id": "36047082000", "city": "BROOKLYN, NY", "zone_code": "C1-3", "zone_category": "Commercial", "ev_permitted": true}, "geometry": {"type": "Polygon", "coordinates": [[[-73.9509808142566, 40.6508424062759], [-73.9508116247266, 40.6508512283679], [-73.9508563040118, 40.6512669711586], [-73.9510254945907, 40.6512581482986], [-73.9509808142566, 40.6508424062759]]]}}, {"type": "Feature", "properties": {"zone_id": "0200VVT42MEF1KN80JB8IS", "tract_id": "36047082000", "city": "BROOKLYN, NY", "zone_code": "R6", "zone_category": "Residential", "ev_permitted": false}, "geometry": {"type": "Polygon", "coordinates": [[[-73.9508116247266, 40.6508512283679], [-73.9504482917614, 40.6508701736343], [-73.9504922211346, 40.6512789591628], [-73.9506723484469, 40.6512695674527], [-73.9506730961268, 40.6512765241512], [-73.9508563040118, 40.6512669711586], [-73.9508116247266, 40.6508512283679]]]}}, {"type": "Feature", "properties": {"zone_id": "02042S8AJ6URPXAI1OFZUS", "tract_id": "36047082000", "city": "BROOKLYN, NY", "zone_code": "R6", "zone_category": "Residential", "ev_permitted": false}, "geometry": {"type": "Polygon", "coordinates": [[[-73.9510290792256, 40.6512248941227], [-73.9510219612722, 40.6512252656119], [-73.9510254945907, 40.6512581482986], [-73.9509719858218, 40.6512609382668], [-73.9510014847679, 40.6515354221002], [-73.9510621126644, 40.6515322606275], [-73.9510290792256, 40.6512248941227]]]}}, {"type": "Feature", "properties": {"zone_id": "0201ZQ1LK20I4TLGSJ5JEU", "tract_id": "36047082000", "city": "BROOKLYN, NY", "zone_code": "R6", "zone_category": "Residential", "ev_permitted": false}, "geometry": {"type": "Polygon", "coordinates": [[[-73.9509719858218, 40.6512609382668], [-73.9509065928721, 40.6512643485093], [-73.9509360924733, 40.6515388323597], [-73.9510014847679, 40.6515354221002], [-73.9509719858218, 40.6512609382668]]]}}, {"type": "Feature", "properties": {"zone_id": "02044MTDBNC5QD4VF6D86S", "tract_id": "36047082000", "city": "BROOKLYN, NY", "zone_code": "R6", "zone_category": "Residential", "ev_permitted": false}, "geometry": {"type": "Polygon", "coordinates": [[[-73.9509065928721, 40.6512643485093], [-73.9508463010427, 40.651267492477], [-73.9508758003973, 40.6515419763428], [-73.9509360924733, 40.6515388323597], [-73.9509065928721, 40.6512643485093]]]}}, {"type": "Feature", "properties": {"zone_id": "0203ZBGYSZXAUCBWD71BB2", "tract_id": "36047082000", "city": "BROOKLYN, NY", "zone_code": "R6", "zone_category": "Residential", "ev_permitted": false}, "geometry": {"type": "Polygon", "coordinates": [[[-73.9504859933805, 40.6512210112594], [-73.9503936232512, 40.6512258275699], [-73.9504300951856, 40.6515652161576], [-73.9505224657827, 40.6515603991153], [-73.9504859933805, 40.6512210112594]]]}}, {"type": "Feature", "properties": {"zone_id": "0202W0KABA8UU4BZMYJ2R5", "tract_id": "36047082000", "city": "BROOKLYN, NY", "zone_code": "R6", "zone_category": "Residential", "ev_permitted": false}, "geometry": {"type": "Polygon", "coordinates": [[[-73.9503936232512, 40.6512258275699], [-73.9503279775105, 40.651229250725], [-73.9503644481897, 40.6515686400357], [-73.9504300951856, 40.6515652161576], [-73.9503936232512, 40.6512258275699]]]}}, {"type": "Feature", "properties": {"zone_id": "02025VELXFNTILXZ134DLZ", "tract_id": "36047082000", "city": "BROOKLYN, NY", "zone_code": "R6", "zone_category": "Residential", "ev_permitted": false}, "geometry": {"type": "Polygon", "coordinates": [[[-73.9504482917614, 40.6508701736343], [-73.9503731121443, 40.6508740937069], [-73.9504108133703, 40.6512249313565], [-73.9504859933805, 40.6512210112594], [-73.9504482917614, 40.6508701736343]]]}}, {"type": "Feature", "properties": {"zone_id": "0206KJDZ12L1W0G8YJ1ASG", "tract_id": "36047082000", "city": "BROOKLYN, NY", "zone_code": "C1-3", "zone_category": "Commercial", "ev_permitted": true}, "geometry": {"type": "Polygon", "coordinates": [[[-73.9503731121443, 40.6508740937069], [-73.950302482821, 40.6508777760881], [-73.9503401846002, 40.6512286137611], [-73.9504108133703, 40.6512249313565], [-73.9503731121443, 40.6508740937069]]]}}, {"type": "Feature", "properties": {"zone_id": "0207A3NJZBZ9GG3U46KIEL", "tract_id": "36047082000", "city": "BROOKLYN, NY", "zone_code": "C1-3", "zone_category": "Commercial", "ev_permitted": true}, "geometry": {"type": "Polygon", "coordinates": [[[-73.9502646152304, 40.6512325539719], [-73.9501999658985, 40.651235924785], [-73.9502364368533, 40.6515753134337], [-73.9503010855896, 40.6515719425999], [-73.9502646152304, 40.6512325539719]]]}}, {"type": "Feature", "properties": {"zone_id": "02016DRP7854XKKB0LXBHW", "tract_id": "36047082000", "city": "BROOKLYN, NY", "zone_code": "R6", "zone_category": "Residential", "ev_permitted": false}, "geometry": {"type": "Polygon", "coordinates": [[[-73.9501999658985, 40.651235924785], [-73.9501237995812, 40.6512398962646], [-73.9501602692282, 40.6515792849369], [-73.9502364368533, 40.6515753134337], [-73.9501999658985, 40.651235924785]]]}}, {"type": "Feature", "properties": {"zone_id": "02076AWGQ2M17ZLYSS11X9", "tract_id": "36047082000", "city": "BROOKLYN, NY", "zone_code": "C1-3", "zone_category": "Commercial", "ev_permitted": true}, "geometry": {"type": "Polygon", "coordinates": [[[-73.9501366676759, 40.6513596478086], [-73.9500664880612, 40.651363307052], [-73.9500900893837, 40.6515829441946], [-73.9501602692282, 40.6515792849369], [-73.9501366676759, 40.6513596478086]]]}}, {"type": "Feature", "properties": {"zone_id": "0206C9S54VIJ94DOP7GGH0", "tract_id": "36047082000", "city": "BROOKLYN, NY", "zone_code": "C1-3", "zone_category": "Commercial", "ev_permitted": true}, "geometry": {"type": "Polygon", "coordinates": [[[-73.9501246699826, 40.6512479850124], [-73.9497539869665, 40.6512673106606], [-73.9497598100642, 40.6513214977669], [-73.9501304915345, 40.6513021720992], [-73.9501246699826, 40.6512479850124]]]}}, {"type": "Feature", "properties": {"zone_id": "0203OD9NSAH54RWLV57CFW", "tract_id": "36047082000", "city": "BROOKLYN, NY", "zone_code": "R6", "zone_category": "Residential", "ev_permitted": false}, "geometry": {"type": "Polygon", "coordinates": [[[-73.9501185735717, 40.6511912506471], [-73.9497478908692, 40.6512105762759], [-73.9497539869665, 40.6512673106606], [-73.9501246699826, 40.6512479850124], [-73.9501185735717, 40.6511912506471]]]}}, {"type": "Feature", "properties": {"zone_id": "020003V27FX7A36VP53FZS", "tract_id": "36047082000", "city": "BROOKLYN, NY", "zone_code": "C1-3", "zone_category": "Commercial", "ev_permitted": true}, "geometry": {"type": "Polygon", "coordinates": [[[-73.950302482821, 40.6508777760881], [-73.9502298172942, 40.6508815643499], [-73.9502675186929, 40.6512324027492], [-73.9503401846002, 40.6512286137611], [-73.950302482821, 40.6508777760881]]]}}, {"type": "Feature", "properties": {"zone_id": "0201FH2DBBJGDEFGBVMQLR", "tract_id": "36047082000", "city": "BROOKLYN, NY", "zone_code": "C1-3", "zone_category": "Commercial", "ev_permitted": true}, "geometry": {"type": "Polygon", "coordinates": [[[-73.9502298172942, 40.6508815643499], [-73.9501622657751, 40.6508850870667], [-73.9501999658985, 40.651235924785], [-73.9502675186929, 40.6512324027492], [-73.9502298172942, 40.6508815643499]]]}}, {"type": "Feature", "properties": {"zone_id": "0207E0LOODIY641UVT0IBA", "tract_id": "36047082000", "city": "BROOKLYN, NY", "zone_code": "R6", "zone_category": "Residential", "ev_permitted": false}, "geometry": {"type": "Polygon", "coordinates": [[[-73.9508463010427, 40.651267492477], [-73.9507755836806, 40.6512711800298], [-73.9508050818233, 40.6515456639133], [-73.9508758003973, 40.6515419763428], [-73.9508463010427, 40.651267492477]]]}}, {"type": "Feature", "properties": {"zone_id": "0202XCMWN2R3JNGIPDO5H5", "tract_id": "36047082000", "city": "BROOKLYN, NY", "zone_code": "R6", "zone_category": "Residential", "ev_permitted": false}, "geometry": {"type": "Polygon", "coordinates": [[[-73.9507755836806, 40.6512711800298], [-73.9506730961268, 40.6512765241512], [-73.9507025938501, 40.6515510080608], [-73.9508050818233, 40.6515456639133], [-73.9507755836806, 40.6512711800298]]]}}, {"type": "Feature", "properties": {"zone_id": "0205CKE0F53IWMJRZJIMWW", "tract_id": "36047082000", "city": "BROOKLYN, NY", "zone_code": "R6", "zone_category": "Residential", "ev_permitted": false}, "geometry": {"type": "Polygon", "coordinates": [[[-73.9506723484469, 40.6512695674527], [-73.9505831382144, 40.6512742187392], [-73.9506133832434, 40.6515556593706], [-73.9507025938501, 40.6515510080608], [-73.9506723484469, 40.6512695674527]]]}}, {"type": "Feature", "properties": {"zone_id": "0200X7O67YZ6YBZEYEMGOP", "tract_id": "36047082000", "city": "BROOKLYN, NY", "zone_code": "R6", "zone_category": "Residential", "ev_permitted": false}, "geometry": {"type": "Polygon", "coordinates": [[[-73.9505831382144, 40.6512742187392], [-73.9504922211346, 40.6512789591628], [-73.9505224657827, 40.6515603991153], [-73.9506133832434, 40.6515556593706], [-73.9505831382144, 40.6512742187392]]]}}, {"type": "Feature", "properties": {"zone_id": "0207MU1GX5ZVFNV46IC259", "tract_id": "36047082000", "city": "BROOKLYN, NY", "zone_code": "R6", "zone_category": "Residential", "ev_permitted": false}, "geometry": {"type": "Polygon", "coordinates": [[[-73.9503279775105, 40.651229250725], [-73.9502646152304, 40.6512325539719], [-73.9503010855896, 40.6515719425999], [-73.9503644481897, 40.6515686400357], [-73.9503279775105, 40.651229250725]]]}}, {"type": "Feature", "properties": {"zone_id": "0201KUEH8QF21XA1UVVPQS", "tract_id": "36047082000", "city": "BROOKLYN, NY", "zone_code": "R6", "zone_category": "Residential", "ev_permitted": false}, "geometry": {"type": "Polygon", "coordinates": [[[-73.9500720796181, 40.6514153431854], [-73.9497715772114, 40.6514310103467], [-73.9497775377588, 40.6514864805763], [-73.9500780404139, 40.6514708133996], [-73.9500720796181, 40.6514153431854]]]}}, {"type": "Feature", "properties": {"zone_id": "02026O2I7SLDY0AEL1AFC4", "tract_id": "36047082000", "city": "BROOKLYN, NY", "zone_code": "C1-3", "zone_category": "Commercial", "ev_permitted": true}, "geometry": {"type": "Polygon", "coordinates": [[[-73.9500664880612, 40.651363307052], [-73.9497659858875, 40.6513789741988], [-73.9497715772114, 40.6514310103467], [-73.9500720796181, 40.6514153431854], [-73.9500664880612, 40.651363307052]]]}}, {"type": "Feature", "properties": {"zone_id": "0200PAIPENX86XLFVBOBUQ", "tract_id": "36047082000", "city": "BROOKLYN, NY", "zone_code": "C1-3", "zone_category": "Commercial", "ev_permitted": true}, "geometry": {"type": "Polygon", "coordinates": [[[-73.9501304915345, 40.6513021720992], [-73.9497598100642, 40.6513214977669], [-73.9497659858875, 40.6513789741988], [-73.9501366676759, 40.6513596478086], [-73.9501304915345, 40.6513021720992]]]}}, {"type": "Feature", "properties": {"zone_id": "0206L777G1BEOAQDVSNW8M", "tract_id": "36047082000", "city": "BROOKLYN, NY", "zone_code": "R6", "zone_category": "Residential", "ev_permitted": false}, "geometry": {"type": "Polygon", "coordinates": [[[-73.9501622657751, 40.6508850870667], [-73.9500860998566, 40.6508890578188], [-73.9501237995812, 40.6512398962646], [-73.9501999658985, 40.651235924785], [-73.9501622657751, 40.6508850870667]]]}}, {"type": "Feature", "properties": {"zone_id": "02059UOXY18LUNS1NFDWAE", "tract_id": "36047082000", "city": "BROOKLYN, NY", "zone_code": "C1-3", "zone_category": "Commercial", "ev_permitted": true}, "geometry": {"type": "Polygon", "coordinates": [[[-73.9500860998566, 40.6508890578188], [-73.9499960754288, 40.6508937511592], [-73.9500228023961, 40.6511424694544], [-73.9501128262351, 40.6511377760929], [-73.9500860998566, 40.6508890578188]]]}}, {"type": "Feature", "properties": {"zone_id": "02013JWLEFBPVA19XWA7SQ", "tract_id": "36047082000", "city": "BROOKLYN, NY", "zone_code": "R6", "zone_category": "Residential", "ev_permitted": false}, "geometry": {"type": "Polygon", "coordinates": [[[-73.9500175462261, 40.6510935525902], [-73.9497368887846, 40.6511081855294], [-73.9497421447505, 40.6511571017037], [-73.9500228023961, 40.6511424694544], [-73.9500175462261, 40.6510935525902]]]}}, {"type": "Feature", "properties": {"zone_id": "0205BZT06WP4ZLIENYL3LA", "tract_id": "36047082000", "city": "BROOKLYN, NY", "zone_code": "C1-3", "zone_category": "Commercial", "ev_permitted": true}, "geometry": {"type": "Polygon", "coordinates": [[[-73.9500127289028, 40.651048738774], [-73.9497320734944, 40.6510633709996], [-73.9497368887846, 40.6511081855294], [-73.9500175462261, 40.6510935525902], [-73.9500127289028, 40.651048738774]]]}}, {"type": "Feature", "properties": {"zone_id": "0204D02PA685B0GY0MJW1Z", "tract_id": "36047082000", "city": "BROOKLYN, NY", "zone_code": "C1-3", "zone_category": "Commercial", "ev_permitted": true}, "geometry": {"type": "Polygon", "coordinates": [[[-73.9500072693573, 40.650997925329], [-73.9497266132389, 40.651012557541], [-73.9497320734944, 40.6510633709996], [-73.9500127289028, 40.651048738774], [-73.9500072693573, 40.650997925329]]]}}, {"type": "Feature", "properties": {"zone_id": "020053M2KLG7E2MNZGCUCS", "tract_id": "36047082000", "city": "BROOKLYN, NY", "zone_code": "C1-3", "zone_category": "Commercial", "ev_permitted": true}, "geometry": {"type": "Polygon", "coordinates": [[[-73.9500025070283, 40.6509536104275], [-73.9497218520178, 40.6509682426283], [-73.9497266132389, 40.651012557541], [-73.9500072693573, 40.650997925329], [-73.9500025070283, 40.6509536104275]]]}}, {"type": "Feature", "properties": {"zone_id": "0205CF9I0SANMDVX5KPNA6", "tract_id": "36047082000", "city": "BROOKLYN, NY", "zone_code": "R6", "zone_category": "Residential", "ev_permitted": false}, "geometry": {"type": "Polygon", "coordinates": [[[-73.9501128262351, 40.6511377760929], [-73.9497421447505, 40.6511571017037], [-73.9497478908692, 40.6512105762759], [-73.9501185735717, 40.6511912506471], [-73.9501128262351, 40.6511377760929]]]}}, {"type": "Feature", "properties": {"zone_id": "0200KOG8K40VJG378CVEO6", "tract_id": "36047082000", "city": "BROOKLYN, NY", "zone_code": "R6", "zone_category": "Residential", "ev_permitted": false}, "geometry": {"type": "Polygon", "coordinates": [[[-73.9499960754288, 40.6508937511592], [-73.9497154197462, 40.650908383344], [-73.9497218520178, 40.6509682426283], [-73.9500025070283, 40.6509536104275], [-73.9499960754288, 40.6508937511592]]]}}]}