{"type": "FeatureCollection", "features": [{"type": "Feature", "properties": {"zone_id": "0200ZXJWO7E7633CM62JU1", "tract_id": "06037209401", "city": "LOS ANGELES, CA", "zone_code": "C2-2", "zone_category": "Commercial", "ev_permitted": true}, "geometry": {"type": "Polygon", "coordinates": [[[-118.284033170244, 34.0591543805141], [-118.283816320004, 34.0594941426718], [-118.284047356218, 34.0595985133007], [-118.284076197693, 34.0595845412289], [-118.284072354034, 34.0591720945707], [-118.284033170244, 34.0591543805141]]]}}, {"type": "Feature", "properties": {"zone_id": "02036SELI3XVQR1FOGSHYN", "tract_id": "06037209401", "city": "LOS ANGELES, CA", "zone_code": "C2-2", "zone_category": "Commercial", "ev_permitted": true}, "geometry": {"type": "Polygon", "coordinates": [[[-118.283597884793, 34.0589578039072], [-118.283512694502, 34.0590912757443], [-118.283947980541, 34.0592878801379], [-118.284033170244, 34.0591543805141], [-118.283597884793, 34.0589578039072]]]}}, {"type": "Feature", "properties": {"zone_id": "0202DIHVODBN4X9AMP6OZL", "tract_id": "06037209401", "city": "LOS ANGELES, CA", "zone_code": "C2-2", "zone_category": "Commercial", "ev_permitted": true}, "geometry": {"type": "Polygon", "coordinates": [[[-118.283512694502, 34.0590912757443], [-118.283381033388, 34.0592975927589], [-118.283816320004, 34.0594941426718], [-118.283947980541, 34.0592878801379], [-118.283512694502, 34.0590912757443]]]}}, {"type": "Feature", "properties": {"zone_id": "0205F4VK23SYJTCK7H0XV6", "tract_id": "06037209401", "city": "LOS ANGELES, CA", "zone_code": "C2-2", "zone_category": "Commercial", "ev_permitted": true}, "geometry": {"type": "Polygon", "coordinates": [[[-118.283796311709, 34.058734787593], [-118.283656901312, 34.0589532412356], [-118.284039049019, 34.0591257888121], [-118.284037863316, 34.0590002138182], [-118.283907482706, 34.0589413312041], [-118.283984921731, 34.0588199954326], [-118.283796311709, 34.058734787593]]]}}, {"type": "Feature", "properties": {"zone_id": "0200MUVH7ZLF56YKP5MVW5", "tract_id": "06037209401", "city": "LOS ANGELES, CA", "zone_code": "C2-2", "zone_category": "Commercial", "ev_permitted": true}, "geometry": {"type": "Polygon", "coordinates": [[[-118.282988475337, 34.0586825775688], [-118.282771622077, 34.0590223378434], [-118.283206905922, 34.0592189174288], [-118.283423758017, 34.0588791838481], [-118.282988475337, 34.0586825775688]]]}}, {"type": "Feature", "properties": {"zone_id": "0206BY4152C3UIDBW86VS3", "tract_id": "06037209401", "city": "LOS ANGELES, CA", "zone_code": "C2-2", "zone_category": "Commercial", "ev_permitted": true}, "geometry": {"type": "Polygon", "coordinates": [[[-118.283968055616, 34.0586560695292], [-118.283948712397, 34.0586863965652], [-118.283992227576, 34.058706051453], [-118.283934131931, 34.0587970601976], [-118.283984921731, 34.0588199954326], [-118.283907482706, 34.0589413312041], [-118.284070896651, 34.0590151395096], [-118.284067981807, 34.0587012019122], [-118.283968055616, 34.0586560695292]]]}}, {"type": "Feature", "properties": {"zone_id": "02010YHE53393H916BU4ZP", "tract_id": "06037209401", "city": "LOS ANGELES, CA", "zone_code": "C2-2", "zone_category": "Commercial", "ev_permitted": true}, "geometry": {"type": "Polygon", "coordinates": [[[-118.283830202586, 34.0585937970413], [-118.283752763546, 34.0587151327123], [-118.283934131931, 34.0587970601976], [-118.283992227576, 34.058706051453], [-118.283948712397, 34.0586863965652], [-118.283968055616, 34.0586560695292], [-118.283830202586, 34.0585937970413]]]}}, {"type": "Feature", "properties": {"zone_id": "02059DU8BPXZ28LDN8JX65", "tract_id": "06037209401", "city": "LOS ANGELES, CA", "zone_code": "C2-1", "zone_category": "Commercial", "ev_permitted": true}, "geometry": {"type": "Polygon", "coordinates": [[[-118.283985113006, 34.0583511254749], [-118.283907674416, 34.0584724612438], [-118.284066524346, 34.0585442193759], [-118.284065066891, 34.0583872368407], [-118.283985113006, 34.0583511254749]]]}}, {"type": "Feature", "properties": {"zone_id": "0204DT12CKUP5ZB8GN8Z69", "tract_id": "06037209401", "city": "LOS ANGELES, CA", "zone_code": "C2-1", "zone_category": "Commercial", "ev_permitted": true}, "geometry": {"type": "Polygon", "coordinates": [[[-118.283907674416, 34.0584724612438], [-118.283830202586, 34.0585937970413], [-118.284067981807, 34.0587012019122], [-118.284066524346, 34.0585442193759], [-118.283907674416, 34.0584724612438]]]}}, {"type": "Feature", "properties": {"zone_id": "0205IL3GRG4Y7CHZB2FN5Z", "tract_id": "06037209401", "city": "LOS ANGELES, CA", "zone_code": "R4-2", "zone_category": "Residential", "ev_permitted": false}, "geometry": {"type": "Polygon", "coordinates": [[[-118.282664065007, 34.0582234258535], [-118.28233046808, 34.0587457901535], [-118.282326046352, 34.0587545684184], [-118.282323513363, 34.0587638460037], [-118.282322944637, 34.058773346279], [-118.282324357133, 34.0587827859738], [-118.282327708735, 34.0587918836241], [-118.282332899507, 34.0588003679648], [-118.282339774677, 34.058807986018], [-118.282348129245, 34.0588145106359], [-118.282357714104, 34.0588197472737], [-118.282779376842, 34.0590101895464], [-118.282969967099, 34.0587115766423], [-118.28289742224, 34.0586788116231], [-118.283001195173, 34.0585162224722], [-118.2830229588, 34.0585260517916], [-118.283092619741, 34.0584169954878], [-118.282664065007, 34.0582234258535]]]}}, {"type": "Feature", "properties": {"zone_id": "0204R769QT8U155IIEVPEK", "tract_id": "06037209401", "city": "LOS ANGELES, CA", "zone_code": "C2-2", "zone_category": "Commercial", "ev_permitted": true}, "geometry": {"type": "Polygon", "coordinates": [[[-118.28205272392, 34.0582443100759], [-118.281827885743, 34.0585960954933], [-118.282118071788, 34.0587271509894], [-118.282342710821, 34.0583753105358], [-118.28205272392, 34.0582443100759]]]}}, {"type": "Feature", "properties": {"zone_id": "02037LAHRN5VUWN7XBZ4CT", "tract_id": "06037209401", "city": "LOS ANGELES, CA", "zone_code": "C2-2", "zone_category": "Commercial", "ev_permitted": true}, "geometry": {"type": "Polygon", "coordinates": [[[-118.281914542288, 34.0581818713026], [-118.2819066263, 34.0581939529404], [-118.281899715591, 34.0581908364967], [-118.281682759953, 34.0585305400826], [-118.281827885743, 34.0585960954933], [-118.28205272392, 34.0582443100759], [-118.281914542288, 34.0581818713026]]]}}, {"type": "Feature", "properties": {"zone_id": "02009TFCC49FW672D7GO4K", "tract_id": "06037209401", "city": "LOS ANGELES, CA", "zone_code": "C2-1", "zone_category": "Commercial", "ev_permitted": true}, "geometry": {"type": "Polygon", "coordinates": [[[-118.283522834, 34.057845366511], [-118.283003976566, 34.0586583050099], [-118.283439259063, 34.0588548837547], [-118.283958113579, 34.0580419708568], [-118.283522834, 34.057845366511]]]}}, {"type": "Feature", "properties": {"zone_id": "020298RX1UJUI2EQA01GR4", "tract_id": "06037209401", "city": "LOS ANGELES, CA", "zone_code": "C2-1", "zone_category": "Commercial", "ev_permitted": true}, "geometry": {"type": "Polygon", "coordinates": [[[-118.283669964556, 34.0576148128459], [-118.283522834, 34.057845366511], [-118.283958113579, 34.0580419708568], [-118.284089190568, 34.0578366043246], [-118.284076277317, 34.0577982675292], [-118.283669964556, 34.0576148128459]]]}}, {"type": "Feature", "properties": {"zone_id": "02021XE16DT001LEHLELJ7", "tract_id": "06037209401", "city": "LOS ANGELES, CA", "zone_code": "R4-1", "zone_category": "Residential", "ev_permitted": false}, "geometry": {"type": "Polygon", "coordinates": [[[-118.282819011232, 34.0579807831882], [-118.282741538278, 34.0581021182846], [-118.28317685028, 34.0582986978928], [-118.283254322877, 34.0581773899945], [-118.282819011232, 34.0579807831882]]]}}, {"type": "Feature", "properties": {"zone_id": "0200B4RD8JXCD2U5LBFF8I", "tract_id": "06037209401", "city": "LOS ANGELES, CA", "zone_code": "R4-1", "zone_category": "Residential", "ev_permitted": false}, "geometry": {"type": "Polygon", "coordinates": [[[-118.282896484054, 34.0578594755213], [-118.282819011232, 34.0579807831882], [-118.283254322877, 34.0581773899945], [-118.283331795157, 34.0580560545687], [-118.282896484054, 34.0578594755213]]]}}, {"type": "Feature", "properties": {"zone_id": "0204AV4DXMO1RKGVOQMB8T", "tract_id": "06037209401", "city": "LOS ANGELES, CA", "zone_code": "C2-1", "zone_category": "Commercial", "ev_permitted": true}, "geometry": {"type": "Polygon", "coordinates": [[[-118.283964373401, 34.057065417208], [-118.283750483317, 34.0574003634898], [-118.284065599753, 34.0575426494761], [-118.284095382643, 34.057524168674], [-118.284101033619, 34.0571271427641], [-118.283964373401, 34.057065417208]]]}}, {"type": "Feature", "properties": {"zone_id": "0201H7OB8VCIVV8G8PYJ4K", "tract_id": "06037209401", "city": "LOS ANGELES, CA", "zone_code": "C2-1", "zone_category": "Commercial", "ev_permitted": true}, "geometry": {"type": "Polygon", "coordinates": [[[-118.283226705859, 34.0574302120609], [-118.283159907087, 34.0574469658459], [-118.282896484054, 34.0578594755213], [-118.283331795157, 34.0580560545687], [-118.28361846795, 34.057607134986], [-118.283226705859, 34.0574302120609]]]}}, {"type": "Feature", "properties": {"zone_id": "0203BCY95C5D8LO0YOV94P", "tract_id": "06037209401", "city": "LOS ANGELES, CA", "zone_code": "R4-2", "zone_category": "Residential", "ev_permitted": false}, "geometry": {"type": "Polygon", "coordinates": [[[-118.282287084813, 34.0575842181791], [-118.281977189848, 34.0580695019398], [-118.282412466961, 34.0582661118585], [-118.282722393145, 34.0577808268991], [-118.282287084813, 34.0575842181791]]]}}, {"type": "Feature", "properties": {"zone_id": "0202MB8UUB4HH6S57DJIS4", "tract_id": "06037209401", "city": "LOS ANGELES, CA", "zone_code": "R4-2", "zone_category": "Residential", "ev_permitted": false}, "geometry": {"type": "Polygon", "coordinates": [[[-118.282741538278, 34.0581021182846], [-118.282664065007, 34.0582234258535], [-118.283099344536, 34.0584200332979], [-118.28317685028, 34.0582986978928], [-118.282741538278, 34.0581021182846]]]}}, {"type": "Feature", "properties": {"zone_id": "0206ZRLA29WF0R5RV67BNZ", "tract_id": "06037209401", "city": "LOS ANGELES, CA", "zone_code": "R4-2", "zone_category": "Residential", "ev_permitted": false}, "geometry": {"type": "Polygon", "coordinates": [[[-118.281984464271, 34.0580727824022], [-118.281914542288, 34.0581818713026], [-118.282342710821, 34.0583753105358], [-118.282412466961, 34.0582661118585], [-118.281984464271, 34.0580727824022]]]}}, {"type": "Feature", "properties": {"zone_id": "0204TCDCUZXVJ4X51BS77O", "tract_id": "06037209401", "city": "LOS ANGELES, CA", "zone_code": "C2-2", "zone_category": "Commercial", "ev_permitted": true}, "geometry": {"type": "Polygon", "coordinates": [[[-118.281710778499, 34.0581054887807], [-118.281493756192, 34.0584451647011], [-118.281638881685, 34.0585107203387], [-118.281855870558, 34.0581710442335], [-118.281710778499, 34.0581054887807]]]}}, {"type": "Feature", "properties": {"zone_id": "02004ZBPF9GS2BC5ILD1V2", "tract_id": "06037209401", "city": "LOS ANGELES, CA", "zone_code": "R4-2", "zone_category": "Residential", "ev_permitted": false}, "geometry": {"type": "Polygon", "coordinates": [[[-118.281498103106, 34.0578531254629], [-118.281436063785, 34.0579501600297], [-118.281871372113, 34.058146799299], [-118.281933377968, 34.0580497371062], [-118.281498103106, 34.0578531254629]]]}}, {"type": "Feature", "properties": {"zone_id": "0206NVGYYA4K0R2HA03IRN", "tract_id": "06037209401", "city": "LOS ANGELES, CA", "zone_code": "R4-2", "zone_category": "Residential", "ev_permitted": false}, "geometry": {"type": "Polygon", "coordinates": [[[-118.28157561074, 34.0577318185671], [-118.281498103106, 34.0578531254629], [-118.281933377968, 34.0580497371062], [-118.282010885153, 34.05792842993], [-118.28157561074, 34.0577318185671]]]}}, {"type": "Feature", "properties": {"zone_id": "0205M6NKHML8PX2EQT31Q5", "tract_id": "06037209401", "city": "LOS ANGELES, CA", "zone_code": "C2-1", "zone_category": "Commercial", "ev_permitted": true}, "geometry": {"type": "Polygon", "coordinates": [[[-118.282581803694, 34.057122738232], [-118.282442030948, 34.0573415760047], [-118.282877338381, 34.057538184164], [-118.283017110131, 34.0573192909285], [-118.282581803694, 34.057122738232]]]}}, {"type": "Feature", "properties": {"zone_id": "0205AP7HZO3TBC83XXIRW6", "tract_id": "06037209401", "city": "LOS ANGELES, CA", "zone_code": "R4-1", "zone_category": "Residential", "ev_permitted": false}, "geometry": {"type": "Polygon", "coordinates": [[[-118.282442030948, 34.0573415760047], [-118.282364558039, 34.0574629108557], [-118.282799865922, 34.0576595192953], [-118.282877338381, 34.057538184164], [-118.282442030948, 34.0573415760047]]]}}, {"type": "Feature", "properties": {"zone_id": "0203TU3Q54YOMTGV502Z9A", "tract_id": "06037209401", "city": "LOS ANGELES, CA", "zone_code": "R4-1", "zone_category": "Residential", "ev_permitted": false}, "geometry": {"type": "Polygon", "coordinates": [[[-118.282364558039, 34.0574629108557], [-118.282287084813, 34.0575842181791], [-118.282722393145, 34.0577808268991], [-118.282799865922, 34.0576595192953], [-118.282364558039, 34.0574629108557]]]}}, {"type": "Feature", "properties": {"zone_id": "0206SQESO0YJQFJDPE3TP3", "tract_id": "06037209401", "city": "LOS ANGELES, CA", "zone_code": "R4-2", "zone_category": "Residential", "ev_permitted": false}, "geometry": {"type": "Polygon", "coordinates": [[[-118.281808099371, 34.0573679251408], [-118.28157561074, 34.0577318185671], [-118.282010885153, 34.05792842993], [-118.282243405266, 34.0575644806283], [-118.281808099371, 34.0573679251408]]]}}, {"type": "Feature", "properties": {"zone_id": "0205G5K8RR3RV4TYWU6JVF", "tract_id": "06037209401", "city": "LOS ANGELES, CA", "zone_code": "R4-1", "zone_category": "Residential", "ev_permitted": false}, "geometry": {"type": "Polygon", "coordinates": [[[-118.281963112523, 34.0571252834292], [-118.281885572998, 34.0572465906474], [-118.282320878537, 34.057443173333], [-118.282398384598, 34.0573218659115], [-118.281963112523, 34.0571252834292]]]}}, {"type": "Feature", "properties": {"zone_id": "0205TW4VHLTVCLR6G8YNOS", "tract_id": "06037209401", "city": "LOS ANGELES, CA", "zone_code": "R4-1", "zone_category": "Residential", "ev_permitted": false}, "geometry": {"type": "Polygon", "coordinates": [[[-118.281885572998, 34.0572465906474], [-118.281808099371, 34.0573679251408], [-118.282243405266, 34.0575644806283], [-118.282320878537, 34.057443173333], [-118.281885572998, 34.0572465906474]]]}}, {"type": "Feature", "properties": {"zone_id": "0205K8SZ9QNIREWF7VZPCC", "tract_id": "06037209401", "city": "LOS ANGELES, CA", "zone_code": "C2-2", "zone_category": "Commercial", "ev_permitted": true}, "geometry": {"type": "Polygon", "coordinates": [[[-118.281420595247, 34.0579744323096], [-118.281203572102, 34.0583141077066], [-118.281493756192, 34.0584451647011], [-118.281710778499, 34.0581054887807], [-118.281420595247, 34.0579744323096]]]}}, {"type": "Feature", "properties": {"zone_id": "0203BZDG5FS0IBPMVARWL2", "tract_id": "06037209401", "city": "LOS ANGELES, CA", "zone_code": "C2-2", "zone_category": "Commercial", "ev_permitted": true}, "geometry": {"type": "Polygon", "coordinates": [[[-118.28095701811, 34.0577650521035], [-118.280739993626, 34.0581047266641], [-118.281029481838, 34.0582354566425], [-118.281246472471, 34.0578957816364], [-118.28095701811, 34.0577650521035]]]}}, {"type": "Feature", "properties": {"zone_id": "0205W24U22GVV3SEIK5T8A", "tract_id": "06037209401", "city": "LOS ANGELES, CA", "zone_code": "C2-2", "zone_category": "Commercial", "ev_permitted": true}, "geometry": {"type": "Polygon", "coordinates": [[[-118.280811200117, 34.0576991949972], [-118.280593546912, 34.0580385684886], [-118.280739993626, 34.0581047266641], [-118.28095701811, 34.0577650521035], [-118.280811200117, 34.0576991949972]]]}}, {"type": "Feature", "properties": {"zone_id": "02044YAUN2CO2VRZJ4YS2X", "tract_id": "06037209401", "city": "LOS ANGELES, CA", "zone_code": "C2-2", "zone_category": "Commercial", "ev_permitted": true}, "geometry": {"type": "Polygon", "coordinates": [[[-118.280665812192, 34.0576335290673], [-118.280448786867, 34.0579732031025], [-118.280593546912, 34.0580385684886], [-118.280811200117, 34.0576991949972], [-118.280665812192, 34.0576335290673]]]}}, {"type": "Feature", "properties": {"zone_id": "0200NRQMFYCD9AZ31APSWM", "tract_id": "06037209401", "city": "LOS ANGELES, CA", "zone_code": "R4-1", "zone_category": "Residential", "ev_permitted": false}, "geometry": {"type": "Polygon", "coordinates": [[[-118.281121199703, 34.0572139689633], [-118.280966216867, 34.05745658204], [-118.281401488323, 34.0576531681182], [-118.281556503276, 34.0574105544038], [-118.281121199703, 34.0572139689633]]]}}, {"type": "Feature", "properties": {"zone_id": "0200R5GD044AC4D3JQJMHT", "tract_id": "06037209401", "city": "LOS ANGELES, CA", "zone_code": "R4-2", "zone_category": "Residential", "ev_permitted": false}, "geometry": {"type": "Polygon", "coordinates": [[[-118.280966216867, 34.05745658204], [-118.280826701795, 34.0576749227189], [-118.281261974152, 34.0578715367805], [-118.281401488323, 34.0576531681182], [-118.280966216867, 34.05745658204]]]}}, {"type": "Feature", "properties": {"zone_id": "0204T4GFFLA9OWWXPTGHPU", "tract_id": "06037209401", "city": "LOS ANGELES, CA", "zone_code": "R4-1", "zone_category": "Residential", "ev_permitted": false}, "geometry": {"type": "Polygon", "coordinates": [[[-118.281198707199, 34.0570926348345], [-118.281121199703, 34.0572139689633], [-118.281556503276, 34.0574105544038], [-118.281634010415, 34.057289247473], [-118.281198707199, 34.0570926348345]]]}}, {"type": "Feature", "properties": {"zone_id": "0204BPU41XIJDJU8T3XSIL", "tract_id": "06037209401", "city": "LOS ANGELES, CA", "zone_code": "C2-2", "zone_category": "Commercial", "ev_permitted": true}, "geometry": {"type": "Polygon", "coordinates": [[[-118.280487313832, 34.0570371333918], [-118.280409805264, 34.0571584395853], [-118.280929797559, 34.0573964883596], [-118.281007305594, 34.0572751818311], [-118.280487313832, 34.0570371333918]]]}}, {"type": "Feature", "properties": {"zone_id": "0205T7TBX392G9HXD1QJ26", "tract_id": "06037209401", "city": "LOS ANGELES, CA", "zone_code": "C2-2", "zone_category": "Commercial", "ev_permitted": true}, "geometry": {"type": "Polygon", "coordinates": [[[-118.280427131576, 34.0571663407056], [-118.280270635868, 34.0574112646101], [-118.280745848264, 34.0576258963068], [-118.280790381169, 34.0576147188515], [-118.280929797559, 34.0573964883596], [-118.280427131576, 34.0571663407056]]]}}, {"type": "Feature", "properties": {"zone_id": "020222B41UPRVO2ICB9JHI", "tract_id": "06037209401", "city": "LOS ANGELES, CA", "zone_code": "C2-2", "zone_category": "Commercial", "ev_permitted": true}, "geometry": {"type": "Polygon", "coordinates": [[[-118.280248893667, 34.057445223808], [-118.280067272063, 34.0577295003245], [-118.280062800072, 34.0577382682159], [-118.280060214005, 34.0577475424883], [-118.280059590862, 34.0577570470052], [-118.280060949196, 34.0577664987746], [-118.280064248563, 34.0577756163753], [-118.280069390726, 34.0577841283356], [-118.280076222582, 34.0577917812168], [-118.280084540713, 34.0577983471586], [-118.280094097454, 34.057803630664], [-118.280309021387, 34.0579006814835], [-118.280521449429, 34.0575683002414], [-118.280248893667, 34.057445223808]]]}}, {"type": "Feature", "properties": {"zone_id": "0204L26ZFJEJOAU5ZFQP6Z", "tract_id": "06037209401", "city": "LOS ANGELES, CA", "zone_code": "C2-2", "zone_category": "Commercial", "ev_permitted": true}, "geometry": {"type": "Polygon", "coordinates": [[[-118.280521449429, 34.0575683002414], [-118.280304390673, 34.0579079740928], [-118.280448786867, 34.0579732031025], [-118.280665812192, 34.0576335290673], [-118.280521449429, 34.0575683002414]]]}}, {"type": "Feature", "properties": {"zone_id": "0207J1A4ONCDW82Y8AQSLZ", "tract_id": "06037209401", "city": "LOS ANGELES, CA", "zone_code": "C2-2", "zone_category": "Commercial", "ev_permitted": true}, "geometry": {"type": "Polygon", "coordinates": [[[-118.279715257736, 34.0572041535679], [-118.279498229757, 34.0575438533667], [-118.279814265389, 34.0576865879633], [-118.2798810321, 34.0576698635837], [-118.280074806109, 34.0573665713708], [-118.279715257736, 34.0572041535679]]]}}, {"type": "Feature", "properties": {"zone_id": "0205C3U45UQXYKXOR0TJWL", "tract_id": "06037209401", "city": "LOS ANGELES, CA", "zone_code": "C2-2", "zone_category": "Commercial", "ev_permitted": true}, "geometry": {"type": "Polygon", "coordinates": [[[-118.279356093566, 34.0569981800377], [-118.279140641212, 34.0573354299378], [-118.279160934426, 34.0573914945802], [-118.279498229757, 34.0575438533667], [-118.279715257736, 34.0572041535679], [-118.280074806109, 34.0573665713708], [-118.280096544297, 34.0573326311055], [-118.279356093566, 34.0569981800377]]]}}, {"type": "Feature", "properties": {"zone_id": "02053M8DRP6ZIJ2MR41RNJ", "tract_id": "06037209401", "city": "LOS ANGELES, CA", "zone_code": "RAS4-1", "zone_category": "Residential", "ev_permitted": false}, "geometry": {"type": "Polygon", "coordinates": [[[-118.283625288623, 34.0567181684984], [-118.283547686788, 34.0568397517215], [-118.284101567288, 34.0570898528795], [-118.284103779078, 34.0569342356598], [-118.283625288623, 34.0567181684984]]]}}, {"type": "Feature", "properties": {"zone_id": "02062ICDS3WYEXHSRTV5DG", "tract_id": "06037209401", "city": "LOS ANGELES, CA", "zone_code": "C2-1", "zone_category": "Commercial", "ev_permitted": true}, "geometry": {"type": "Polygon", "coordinates": [[[-118.283825068208, 34.0570025161289], [-118.28377682558, 34.0570780585937], [-118.283781190224, 34.057080026806], [-118.283730000073, 34.0571528832632], [-118.283648474917, 34.0572761519722], [-118.28364414328, 34.0572741836775], [-118.283605391203, 34.0573348377941], [-118.283750483317, 34.0574003634898], [-118.283964373401, 34.057065417208], [-118.283825068208, 34.0570025161289]]]}}, {"type": "Feature", "properties": {"zone_id": "0200C98LSQTUFA8MINESL1", "tract_id": "06037209401", "city": "LOS ANGELES, CA", "zone_code": "C2-1", "zone_category": "Commercial", "ev_permitted": true}, "geometry": {"type": "Polygon", "coordinates": [[[-118.283674190227, 34.0569343661583], [-118.283460299316, 34.0572693119242], [-118.283605391203, 34.0573348377941], [-118.28364414328, 34.0572741836775], [-118.283648474917, 34.0572761519722], [-118.283730000073, 34.0571528832632], [-118.283781190224, 34.057080026806], [-118.28377682558, 34.0570780585937], [-118.283825068208, 34.0570025161289], [-118.283674190227, 34.0569343661583]]]}}, {"type": "Feature", "properties": {"zone_id": "0206TDCM54A7363J6D5D3F", "tract_id": "06037209401", "city": "LOS ANGELES, CA", "zone_code": "RAS4-1", "zone_category": "Residential", "ev_permitted": false}, "geometry": {"type": "Polygon", "coordinates": [[[-118.28370292334, 34.056596612627], [-118.283625288623, 34.0567181684984], [-118.284103779078, 34.0569342356598], [-118.284106023874, 34.0567786183636], [-118.28370292334, 34.056596612627]]]}}, {"type": "Feature", "properties": {"zone_id": "02076UWU7ZVDYWPWUWOACT", "tract_id": "06037209401", "city": "LOS ANGELES, CA", "zone_code": "C2-1", "zone_category": "Commercial", "ev_permitted": true}, "geometry": {"type": "Polygon", "coordinates": [[[-118.282922726407, 34.0565889077737], [-118.282710409622, 34.0569213479495], [-118.283102168145, 34.0570982450667], [-118.283173630084, 34.0570741985177], [-118.283357997854, 34.0567854593138], [-118.282922726407, 34.0565889077737]]]}}, {"type": "Feature", "properties": {"zone_id": "02077BW1C4DCMYNQOO52R4", "tract_id": "06037209401", "city": "LOS ANGELES, CA", "zone_code": "C2-1", "zone_category": "Commercial", "ev_permitted": true}, "geometry": {"type": "Polygon", "coordinates": [[[-118.28352906606, 34.0568688679283], [-118.283315207749, 34.0572038133586], [-118.283460299316, 34.0572693119242], [-118.283674190227, 34.0569343661583], [-118.28352906606, 34.0568688679283]]]}}, {"type": "Feature", "properties": {"zone_id": "0206F6E34U42OVZYP4FBBQ", "tract_id": "06037209401", "city": "LOS ANGELES, CA", "zone_code": "C2-1", "zone_category": "Commercial", "ev_permitted": true}, "geometry": {"type": "Polygon", "coordinates": [[[-118.283858192005, 34.0563534732583], [-118.283780557832, 34.0564750567065], [-118.284108235647, 34.0566230011461], [-118.284110447412, 34.0564673839298], [-118.283858192005, 34.0563534732583]]]}}, {"type": "Feature", "properties": {"zone_id": "0205EZZ28HG5PFRR68829A", "tract_id": "06037209401", "city": "LOS ANGELES, CA", "zone_code": "C2-1", "zone_category": "Commercial", "ev_permitted": true}, "geometry": {"type": "Polygon", "coordinates": [[[-118.283780557832, 34.0564750567065], [-118.28370292334, 34.056596612627], [-118.284106023874, 34.0567786183636], [-118.284108235647, 34.0566230011461], [-118.283780557832, 34.0564750567065]]]}}, {"type": "Feature", "properties": {"zone_id": "02061SQKG99R655RNF3CBR", "tract_id": "06037209401", "city": "LOS ANGELES, CA", "zone_code": "C2-1", "zone_category": "Commercial", "ev_permitted": true}, "geometry": {"type": "Polygon", "coordinates": [[[-118.284105477162, 34.0559662386641], [-118.28397470859, 34.0561710154028], [-118.284113748024, 34.0562338070143], [-118.284117479423, 34.0559715413008], [-118.284105477162, 34.0559662386641]]]}}, {"type": "Feature", "properties": {"zone_id": "02035UWH9O6R5LJW52Z7UN", "tract_id": "06037209401", "city": "LOS ANGELES, CA", "zone_code": "C2-1", "zone_category": "Commercial", "ev_permitted": true}, "geometry": {"type": "Polygon", "coordinates": [[[-118.28397470859, 34.0561710154028], [-118.283858192005, 34.0563534732583], [-118.284110447412, 34.0564673839298], [-118.284113748024, 34.0562338070143], [-118.28397470859, 34.0561710154028]]]}}, {"type": "Feature", "properties": {"zone_id": "02038N7S8838IQOG139Z54", "tract_id": "06037209401", "city": "LOS ANGELES, CA", "zone_code": "R4-1", "zone_category": "Residential", "ev_permitted": false}, "geometry": {"type": "Polygon", "coordinates": [[[-118.283154023068, 34.0562266632704], [-118.28307691343, 34.056347420672], [-118.283512216996, 34.0565439715767], [-118.28358932628, 34.0564232413746], [-118.283154023068, 34.0562266632704]]]}}, {"type": "Feature", "properties": {"zone_id": "0201NXCP1NHX5NO98YSKB5", "tract_id": "06037209401", "city": "LOS ANGELES, CA", "zone_code": "R4-1", "zone_category": "Residential", "ev_permitted": false}, "geometry": {"type": "Polygon", "coordinates": [[[-118.28307691343, 34.056347420672], [-118.282999803476, 34.0564681505465], [-118.283435107583, 34.0566647292088], [-118.283512216996, 34.0565439715767], [-118.28307691343, 34.056347420672]]]}}, {"type": "Feature", "properties": {"zone_id": "020580BHI7LI550DZ652O1", "tract_id": "06037209401", "city": "LOS ANGELES, CA", "zone_code": "R4-1", "zone_category": "Residential", "ev_permitted": false}, "geometry": {"type": "Polygon", "coordinates": [[[-118.282999803476, 34.0564681505465], [-118.282922726407, 34.0565889077737], [-118.283357997854, 34.0567854593138], [-118.283435107583, 34.0566647292088], [-118.282999803476, 34.0564681505465]]]}}, {"type": "Feature", "properties": {"zone_id": "0204VCL2JKECIPM2FXSM2Z", "tract_id": "06037209401", "city": "LOS ANGELES, CA", "zone_code": "R4-1", "zone_category": "Residential", "ev_permitted": false}, "geometry": {"type": "Polygon", "coordinates": [[[-118.283308241769, 34.0559851758001], [-118.283231165591, 34.0561059332213], [-118.283666435249, 34.0563024836454], [-118.283743543994, 34.0561817258677], [-118.283308241769, 34.0559851758001]]]}}, {"type": "Feature", "properties": {"zone_id": "0202BSCAJUNVQ9U1TGZY2B", "tract_id": "06037209401", "city": "LOS ANGELES, CA", "zone_code": "R4-1", "zone_category": "Residential", "ev_permitted": false}, "geometry": {"type": "Polygon", "coordinates": [[[-118.283231165591, 34.0561059332213], [-118.283154023068, 34.0562266632704], [-118.28358932628, 34.0564232413746], [-118.283666435249, 34.0563024836454], [-118.283231165591, 34.0561059332213]]]}}, {"type": "Feature", "properties": {"zone_id": "0207HGMV49AL33S2QFXBE1", "tract_id": "06037209401", "city": "LOS ANGELES, CA", "zone_code": "C2-1", "zone_category": "Commercial", "ev_permitted": true}, "geometry": {"type": "Polygon", "coordinates": [[[-118.281384518782, 34.055925592921], [-118.281183134265, 34.0562410230694], [-118.282052774721, 34.0566337544988], [-118.28226893595, 34.0562953436199], [-118.281833702164, 34.0560986506894], [-118.281818923404, 34.0561217398246], [-118.281384518782, 34.055925592921]]]}}, {"type": "Feature", "properties": {"zone_id": "02022PXZZICH1ZS38HKB14", "tract_id": "06037209401", "city": "LOS ANGELES, CA", "zone_code": "C2-1", "zone_category": "Commercial", "ev_permitted": true}, "geometry": {"type": "Polygon", "coordinates": [[[-118.282102886254, 34.0569064736915], [-118.281963112523, 34.0571252834292], [-118.282398384598, 34.0573218659115], [-118.282538190533, 34.0571030555907], [-118.282102886254, 34.0569064736915]]]}}, {"type": "Feature", "properties": {"zone_id": "0204VDMIG6YLZ85SX81SQH", "tract_id": "06037209401", "city": "LOS ANGELES, CA", "zone_code": "R4-1", "zone_category": "Residential", "ev_permitted": false}, "geometry": {"type": "Polygon", "coordinates": [[[-118.281431228615, 34.0567287145892], [-118.281276214562, 34.0569713281351], [-118.281711484315, 34.0571679405701], [-118.28186649747, 34.0569253264633], [-118.281431228615, 34.0567287145892]]]}}, {"type": "Feature", "properties": {"zone_id": "0203MFWB1LABOGA7HHNIY3", "tract_id": "06037209401", "city": "LOS ANGELES, CA", "zone_code": "C2-1", "zone_category": "Commercial", "ev_permitted": true}, "geometry": {"type": "Polygon", "coordinates": [[[-118.281493463828, 34.0566312948695], [-118.281431228615, 34.0567287145892], [-118.28186649747, 34.0569253264633], [-118.281928765152, 34.0568278514844], [-118.281493463828, 34.0566312948695]]]}}, {"type": "Feature", "properties": {"zone_id": "0200TYD7QPEQGLORP6AM2K", "tract_id": "06037209401", "city": "LOS ANGELES, CA", "zone_code": "R4-1", "zone_category": "Residential", "ev_permitted": false}, "geometry": {"type": "Polygon", "coordinates": [[[-118.282598065269, 34.0561311854267], [-118.282443844249, 34.0563726719918], [-118.282879146459, 34.0565692251786], [-118.283033333664, 34.0563277656114], [-118.282598065269, 34.0561311854267]]]}}, {"type": "Feature", "properties": {"zone_id": "0205WBBMQY75DL0V521ZS1", "tract_id": "06037209401", "city": "LOS ANGELES, CA", "zone_code": "C2-1", "zone_category": "Commercial", "ev_permitted": true}, "geometry": {"type": "Polygon", "coordinates": [[[-118.282443844249, 34.0563726719918], [-118.282254744714, 34.0566687027096], [-118.282275072775, 34.0567247392713], [-118.28266682955, 34.0569016652776], [-118.282879146459, 34.0565692251786], [-118.282443844249, 34.0563726719918]]]}}, {"type": "Feature", "properties": {"zone_id": "020305ZE02Z5ACTTVJ5Q4U", "tract_id": "06037209401", "city": "LOS ANGELES, CA", "zone_code": "R4-1", "zone_category": "Residential", "ev_permitted": false}, "geometry": {"type": "Polygon", "coordinates": [[[-118.282675208506, 34.0560104557333], [-118.282598065269, 34.0561311854267], [-118.283033333664, 34.0563277656114], [-118.283110509376, 34.056207008083], [-118.282675208506, 34.0560104557333]]]}}, {"type": "Feature", "properties": {"zone_id": "0200UXEP2G38416VO2NEI7", "tract_id": "06037209401", "city": "LOS ANGELES, CA", "zone_code": "R4-1", "zone_category": "Residential", "ev_permitted": false}, "geometry": {"type": "Polygon", "coordinates": [[[-118.281988088493, 34.0558568622577], [-118.281833702164, 34.0560986506894], [-118.28226893595, 34.0562953436199], [-118.282423321384, 34.0560535546295], [-118.281988088493, 34.0558568622577]]]}}, {"type": "Feature", "properties": {"zone_id": "0203XVLWISYDQQ57ORWEPS", "tract_id": "06037209401", "city": "LOS ANGELES, CA", "zone_code": "C2-1", "zone_category": "Commercial", "ev_permitted": true}, "geometry": {"type": "Polygon", "coordinates": [[[-118.28353188332, 34.0556349017775], [-118.283393068115, 34.0558523095058], [-118.283828369848, 34.0560488592664], [-118.283967118593, 34.055831561105], [-118.28353188332, 34.0556349017775]]]}}, {"type": "Feature", "properties": {"zone_id": "0203DTL8RRDLJMNNNK4X67", "tract_id": "06037209401", "city": "LOS ANGELES, CA", "zone_code": "C2-1", "zone_category": "Commercial", "ev_permitted": true}, "geometry": {"type": "Polygon", "coordinates": [[[-118.283393068115, 34.0558523095058], [-118.283308241769, 34.0559851758001], [-118.283743543994, 34.0561817258677], [-118.283828369848, 34.0560488592664], [-118.283393068115, 34.0558523095058]]]}}, {"type": "Feature", "properties": {"zone_id": "0205U30HEZIMTLRQ3MMMN7", "tract_id": "06037209401", "city": "LOS ANGELES, CA", "zone_code": "C2-1", "zone_category": "Commercial", "ev_permitted": true}, "geometry": {"type": "Polygon", "coordinates": [[[-118.283082135098, 34.055431817408], [-118.283037636582, 34.0554429681514], [-118.282829428191, 34.0557689688769], [-118.283264728166, 34.0559655206684], [-118.283488370219, 34.0556153566408], [-118.283082135098, 34.055431817408]]]}}, {"type": "Feature", "properties": {"zone_id": "02033YRX7FFRPNM2BRSQ4B", "tract_id": "06037209401", "city": "LOS ANGELES, CA", "zone_code": "R4-1", "zone_category": "Residential", "ev_permitted": false}, "geometry": {"type": "Polygon", "coordinates": [[[-118.282752318413, 34.0558896985902], [-118.282675208506, 34.0560104557333], [-118.283110509376, 34.056207008083], [-118.283187618929, 34.0560862781392], [-118.282752318413, 34.0558896985902]]]}}, {"type": "Feature", "properties": {"zone_id": "02042D4FBXQ1X8E1UOQN3L", "tract_id": "06037209401", "city": "LOS ANGELES, CA", "zone_code": "R4-1", "zone_category": "Residential", "ev_permitted": false}, "geometry": {"type": "Polygon", "coordinates": [[[-118.282829428191, 34.0557689688769], [-118.282752318413, 34.0558896985902], [-118.283187618929, 34.0560862781392], [-118.283264728166, 34.0559655206684], [-118.282829428191, 34.0557689688769]]]}}, {"type": "Feature", "properties": {"zone_id": "0202W4XLQWTUZ4Y8PODGI3", "tract_id": "06037209401", "city": "LOS ANGELES, CA", "zone_code": "R4-1", "zone_category": "Residential", "ev_permitted": false}, "geometry": {"type": "Polygon", "coordinates": [[[-118.282065297922, 34.0557359954087], [-118.281988088493, 34.0558568622577], [-118.282423321384, 34.0560535546295], [-118.282500530273, 34.0559326600227], [-118.282065297922, 34.0557359954087]]]}}, {"type": "Feature", "properties": {"zone_id": "0203NPNNJF3CAWW3RGDBOO", "tract_id": "06037209401", "city": "LOS ANGELES, CA", "zone_code": "R4-1", "zone_category": "Residential", "ev_permitted": false}, "geometry": {"type": "Polygon", "coordinates": [[[-118.282219715926, 34.0554942066079], [-118.282142507036, 34.0556151010327], [-118.282577738939, 34.0558117653672], [-118.282654947475, 34.0556908981415], [-118.282219715926, 34.0554942066079]]]}}, {"type": "Feature", "properties": {"zone_id": "0200U7TKAHYYCL1GPLXAXX", "tract_id": "06037209401", "city": "LOS ANGELES, CA", "zone_code": "C2-1", "zone_category": "Commercial", "ev_permitted": true}, "geometry": {"type": "Polygon", "coordinates": [[[-118.282009286795, 34.0549468823993], [-118.281800156609, 34.0552744772545], [-118.281945243829, 34.0553400325913], [-118.282154373518, 34.0550124100053], [-118.282009286795, 34.0549468823993]]]}}, {"type": "Feature", "properties": {"zone_id": "0200QQYSBOXNLRJCWWG2XU", "tract_id": "06037209401", "city": "CA", "zone_code": "C2-1", "zone_category": "Commercial", "ev_permitted": true}, "geometry": {"type": "Polygon", "coordinates": [[[-118.280200968163, 34.0564434333499], [-118.280123459729, 34.0565647393562], [-118.280483506834, 34.0567269400987], [-118.280561002573, 34.0566056510633], [-118.280200968163, 34.0564434333499]]]}}, {"type": "Feature", "properties": {"zone_id": "0203EL9JYH8B6JR1LNL03X", "tract_id": "06037209401", "city": "LOS ANGELES, CA", "zone_code": "R4-1", "zone_category": "Residential", "ev_permitted": false}, "geometry": {"type": "Polygon", "coordinates": [[[-118.279221657529, 34.0560585813094], [-118.278787470419, 34.0567381988449], [-118.279183551394, 34.0569171046194], [-118.279617703476, 34.0562375681661], [-118.279221657529, 34.0560585813094]]]}}, {"type": "Feature", "properties": {"zone_id": "0204IFEVXST7J8E7V6SC14", "tract_id": "06037209401", "city": "LOS ANGELES, CA", "zone_code": "C2-2", "zone_category": "Commercial", "ev_permitted": true}, "geometry": {"type": "Polygon", "coordinates": [[[-118.279923513377, 34.0568777184569], [-118.279838877282, 34.0570101971624], [-118.280198722378, 34.0571726688635], [-118.280283516104, 34.0570399370773], [-118.279923513377, 34.0568777184569]]]}}, {"type": "Feature", "properties": {"zone_id": "0200GEAHTXVJSCH7O7AVJE", "tract_id": "06037209401", "city": "LOS ANGELES, CA", "zone_code": "C2-2", "zone_category": "Commercial", "ev_permitted": true}, "geometry": {"type": "Polygon", "coordinates": [[[-118.279838877282, 34.0570101971624], [-118.279736669577, 34.0571700853171], [-118.280096544297, 34.0573326311055], [-118.280198722378, 34.0571726688635], [-118.279838877282, 34.0570101971624]]]}}, {"type": "Feature", "properties": {"zone_id": "0205AHG88ZX3D9TD3FR5TO", "tract_id": "06037209401", "city": "LOS ANGELES, CA", "zone_code": "R4-2", "zone_category": "Residential", "ev_permitted": false}, "geometry": {"type": "Polygon", "coordinates": [[[-118.27945820302, 34.0568383748711], [-118.279356093566, 34.0569981800377], [-118.279736669577, 34.0571700853171], [-118.279838877282, 34.0570101971624], [-118.27945820302, 34.0568383748711]]]}}, {"type": "Feature", "properties": {"zone_id": "020460JGWCWQP660QQ350G", "tract_id": "06037209401", "city": "LOS ANGELES, CA", "zone_code": "R4-2", "zone_category": "Residential", "ev_permitted": false}, "geometry": {"type": "Polygon", "coordinates": [[[-118.279589969258, 34.056632144363], [-118.27945820302, 34.0568383748711], [-118.279838877282, 34.0570101971624], [-118.279970609929, 34.0568039937924], [-118.279589969258, 34.056632144363]]]}}, {"type": "Feature", "properties": {"zone_id": "0205DN7QVF9VQK34SFY3C3", "tract_id": "06037209401", "city": "LOS ANGELES, CA", "zone_code": "C2-1", "zone_category": "Commercial", "ev_permitted": true}, "geometry": {"type": "Polygon", "coordinates": [[[-118.280002965951, 34.0559856849189], [-118.279589969258, 34.056632144363], [-118.279970609929, 34.0568039937924], [-118.280388596824, 34.0561497999304], [-118.280002965951, 34.0559856849189]]]}}, {"type": "Feature", "properties": {"zone_id": "0205P7OQDEEQ7V5AK0C12Z", "tract_id": "06037209401", "city": "LOS ANGELES, CA", "zone_code": "R4-1", "zone_category": "Residential", "ev_permitted": false}, "geometry": {"type": "Polygon", "coordinates": [[[-118.278915621589, 34.056358229477], [-118.278916619807, 34.0563605628629], [-118.278928313273, 34.0563723517057], [-118.278934989838, 34.0563845368368], [-118.278937127678, 34.0563920061109], [-118.27893801152, 34.0563996431536], [-118.278937607802, 34.0564072831701], [-118.278936017161, 34.0564134691826], [-118.278936452357, 34.0564172056566], [-118.278961019126, 34.0563787611417], [-118.278915621589, 34.056358229477]]]}}, {"type": "Feature", "properties": {"zone_id": "0202KT91WCHRKLO8SP1LLO", "tract_id": "06037209401", "city": "LOS ANGELES, CA", "zone_code": "R4-1", "zone_category": "Residential", "ev_permitted": false}, "geometry": {"type": "Polygon", "coordinates": [[[-118.278691095495, 34.0559438741077], [-118.278613519581, 34.0560652617299], [-118.279031320677, 34.0562540926548], [-118.279108896159, 34.0561327047631], [-118.278691095495, 34.0559438741077]]]}}, {"type": "Feature", "properties": {"zone_id": "0201QWLQ5UAQDWJIPL9OA8", "tract_id": "06037209401", "city": "LOS ANGELES, CA", "zone_code": "C2-1", "zone_category": "Commercial", "ev_permitted": true}, "geometry": {"type": "Polygon", "coordinates": [[[-118.280353678165, 34.0554337855525], [-118.280148579487, 34.055754938158], [-118.280175579099, 34.0558122510904], [-118.280963339279, 34.0561475024293], [-118.281030789617, 34.0561283302152], [-118.281223307075, 34.0558267427681], [-118.280353678165, 34.0554337855525]]]}}, {"type": "Feature", "properties": {"zone_id": "0205GQ7G8PB8D0OQMTAEBQ", "tract_id": "06037209401", "city": "LOS ANGELES, CA", "zone_code": "R4-1", "zone_category": "Residential", "ev_permitted": false}, "geometry": {"type": "Polygon", "coordinates": [[[-118.280866444538, 34.0555091498274], [-118.280788904921, 34.0556304563322], [-118.281223307075, 34.0558267427681], [-118.281300780216, 34.055705436137], [-118.280866444538, 34.0555091498274]]]}}, {"type": "Feature", "properties": {"zone_id": "02031K8HSGW4NLV8GYM42Q", "tract_id": "06037209401", "city": "LOS ANGELES, CA", "zone_code": "R4-1", "zone_category": "Residential", "ev_permitted": false}, "geometry": {"type": "Polygon", "coordinates": [[[-118.280431218231, 34.0553124793283], [-118.280353678165, 34.0554337855525], [-118.280788904921, 34.0556304563322], [-118.280866444538, 34.0555091498274], [-118.280431218231, 34.0553124793283]]]}}, {"type": "Feature", "properties": {"zone_id": "0201SKCJT40TZNOMMN72Y9", "tract_id": "06037209401", "city": "LOS ANGELES, CA", "zone_code": "C2-1", "zone_category": "Commercial", "ev_permitted": true}, "geometry": {"type": "Polygon", "coordinates": [[[-118.279005858631, 34.0555389628586], [-118.278939093446, 34.0555556867527], [-118.278776323379, 34.0558104330937], [-118.279640989118, 34.0562011599038], [-118.279826943842, 34.0559100318031], [-118.279005858631, 34.0555389628586]]]}}, {"type": "Feature", "properties": {"zone_id": "0204JH3QD620IFU8RQE16U", "tract_id": "06037209401", "city": "LOS ANGELES, CA", "zone_code": "C2-1", "zone_category": "Commercial", "ev_permitted": true}, "geometry": {"type": "Polygon", "coordinates": [[[-118.279632421041, 34.0554156455891], [-118.279554945749, 34.0555369511483], [-118.279979987366, 34.0557290319923], [-118.280057495233, 34.0556077260828], [-118.279632421041, 34.0554156455891]]]}}, {"type": "Feature", "properties": {"zone_id": "02049EX7NAUF9J26TH6TWU", "tract_id": "06037209401", "city": "LOS ANGELES, CA", "zone_code": "R4-1", "zone_category": "Residential", "ev_permitted": false}, "geometry": {"type": "Polygon", "coordinates": [[[-118.278753070392, 34.0558468136339], [-118.278691095495, 34.0559438741077], [-118.279116137288, 34.0561359854743], [-118.279178144848, 34.0560389247052], [-118.278753070392, 34.0558468136339]]]}}, {"type": "Feature", "properties": {"zone_id": "0206C40MM78SIRCL5TROZF", "tract_id": "06037209401", "city": "LOS ANGELES, CA", "zone_code": "R4-1", "zone_category": "Residential", "ev_permitted": false}, "geometry": {"type": "Polygon", "coordinates": [[[-118.279900578115, 34.0549958914859], [-118.27977193537, 34.0551972788344], [-118.280197008865, 34.0553893863136], [-118.280325650882, 34.0551879985105], [-118.279900578115, 34.0549958914859]]]}}, {"type": "Feature", "properties": {"zone_id": "0206657QN7UBLIT383O47H", "tract_id": "06037209401", "city": "LOS ANGELES, CA", "zone_code": "R4-1", "zone_category": "Residential", "ev_permitted": false}, "geometry": {"type": "Polygon", "coordinates": [[[-118.27977193537, 34.0551972788344], [-118.279709929122, 34.0552943399045], [-118.280135002876, 34.0554864201243], [-118.280197008865, 34.0553893863136], [-118.27977193537, 34.0551972788344]]]}}, {"type": "Feature", "properties": {"zone_id": "0206DMT4JD86F90NTXZ96V", "tract_id": "06037209401", "city": "LOS ANGELES, CA", "zone_code": "R4-1", "zone_category": "Residential", "ev_permitted": false}, "geometry": {"type": "Polygon", "coordinates": [[[-118.279709929122, 34.0552943399045], [-118.279632421041, 34.0554156455891], [-118.280057495233, 34.0556077260828], [-118.280135002876, 34.0554864201243], [-118.279709929122, 34.0552943399045]]]}}, {"type": "Feature", "properties": {"zone_id": "02038ZVP6XUSEW3UMCN240", "tract_id": "06037209401", "city": "LOS ANGELES, CA", "zone_code": "R4-1", "zone_category": "Residential", "ev_permitted": false}, "geometry": {"type": "Polygon", "coordinates": [[[-118.279362271099, 34.054893323317], [-118.279284762885, 34.0550146287762], [-118.27970980132, 34.0552067380449], [-118.279787309003, 34.0550854048333], [-118.279362271099, 34.054893323317]]]}}, {"type": "Feature", "properties": {"zone_id": "0204C9VS4UILJ2KFOPU1IO", "tract_id": "06037209401", "city": "LOS ANGELES, CA", "zone_code": "C2-2", "zone_category": "Commercial", "ev_permitted": true}, "geometry": {"type": "Polygon", "coordinates": [[[-118.27859737366, 34.0566992330349], [-118.27838034236, 34.0570389033383], [-118.278943301709, 34.0572931839613], [-118.279160298368, 34.0569535127184], [-118.27859737366, 34.0566992330349]]]}}, {"type": "Feature", "properties": {"zone_id": "02062IOSVCE0LKG0IJ86PK", "tract_id": "06037209401", "city": "LOS ANGELES, CA", "zone_code": "C2-2", "zone_category": "Commercial", "ev_permitted": true}, "geometry": {"type": "Polygon", "coordinates": [[[-118.278481284307, 34.0566467965954], [-118.278264285687, 34.0569864666133], [-118.27838034236, 34.0570389033383], [-118.27859737366, 34.0566992330349], [-118.278481284307, 34.0566467965954]]]}}, {"type": "Feature", "properties": {"zone_id": "0203L7N6D63AME44ODXQYC", "tract_id": "06037209401", "city": "LOS ANGELES, CA", "zone_code": "C2-2", "zone_category": "Commercial", "ev_permitted": true}, "geometry": {"type": "Polygon", "coordinates": [[[-118.278295594541, 34.0565629199216], [-118.278078529355, 34.0569025897565], [-118.278264285687, 34.0569864666133], [-118.278481284307, 34.0566467965954], [-118.278295594541, 34.0565629199216]]]}}, {"type": "Feature", "properties": {"zone_id": "02001QMAQ65RQ6NZYSTXIT", "tract_id": "06037209401", "city": "LOS ANGELES, CA", "zone_code": "R4-2", "zone_category": "Residential", "ev_permitted": false}, "geometry": {"type": "Polygon", "coordinates": [[[-118.278466216991, 34.0562958456546], [-118.278380856701, 34.0564294791067], [-118.278805966002, 34.0566215089816], [-118.278891260055, 34.0564879578158], [-118.278466216991, 34.0562958456546]]]}}, {"type": "Feature", "properties": {"zone_id": "0203F1J1RPJR6X2222SSW4", "tract_id": "06037209401", "city": "LOS ANGELES, CA", "zone_code": "R4-2", "zone_category": "Residential", "ev_permitted": false}, "geometry": {"type": "Polygon", "coordinates": [[[-118.278380856701, 34.0564294791067], [-118.278318847834, 34.0565265119897], [-118.278743957486, 34.0567185420837], [-118.278805966002, 34.0566215089816], [-118.278380856701, 34.0564294791067]]]}}, {"type": "Feature", "properties": {"zone_id": "02040F073B3B6W7J7GJML0", "tract_id": "06037209401", "city": "LOS ANGELES, CA", "zone_code": "R4-1", "zone_category": "Residential", "ev_permitted": false}, "geometry": {"type": "Polygon", "coordinates": [[[-118.278613519581, 34.0560652617299], [-118.278535976548, 34.0561866767054], [-118.278953777983, 34.0563754804211], [-118.279031320677, 34.0562540926548], [-118.278613519581, 34.0560652617299]]]}}, {"type": "Feature", "properties": {"zone_id": "020762O6GY8TDDUL5DOR2Q", "tract_id": "06037209401", "city": "LOS ANGELES, CA", "zone_code": "R4-2", "zone_category": "Residential", "ev_permitted": false}, "geometry": {"type": "Polygon", "coordinates": [[[-118.278535976548, 34.0561866767054], [-118.278466216991, 34.0562958456546], [-118.278891260055, 34.0564879578158], [-118.278936452357, 34.0564172056566], [-118.278936017161, 34.0564134691826], [-118.278937607802, 34.0564072831701], [-118.27893801152, 34.0563996431536], [-118.278937127678, 34.0563920061109], [-118.278934989838, 34.0563845368368], [-118.278928313273, 34.0563723517057], [-118.278916619807, 34.0563605628629], [-118.278915621589, 34.056358229477], [-118.278535976548, 34.0561866767054]]]}}, {"type": "Feature", "properties": {"zone_id": "0206W35KFAGJL6OI0L5QO5", "tract_id": "06037209401", "city": "LOS ANGELES, CA", "zone_code": "R4-1", "zone_category": "Residential", "ev_permitted": false}, "geometry": {"type": "Polygon", "coordinates": [[[-118.282142507036, 34.0556151010327], [-118.282065297922, 34.0557359954087], [-118.282500530273, 34.0559326600227], [-118.282577738939, 34.0558117653672], [-118.282142507036, 34.0556151010327]]]}}, {"type": "Feature", "properties": {"zone_id": "020690QG4OXNF1A0LORF2E", "tract_id": "06037209401", "city": "LOS ANGELES, CA", "zone_code": "R4-1", "zone_category": "Residential", "ev_permitted": false}, "geometry": {"type": "Polygon", "coordinates": [[[-118.281555129425, 34.0556583219485], [-118.281480711294, 34.0557749502405], [-118.281871536526, 34.0559515787097], [-118.281946020296, 34.0558349500217], [-118.281555129425, 34.0556583219485]]]}}, {"type": "Feature", "properties": {"zone_id": "0205GQ6I8GUOKFYIDYY3EI", "tract_id": "06037209401", "city": "LOS ANGELES, CA", "zone_code": "R4-1", "zone_category": "Residential", "ev_permitted": false}, "geometry": {"type": "Polygon", "coordinates": [[[-118.281480711294, 34.0557749502405], [-118.281406227021, 34.0558916061196], [-118.281797085284, 34.0560681248397], [-118.281871536526, 34.0559515787097], [-118.281480711294, 34.0557749502405]]]}}, {"type": "Feature", "properties": {"zone_id": "0202F6MQ4P5FODIP4KIP5M", "tract_id": "06037209401", "city": "LOS ANGELES, CA", "zone_code": "R4-1", "zone_category": "Residential", "ev_permitted": false}, "geometry": {"type": "Polygon", "coordinates": [[[-118.281704031183, 34.0554250925535], [-118.281629580361, 34.0555416935343], [-118.282020503952, 34.055718348767], [-118.2820949874, 34.055601747467], [-118.281704031183, 34.0554250925535]]]}}, {"type": "Feature", "properties": {"zone_id": "02078ZRA4JT783H0DOEV3D", "tract_id": "06037209401", "city": "LOS ANGELES, CA", "zone_code": "R4-1", "zone_category": "Residential", "ev_permitted": false}, "geometry": {"type": "Polygon", "coordinates": [[[-118.281629580361, 34.0555416935343], [-118.281555129425, 34.0556583219485], [-118.281946020296, 34.0558349500217], [-118.282020503952, 34.055718348767], [-118.281629580361, 34.0555416935343]]]}}, {"type": "Feature", "properties": {"zone_id": "0203E96BWR8RUPEFC3WXED", "tract_id": "06037209401", "city": "LOS ANGELES, CA", "zone_code": "C2-1", "zone_category": "Commercial", "ev_permitted": true}, "geometry": {"type": "Polygon", "coordinates": [[[-118.282617971877, 34.0552219229037], [-118.282393867725, 34.0555728832704], [-118.282654947475, 34.0556908981415], [-118.282864108833, 34.0553634391149], [-118.282850879567, 34.0553271707091], [-118.282617971877, 34.0552219229037]]]}}, {"type": "Feature", "properties": {"zone_id": "02001TYFCYQ0IBK1FK5XAN", "tract_id": "06037209401", "city": "LOS ANGELES, CA", "zone_code": "C2-1", "zone_category": "Commercial", "ev_permitted": true}, "geometry": {"type": "Polygon", "coordinates": [[[-118.282299427639, 34.0550779924714], [-118.282090298262, 34.0554055878311], [-118.282234658515, 34.055470814775], [-118.282219715926, 34.0554942066079], [-118.282393867725, 34.0555728832704], [-118.282617971877, 34.0552219229037], [-118.282299427639, 34.0550779924714]]]}}, {"type": "Feature", "properties": {"zone_id": "020625DP4GSORAXCVXFNPU", "tract_id": "06037209401", "city": "LOS ANGELES, CA", "zone_code": "C2-1", "zone_category": "Commercial", "ev_permitted": true}, "geometry": {"type": "Polygon", "coordinates": [[[-118.281545063298, 34.0547370938442], [-118.281339018859, 34.0550598444461], [-118.281629159045, 34.0551909561293], [-118.281835202688, 34.0548682050304], [-118.281545063298, 34.0547370938442]]]}}, {"type": "Feature", "properties": {"zone_id": "0201KWIGTEVYWFLG9HJEL2", "tract_id": "06037209401", "city": "LOS ANGELES, CA", "zone_code": "R4-1", "zone_category": "Residential", "ev_permitted": false}, "geometry": {"type": "Polygon", "coordinates": [[[-118.281778481704, 34.0553084640488], [-118.281704031183, 34.0554250925535], [-118.2820949874, 34.055601747467], [-118.282169437534, 34.0554851187204], [-118.281778481704, 34.0553084640488]]]}}, {"type": "Feature", "properties": {"zone_id": "0206Q6VXGTQ8CECY8QAZOZ", "tract_id": "06037209401", "city": "LOS ANGELES, CA", "zone_code": "C2-1", "zone_category": "Commercial", "ev_permitted": true}, "geometry": {"type": "Polygon", "coordinates": [[[-118.282154373518, 34.0550124100053], [-118.281945243829, 34.0553400325913], [-118.282090298262, 34.0554055878311], [-118.282299427639, 34.0550779924714], [-118.282154373518, 34.0550124100053]]]}}, {"type": "Feature", "properties": {"zone_id": "0206M3KINJA8UDDJO9D7R9", "tract_id": "06037209401", "city": "LOS ANGELES, CA", "zone_code": "C2-1", "zone_category": "Commercial", "ev_permitted": true}, "geometry": {"type": "Polygon", "coordinates": [[[-118.280913869764, 34.0563695631376], [-118.280564822176, 34.0569158271494], [-118.281084813404, 34.0571538752535], [-118.28143543478, 34.0566050780173], [-118.280913869764, 34.0563695631376]]]}}, {"type": "Feature", "properties": {"zone_id": "0207GRWFM2GRFNQUPGSQ2O", "tract_id": "06037209401", "city": "LOS ANGELES, CA", "zone_code": "R4-1", "zone_category": "Residential", "ev_permitted": false}, "geometry": {"type": "Polygon", "coordinates": [[[-118.281276214562, 34.0569713281351], [-118.281198707199, 34.0570926348345], [-118.281634010415, 34.057289247473], [-118.281711484315, 34.0571679405701], [-118.281276214562, 34.0569713281351]]]}}, {"type": "Feature", "properties": {"zone_id": "0206LX4ARB9URSOE6JG004", "tract_id": "06037209401", "city": "LOS ANGELES, CA", "zone_code": "C2-1", "zone_category": "Commercial", "ev_permitted": true}, "geometry": {"type": "Polygon", "coordinates": [[[-118.280564822176, 34.0569158271494], [-118.280487313832, 34.0570371333918], [-118.281007305594, 34.0572751818311], [-118.281084813404, 34.0571538752535], [-118.280564822176, 34.0569158271494]]]}}, {"type": "Feature", "properties": {"zone_id": "0200XTU4M1NATIZ4VYSUF5", "tract_id": "06037209401", "city": "CA", "zone_code": "C2-1", "zone_category": "Commercial", "ev_permitted": true}, "geometry": {"type": "Polygon", "coordinates": [[[-118.280123459729, 34.0565647393562], [-118.280045951071, 34.0566860453134], [-118.280405984173, 34.0568482669303], [-118.280483506834, 34.0567269400987], [-118.280123459729, 34.0565647393562]]]}}, {"type": "Feature", "properties": {"zone_id": "0201LPMP8RTEEBQ01ORZCF", "tract_id": "06037209401", "city": "CA", "zone_code": "C2-1", "zone_category": "Commercial", "ev_permitted": true}, "geometry": {"type": "Polygon", "coordinates": [[[-118.280045951071, 34.0566860453134], [-118.280000989376, 34.0567564126537], [-118.280361024746, 34.0569186309656], [-118.280405984173, 34.0568482669303], [-118.280045951071, 34.0566860453134]]]}}, {"type": "Feature", "properties": {"zone_id": "0201LYCA4MXWAURZHAXD28", "tract_id": "06037209401", "city": "LOS ANGELES, CA", "zone_code": "C2-1", "zone_category": "Commercial", "ev_permitted": true}, "geometry": {"type": "Polygon", "coordinates": [[[-118.280388596824, 34.0561497999304], [-118.280200968163, 34.0564434333499], [-118.280561002573, 34.0566056510633], [-118.280727789887, 34.05634461579], [-118.280709382589, 34.0562863160995], [-118.280388596824, 34.0561497999304]]]}}, {"type": "Feature", "properties": {"zone_id": "0206U3MTG29JTLL842G9TI", "tract_id": "06037209401", "city": "CA", "zone_code": "C2-1", "zone_category": "Commercial", "ev_permitted": true}, "geometry": {"type": "Polygon", "coordinates": [[[-118.280000989376, 34.0567564126537], [-118.279923513377, 34.0568777184569], [-118.280283516104, 34.0570399370773], [-118.280361024746, 34.0569186309656], [-118.280000989376, 34.0567564126537]]]}}, {"type": "Feature", "properties": {"zone_id": "02062OTU98YOPTYB2ZHQF1", "tract_id": "06037209401", "city": "LOS ANGELES, CA", "zone_code": "R4-1", "zone_category": "Residential", "ev_permitted": false}, "geometry": {"type": "Polygon", "coordinates": [[[-118.280943950916, 34.0553878433502], [-118.280866444538, 34.0555091498274], [-118.281300780216, 34.055705436137], [-118.281378219934, 34.0555840745768], [-118.280943950916, 34.0553878433502]]]}}, {"type": "Feature", "properties": {"zone_id": "0200QUSZ160NBRHF42MJVT", "tract_id": "06037209401", "city": "LOS ANGELES, CA", "zone_code": "R4-1", "zone_category": "Residential", "ev_permitted": false}, "geometry": {"type": "Polygon", "coordinates": [[[-118.280738124112, 34.0548320977548], [-118.280586198555, 34.055069839484], [-118.281021423963, 34.0552665094223], [-118.281173348641, 34.0550287671434], [-118.280738124112, 34.0548320977548]]]}}, {"type": "Feature", "properties": {"zone_id": "0207A9XQGIZ8GVG80RLRO7", "tract_id": "06037209401", "city": "LOS ANGELES, CA", "zone_code": "R4-1", "zone_category": "Residential", "ev_permitted": false}, "geometry": {"type": "Polygon", "coordinates": [[[-118.281098929892, 34.0551452028472], [-118.281021423963, 34.0552665094223], [-118.281455659519, 34.0554627404461], [-118.281533131894, 34.0553414061896], [-118.281098929892, 34.0551452028472]]]}}, {"type": "Feature", "properties": {"zone_id": "0205P0CO9VIISOKVVBDV3O", "tract_id": "06037209401", "city": "LOS ANGELES, CA", "zone_code": "R4-1", "zone_category": "Residential", "ev_permitted": false}, "geometry": {"type": "Polygon", "coordinates": [[[-118.281021423963, 34.0552665094223], [-118.280943950916, 34.0553878433502], [-118.281378219934, 34.0555840745768], [-118.281455659519, 34.0554627404461], [-118.281021423963, 34.0552665094223]]]}}, {"type": "Feature", "properties": {"zone_id": "0200RLR6DKDLQLJ9JUPDLY", "tract_id": "06037209401", "city": "LOS ANGELES, CA", "zone_code": "R4-1", "zone_category": "Residential", "ev_permitted": false}, "geometry": {"type": "Polygon", "coordinates": [[[-118.281173348641, 34.0550287671434], [-118.281098929892, 34.0551452028472], [-118.281533131894, 34.0553414061896], [-118.281607484092, 34.0552249428927], [-118.281173348641, 34.0550287671434]]]}}, {"type": "Feature", "properties": {"zone_id": "0200TMQW054JP3WFJICSFL", "tract_id": "06037209401", "city": "LOS ANGELES, CA", "zone_code": "R4-1", "zone_category": "Residential", "ev_permitted": false}, "geometry": {"type": "Polygon", "coordinates": [[[-118.280586198555, 34.055069839484], [-118.280431218231, 34.0553124793283], [-118.280866444538, 34.0555091498274], [-118.281021423963, 34.0552665094223], [-118.280586198555, 34.055069839484]]]}}, {"type": "Feature", "properties": {"zone_id": "0205UBY4DCZ0U8E9DBIVY9", "tract_id": "06037209401", "city": "LOS ANGELES, CA", "zone_code": "R4-1", "zone_category": "Residential", "ev_permitted": false}, "geometry": {"type": "Polygon", "coordinates": [[[-118.279978085418, 34.0548745856316], [-118.279900578115, 34.0549958914859], [-118.280325650882, 34.0551879985105], [-118.280403157747, 34.0550666923822], [-118.279978085418, 34.0548745856316]]]}}, {"type": "Feature", "properties": {"zone_id": "02047ZBYSMKRTD9TLT1X3B", "tract_id": "06037209401", "city": "LOS ANGELES, CA", "zone_code": "C2-1", "zone_category": "Commercial", "ev_permitted": true}, "geometry": {"type": "Polygon", "coordinates": [[[-118.279284762885, 34.0550146287762], [-118.279086360691, 34.0553251847712], [-118.279511400156, 34.0555172672626], [-118.27970980132, 34.0552067380449], [-118.279284762885, 34.0550146287762]]]}}, {"type": "Feature", "properties": {"zone_id": "0201UJCJJJ5M5A3B9JDWOE", "tract_id": "06037209401", "city": "LOS ANGELES, CA", "zone_code": "C2-1", "zone_category": "Commercial", "ev_permitted": true}, "geometry": {"type": "Polygon", "coordinates": [[[-118.28096594457, 34.054475416265], [-118.280759799316, 34.0547981111481], [-118.281195023719, 34.0549947804583], [-118.281401167872, 34.0546721123078], [-118.28096594457, 34.054475416265]]]}}, {"type": "Feature", "properties": {"zone_id": "0206QEN5SIICF3IB0FTAVB", "tract_id": "06037209401", "city": "LOS ANGELES, CA", "zone_code": "C2-1", "zone_category": "Commercial", "ev_permitted": true}, "geometry": {"type": "Polygon", "coordinates": [[[-118.281401167872, 34.0546721123078], [-118.281195023719, 34.0549947804583], [-118.281339018859, 34.0550598444461], [-118.281545063298, 34.0547370938442], [-118.281401167872, 34.0546721123078]]]}}, {"type": "Feature", "properties": {"zone_id": "0205KV621O8CHJQKYT2EVK", "tract_id": "06037209401", "city": "LOS ANGELES, CA", "zone_code": "R4-1", "zone_category": "Residential", "ev_permitted": false}, "geometry": {"type": "Polygon", "coordinates": [[[-118.280094345952, 34.0546926267582], [-118.279978085418, 34.0548745856316], [-118.280403157747, 34.0550666923822], [-118.280519384609, 34.0548847331746], [-118.280094345952, 34.0546926267582]]]}}, {"type": "Feature", "properties": {"zone_id": "0204LSCS1LJ90TCUSDEB42", "tract_id": "06037209401", "city": "LOS ANGELES, CA", "zone_code": "R4-1", "zone_category": "Residential", "ev_permitted": false}, "geometry": {"type": "Polygon", "coordinates": [[[-118.280249326196, 34.0544500148319], [-118.280094345952, 34.0546926267582], [-118.280519384609, 34.0548847331746], [-118.280674396898, 34.0546420931454], [-118.280249326196, 34.0544500148319]]]}}, {"type": "Feature", "properties": {"zone_id": "0202ARNWKBV212TU6FYWZ5", "tract_id": "06037209401", "city": "LOS ANGELES, CA", "zone_code": "C2-1", "zone_category": "Commercial", "ev_permitted": true}, "geometry": {"type": "Polygon", "coordinates": [[[-118.280677262715, 34.054344959101], [-118.280529311885, 34.054576536284], [-118.280674396898, 34.0546420931454], [-118.280822314429, 34.0544105158608], [-118.280677262715, 34.054344959101]]]}}, {"type": "Feature", "properties": {"zone_id": "0200VMQXGZ0E615EYY6287", "tract_id": "06037209401", "city": "LOS ANGELES, CA", "zone_code": "C2-1", "zone_category": "Commercial", "ev_permitted": true}, "geometry": {"type": "Polygon", "coordinates": [[[-118.280532211228, 34.0542794021673], [-118.280384293126, 34.0545109790952], [-118.280529311885, 34.054576536284], [-118.280677262715, 34.054344959101], [-118.280532211228, 34.0542794021673]]]}}, {"type": "Feature", "properties": {"zone_id": "0200OFQBLWMF8WNR7CBHN8", "tract_id": "06037209401", "city": "LOS ANGELES, CA", "zone_code": "C2-1", "zone_category": "Commercial", "ev_permitted": true}, "geometry": {"type": "Polygon", "coordinates": [[[-118.280397277577, 34.0542184379933], [-118.280249326196, 34.0544500148319], [-118.280384293126, 34.0545109790952], [-118.280532211228, 34.0542794021673], [-118.280397277577, 34.0542184379933]]]}}, {"type": "Feature", "properties": {"zone_id": "0204T6DVUQXPSW9PMVVXZB", "tract_id": "06037209401", "city": "LOS ANGELES, CA", "zone_code": "R4-1", "zone_category": "Residential", "ev_permitted": false}, "geometry": {"type": "Polygon", "coordinates": [[[-118.279703238376, 34.0543595294055], [-118.279362271099, 34.054893323317], [-118.279787309003, 34.0550854048333], [-118.280128307549, 34.0545516645974], [-118.279703238376, 34.0543595294055]]]}}, {"type": "Feature", "properties": {"zone_id": "0206NMQKAIUKBTLL112QNS", "tract_id": "06037209401", "city": "LOS ANGELES, CA", "zone_code": "C2-1", "zone_category": "Commercial", "ev_permitted": true}, "geometry": {"type": "Polygon", "coordinates": [[[-118.279928697771, 34.0540066748978], [-118.279703238376, 34.0543595294055], [-118.280128307549, 34.0545516645974], [-118.280353732656, 34.0541988093695], [-118.279928697771, 34.0540066748978]]]}}]}