{"type": "FeatureCollection", "features": [{"type": "Feature", "properties": {"zone_id": "02032W5OXJW68TTU6EU0S5", "tract_id": "36081085900", "city": "FLUSHING, NY", "zone_code": "R3X", "zone_category": "Residential", "ev_permitted": false}, "geometry": {"type": "Polygon", "coordinates": [[[-73.8198884764465, 40.7570902168536], [-73.8197322259431, 40.7571168652077], [-73.819799011267, 40.7573348043504], [-73.8198177290839, 40.7573562168606], [-73.8198305646804, 40.7573676248845], [-73.8198483848688, 40.7573785924075], [-73.819860105343, 40.7573841195602], [-73.8198853488346, 40.7573904941798], [-73.8199003849003, 40.7573922258452], [-73.8199141347609, 40.7573925642389], [-73.8199381430001, 40.7573903216489], [-73.8199606070016, 40.7573847158362], [-73.8199784499089, 40.7573773714529], [-73.8201154774343, 40.7572903472344], [-73.8198884764465, 40.7570902168536]]]}}, {"type": "Feature", "properties": {"zone_id": "020086Z6P9PM3GHTW2IXYN", "tract_id": "36081085900", "city": "FLUSHING, NY", "zone_code": "R3X", "zone_category": "Residential", "ev_permitted": false}, "geometry": {"type": "Polygon", "coordinates": [[[-73.8202970920645, 40.7568284761613], [-73.8201935627239, 40.7568947929141], [-73.8204205639623, 40.7570949226993], [-73.8205240933879, 40.7570286057445], [-73.8202970920645, 40.7568284761613]]]}}, {"type": "Feature", "properties": {"zone_id": "02006JN3U7J1ZYO2RJHC2D", "tract_id": "36081085900", "city": "FLUSHING, NY", "zone_code": "R3X", "zone_category": "Residential", "ev_permitted": false}, "geometry": {"type": "Polygon", "coordinates": [[[-73.8201935627239, 40.7568947929141], [-73.8200900331772, 40.7569611095731], [-73.8203170334084, 40.7571612388563], [-73.8204205639623, 40.7570949226993], [-73.8201935627239, 40.7568947929141]]]}}, {"type": "Feature", "properties": {"zone_id": "0206VTFLC2U2GOZ02U7D0G", "tract_id": "36081085900", "city": "FLUSHING, NY", "zone_code": "R3X", "zone_category": "Residential", "ev_permitted": false}, "geometry": {"type": "Polygon", "coordinates": [[[-73.8200900331772, 40.7569611095731], [-73.8198884764465, 40.7570902168536], [-73.8201154774343, 40.7572903472344], [-73.8203170334084, 40.7571612388563], [-73.8200900331772, 40.7569611095731]]]}}, {"type": "Feature", "properties": {"zone_id": "0202LHMXS3K77DE1FS40OF", "tract_id": "36081085900", "city": "FLUSHING, NY", "zone_code": "R3X", "zone_category": "Residential", "ev_permitted": false}, "geometry": {"type": "Polygon", "coordinates": [[[-73.8203611793677, 40.7567097696029], [-73.8202970920645, 40.7568284761613], [-73.8205240933879, 40.7570286057445], [-73.8206391005364, 40.7569549378124], [-73.8206522888963, 40.7569431143735], [-73.8206588390408, 40.7569357108458], [-73.8206682633544, 40.7569219815627], [-73.8206751235396, 40.7569071879792], [-73.8206796543479, 40.7568882247206], [-73.8206801268373, 40.7568733523328], [-73.8206784830952, 40.7568609478924], [-73.8206727051245, 40.7568430766751], [-73.8206610486349, 40.7568234045326], [-73.8206416621204, 40.756804921193], [-73.820611430714, 40.7567903459999], [-73.8203611793677, 40.7567097696029]]]}}, {"type": "Feature", "properties": {"zone_id": "0202DZRVUQN44OVQMGLUW4", "tract_id": "36081085900", "city": "FLUSHING, NY", "zone_code": "R3X", "zone_category": "Residential", "ev_permitted": false}, "geometry": {"type": "Polygon", "coordinates": [[[-73.8201103646363, 40.7566402628319], [-73.8200864780109, 40.7566413722631], [-73.8200723404827, 40.7566436689477], [-73.8200563987553, 40.7566478515522], [-73.8200401973712, 40.7566540862076], [-73.8200106002368, 40.756672614684], [-73.8202335532536, 40.7568691767567], [-73.8202970920645, 40.7568284761613], [-73.8203611793677, 40.7567097696029], [-73.8201448571136, 40.7566447265605], [-73.8201237876594, 40.7566411276826], [-73.8201103646363, 40.7566402628319]]]}}, {"type": "Feature", "properties": {"zone_id": "0202XVKILO6TACS5TV5V5O", "tract_id": "36081085900", "city": "FLUSHING, NY", "zone_code": "R3X", "zone_category": "Residential", "ev_permitted": false}, "geometry": {"type": "Polygon", "coordinates": [[[-73.8200106002368, 40.756672614684], [-73.8199532375217, 40.7567099555389], [-73.8201757968612, 40.756906172103], [-73.8202335532536, 40.7568691767567], [-73.8200106002368, 40.756672614684]]]}}, {"type": "Feature", "properties": {"zone_id": "0204RI7LB234HFI1IK5KRG", "tract_id": "36081085900", "city": "FLUSHING, NY", "zone_code": "R3X", "zone_category": "Residential", "ev_permitted": false}, "geometry": {"type": "Polygon", "coordinates": [[[-73.8199532375217, 40.7567099555389], [-73.8198448721756, 40.7567804986274], [-73.8200666902671, 40.7569760614735], [-73.8201757968612, 40.756906172103], [-73.8199532375217, 40.7567099555389]]]}}, {"type": "Feature", "properties": {"zone_id": "0200PMW8G1A317BRZERZRV", "tract_id": "36081085900", "city": "FLUSHING, NY", "zone_code": "R7B", "zone_category": "Residential", "ev_permitted": false}, "geometry": {"type": "Polygon", "coordinates": [[[-73.8228825243428, 40.755149354469], [-73.8217830685808, 40.7558642761149], [-73.822004855391, 40.7560597347228], [-73.8231043119969, 40.7553448116829], [-73.8228825243428, 40.755149354469]]]}}, {"type": "Feature", "properties": {"zone_id": "0200HOQIDQVV8AYWAK9MH6", "tract_id": "36081085900", "city": "FLUSHING, NY", "zone_code": "R7B", "zone_category": "Residential", "ev_permitted": false}, "geometry": {"type": "Polygon", "coordinates": [[[-73.8213531301231, 40.7558013288126], [-73.82100990403, 40.7560248260239], [-73.821455118236, 40.7564171929823], [-73.8217326483152, 40.7562367337935], [-73.8215108617144, 40.7560412746667], [-73.8215767674657, 40.7559984205784], [-73.8213531301231, 40.7558013288126]]]}}, {"type": "Feature", "properties": {"zone_id": "0204GU7JZY95HMBASDOZVL", "tract_id": "36081085900", "city": "FLUSHING, NY", "zone_code": "R7B", "zone_category": "Residential", "ev_permitted": false}, "geometry": {"type": "Polygon", "coordinates": [[[-73.8220087055915, 40.7553744329785], [-73.8213531301231, 40.7558013288126], [-73.8215767674657, 40.7559984205784], [-73.8222327444461, 40.7555718775387], [-73.8220087055915, 40.7553744329785]]]}}, {"type": "Feature", "properties": {"zone_id": "020547J2N5QHIRH7YKBCIB", "tract_id": "36081085900", "city": "FLUSHING, NY", "zone_code": "R7B", "zone_category": "Residential", "ev_permitted": false}, "geometry": {"type": "Polygon", "coordinates": [[[-73.8217830685808, 40.7558642761149], [-73.8215108617144, 40.7560412746667], [-73.8217326483152, 40.7562367337935], [-73.822004855391, 40.7560597347228], [-73.8217830685808, 40.7558642761149]]]}}, {"type": "Feature", "properties": {"zone_id": "020351VG630G5PYGYG7E19", "tract_id": "36081085900", "city": "FLUSHING, NY", "zone_code": "R3X", "zone_category": "Residential", "ev_permitted": false}, "geometry": {"type": "Polygon", "coordinates": [[[-73.8210781215562, 40.7563326855984], [-73.8208711045388, 40.7564653338344], [-73.8210918550544, 40.7566648377642], [-73.8212992484157, 40.7565328481078], [-73.8210781215562, 40.7563326855984]]]}}, {"type": "Feature", "properties": {"zone_id": "0207ENADD0W81QX60IU91X", "tract_id": "36081085900", "city": "FLUSHING, NY", "zone_code": "R3X", "zone_category": "Residential", "ev_permitted": false}, "geometry": {"type": "Polygon", "coordinates": [[[-73.8208711045388, 40.7564653338344], [-73.8207330918124, 40.7565537655479], [-73.8206710501232, 40.7566659871718], [-73.8208862942997, 40.7567297683887], [-73.8209055524447, 40.7567344948848], [-73.8209257929541, 40.7567367755533], [-73.8209399684571, 40.7567368481797], [-73.8209534503514, 40.7567357610463], [-73.8209683962242, 40.7567331872581], [-73.8209879348196, 40.7567274277353], [-73.8210018255179, 40.7567213846947], [-73.8210918550544, 40.7566648377642], [-73.8208711045388, 40.7564653338344]]]}}, {"type": "Feature", "properties": {"zone_id": "0200OR71XE721CX5EQ4USG", "tract_id": "36081085900", "city": "FLUSHING, NY", "zone_code": "R3X", "zone_category": "Residential", "ev_permitted": false}, "geometry": {"type": "Polygon", "coordinates": [[[-73.82064364275, 40.7562701020656], [-73.8205677363603, 40.7563187394161], [-73.820788296578, 40.7565183926008], [-73.8208642037258, 40.7564697556345], [-73.82064364275, 40.7562701020656]]]}}, {"type": "Feature", "properties": {"zone_id": "0206MWCFK2F2LBW0ZOQVNA", "tract_id": "36081085900", "city": "FLUSHING, NY", "zone_code": "R3X", "zone_category": "Residential", "ev_permitted": false}, "geometry": {"type": "Polygon", "coordinates": [[[-73.8205677363603, 40.7563187394161], [-73.8204849283383, 40.7563717986683], [-73.8207173685403, 40.7565822049788], [-73.8207330918124, 40.7565537655479], [-73.820788296578, 40.7565183926008], [-73.8205677363603, 40.7563187394161]]]}}, {"type": "Feature", "properties": {"zone_id": "020742A5IZVN903D4HYWBK", "tract_id": "36081085900", "city": "FLUSHING, NY", "zone_code": "R3X", "zone_category": "Residential", "ev_permitted": false}, "geometry": {"type": "Polygon", "coordinates": [[[-73.8208575601607, 40.7561330329618], [-73.8207195490288, 40.7562214646648], [-73.8209401103035, 40.7564211175631], [-73.8210781215562, 40.7563326855984], [-73.8208575601607, 40.7561330329618]]]}}, {"type": "Feature", "properties": {"zone_id": "0200ZLKNL6GWQKK3E4DJFP", "tract_id": "36081085900", "city": "FLUSHING, NY", "zone_code": "R3X", "zone_category": "Residential", "ev_permitted": false}, "geometry": {"type": "Polygon", "coordinates": [[[-73.8207195490288, 40.7562214646648], [-73.82064364275, 40.7562701020656], [-73.8208642037258, 40.7564697556345], [-73.8209401103035, 40.7564211175631], [-73.8207195490288, 40.7562214646648]]]}}, {"type": "Feature", "properties": {"zone_id": "0200TKAUEUSM9DYCSG3L3Z", "tract_id": "36081085900", "city": "FLUSHING, NY", "zone_code": "R3X", "zone_category": "Residential", "ev_permitted": false}, "geometry": {"type": "Polygon", "coordinates": [[[-73.8204849283383, 40.7563717986683], [-73.8204263079425, 40.7564093598391], [-73.8205825648363, 40.7565508048943], [-73.8205433759261, 40.7566281547831], [-73.8206710501232, 40.7566659871718], [-73.8207173685403, 40.7565822049788], [-73.8204849283383, 40.7563717986683]]]}}, {"type": "Feature", "properties": {"zone_id": "0204OBSDLCPO3Z3JJTDWYD", "tract_id": "36081085900", "city": "FLUSHING, NY", "zone_code": "R3X", "zone_category": "Residential", "ev_permitted": false}, "geometry": {"type": "Polygon", "coordinates": [[[-73.8204263079425, 40.7564093598391], [-73.820399899586, 40.7564262807906], [-73.8203847404649, 40.7564383913256], [-73.8203748096987, 40.7564490702687], [-73.8203668331655, 40.7564604717784], [-73.8203618841935, 40.7564700040245], [-73.8203572353997, 40.7564833542699], [-73.8203548646828, 40.7564989811606], [-73.8203556858035, 40.7565148709036], [-73.8203595976888, 40.7565301274546], [-73.8203663560721, 40.7565445276904], [-73.8203771564061, 40.7565595364048], [-73.8203914465863, 40.7565732668065], [-73.8204104400714, 40.7565859892007], [-73.8204256642862, 40.7565932741834], [-73.8205433759261, 40.7566281547831], [-73.8205825648363, 40.7565508048943], [-73.8204263079425, 40.7564093598391]]]}}, {"type": "Feature", "properties": {"zone_id": "0203O6VH1TEYHUQ99HDCQP", "tract_id": "36081085900", "city": "FLUSHING, NY", "zone_code": "R3X", "zone_category": "Residential", "ev_permitted": false}, "geometry": {"type": "Polygon", "coordinates": [[[-73.8203032355873, 40.755955195766], [-73.8201483464067, 40.756055018622], [-73.8203706301624, 40.7562548305953], [-73.8205249332106, 40.7561544802404], [-73.8203032355873, 40.755955195766]]]}}, {"type": "Feature", "properties": {"zone_id": "0205QN2GFWMFX6YH2KMSZ8", "tract_id": "36081085900", "city": "FLUSHING, NY", "zone_code": "R3X", "zone_category": "Residential", "ev_permitted": false}, "geometry": {"type": "Polygon", "coordinates": [[[-73.8201483464067, 40.756055018622], [-73.8199934595359, 40.75615484057], [-73.8202163285012, 40.7563551793397], [-73.8203706301624, 40.7562548305953], [-73.8201483464067, 40.756055018622]]]}}, {"type": "Feature", "properties": {"zone_id": "0201NN1HDE1RA3FSIEFH85", "tract_id": "36081085900", "city": "FLUSHING, NY", "zone_code": "R3X", "zone_category": "Residential", "ev_permitted": false}, "geometry": {"type": "Polygon", "coordinates": [[[-73.8199934595359, 40.75615484057], [-73.8199029277596, 40.7562131867694], [-73.8201264274427, 40.7564136447438], [-73.8202163285012, 40.7563551793397], [-73.8199934595359, 40.75615484057]]]}}, {"type": "Feature", "properties": {"zone_id": "0201ZET00DRNPHC3ETPQ42", "tract_id": "36081085900", "city": "FLUSHING, NY", "zone_code": "R3X", "zone_category": "Residential", "ev_permitted": false}, "geometry": {"type": "Polygon", "coordinates": [[[-73.8199029277596, 40.7562131867694], [-73.8198168778111, 40.7562686435587], [-73.8200406222819, 40.7564694470851], [-73.8201264274427, 40.7564136447438], [-73.8199029277596, 40.7562131867694]]]}}, {"type": "Feature", "properties": {"zone_id": "02000QEDOFYWVLTTAFRDZ4", "tract_id": "36081085900", "city": "FLUSHING, NY", "zone_code": "R7B", "zone_category": "Residential", "ev_permitted": false}, "geometry": {"type": "Polygon", "coordinates": [[[-73.8209407664294, 40.7555404211625], [-73.8206654494194, 40.7557201195238], [-73.8208922370559, 40.7559186558662], [-73.8211675533544, 40.7557389555613], [-73.8209407664294, 40.7555404211625]]]}}, {"type": "Feature", "properties": {"zone_id": "0204LWNUFVMWZK5IAPWFEE", "tract_id": "36081085900", "city": "", "zone_code": "R7B", "zone_category": "Residential", "ev_permitted": false}, "geometry": {"type": "Polygon", "coordinates": [[[-73.8205251717404, 40.755469220685], [-73.8204414267477, 40.7555240343891], [-73.8206654494194, 40.7557201195238], [-73.8207492958784, 40.7556653943509], [-73.8205251717404, 40.755469220685]]]}}, {"type": "Feature", "properties": {"zone_id": "0203A9W90O3UAMCUYUC71C", "tract_id": "36081085900", "city": "FLUSHING, NY", "zone_code": "R3X", "zone_category": "Residential", "ev_permitted": false}, "geometry": {"type": "Polygon", "coordinates": [[[-73.8205041283817, 40.7558257234372], [-73.8203032355873, 40.755955195766], [-73.8205249332106, 40.7561544802404], [-73.8207250666119, 40.75602432477], [-73.8205041283817, 40.7558257234372]]]}}, {"type": "Feature", "properties": {"zone_id": "020275K040TW20ZSYP40I5", "tract_id": "36081085900", "city": "FLUSHING, NY", "zone_code": "R3X", "zone_category": "Residential", "ev_permitted": false}, "geometry": {"type": "Polygon", "coordinates": [[[-73.8201472334992, 40.7557129293721], [-73.8199902804702, 40.7558140831407], [-73.8202125997585, 40.7560136087997], [-73.82036955292, 40.7559124547311], [-73.8201472334992, 40.7557129293721]]]}}, {"type": "Feature", "properties": {"zone_id": "0206NP9IYTKSLHCOX6669A", "tract_id": "36081085900", "city": "FLUSHING, NY", "zone_code": "R3X", "zone_category": "Residential", "ev_permitted": false}, "geometry": {"type": "Polygon", "coordinates": [[[-73.8199902804702, 40.7558140831407], [-73.819801076656, 40.7559360207109], [-73.8200233967086, 40.756135546733], [-73.8202125997585, 40.7560136087997], [-73.8199902804702, 40.7558140831407]]]}}, {"type": "Feature", "properties": {"zone_id": "02029ZD0CJ670WG0A2VMKT", "tract_id": "36081085900", "city": "FLUSHING, NY", "zone_code": "R3X", "zone_category": "Residential", "ev_permitted": false}, "geometry": {"type": "Polygon", "coordinates": [[[-73.8202820143419, 40.7556260644487], [-73.8201472334992, 40.7557129293721], [-73.82036955292, 40.7559124547311], [-73.8205041283817, 40.7558257234372], [-73.8202820143419, 40.7556260644487]]]}}, {"type": "Feature", "properties": {"zone_id": "0206NB86GPUVENWT3N7MCQ", "tract_id": "36081085900", "city": "FLUSHING, NY", "zone_code": "R3X", "zone_category": "Residential", "ev_permitted": false}, "geometry": {"type": "Polygon", "coordinates": [[[-73.819174652077, 40.7572156820785], [-73.8191023491467, 40.757263306319], [-73.8193163237345, 40.7574491827049], [-73.8194526075336, 40.7573594156407], [-73.819617630288, 40.7573298520288], [-73.8196137615658, 40.7573164456153], [-73.8194450574956, 40.7573466681646], [-73.8193769702639, 40.7573915166654], [-73.819174652077, 40.7572156820785]]]}}, {"type": "Feature", "properties": {"zone_id": "02028KGXMQSHP3JH2VFM9H", "tract_id": "36081085900", "city": "FLUSHING, NY", "zone_code": "R3X", "zone_category": "Residential", "ev_permitted": false}, "geometry": {"type": "Polygon", "coordinates": [[[-73.8191023491467, 40.757263306319], [-73.8190301405316, 40.7573108695309], [-73.8192538576668, 40.7575051377001], [-73.8194540882483, 40.7573732497477], [-73.8196214990155, 40.7573432570367], [-73.819617630288, 40.7573298520288], [-73.8194526075336, 40.7573594156407], [-73.8193163237345, 40.7574491827049], [-73.8191023491467, 40.757263306319]]]}}, {"type": "Feature", "properties": {"zone_id": "0203NC1IEOVQ9EZLR2TPP5", "tract_id": "36081085900", "city": "FLUSHING, NY", "zone_code": "R3X", "zone_category": "Residential", "ev_permitted": false}, "geometry": {"type": "Polygon", "coordinates": [[[-73.8196214990155, 40.7573432570367], [-73.8194540882483, 40.7573732497477], [-73.8193176729719, 40.7574631037367], [-73.8195486049314, 40.7576620293079], [-73.8196356427358, 40.757605256091], [-73.8196512751391, 40.7575898193201], [-73.8196602071476, 40.7575788521935], [-73.8196681997948, 40.7575646647279], [-73.8196730471304, 40.7575497345493], [-73.8196742379993, 40.7575423114461], [-73.8196740766928, 40.7575254376093], [-73.8196214990155, 40.7573432570367]]]}}, {"type": "Feature", "properties": {"zone_id": "0204B9OLPOLDHIHRAA57SU", "tract_id": "36081085900", "city": "FLUSHING, NY", "zone_code": "R3X", "zone_category": "Residential", "ev_permitted": false}, "geometry": {"type": "Polygon", "coordinates": [[[-73.8193176729719, 40.7574631037367], [-73.8191812517718, 40.7575529617701], [-73.8194116065248, 40.7577513906323], [-73.8195486049314, 40.7576620293079], [-73.8193176729719, 40.7574631037367]]]}}, {"type": "Feature", "properties": {"zone_id": "0201ZGK7WC39OBJ1H0NM22", "tract_id": "36081085900", "city": "FLUSHING, NY", "zone_code": "R3X", "zone_category": "Residential", "ev_permitted": false}, "geometry": {"type": "Polygon", "coordinates": [[[-73.819320574898, 40.7571195656383], [-73.8192482721763, 40.757167189971], [-73.8194531385273, 40.7573452207107], [-73.8196137615658, 40.7573164456153], [-73.8195679045814, 40.7571786932431], [-73.8194666451682, 40.7572453909254], [-73.819320574898, 40.7571195656383]]]}}, {"type": "Feature", "properties": {"zone_id": "020673I995NI36VHWZG1SH", "tract_id": "36081085900", "city": "FLUSHING, NY", "zone_code": "R3X", "zone_category": "Residential", "ev_permitted": false}, "geometry": {"type": "Polygon", "coordinates": [[[-73.8192482721763, 40.757167189971], [-73.819174652077, 40.7572156820785], [-73.8193769702639, 40.7573915166654], [-73.8194450574956, 40.7573466681646], [-73.8194531385273, 40.7573452207107], [-73.8192482721763, 40.757167189971]]]}}, {"type": "Feature", "properties": {"zone_id": "0200WPPG9WLWDFSS8XSTUR", "tract_id": "36081085900", "city": "FLUSHING, NY", "zone_code": "R3X", "zone_category": "Residential", "ev_permitted": false}, "geometry": {"type": "Polygon", "coordinates": [[[-73.8194321934675, 40.7570758028581], [-73.8194092607843, 40.7570777519131], [-73.8193925075729, 40.7570812628195], [-73.8193747091966, 40.7570871843034], [-73.8193510359508, 40.7570995012829], [-73.819320574898, 40.7571195656383], [-73.8194666451682, 40.7572453909254], [-73.8195679045814, 40.7571786932431], [-73.8195607969994, 40.7571540659567], [-73.8195535082467, 40.7571359428742], [-73.8195418778176, 40.757119374292], [-73.8195306639183, 40.7571083439944], [-73.8195176378322, 40.7570987288167], [-73.8195058729551, 40.7570922255698], [-73.819484885746, 40.7570834706133], [-73.8194696250046, 40.7570794310184], [-73.8194521311072, 40.7570766597291], [-73.8194321934675, 40.7570758028581]]]}}, {"type": "Feature", "properties": {"zone_id": "0205KY2TQ1LG7ZHH8CJZLJ", "tract_id": "36081085900", "city": "FLUSHING, NY", "zone_code": "R3X", "zone_category": "Residential", "ev_permitted": false}, "geometry": {"type": "Polygon", "coordinates": [[[-73.8190301405316, 40.7573108695309], [-73.8187237609961, 40.7575126726845], [-73.8192528456166, 40.7578549457331], [-73.8194116065248, 40.7577513906323], [-73.8191812517718, 40.7575529617701], [-73.8192538576668, 40.7575051377001], [-73.8190301405316, 40.7573108695309]]]}}, {"type": "Feature", "properties": {"zone_id": "02022RY2JMB5VH6G71BN4Q", "tract_id": "36081085900", "city": "FLUSHING, NY", "zone_code": "R3X", "zone_category": "Residential", "ev_permitted": false}, "geometry": {"type": "Polygon", "coordinates": [[[-73.8187100509699, 40.7571170950356], [-73.8184094771499, 40.7573124575173], [-73.8185712631172, 40.7574173119391], [-73.818848161756, 40.7572383230481], [-73.8187100509699, 40.7571170950356]]]}}, {"type": "Feature", "properties": {"zone_id": "0202793HQQFNCC8MBSAU1H", "tract_id": "36081085900", "city": "FLUSHING, NY", "zone_code": "R3X", "zone_category": "Residential", "ev_permitted": false}, "geometry": {"type": "Polygon", "coordinates": [[[-73.8198448721756, 40.7567804986274], [-73.8197207951556, 40.7568612708881], [-73.8197035410827, 40.7568774506498], [-73.8196956620325, 40.7568872558302], [-73.819688533557, 40.7568993563574], [-73.8196843521477, 40.7569099817032], [-73.8196812598271, 40.756922104006], [-73.819680779584, 40.7569380514419], [-73.8196852074969, 40.7569585696097], [-73.8197322259431, 40.7571168652077], [-73.8198884764465, 40.7570902168536], [-73.8200666902671, 40.7569760614735], [-73.8198448721756, 40.7567804986274]]]}}, {"type": "Feature", "properties": {"zone_id": "02061D4FC12HT6K64O80SS", "tract_id": "36081085900", "city": "FLUSHING, NY", "zone_code": "R3X", "zone_category": "Residential", "ev_permitted": false}, "geometry": {"type": "Polygon", "coordinates": [[[-73.8194412983443, 40.7565098282556], [-73.8192353303555, 40.7566437034417], [-73.8194612701903, 40.7568419981269], [-73.8195689960003, 40.7567723615266], [-73.8195893877973, 40.7567573242993], [-73.8195994665164, 40.7567442812176], [-73.8196074321275, 40.756730832204], [-73.81961168919, 40.7567205920348], [-73.8196146478956, 40.7567015097144], [-73.8196144217085, 40.7566874449934], [-73.819608389609, 40.7566662792715], [-73.8196018155693, 40.7566538122872], [-73.8194412983443, 40.7565098282556]]]}}, {"type": "Feature", "properties": {"zone_id": "02045VS4HG6TBP9AGS7E0F", "tract_id": "36081085900", "city": "FLUSHING, NY", "zone_code": "R3X", "zone_category": "Residential", "ev_permitted": false}, "geometry": {"type": "Polygon", "coordinates": [[[-73.8192353303555, 40.7566437034417], [-73.8190807198225, 40.7567441991418], [-73.8193062972503, 40.7569421766611], [-73.8194612701903, 40.7568419981269], [-73.8192353303555, 40.7566437034417]]]}}, {"type": "Feature", "properties": {"zone_id": "0201M1RP5JCDOAU7LE8YYS", "tract_id": "36081085900", "city": "FLUSHING, NY", "zone_code": "R3X", "zone_category": "Residential", "ev_permitted": false}, "geometry": {"type": "Polygon", "coordinates": [[[-73.8190807198225, 40.7567441991418], [-73.8189366671026, 40.7568378294138], [-73.8191619097939, 40.7570355115716], [-73.8193062972503, 40.7569421766611], [-73.8190807198225, 40.7567441991418]]]}}, {"type": "Feature", "properties": {"zone_id": "020628SZH4ZIRKIANEAPDA", "tract_id": "36081085900", "city": "FLUSHING, NY", "zone_code": "R3X", "zone_category": "Residential", "ev_permitted": false}, "geometry": {"type": "Polygon", "coordinates": [[[-73.8189366671026, 40.7568378294138], [-73.8187583175358, 40.7569537521252], [-73.8189831434138, 40.757151069295], [-73.8191619097939, 40.7570355115716], [-73.8189366671026, 40.7568378294138]]]}}, {"type": "Feature", "properties": {"zone_id": "0200YRRTJ4CF8NO5S12IUJ", "tract_id": "36081085900", "city": "FLUSHING, NY", "zone_code": "R3X", "zone_category": "Residential", "ev_permitted": false}, "geometry": {"type": "Polygon", "coordinates": [[[-73.8187583175358, 40.7569537521252], [-73.818623651255, 40.757041281555], [-73.818848161756, 40.7572383230481], [-73.8189831434138, 40.757151069295], [-73.8187583175358, 40.7569537521252]]]}}, {"type": "Feature", "properties": {"zone_id": "0207N72YQXC5CD0L5JOTBQ", "tract_id": "36081085900", "city": "FLUSHING, NY", "zone_code": "R3X", "zone_category": "Residential", "ev_permitted": false}, "geometry": {"type": "Polygon", "coordinates": [[[-73.8185555683765, 40.7567804966134], [-73.8184240022895, 40.7568660105583], [-73.818623651255, 40.757041281555], [-73.8187552174319, 40.7569557673843], [-73.8185555683765, 40.7567804966134]]]}}, {"type": "Feature", "properties": {"zone_id": "0204FDR8QYKDLXUC21RSXC", "tract_id": "36081085900", "city": "FLUSHING, NY", "zone_code": "R3X", "zone_category": "Residential", "ev_permitted": false}, "geometry": {"type": "Polygon", "coordinates": [[[-73.8188353285976, 40.7565581414942], [-73.8186638379463, 40.7566696059561], [-73.8188900092577, 40.7568681564894], [-73.8190614981936, 40.7567566916912], [-73.8188353285976, 40.7565581414942]]]}}, {"type": "Feature", "properties": {"zone_id": "0205LCQR1VIXVG6PQVRHRI", "tract_id": "36081085900", "city": "FLUSHING, NY", "zone_code": "R3X", "zone_category": "Residential", "ev_permitted": false}, "geometry": {"type": "Polygon", "coordinates": [[[-73.8186638379463, 40.7566696059561], [-73.8186427926722, 40.7566832851621], [-73.8186693139121, 40.7567065644566], [-73.8185555683765, 40.7567804966134], [-73.8187552174319, 40.7569557673843], [-73.8188900092577, 40.7568681564894], [-73.8186638379463, 40.7566696059561]]]}}, {"type": "Feature", "properties": {"zone_id": "0206F06F4SERUZEMZYOKVE", "tract_id": "36081085900", "city": "FLUSHING, NY", "zone_code": "R3X", "zone_category": "Residential", "ev_permitted": false}, "geometry": {"type": "Polygon", "coordinates": [[[-73.8185682413439, 40.7569926196759], [-73.8182425778186, 40.7572042895033], [-73.8184094771499, 40.7573124575173], [-73.8187100509699, 40.7571170950356], [-73.8185682413439, 40.7569926196759]]]}}, {"type": "Feature", "properties": {"zone_id": "0201OYKF9HQ2CS41YHJ35D", "tract_id": "36081085900", "city": "FLUSHING, NY", "zone_code": "R3X", "zone_category": "Residential", "ev_permitted": false}, "geometry": {"type": "Polygon", "coordinates": [[[-73.8183869601866, 40.7568900862985], [-73.8180728186289, 40.7570942673375], [-73.8181612273104, 40.7571515651961], [-73.8184620788383, 40.7569560225099], [-73.8183869601866, 40.7568900862985]]]}}, {"type": "Feature", "properties": {"zone_id": "0206UECGS62V3MCNXUA6CJ", "tract_id": "36081085900", "city": "FLUSHING, NY", "zone_code": "R3X", "zone_category": "Residential", "ev_permitted": false}, "geometry": {"type": "Polygon", "coordinates": [[[-73.8184240022895, 40.7568660105583], [-73.8183869601866, 40.7568900862985], [-73.8184620788383, 40.7569560225099], [-73.8181612273104, 40.7571515651961], [-73.8182425778186, 40.7572042895033], [-73.8185682413439, 40.7569926196759], [-73.8184240022895, 40.7568660105583]]]}}, {"type": "Feature", "properties": {"zone_id": "0204J5WZ4WLFHE52AGKFZ8", "tract_id": "36081085900", "city": "FLUSHING, NY", "zone_code": "R3X", "zone_category": "Residential", "ev_permitted": false}, "geometry": {"type": "Polygon", "coordinates": [[[-73.819594558855, 40.7560691178461], [-73.8194736757659, 40.7561470223904], [-73.8194585476038, 40.7561602859117], [-73.8194464390231, 40.7561800818406], [-73.8194428211477, 40.7561924604867], [-73.8194395200537, 40.756208307238], [-73.8194391589571, 40.7562211870641], [-73.819442048186, 40.7562372908531], [-73.8194501485219, 40.756253898885], [-73.8194573264056, 40.7562631065001], [-73.8194702455983, 40.7562752770794], [-73.8197624611193, 40.7565375331319], [-73.8197709347386, 40.7565439489931], [-73.8197858978344, 40.7565514043975], [-73.8198017421657, 40.7565569211446], [-73.8198315056179, 40.7565629957869], [-73.8198556438275, 40.7565638366731], [-73.8198777210652, 40.7565610549494], [-73.8198941165711, 40.7565578659323], [-73.8199165083491, 40.7565501618836], [-73.8199217552064, 40.7565473636767], [-73.8200406222819, 40.7564694470851], [-73.819594558855, 40.7560691178461]]]}}, {"type": "Feature", "properties": {"zone_id": "0202K1QLTX3MY887QV3HN0", "tract_id": "36081085900", "city": "FLUSHING, NY", "zone_code": "R3X", "zone_category": "Residential", "ev_permitted": false}, "geometry": {"type": "Polygon", "coordinates": [[[-73.8192100129892, 40.7563504354236], [-73.819185074265, 40.7563510982351], [-73.8191672868872, 40.7563540544952], [-73.8191484902229, 40.7563594811127], [-73.8191316144803, 40.7563670025508], [-73.8191188969339, 40.7563738278596], [-73.8190091596971, 40.7564451549866], [-73.8192353303555, 40.7566437034417], [-73.8194412983443, 40.7565098282556], [-73.8192962337265, 40.7563797351584], [-73.8192856856569, 40.7563723189385], [-73.8192718521086, 40.7563651006307], [-73.8192441736155, 40.7563545264938], [-73.8192280185373, 40.7563518682903], [-73.8192100129892, 40.7563504354236]]]}}, {"type": "Feature", "properties": {"zone_id": "020629SUV6O9J34SG6N6TL", "tract_id": "36081085900", "city": "FLUSHING, NY", "zone_code": "R3X", "zone_category": "Residential", "ev_permitted": false}, "geometry": {"type": "Polygon", "coordinates": [[[-73.8196716586727, 40.7560194279642], [-73.819594558855, 40.7560691178461], [-73.8198168778111, 40.7562686435587], [-73.8198939786161, 40.7562189542336], [-73.8196716586727, 40.7560194279642]]]}}, {"type": "Feature", "properties": {"zone_id": "0202G1K6NCDH9AMCMCW6C6", "tract_id": "36081085900", "city": "FLUSHING, NY", "zone_code": "R3X", "zone_category": "Residential", "ev_permitted": false}, "geometry": {"type": "Polygon", "coordinates": [[[-73.8197239770352, 40.7559857092746], [-73.8196716586727, 40.7560194279642], [-73.8198939786161, 40.7562189542336], [-73.8199462960968, 40.7561852361453], [-73.8197239770352, 40.7559857092746]]]}}, {"type": "Feature", "properties": {"zone_id": "0203W640I89X8VWMAWPRSP", "tract_id": "36081085900", "city": "FLUSHING, NY", "zone_code": "R3X", "zone_category": "Residential", "ev_permitted": false}, "geometry": {"type": "Polygon", "coordinates": [[[-73.8190091596971, 40.7564451549866], [-73.8188353285976, 40.7565581414942], [-73.8190614981936, 40.7567566916912], [-73.8192353303555, 40.7566437034417], [-73.8190091596971, 40.7564451549866]]]}}, {"type": "Feature", "properties": {"zone_id": "020732P2XD829SSWL2HYVW", "tract_id": "36081085900", "city": "FLUSHING, NY", "zone_code": "R3X", "zone_category": "Residential", "ev_permitted": false}, "geometry": {"type": "Polygon", "coordinates": [[[-73.819801076656, 40.7559360207109], [-73.8197239770352, 40.7559857092746], [-73.8199462960968, 40.7561852361453], [-73.8200233967086, 40.756135546733], [-73.819801076656, 40.7559360207109]]]}}, {"type": "Feature", "properties": {"zone_id": "0206TWQA173J9Y5W2V0XO4", "tract_id": "36081085900", "city": "FLUSHING, NY", "zone_code": "R7B", "zone_category": "Residential", "ev_permitted": false}, "geometry": {"type": "Polygon", "coordinates": [[[-73.8231598388599, 40.7549690264013], [-73.8228825243428, 40.755149354469], [-73.8231043119969, 40.7553448116829], [-73.8233816276514, 40.7551644830878], [-73.8231598388599, 40.7549690264013]]]}}, {"type": "Feature", "properties": {"zone_id": "0204YG4W1FM7TWXAB5S2KR", "tract_id": "36081085900", "city": "", "zone_code": "R7-1", "zone_category": "Residential", "ev_permitted": false}, "geometry": {"type": "Polygon", "coordinates": [[[-73.8233490249882, 40.7545016187705], [-73.8229352314197, 40.7547710845707], [-73.8233816276514, 40.7551644830878], [-73.8238065956806, 40.754888136219], [-73.8233490249882, 40.7545016187705]]]}}, {"type": "Feature", "properties": {"zone_id": "0200DEU5AG8QHKU27OKL3I", "tract_id": "36081085900", "city": "FLUSHING, NY", "zone_code": "R7-1", "zone_category": "Residential", "ev_permitted": false}, "geometry": {"type": "Polygon", "coordinates": [[[-73.8229352314197, 40.7547710845707], [-73.8226580867401, 40.7549515613272], [-73.8228825243428, 40.755149354469], [-73.8231598388599, 40.7549690264013], [-73.8229352314197, 40.7547710845707]]]}}, {"type": "Feature", "properties": {"zone_id": "0202JVEKRW91ERWUSJCUZ8", "tract_id": "36081085900", "city": "FLUSHING, NY", "zone_code": "R7-1", "zone_category": "Residential", "ev_permitted": false}, "geometry": {"type": "Polygon", "coordinates": [[[-73.8229889179688, 40.7541957694949], [-73.8225807092499, 40.7544622247055], [-73.8228125814767, 40.7546652059206], [-73.8232252297408, 40.7543958526299], [-73.8229889179688, 40.7541957694949]]]}}, {"type": "Feature", "properties": {"zone_id": "0200X0AB6ZXSYFYTTFYO65", "tract_id": "36081085900", "city": "FLUSHING, NY", "zone_code": "R7-1", "zone_category": "Residential", "ev_permitted": false}, "geometry": {"type": "Polygon", "coordinates": [[[-73.8227628728566, 40.7540045263266], [-73.8225617050272, 40.7541362057203], [-73.8227156246715, 40.7542709163945], [-73.8227019302148, 40.7542798548894], [-73.8227694914039, 40.7543389981561], [-73.8229889179688, 40.7541957694949], [-73.8227628728566, 40.7540045263266]]]}}, {"type": "Feature", "properties": {"zone_id": "020713H4U6R31UUO5CGE97", "tract_id": "36081085900", "city": "FLUSHING, NY", "zone_code": "R7B", "zone_category": "Residential", "ev_permitted": false}, "geometry": {"type": "Polygon", "coordinates": [[[-73.8217631532043, 40.7550036381779], [-73.8209407664294, 40.7555404211625], [-73.8211675533544, 40.7557389555613], [-73.8219899407528, 40.7552021709731], [-73.8217631532043, 40.7550036381779]]]}}, {"type": "Feature", "properties": {"zone_id": "0204UD1U7PVXBG0BBQRRXS", "tract_id": "36081085900", "city": "FLUSHING, NY", "zone_code": "R7B", "zone_category": "Residential", "ev_permitted": false}, "geometry": {"type": "Polygon", "coordinates": [[[-73.8226580867401, 40.7549515613272], [-73.8220087055915, 40.7553744329785], [-73.8222327444461, 40.7555718775387], [-73.8228825243428, 40.755149354469], [-73.8226580867401, 40.7549515613272]]]}}, {"type": "Feature", "properties": {"zone_id": "0202GCFT2TYHS6E4LNZSXE", "tract_id": "36081085900", "city": "FLUSHING, NY", "zone_code": "R7B", "zone_category": "Residential", "ev_permitted": false}, "geometry": {"type": "Polygon", "coordinates": [[[-73.8213448436481, 40.7549327139968], [-73.8211808023921, 40.7550400867456], [-73.8214057124413, 40.7552369454558], [-73.8215699501715, 40.7551297455473], [-73.8213448436481, 40.7549327139968]]]}}, {"type": "Feature", "properties": {"zone_id": "0204IQO8WCUD0GX0OD1AU2", "tract_id": "36081085900", "city": "FLUSHING, NY", "zone_code": "R7B", "zone_category": "Residential", "ev_permitted": false}, "geometry": {"type": "Polygon", "coordinates": [[[-73.8223135110259, 40.7546444037403], [-73.8220407478201, 40.7548224447468], [-73.8222675365031, 40.7550209770021], [-73.8225402989898, 40.7548429361649], [-73.8223135110259, 40.7546444037403]]]}}, {"type": "Feature", "properties": {"zone_id": "02059PSDQSJ2SKEVA49YQE", "tract_id": "36081085900", "city": "FLUSHING, NY", "zone_code": "R7B", "zone_category": "Residential", "ev_permitted": false}, "geometry": {"type": "Polygon", "coordinates": [[[-73.8220407478201, 40.7548224447468], [-73.8217631532043, 40.7550036381779], [-73.8219899407528, 40.7552021709731], [-73.8222675365031, 40.7550209770021], [-73.8220407478201, 40.7548224447468]]]}}, {"type": "Feature", "properties": {"zone_id": "02051FRWFEZ9V48THI0XRI", "tract_id": "36081085900", "city": "", "zone_code": "R7-1", "zone_category": "Residential", "ev_permitted": false}, "geometry": {"type": "Polygon", "coordinates": [[[-73.8225857933026, 40.7544666754323], [-73.8223135110259, 40.7546444037403], [-73.8225402989898, 40.7548429361649], [-73.8228125814767, 40.7546652059206], [-73.8225857933026, 40.7544666754323]]]}}, {"type": "Feature", "properties": {"zone_id": "0203QPGZ9DJDB09051LAU1", "tract_id": "36081085900", "city": "FLUSHING, NY", "zone_code": "R7B", "zone_category": "Residential", "ev_permitted": false}, "geometry": {"type": "Polygon", "coordinates": [[[-73.8220835332338, 40.7544492014447], [-73.8220018568073, 40.7545026640582], [-73.8222277501657, 40.7547003827485], [-73.8223095252934, 40.7546470058527], [-73.8220835332338, 40.7544492014447]]]}}, {"type": "Feature", "properties": {"zone_id": "02012YDKMOPEDVL3JNMD5W", "tract_id": "36081085900", "city": "", "zone_code": "R7B", "zone_category": "Residential", "ev_permitted": false}, "geometry": {"type": "Polygon", "coordinates": [[[-73.8220018568073, 40.7545026640582], [-73.821836245951, 40.7546110654127], [-73.8220619419091, 40.7548086112665], [-73.8222277501657, 40.7547003827485], [-73.8220018568073, 40.7545026640582]]]}}, {"type": "Feature", "properties": {"zone_id": "0202ZGS0VZ4PCS7VW52PGY", "tract_id": "36081085900", "city": "FLUSHING, NY", "zone_code": "R7B", "zone_category": "Residential", "ev_permitted": false}, "geometry": {"type": "Polygon", "coordinates": [[[-73.8216755080175, 40.7547162769853], [-73.8215900811855, 40.7547721942025], [-73.8218154810415, 40.7549694822014], [-73.821901012112, 40.7549136542171], [-73.8216755080175, 40.7547162769853]]]}}, {"type": "Feature", "properties": {"zone_id": "0203KZ7FJDMFUO9E4J0J36", "tract_id": "36081085900", "city": "", "zone_code": "R7B", "zone_category": "Residential", "ev_permitted": false}, "geometry": {"type": "Polygon", "coordinates": [[[-73.8215900811855, 40.7547721942025], [-73.8213448436481, 40.7549327139968], [-73.8215699501715, 40.7551297455473], [-73.8218154810415, 40.7549694822014], [-73.8215900811855, 40.7547721942025]]]}}, {"type": "Feature", "properties": {"zone_id": "0202F156Q1Q5HQU9CITYY7", "tract_id": "36081085900", "city": "", "zone_code": "R7B", "zone_category": "Residential", "ev_permitted": false}, "geometry": {"type": "Polygon", "coordinates": [[[-73.821836245951, 40.7546110654127], [-73.8216755080175, 40.7547162769853], [-73.821901012112, 40.7549136542171], [-73.8220619419091, 40.7548086112665], [-73.821836245951, 40.7546110654127]]]}}, {"type": "Feature", "properties": {"zone_id": "020611F0OKBWD8WBO4O8QC", "tract_id": "36081085900", "city": "FLUSHING, NY", "zone_code": "R7B", "zone_category": "Residential", "ev_permitted": false}, "geometry": {"type": "Polygon", "coordinates": [[[-73.8212276522835, 40.7544322520717], [-73.8211721885997, 40.7544673964717], [-73.8214150167326, 40.7546829532812], [-73.8214704804715, 40.7546478073601], [-73.8212276522835, 40.7544322520717]]]}}, {"type": "Feature", "properties": {"zone_id": "0202VAURUA7V5T11Y9D9DE", "tract_id": "36081085900", "city": "FLUSHING, NY", "zone_code": "R7B", "zone_category": "Residential", "ev_permitted": false}, "geometry": {"type": "Polygon", "coordinates": [[[-73.8211721885997, 40.7544673964717], [-73.8211167257814, 40.7545025408463], [-73.821359553863, 40.7547180977716], [-73.8214150167326, 40.7546829532812], [-73.8211721885997, 40.7544673964717]]]}}, {"type": "Feature", "properties": {"zone_id": "02010U15AW8UIOKE5WHCF3", "tract_id": "36081085900", "city": "FLUSHING, NY", "zone_code": "R7B", "zone_category": "Residential", "ev_permitted": false}, "geometry": {"type": "Polygon", "coordinates": [[[-73.8214066059469, 40.7544897708621], [-73.8213399955205, 40.7545319787288], [-73.8214704804715, 40.7546478073601], [-73.8215370900033, 40.7546056008226], [-73.8214066059469, 40.7544897708621]]]}}, {"type": "Feature", "properties": {"zone_id": "0200TN5PTZC8IHHMU5E666", "tract_id": "36081085900", "city": "FLUSHING, NY", "zone_code": "R7B", "zone_category": "Residential", "ev_permitted": false}, "geometry": {"type": "Polygon", "coordinates": [[[-73.8208541808214, 40.7552538732807], [-73.8207699809507, 40.7553089851462], [-73.8209943984213, 40.7555054145628], [-73.8210786997588, 40.7554503912271], [-73.8208541808214, 40.7552538732807]]]}}, {"type": "Feature", "properties": {"zone_id": "0202IJH37GH8ODDFLCHUFD", "tract_id": "36081085900", "city": "FLUSHING, NY", "zone_code": "R7B", "zone_category": "Residential", "ev_permitted": false}, "geometry": {"type": "Polygon", "coordinates": [[[-73.8209143377834, 40.75521449791], [-73.8208541808214, 40.7552538732807], [-73.8210786997588, 40.7554503912271], [-73.8211389286692, 40.755411079091], [-73.8209143377834, 40.75521449791]]]}}, {"type": "Feature", "properties": {"zone_id": "0205S178I0JOQDWE3HJOUP", "tract_id": "36081085900", "city": "FLUSHING, NY", "zone_code": "R7B", "zone_category": "Residential", "ev_permitted": false}, "geometry": {"type": "Polygon", "coordinates": [[[-73.8206056508906, 40.7554165442329], [-73.8205251717404, 40.755469220685], [-73.8207492958784, 40.7556653943509], [-73.8208298718837, 40.755612802213], [-73.8206056508906, 40.7554165442329]]]}}, {"type": "Feature", "properties": {"zone_id": "020222WP27WDF56EEQ627N", "tract_id": "36081085900", "city": "FLUSHING, NY", "zone_code": "R7B", "zone_category": "Residential", "ev_permitted": false}, "geometry": {"type": "Polygon", "coordinates": [[[-73.8207699809507, 40.7553089851462], [-73.8206056508906, 40.7554165442329], [-73.8208298718837, 40.755612802213], [-73.8209943984213, 40.7555054145628], [-73.8207699809507, 40.7553089851462]]]}}, {"type": "Feature", "properties": {"zone_id": "0204D4KLNOO9EVFY8VBQC9", "tract_id": "36081085900", "city": "FLUSHING, NY", "zone_code": "R7B", "zone_category": "Residential", "ev_permitted": false}, "geometry": {"type": "Polygon", "coordinates": [[[-73.821018564692, 40.7551462780863], [-73.8209636072145, 40.7551822494937], [-73.8211882571363, 40.755378881965], [-73.8212432801072, 40.7553429674682], [-73.821018564692, 40.7551462780863]]]}}, {"type": "Feature", "properties": {"zone_id": "02041CT871IS077MZUDHJ4", "tract_id": "36081085900", "city": "FLUSHING, NY", "zone_code": "R7B", "zone_category": "Residential", "ev_permitted": false}, "geometry": {"type": "Polygon", "coordinates": [[[-73.8210981479633, 40.7550941873177], [-73.821018564692, 40.7551462780863], [-73.8212432801072, 40.7553429674682], [-73.8213229593112, 40.7552909603106], [-73.8210981479633, 40.7550941873177]]]}}, {"type": "Feature", "properties": {"zone_id": "0203KBWJNGIU0E2NUSY2D3", "tract_id": "36081085900", "city": "FLUSHING, NY", "zone_code": "R7B", "zone_category": "Residential", "ev_permitted": false}, "geometry": {"type": "Polygon", "coordinates": [[[-73.8211808023921, 40.7550400867456], [-73.8210981479633, 40.7550941873177], [-73.8213229593112, 40.7552909603106], [-73.8214057124413, 40.7552369454558], [-73.8211808023921, 40.7550400867456]]]}}, {"type": "Feature", "properties": {"zone_id": "0206UDEIZSNK7F7PNNR0YJ", "tract_id": "36081085900", "city": "FLUSHING, NY", "zone_code": "R7B", "zone_category": "Residential", "ev_permitted": false}, "geometry": {"type": "Polygon", "coordinates": [[[-73.8209636072145, 40.7551822494937], [-73.8209143377834, 40.75521449791], [-73.8211389286692, 40.755411079091], [-73.8211882571363, 40.755378881965], [-73.8209636072145, 40.7551822494937]]]}}, {"type": "Feature", "properties": {"zone_id": "0206JURM2UREXA31L40R87", "tract_id": "36081085900", "city": "FLUSHING, NY", "zone_code": "R4-1", "zone_category": "Residential", "ev_permitted": false}, "geometry": {"type": "Polygon", "coordinates": [[[-73.8204598073131, 40.7549337305202], [-73.8203743540642, 40.754987996255], [-73.8206151730902, 40.7552020359727], [-73.8207006264156, 40.7551477707636], [-73.8204598073131, 40.7549337305202]]]}}, {"type": "Feature", "properties": {"zone_id": "0200YT1W0NBHNS93PC2CYJ", "tract_id": "36081085900", "city": "FLUSHING, NY", "zone_code": "R4-1", "zone_category": "Residential", "ev_permitted": false}, "geometry": {"type": "Polygon", "coordinates": [[[-73.8203743540642, 40.754987996255], [-73.8202995414006, 40.7550355042159], [-73.820540360358, 40.7552495440885], [-73.8206151730902, 40.7552020359727], [-73.8203743540642, 40.754987996255]]]}}, {"type": "Feature", "properties": {"zone_id": "02074LGRTK2HSMV9DZHPBO", "tract_id": "36081085900", "city": "FLUSHING, NY", "zone_code": "R4-1", "zone_category": "Residential", "ev_permitted": false}, "geometry": {"type": "Polygon", "coordinates": [[[-73.8202995414006, 40.7550355042159], [-73.8202153966945, 40.7550889385233], [-73.8204562155747, 40.7553029785702], [-73.820540360358, 40.7552495440885], [-73.8202995414006, 40.7550355042159]]]}}, {"type": "Feature", "properties": {"zone_id": "02008YPYRWSEWETXRI1WWQ", "tract_id": "36081085900", "city": "FLUSHING, NY", "zone_code": "R4-1", "zone_category": "Residential", "ev_permitted": false}, "geometry": {"type": "Polygon", "coordinates": [[[-73.8202153966945, 40.7550889385233], [-73.8201385752408, 40.7551377220786], [-73.8203793940505, 40.7553517622846], [-73.8204562155747, 40.7553029785702], [-73.8202153966945, 40.7550889385233]]]}}, {"type": "Feature", "properties": {"zone_id": "02072CYAPB9PZLUDVRSRCZ", "tract_id": "36081085900", "city": "FLUSHING, NY", "zone_code": "R4-1", "zone_category": "Residential", "ev_permitted": false}, "geometry": {"type": "Polygon", "coordinates": [[[-73.8201385752408, 40.7551377220786], [-73.820062586719, 40.7551859770808], [-73.8203032527346, 40.7554001141725], [-73.8203793940505, 40.7553517622846], [-73.8201385752408, 40.7551377220786]]]}}, {"type": "Feature", "properties": {"zone_id": "02027Q92ENYNQXON1C15NF", "tract_id": "36081085900", "city": "FLUSHING, NY", "zone_code": "R4-1", "zone_category": "Residential", "ev_permitted": false}, "geometry": {"type": "Polygon", "coordinates": [[[-73.8202659866554, 40.7549444157052], [-73.8199888738939, 40.7551203897993], [-73.820062586719, 40.7551859770808], [-73.8203397458388, 40.7550099733717], [-73.8202659866554, 40.7549444157052]]]}}, {"type": "Feature", "properties": {"zone_id": "0201FFJU4T96TFUFHEX3J6", "tract_id": "36081085900", "city": "", "zone_code": "R7B", "zone_category": "Residential", "ev_permitted": false}, "geometry": {"type": "Polygon", "coordinates": [[[-73.8210584241357, 40.7545394838005], [-73.8207337149334, 40.7547452345879], [-73.8209757994099, 40.754961263343], [-73.8213012530892, 40.7547550401464], [-73.8210584241357, 40.7545394838005]]]}}, {"type": "Feature", "properties": {"zone_id": "0204RVE50QKW70ME3QSZMT", "tract_id": "36081085900", "city": "FLUSHING, NY", "zone_code": "R4-1", "zone_category": "Residential", "ev_permitted": false}, "geometry": {"type": "Polygon", "coordinates": [[[-73.820606512746, 40.7548405676171], [-73.8205380962945, 40.7548840145031], [-73.820778915469, 40.7550980545844], [-73.820847331985, 40.7550546068541], [-73.820606512746, 40.7548405676171]]]}}, {"type": "Feature", "properties": {"zone_id": "02060ZO6WL4RC3VBD85IMH", "tract_id": "36081085900", "city": "FLUSHING, NY", "zone_code": "R4-1", "zone_category": "Residential", "ev_permitted": false}, "geometry": {"type": "Polygon", "coordinates": [[[-73.8205380962945, 40.7548840145031], [-73.8204598073131, 40.7549337305202], [-73.8207006264156, 40.7551477707636], [-73.820778915469, 40.7550980545844], [-73.8205380962945, 40.7548840145031]]]}}, {"type": "Feature", "properties": {"zone_id": "0201OWTJVYUN4I27Z2ON36", "tract_id": "36081085900", "city": "FLUSHING, NY", "zone_code": "R4-1", "zone_category": "Residential", "ev_permitted": false}, "geometry": {"type": "Polygon", "coordinates": [[[-73.8204677754786, 40.7547172566124], [-73.8202010077885, 40.7548866620473], [-73.8202659866554, 40.7549444157052], [-73.8205327534875, 40.7547750101199], [-73.8204677754786, 40.7547172566124]]]}}, {"type": "Feature", "properties": {"zone_id": "02031RYN89BZT0VIGIRL7I", "tract_id": "36081085900", "city": "FLUSHING, NY", "zone_code": "R4-1", "zone_category": "Residential", "ev_permitted": false}, "geometry": {"type": "Polygon", "coordinates": [[[-73.8205327534875, 40.7547750101199], [-73.8202659866554, 40.7549444157052], [-73.8203397458388, 40.7550099733717], [-73.820606512746, 40.7548405676171], [-73.8205327534875, 40.7547750101199]]]}}, {"type": "Feature", "properties": {"zone_id": "0206IPGIQU1XV8SWG9HDZ5", "tract_id": "36081085900", "city": "FLUSHING, NY", "zone_code": "R4-1", "zone_category": "Residential", "ev_permitted": false}, "geometry": {"type": "Polygon", "coordinates": [[[-73.8202010077885, 40.7548866620473], [-73.8199239358225, 40.7550626100519], [-73.8199888738939, 40.7551203897993], [-73.8202659866554, 40.7549444157052], [-73.8202010077885, 40.7548866620473]]]}}, {"type": "Feature", "properties": {"zone_id": "0202I5ZWJPW142E6CDEUM5", "tract_id": "36081085900", "city": "FLUSHING, NY", "zone_code": "R4-1", "zone_category": "Residential", "ev_permitted": false}, "geometry": {"type": "Polygon", "coordinates": [[[-73.8201344444582, 40.7548274998625], [-73.8198574142133, 40.7550034217754], [-73.8199239358225, 40.7550626100519], [-73.8202010077885, 40.7548866620473], [-73.8201344444582, 40.7548274998625]]]}}, {"type": "Feature", "properties": {"zone_id": "0204O86SUPZJZUTBZC7VV1", "tract_id": "36081085900", "city": "FLUSHING, NY", "zone_code": "R4-1", "zone_category": "Residential", "ev_permitted": false}, "geometry": {"type": "Polygon", "coordinates": [[[-73.8200693496714, 40.7547696433601], [-73.8197923611498, 40.7549455377795], [-73.8198574142133, 40.7550034217754], [-73.8201344444582, 40.7548274998625], [-73.8200693496714, 40.7547696433601]]]}}, {"type": "Feature", "properties": {"zone_id": "0204BMYHVUH1PDFSWWCPH3", "tract_id": "36081085900", "city": "FLUSHING, NY", "zone_code": "R4-1", "zone_category": "Residential", "ev_permitted": false}, "geometry": {"type": "Polygon", "coordinates": [[[-73.8200036438499, 40.7547112420094], [-73.8197266961245, 40.7548871103377], [-73.8197923611498, 40.7549455377795], [-73.8200693496714, 40.7547696433601], [-73.8200036438499, 40.7547112420094]]]}}, {"type": "Feature", "properties": {"zone_id": "0207MZJ1M7B916R0HWGH16", "tract_id": "36081085900", "city": "FLUSHING, NY", "zone_code": "R4-1", "zone_category": "Residential", "ev_permitted": false}, "geometry": {"type": "Polygon", "coordinates": [[[-73.8204012111567, 40.7546580945789], [-73.8201344444582, 40.7548274998625], [-73.8202010077885, 40.7548866620473], [-73.8204677754786, 40.7547172566124], [-73.8204012111567, 40.7546580945789]]]}}, {"type": "Feature", "properties": {"zone_id": "020253TM5GVM54KXFRH6BB", "tract_id": "36081085900", "city": "FLUSHING, NY", "zone_code": "R7B", "zone_category": "Residential", "ev_permitted": false}, "geometry": {"type": "Polygon", "coordinates": [[[-73.8211167257814, 40.7545025408463], [-73.8210584241357, 40.7545394838005], [-73.8213012530892, 40.7547550401464], [-73.821359553863, 40.7547180977716], [-73.8211167257814, 40.7545025408463]]]}}, {"type": "Feature", "properties": {"zone_id": "0205A2WDMBRHHKFEOQB2Q2", "tract_id": "36081085900", "city": "", "zone_code": "R7B", "zone_category": "Residential", "ev_permitted": false}, "geometry": {"type": "Polygon", "coordinates": [[[-73.820945732598, 40.7545027972558], [-73.8206628821448, 40.7546820257891], [-73.8207337149334, 40.7547452345879], [-73.821016783898, 40.7545658692037], [-73.820945732598, 40.7545027972558]]]}}, {"type": "Feature", "properties": {"zone_id": "0205KD10C7B8AKIHFWRMAK", "tract_id": "36081085900", "city": "FLUSHING, NY", "zone_code": "R4-1", "zone_category": "Residential", "ev_permitted": false}, "geometry": {"type": "Polygon", "coordinates": [[[-73.8203361172296, 40.7546002375245], [-73.8200693496714, 40.7547696433601], [-73.8201344444582, 40.7548274998625], [-73.8204012111567, 40.7546580945789], [-73.8203361172296, 40.7546002375245]]]}}, {"type": "Feature", "properties": {"zone_id": "0206CMXSC7SVLXRRJ8LXK8", "tract_id": "36081085900", "city": "FLUSHING, NY", "zone_code": "R4-1", "zone_category": "Residential", "ev_permitted": false}, "geometry": {"type": "Polygon", "coordinates": [[[-73.8202704104155, 40.7545418370258], [-73.8200036438499, 40.7547112420094], [-73.8200693496714, 40.7547696433601], [-73.8203361172296, 40.7546002375245], [-73.8202704104155, 40.7545418370258]]]}}, {"type": "Feature", "properties": {"zone_id": "0200HNE686QYAZ9QMIKY9L", "tract_id": "36081085900", "city": "FLUSHING, NY", "zone_code": "R7-1", "zone_category": "Residential", "ev_permitted": false}, "geometry": {"type": "Polygon", "coordinates": [[[-73.8223594710119, 40.7542685822604], [-73.8222502049767, 40.7543401043352], [-73.822476396282, 40.754538082985], [-73.8225857933026, 40.7544666754323], [-73.8223594710119, 40.7542685822604]]]}}, {"type": "Feature", "properties": {"zone_id": "0201MQ9T21KW0W0ZJPHM3L", "tract_id": "36081085900", "city": "FLUSHING, NY", "zone_code": "R7B", "zone_category": "Residential", "ev_permitted": false}, "geometry": {"type": "Polygon", "coordinates": [[[-73.8222502049767, 40.7543401043352], [-73.8221682150328, 40.7543937717589], [-73.8223943085586, 40.7545916653961], [-73.822476396282, 40.754538082985], [-73.8222502049767, 40.7543401043352]]]}}, {"type": "Feature", "properties": {"zone_id": "02023EGQOL9BOMQ89N8CIX", "tract_id": "36081085900", "city": "FLUSHING, NY", "zone_code": "R7-1", "zone_category": "Residential", "ev_permitted": false}, "geometry": {"type": "Polygon", "coordinates": [[[-73.8225617050272, 40.7541362057203], [-73.8223594710119, 40.7542685822604], [-73.8225807092499, 40.7544622247055], [-73.8227694914039, 40.7543389981561], [-73.8227019302148, 40.7542798548894], [-73.8227156246715, 40.7542709163945], [-73.8225617050272, 40.7541362057203]]]}}, {"type": "Feature", "properties": {"zone_id": "0201081HGXOO35SBAMEH97", "tract_id": "36081085900", "city": "FLUSHING, NY", "zone_code": "R7B", "zone_category": "Residential", "ev_permitted": false}, "geometry": {"type": "Polygon", "coordinates": [[[-73.8221682150328, 40.7543937717589], [-73.8220835332338, 40.7544492014447], [-73.8223095252934, 40.7546470058527], [-73.8223943085586, 40.7545916653961], [-73.8221682150328, 40.7543937717589]]]}}, {"type": "Feature", "properties": {"zone_id": "0204APE8GQUM5E7X0AKRYM", "tract_id": "36081085900", "city": "FLUSHING, NY", "zone_code": "R7-1", "zone_category": "Residential", "ev_permitted": false}, "geometry": {"type": "Polygon", "coordinates": [[[-73.82197334899, 40.7539444051429], [-73.8218907992184, 40.7539984727234], [-73.8221369902623, 40.7542172022048], [-73.8222198507582, 40.7541634103703], [-73.82197334899, 40.7539444051429]]]}}, {"type": "Feature", "properties": {"zone_id": "0202E2W79YXW0KJ8O7D65N", "tract_id": "36081085900", "city": "", "zone_code": "R7B", "zone_category": "Residential", "ev_permitted": false}, "geometry": {"type": "Polygon", "coordinates": [[[-73.8218907992184, 40.7539984727234], [-73.8218119490344, 40.7540501168842], [-73.8220578431836, 40.7542685832804], [-73.8221369902623, 40.7542172022048], [-73.8218907992184, 40.7539984727234]]]}}, {"type": "Feature", "properties": {"zone_id": "0200XXJ7XOTMUQMR3819HE", "tract_id": "36081085900", "city": "", "zone_code": "R7-1", "zone_category": "Residential", "ev_permitted": false}, "geometry": {"type": "Polygon", "coordinates": [[[-73.8220612033531, 40.7538868640344], [-73.82197334899, 40.7539444051429], [-73.8222198507582, 40.7541634103703], [-73.8223080342853, 40.7541061618884], [-73.8220612033531, 40.7538868640344]]]}}, {"type": "Feature", "properties": {"zone_id": "0201HB9M9YKO1QTM2EC6YX", "tract_id": "36081085900", "city": "", "zone_code": "R7B", "zone_category": "Residential", "ev_permitted": false}, "geometry": {"type": "Polygon", "coordinates": [[[-73.821587152306, 40.7541973506737], [-73.8214296582179, 40.7543005018255], [-73.8216741158474, 40.7545176928906], [-73.8218322009531, 40.754415067206], [-73.821587152306, 40.7541973506737]]]}}, {"type": "Feature", "properties": {"zone_id": "0200EKVTHE6HLEC5FTGDPK", "tract_id": "36081085900", "city": "FLUSHING, NY", "zone_code": "R7B", "zone_category": "Residential", "ev_permitted": false}, "geometry": {"type": "Polygon", "coordinates": [[[-73.8212942617573, 40.754390044268], [-73.8212276522835, 40.7544322520717], [-73.8213399955205, 40.7545319787288], [-73.8214066059469, 40.7544897708621], [-73.8212942617573, 40.754390044268]]]}}, {"type": "Feature", "properties": {"zone_id": "0207D98OGAEI3JBDM1C1LM", "tract_id": "36081085900", "city": "", "zone_code": "R7B", "zone_category": "Residential", "ev_permitted": false}, "geometry": {"type": "Polygon", "coordinates": [[[-73.8218119490344, 40.7540501168842], [-73.821587152306, 40.7541973506737], [-73.8218322009531, 40.754415067206], [-73.8220578431836, 40.7542685832804], [-73.8218119490344, 40.7540501168842]]]}}, {"type": "Feature", "properties": {"zone_id": "0206VL5QMVMP16RQECZ681", "tract_id": "36081085900", "city": "", "zone_code": "R7-1", "zone_category": "Residential", "ev_permitted": false}, "geometry": {"type": "Polygon", "coordinates": [[[-73.8216372277337, 40.7540517570004], [-73.8213565771334, 40.7542355719692], [-73.8214296582179, 40.7543005018255], [-73.8217103098121, 40.7541166873845], [-73.8216372277337, 40.7540517570004]]]}}, {"type": "Feature", "properties": {"zone_id": "0204K8SQD2BLXRX1PSQ2P0", "tract_id": "36081085900", "city": "FLUSHING, NY", "zone_code": "R7-1", "zone_category": "Residential", "ev_permitted": false}, "geometry": {"type": "Polygon", "coordinates": [[[-73.8215056303917, 40.7539348370027], [-73.8212249799209, 40.754118651654], [-73.8213565771334, 40.7542355719692], [-73.8216372277337, 40.7540517570004], [-73.8215056303917, 40.7539348370027]]]}}, {"type": "Feature", "properties": {"zone_id": "0206A6WWBQTQO4LWYPJ3JR", "tract_id": "36081085900", "city": "FLUSHING, NY", "zone_code": "R7-1", "zone_category": "Residential", "ev_permitted": false}, "geometry": {"type": "Polygon", "coordinates": [[[-73.8223740471125, 40.7536819603823], [-73.8221282098618, 40.7538429763085], [-73.8223752915821, 40.7540624985543], [-73.8226423418736, 40.7538891311515], [-73.8223740471125, 40.7536819603823]]]}}, {"type": "Feature", "properties": {"zone_id": "0201UQO55OZEOOYSMZQQ4A", "tract_id": "36081085900", "city": "FLUSHING, NY", "zone_code": "R7-1", "zone_category": "Residential", "ev_permitted": false}, "geometry": {"type": "Polygon", "coordinates": [[[-73.8220111067768, 40.7534017056236], [-73.8213747138021, 40.7538185214896], [-73.8217103098121, 40.7541166873845], [-73.8220612033531, 40.7538868640344], [-73.8223080342853, 40.7541061618884], [-73.8223752915821, 40.7540624985543], [-73.8221282098618, 40.7538429763085], [-73.8223740471125, 40.7536819603823], [-73.8220111067768, 40.7534017056236]]]}}, {"type": "Feature", "properties": {"zone_id": "0202B9BA04K5XTRJ1GRGG3", "tract_id": "36081085900", "city": "", "zone_code": "R7-1", "zone_category": "Residential", "ev_permitted": false}, "geometry": {"type": "Polygon", "coordinates": [[[-73.8213747138021, 40.7538185214896], [-73.82109406346, 40.754002335825], [-73.8212249799209, 40.754118651654], [-73.8215056303917, 40.7539348370027], [-73.8213747138021, 40.7538185214896]]]}}, {"type": "Feature", "properties": {"zone_id": "0206IM0M4IYA3U8G43E52D", "tract_id": "36081085900", "city": "FLUSHING, NY", "zone_code": "R7-1", "zone_category": "Residential", "ev_permitted": false}, "geometry": {"type": "Polygon", "coordinates": [[[-73.8211122078353, 40.7531102460013], [-73.8204591136635, 40.7535379937401], [-73.821029401659, 40.7540446870723], [-73.8217289622965, 40.7535865022192], [-73.8211122078353, 40.7531102460013]]]}}, {"type": "Feature", "properties": {"zone_id": "0204T3SYH63OCKCK1VTNB1", "tract_id": "36081085900", "city": "FLUSHING, NY", "zone_code": "R7-1", "zone_category": "Residential", "ev_permitted": false}, "geometry": {"type": "Polygon", "coordinates": [[[-73.8196326240595, 40.7531265949642], [-73.8193581129505, 40.753307579485], [-73.8196119453311, 40.7535329173031], [-73.8194735129769, 40.75362063509], [-73.8198372755639, 40.7539452613538], [-73.8204591136635, 40.7535379937401], [-73.8200974241362, 40.7532166315811], [-73.8198853901751, 40.7533509868479], [-73.8196326240595, 40.7531265949642]]]}}, {"type": "Feature", "properties": {"zone_id": "0203ZI03I3YU1I9DFNJLTW", "tract_id": "36081085900", "city": "FLUSHING, NY", "zone_code": "R7-1", "zone_category": "Residential", "ev_permitted": false}, "geometry": {"type": "Polygon", "coordinates": [[[-73.8204591136635, 40.7535379937401], [-73.8198372755639, 40.7539452613538], [-73.8204061247929, 40.754452899161], [-73.821029401659, 40.7540446870723], [-73.8204591136635, 40.7535379937401]]]}}, {"type": "Feature", "properties": {"zone_id": "02045YE3VORHXWVE6NMOM4", "tract_id": "36081085900", "city": "", "zone_code": "R7B", "zone_category": "Residential", "ev_permitted": false}, "geometry": {"type": "Polygon", "coordinates": [[[-73.8210247709243, 40.7541508175408], [-73.8207472933502, 40.7543266418334], [-73.821016783898, 40.7545658692037], [-73.8212942617573, 40.754390044268], [-73.8210247709243, 40.7541508175408]]]}}, {"type": "Feature", "properties": {"zone_id": "0202LL9CQ2B3KEAKHXLY2Z", "tract_id": "36081085900", "city": "", "zone_code": "R7B", "zone_category": "Residential", "ev_permitted": false}, "geometry": {"type": "Polygon", "coordinates": [[[-73.8208134135299, 40.7543853378204], [-73.8205309686307, 40.754564308086], [-73.8206628821448, 40.7546820257891], [-73.820945732598, 40.7545027972558], [-73.8208134135299, 40.7543853378204]]]}}, {"type": "Feature", "properties": {"zone_id": "02062WHADI6AN2FSZP1T75", "tract_id": "36081085900", "city": "", "zone_code": "R7B", "zone_category": "Residential", "ev_permitted": false}, "geometry": {"type": "Polygon", "coordinates": [[[-73.8207472933502, 40.7543266418334], [-73.8204650503, 40.7545054843694], [-73.8205309686307, 40.754564308086], [-73.8208134135299, 40.7543853378204], [-73.8207472933502, 40.7543266418334]]]}}, {"type": "Feature", "properties": {"zone_id": "0205PYBJ70NZW93RN6I4KC", "tract_id": "36081085900", "city": "FLUSHING, NY", "zone_code": "R7B", "zone_category": "Residential", "ev_permitted": false}, "geometry": {"type": "Polygon", "coordinates": [[[-73.8206842917425, 40.7542707156155], [-73.8204061247929, 40.754452899161], [-73.8204650503, 40.7545054843694], [-73.8207472933502, 40.7543266418334], [-73.8206842917425, 40.7542707156155]]]}}, {"type": "Feature", "properties": {"zone_id": "0202R704OQIWXERX1SLHFB", "tract_id": "36081085900", "city": "FLUSHING, NY", "zone_code": "R7B", "zone_category": "Residential", "ev_permitted": false}, "geometry": {"type": "Polygon", "coordinates": [[[-73.8209579391557, 40.7540914909869], [-73.8206842917425, 40.7542707156155], [-73.8207472933502, 40.7543266418334], [-73.8210247709243, 40.7541508175408], [-73.8209579391557, 40.7540914909869]]]}}, {"type": "Feature", "properties": {"zone_id": "0207ETDHYWF6WBM1UPZO9M", "tract_id": "36081085900", "city": "FLUSHING, NY", "zone_code": "R4-1", "zone_category": "Residential", "ev_permitted": false}, "geometry": {"type": "Polygon", "coordinates": [[[-73.8197954288326, 40.7541196633937], [-73.8196979748158, 40.7541815498418], [-73.8202001456342, 40.7545864577784], [-73.8202704104155, 40.7545418370258], [-73.8197954288326, 40.7541196633937]]]}}, {"type": "Feature", "properties": {"zone_id": "0204NP2WOZ63Y95XHY2FWK", "tract_id": "36081085900", "city": "FLUSHING, NY", "zone_code": "R4-1", "zone_category": "Residential", "ev_permitted": false}, "geometry": {"type": "Polygon", "coordinates": [[[-73.8198073979159, 40.7545575721737], [-73.8195467306597, 40.7547269796689], [-73.8196053556451, 40.7547791434267], [-73.8198660231874, 40.7546097358004], [-73.8198073979159, 40.7545575721737]]]}}, {"type": "Feature", "properties": {"zone_id": "020252Q9M6YHM0YHHPK0VN", "tract_id": "36081085900", "city": "FLUSHING, NY", "zone_code": "R4-1", "zone_category": "Residential", "ev_permitted": false}, "geometry": {"type": "Polygon", "coordinates": [[[-73.819675008573, 40.7540126304069], [-73.8193953619865, 40.7541902138313], [-73.8193413897676, 40.754142240348], [-73.81907773339, 40.7543096679902], [-73.8191949822141, 40.7544139961352], [-73.8194556491402, 40.7542445894283], [-73.8195142738608, 40.7542967532364], [-73.8192536066487, 40.7544661600744], [-73.8195467306597, 40.7547269796689], [-73.8198073979159, 40.7545575721737], [-73.8198660231874, 40.7546097358004], [-73.8196053556451, 40.7547791434267], [-73.8197266961245, 40.7548871103377], [-73.8202001456342, 40.7545864577784], [-73.8196979748158, 40.7541815498418], [-73.8197954288326, 40.7541196633937], [-73.819675008573, 40.7540126304069]]]}}, {"type": "Feature", "properties": {"zone_id": "02031EQUXNW9UDRSYV5BD6", "tract_id": "36081085900", "city": "FLUSHING, NY", "zone_code": "R4-1", "zone_category": "Residential", "ev_permitted": false}, "geometry": {"type": "Polygon", "coordinates": [[[-73.8194556491402, 40.7542445894283], [-73.8191949822141, 40.7544139961352], [-73.8192536066487, 40.7544661600744], [-73.8195142738608, 40.7542967532364], [-73.8194556491402, 40.7542445894283]]]}}, {"type": "Feature", "properties": {"zone_id": "0204B3579V0T5HKM2110TV", "tract_id": "36081085900", "city": "FLUSHING, NY", "zone_code": "R4-1", "zone_category": "Residential", "ev_permitted": false}, "geometry": {"type": "Polygon", "coordinates": [[[-73.8195577743763, 40.7539084290698], [-73.8192781288406, 40.7540860115111], [-73.8193413897676, 40.754142240348], [-73.8196210362945, 40.753964657756], [-73.8195577743763, 40.7539084290698]]]}}, {"type": "Feature", "properties": {"zone_id": "020160IOM8C1ENYND060IW", "tract_id": "36081085900", "city": "FLUSHING, NY", "zone_code": "R4-1", "zone_category": "Residential", "ev_permitted": false}, "geometry": {"type": "Polygon", "coordinates": [[[-73.8196210362945, 40.753964657756], [-73.8193413897676, 40.754142240348], [-73.8193953619865, 40.7541902138313], [-73.819675008573, 40.7540126304069], [-73.8196210362945, 40.753964657756]]]}}, {"type": "Feature", "properties": {"zone_id": "0206Y3AHKN6G0WIO8DEYC2", "tract_id": "36081085900", "city": "FLUSHING, NY", "zone_code": "R4-1", "zone_category": "Residential", "ev_permitted": false}, "geometry": {"type": "Polygon", "coordinates": [[[-73.8192781288406, 40.7540860115111], [-73.8190145114035, 40.7542534137753], [-73.81907773339, 40.7543096679902], [-73.8193413897676, 40.754142240348], [-73.8192781288406, 40.7540860115111]]]}}, {"type": "Feature", "properties": {"zone_id": "02051AVO9YJ7BPVEY0N4IL", "tract_id": "36081085900", "city": "FLUSHING, NY", "zone_code": "R4-1", "zone_category": "Residential", "ev_permitted": false}, "geometry": {"type": "Polygon", "coordinates": [[[-73.8192235290558, 40.7540374811857], [-73.8189599459226, 40.754204860895], [-73.8190145114035, 40.7542534137753], [-73.8192781288406, 40.7540860115111], [-73.8192235290558, 40.7540374811857]]]}}, {"type": "Feature", "properties": {"zone_id": "0206G6ZWRESD6CP30T4WFM", "tract_id": "36081085900", "city": "FLUSHING, NY", "zone_code": "R4-1", "zone_category": "Residential", "ev_permitted": false}, "geometry": {"type": "Polygon", "coordinates": [[[-73.8191046409346, 40.7539318082392], [-73.8188411338168, 40.7540991407202], [-73.8189599459226, 40.754204860895], [-73.8192235290558, 40.7540374811857], [-73.8191046409346, 40.7539318082392]]]}}, {"type": "Feature", "properties": {"zone_id": "0204ZFCLY6675NMF8TFTLF", "tract_id": "36081085900", "city": "FLUSHING, NY", "zone_code": "R4-1", "zone_category": "Residential", "ev_permitted": false}, "geometry": {"type": "Polygon", "coordinates": [[[-73.8193842862853, 40.753754226215], [-73.8191046409346, 40.7539318082392], [-73.8191601706187, 40.7539811657032], [-73.8194386840281, 40.7538043026967], [-73.8193842862853, 40.753754226215]]]}}, {"type": "Feature", "properties": {"zone_id": "0204VFKU91L3JZNITOARYK", "tract_id": "36081085900", "city": "FLUSHING, NY", "zone_code": "R4-1", "zone_category": "Residential", "ev_permitted": false}, "geometry": {"type": "Polygon", "coordinates": [[[-73.8193295051066, 40.7537055340418], [-73.8190498588902, 40.7538831159328], [-73.8191046409346, 40.7539318082392], [-73.8193842862853, 40.753754226215], [-73.8193295051066, 40.7537055340418]]]}}, {"type": "Feature", "properties": {"zone_id": "020239YJJ699BY0HSW1SZY", "tract_id": "36081085900", "city": "FLUSHING, NY", "zone_code": "R4-1", "zone_category": "Residential", "ev_permitted": false}, "geometry": {"type": "Polygon", "coordinates": [[[-73.8194386840281, 40.7538043026967], [-73.8191601706187, 40.7539811657032], [-73.8192235290558, 40.7540374811857], [-73.8195031745332, 40.7538598988757], [-73.8194386840281, 40.7538043026967]]]}}, {"type": "Feature", "properties": {"zone_id": "0204RD4RHLDDLF3G2IW6Z3", "tract_id": "36081085900", "city": "FLUSHING, NY", "zone_code": "R4-1", "zone_category": "Residential", "ev_permitted": false}, "geometry": {"type": "Polygon", "coordinates": [[[-73.8195031745332, 40.7538598988757], [-73.8192235290558, 40.7540374811857], [-73.8192781288406, 40.7540860115111], [-73.8195577743763, 40.7539084290698], [-73.8195031745332, 40.7538598988757]]]}}, {"type": "Feature", "properties": {"zone_id": "0202LSDW09Z3UVF21IZ9QS", "tract_id": "36081085900", "city": "FLUSHING, NY", "zone_code": "R7-1", "zone_category": "Residential", "ev_permitted": false}, "geometry": {"type": "Polygon", "coordinates": [[[-73.8195082259027, 40.753440841032], [-73.8193701101571, 40.7535283568267], [-73.8194735129769, 40.75362063509], [-73.8196119453311, 40.7535329173031], [-73.8195082259027, 40.753440841032]]]}}, {"type": "Feature", "properties": {"zone_id": "0200X1U81ZR8KZDW7E9MDR", "tract_id": "36081085900", "city": "FLUSHING, NY", "zone_code": "R4-1", "zone_category": "Residential", "ev_permitted": false}, "geometry": {"type": "Polygon", "coordinates": [[[-73.8190498588902, 40.7538831159328], [-73.8187863860765, 40.7540504258586], [-73.8188411338168, 40.7540991407202], [-73.8191046409346, 40.7539318082392], [-73.8190498588902, 40.7538831159328]]]}}, {"type": "Feature", "properties": {"zone_id": "02076M0R2XU2T5XV188FDE", "tract_id": "36081085900", "city": "FLUSHING, NY", "zone_code": "R4-1", "zone_category": "Residential", "ev_permitted": false}, "geometry": {"type": "Polygon", "coordinates": [[[-73.8189571551845, 40.7538007158927], [-73.8186937416992, 40.7539679891636], [-73.8187863860765, 40.7540504258586], [-73.8190498588902, 40.7538831159328], [-73.8189571551845, 40.7538007158927]]]}}, {"type": "Feature", "properties": {"zone_id": "0201CK407864YICXE7LBKJ", "tract_id": "36081085900", "city": "FLUSHING, NY", "zone_code": "R4-1", "zone_category": "Residential", "ev_permitted": false}, "geometry": {"type": "Polygon", "coordinates": [[[-73.8188108517232, 40.7536706735773], [-73.818551812544, 40.7538416985663], [-73.8186937416992, 40.7539679891636], [-73.8189571551845, 40.7538007158927], [-73.8188108517232, 40.7536706735773]]]}}, {"type": "Feature", "properties": {"zone_id": "02007GP9FXHOPF0LQYJLQI", "tract_id": "36081085900", "city": "FLUSHING, NY", "zone_code": "R4-1", "zone_category": "Residential", "ev_permitted": false}, "geometry": {"type": "Polygon", "coordinates": [[[-73.8190859459838, 40.7534890469453], [-73.818986683757, 40.7535547517058], [-73.8192269993726, 40.7537706275276], [-73.8193295051066, 40.7537055340418], [-73.8190859459838, 40.7534890469453]]]}}, {"type": "Feature", "properties": {"zone_id": "0201OPB8UYA1KRGTDDBQ73", "tract_id": "36081085900", "city": "FLUSHING, NY", "zone_code": "R4-1", "zone_category": "Residential", "ev_permitted": false}, "geometry": {"type": "Polygon", "coordinates": [[[-73.818986683757, 40.7535547517058], [-73.8188974998948, 40.7536134653351], [-73.8191379414171, 40.7538271815728], [-73.8192269993726, 40.7537706275276], [-73.818986683757, 40.7535547517058]]]}}, {"type": "Feature", "properties": {"zone_id": "0205ZSTUCH44K2T3GP466Y", "tract_id": "36081085900", "city": "FLUSHING, NY", "zone_code": "R4-1", "zone_category": "Residential", "ev_permitted": false}, "geometry": {"type": "Polygon", "coordinates": [[[-73.8188974998948, 40.7536134653351], [-73.8188108517232, 40.7536706735773], [-73.8190498588902, 40.7538831159328], [-73.8191379414171, 40.7538271815728], [-73.8188974998948, 40.7536134653351]]]}}, {"type": "Feature", "properties": {"zone_id": "02042U50VBLV7S4T2FBZP2", "tract_id": "36081085900", "city": "FLUSHING, NY", "zone_code": "R7-1", "zone_category": "Residential", "ev_permitted": false}, "geometry": {"type": "Polygon", "coordinates": [[[-73.8213943529353, 40.7529254502024], [-73.8211122078353, 40.7531102460013], [-73.8217289622965, 40.7535865022192], [-73.8220111067768, 40.7534017056236], [-73.8213943529353, 40.7529254502024]]]}}, {"type": "Feature", "properties": {"zone_id": "0200HEJ73XEPHC9YQMTF58", "tract_id": "36081085900", "city": "FLUSHING, NY", "zone_code": "R7-1", "zone_category": "Residential", "ev_permitted": false}, "geometry": {"type": "Polygon", "coordinates": [[[-73.8208049918587, 40.7523636884152], [-73.8199097199188, 40.7529500525095], [-73.8201629909127, 40.7531750854015], [-73.8200974241362, 40.7532166315811], [-73.8204591136635, 40.7535379937401], [-73.8213943529353, 40.7529254502024], [-73.8208049918587, 40.7523636884152]]]}}, {"type": "Feature", "properties": {"zone_id": "0204457651P1Q3YPXYZ57G", "tract_id": "36081085900", "city": "FLUSHING, NY", "zone_code": "R7-1", "zone_category": "Residential", "ev_permitted": false}, "geometry": {"type": "Polygon", "coordinates": [[[-73.8194355954628, 40.7533763645667], [-73.8192986162898, 40.7534645537977], [-73.8193701101571, 40.7535283568267], [-73.8195082259027, 40.753440841032], [-73.8194355954628, 40.7533763645667]]]}}, {"type": "Feature", "properties": {"zone_id": "0202V77BJJN3OYOIG2S8DP", "tract_id": "36081085900", "city": "FLUSHING, NY", "zone_code": "R7-1", "zone_category": "Residential", "ev_permitted": false}, "geometry": {"type": "Polygon", "coordinates": [[[-73.8193581129505, 40.753307579485], [-73.8192227331296, 40.7533968342541], [-73.8192986162898, 40.7534645537977], [-73.8194355954628, 40.7533763645667], [-73.8193581129505, 40.753307579485]]]}}, {"type": "Feature", "properties": {"zone_id": "0203TRZ83Z82ICO4WLU7FZ", "tract_id": "36081085900", "city": "", "zone_code": "R7-1", "zone_category": "Residential", "ev_permitted": false}, "geometry": {"type": "Polygon", "coordinates": [[[-73.8197694153075, 40.753036408792], [-73.8196326240595, 40.7531265949642], [-73.8198853901751, 40.7533509868479], [-73.8200244887629, 40.7532628473086], [-73.8197694153075, 40.753036408792]]]}}]}