{"type": "FeatureCollection", "features": [{"type": "Feature", "properties": {"zone_id": "0200X1WQAFOQNFMGGLKEGD", "tract_id": "36081024700", "city": "FLUSHING, NY", "zone_code": "R4-1", "zone_category": "Residential", "ev_permitted": false}, "geometry": {"type": "Polygon", "coordinates": [[[-73.9002596271978, 40.7430078694703], [-73.9001740551353, 40.7434337197291], [-73.9006382285349, 40.7438596344297], [-73.9013669300074, 40.7441208690363], [-73.9014066167541, 40.7440270007118], [-73.9002596271978, 40.7430078694703]]]}}, {"type": "Feature", "properties": {"zone_id": "0203MLLOV3UMP776TIZ41O", "tract_id": "36081024700", "city": "FLUSHING, NY", "zone_code": "R6A", "zone_category": "Residential", "ev_permitted": false}, "geometry": {"type": "Polygon", "coordinates": [[[-73.9001740551353, 40.7434337197291], [-73.9001233108277, 40.7436862343746], [-73.9002894635367, 40.7437346023576], [-73.9006382285349, 40.7438596344297], [-73.9001740551353, 40.7434337197291]]]}}, {"type": "Feature", "properties": {"zone_id": "0200CC40ANLO81YQM4IWHQ", "tract_id": "36081024700", "city": "FLUSHING, NY", "zone_code": "R5B", "zone_category": "Residential", "ev_permitted": false}, "geometry": {"type": "Polygon", "coordinates": [[[-73.9005012085895, 40.743186241916], [-73.9004950226968, 40.7432170283866], [-73.9007801366884, 40.7434703614045], [-73.9008387406641, 40.7432250610822], [-73.9005012085895, 40.743186241916]]]}}, {"type": "Feature", "properties": {"zone_id": "0206L8UJHT4SSW3J86O4QI", "tract_id": "36081024700", "city": "FLUSHING, NY", "zone_code": "R5B", "zone_category": "Residential", "ev_permitted": false}, "geometry": {"type": "Polygon", "coordinates": [[[-73.9004579612201, 40.7431028111591], [-73.9004441011134, 40.743171781783], [-73.9004950226968, 40.7432170283866], [-73.9005012085895, 40.743186241916], [-73.9008387406641, 40.7432250610822], [-73.9008569839514, 40.7431487022381], [-73.9004579612201, 40.7431028111591]]]}}, {"type": "Feature", "properties": {"zone_id": "0204321WUXMX7ZADQNES7U", "tract_id": "36081024700", "city": "FLUSHING, NY", "zone_code": "R6A", "zone_category": "Residential", "ev_permitted": false}, "geometry": {"type": "Polygon", "coordinates": [[[-73.8999059804484, 40.7433690935119], [-73.8998587161137, 40.7436038851527], [-73.8999344549643, 40.7436259188344], [-73.8999843792634, 40.7433779096936], [-73.8999059804484, 40.7433690935119]]]}}, {"type": "Feature", "properties": {"zone_id": "0203H5MI949BISCGGW0EHG", "tract_id": "36081024700", "city": "FLUSHING, NY", "zone_code": "R6A", "zone_category": "Residential", "ev_permitted": false}, "geometry": {"type": "Polygon", "coordinates": [[[-73.8998335930751, 40.7433609528396], [-73.8997887858271, 40.7435835414454], [-73.8998587161137, 40.7436038851527], [-73.8999059804484, 40.7433690935119], [-73.8998335930751, 40.7433609528396]]]}}, {"type": "Feature", "properties": {"zone_id": "02054P16FWM2WTP6NV2ELN", "tract_id": "36081024700", "city": "FLUSHING, NY", "zone_code": "R4-1", "zone_category": "Residential", "ev_permitted": false}, "geometry": {"type": "Polygon", "coordinates": [[[-73.8997158331355, 40.7432247422782], [-73.8996516366335, 40.743543643241], [-73.8997191603209, 40.7435632871984], [-73.8997763810467, 40.7432790386629], [-73.8997158331355, 40.7432247422782]]]}}, {"type": "Feature", "properties": {"zone_id": "0205B3JJ1KVK1EIMW4XFLY", "tract_id": "36081024700", "city": "FLUSHING, NY", "zone_code": "R6A", "zone_category": "Residential", "ev_permitted": false}, "geometry": {"type": "Polygon", "coordinates": [[[-73.8997763810467, 40.7432790386629], [-73.8997191603209, 40.7435632871984], [-73.8997887858271, 40.7435835414454], [-73.8998335930751, 40.7433609528396], [-73.89987261743, 40.7433653411351], [-73.8997763810467, 40.7432790386629]]]}}, {"type": "Feature", "properties": {"zone_id": "0202B42AOM2BEOB0QNWHSG", "tract_id": "36081024700", "city": "FLUSHING, NY", "zone_code": "R4-1", "zone_category": "Residential", "ev_permitted": false}, "geometry": {"type": "Polygon", "coordinates": [[[-73.899572887637, 40.7432117605132], [-73.8995141302306, 40.7435036398655], [-73.8995809538605, 40.7435230809282], [-73.8996420585114, 40.7432195394896], [-73.899572887637, 40.7432117605132]]]}}, {"type": "Feature", "properties": {"zone_id": "02076ARO4DZKH2K7H33UTB", "tract_id": "36081024700", "city": "FLUSHING, NY", "zone_code": "R4-1", "zone_category": "Residential", "ev_permitted": false}, "geometry": {"type": "Polygon", "coordinates": [[[-73.8996524529325, 40.7431679025875], [-73.8995809538605, 40.7435230809282], [-73.8996516366335, 40.743543643241], [-73.8997158331355, 40.7432247422782], [-73.8996524529325, 40.7431679025875]]]}}, {"type": "Feature", "properties": {"zone_id": "02009KQ20OX04IPZSFQH1V", "tract_id": "36081024700", "city": "FLUSHING, NY", "zone_code": "R6A", "zone_category": "Residential", "ev_permitted": false}, "geometry": {"type": "Polygon", "coordinates": [[[-73.8992371982151, 40.7433527321948], [-73.8992236667909, 40.7434191389644], [-73.8994404657244, 40.7434822098945], [-73.8994614541337, 40.743377952584], [-73.8992371982151, 40.7433527321948]]]}}, {"type": "Feature", "properties": {"zone_id": "0201HM8G45Y6W2FLA5Z9BC", "tract_id": "36081024700", "city": "FLUSHING, NY", "zone_code": "R6A", "zone_category": "Residential", "ev_permitted": false}, "geometry": {"type": "Polygon", "coordinates": [[[-73.8994966357375, 40.7432031855304], [-73.8994404657244, 40.7434822098945], [-73.8995141302306, 40.7435036398655], [-73.899572887637, 40.7432117605132], [-73.8994966357375, 40.7432031855304]]]}}, {"type": "Feature", "properties": {"zone_id": "02051BKL7GCNWVUPEJRZQR", "tract_id": "36081024700", "city": "FLUSHING, NY", "zone_code": "R4-1", "zone_category": "Residential", "ev_permitted": false}, "geometry": {"type": "Polygon", "coordinates": [[[-73.8992833173027, 40.7431263892426], [-73.8992700968405, 40.7431912722296], [-73.8994939651997, 40.7432164493556], [-73.8994966357375, 40.7432031855304], [-73.8996420585114, 40.7432195394896], [-73.8996524529325, 40.7431679025875], [-73.8992833173027, 40.7431263892426]]]}}, {"type": "Feature", "properties": {"zone_id": "02029B0MM4XEPLWK1RADVQ", "tract_id": "36081024700", "city": "FLUSHING, NY", "zone_code": "R6A", "zone_category": "Residential", "ev_permitted": false}, "geometry": {"type": "Polygon", "coordinates": [[[-73.8992700968405, 40.7431912722296], [-73.8992539174694, 40.7432706765371], [-73.8994779763708, 40.7432958749399], [-73.8994939651997, 40.7432164493556], [-73.8992700968405, 40.7431912722296]]]}}, {"type": "Feature", "properties": {"zone_id": "0200L3I31DLB2FCPJX8UMH", "tract_id": "36081024700", "city": "FLUSHING, NY", "zone_code": "R6A", "zone_category": "Residential", "ev_permitted": false}, "geometry": {"type": "Polygon", "coordinates": [[[-73.8992539174694, 40.7432706765371], [-73.8992371982151, 40.7433527321948], [-73.8994614541337, 40.743377952584], [-73.8994779763708, 40.7432958749399], [-73.8992539174694, 40.7432706765371]]]}}, {"type": "Feature", "properties": {"zone_id": "0206DZGHL2R9HJ5UZYL58X", "tract_id": "36081024700", "city": "FLUSHING, NY", "zone_code": "R6A", "zone_category": "Residential", "ev_permitted": false}, "geometry": {"type": "Polygon", "coordinates": [[[-73.8989393715526, 40.7430856535813], [-73.8988891649444, 40.7433358564312], [-73.8989610049143, 40.7433533594128], [-73.8990163956474, 40.7430947966543], [-73.8989393715526, 40.7430856535813]]]}}, {"type": "Feature", "properties": {"zone_id": "0205YMKJOO2JB2XU9LDA08", "tract_id": "36081024700", "city": "FLUSHING, NY", "zone_code": "R6A", "zone_category": "Residential", "ev_permitted": false}, "geometry": {"type": "Polygon", "coordinates": [[[-73.8988704712719, 40.7430774732033], [-73.8988219222467, 40.74331947537], [-73.8988891649444, 40.7433358564312], [-73.8989393715526, 40.7430856535813], [-73.8988704712719, 40.7430774732033]]]}}, {"type": "Feature", "properties": {"zone_id": "0205E907V1SI5D268E7FU1", "tract_id": "36081024700", "city": "FLUSHING, NY", "zone_code": "R6A", "zone_category": "Residential", "ev_permitted": false}, "geometry": {"type": "Polygon", "coordinates": [[[-73.8987958792754, 40.7430686174484], [-73.8987490904999, 40.7433017304183], [-73.8988219222467, 40.74331947537], [-73.8988704712719, 40.7430774732033], [-73.8987958792754, 40.7430686174484]]]}}, {"type": "Feature", "properties": {"zone_id": "02012D18TG8WY549DSQ9TC", "tract_id": "36081024700", "city": "FLUSHING, NY", "zone_code": "R6A", "zone_category": "Residential", "ev_permitted": false}, "geometry": {"type": "Polygon", "coordinates": [[[-73.8986925210608, 40.7430563467302], [-73.898648209024, 40.7432771534036], [-73.8987490904999, 40.7433017304183], [-73.8987958792754, 40.7430686174484], [-73.8986925210608, 40.7430563467302]]]}}, {"type": "Feature", "properties": {"zone_id": "0204B4YIZ347AGE7N8YIWM", "tract_id": "36081024700", "city": "FLUSHING, NY", "zone_code": "R6A", "zone_category": "Residential", "ev_permitted": false}, "geometry": {"type": "Polygon", "coordinates": [[[-73.8986581129762, 40.743052261428], [-73.8986146376016, 40.7432689737426], [-73.898648209024, 40.7432771534036], [-73.8986925210608, 40.7430563467302], [-73.8986581129762, 40.743052261428]]]}}, {"type": "Feature", "properties": {"zone_id": "02062HB2VSD14EEDLHSGIX", "tract_id": "36081024700", "city": "FLUSHING, NY", "zone_code": "R6A", "zone_category": "Residential", "ev_permitted": false}, "geometry": {"type": "Polygon", "coordinates": [[[-73.8985938084667, 40.7429854974229], [-73.8985405573743, 40.7432509289308], [-73.8986146376016, 40.7432689737426], [-73.8986696990391, 40.7429945076305], [-73.8985938084667, 40.7429854974229]]]}}, {"type": "Feature", "properties": {"zone_id": "02061CW6I7SWKUN2JF50OY", "tract_id": "36081024700", "city": "", "zone_code": "R6A", "zone_category": "Residential", "ev_permitted": false}, "geometry": {"type": "Polygon", "coordinates": [[[-73.8985255752283, 40.7429773968258], [-73.898473955771, 40.7432346985994], [-73.8985405573743, 40.7432509289308], [-73.8985938084667, 40.7429854974229], [-73.8985255752283, 40.7429773968258]]]}}, {"type": "Feature", "properties": {"zone_id": "0203TVVI9C88JMHSH7WWH1", "tract_id": "36081024700", "city": "FLUSHING, NY", "zone_code": "R6A", "zone_category": "Residential", "ev_permitted": false}, "geometry": {"type": "Polygon", "coordinates": [[[-73.8984505908256, 40.7429684941259], [-73.8984007621932, 40.7432168659788], [-73.898473955771, 40.7432346985994], [-73.8985255752283, 40.7429773968258], [-73.8984505908256, 40.7429684941259]]]}}, {"type": "Feature", "properties": {"zone_id": "0200SM0NKNZC6UGIEBKJFP", "tract_id": "36081024700", "city": "FLUSHING, NY", "zone_code": "R5B", "zone_category": "Residential", "ev_permitted": false}, "geometry": {"type": "Polygon", "coordinates": [[[-73.9007604561315, 40.7421782201378], [-73.9007485603836, 40.7422374199511], [-73.9010659691133, 40.7422739241325], [-73.9010800518583, 40.7422149763112], [-73.9007604561315, 40.7421782201378]]]}}, {"type": "Feature", "properties": {"zone_id": "0201B1SBWKMTFP3K4NRCE6", "tract_id": "36081024700", "city": "FLUSHING, NY", "zone_code": "R4-1", "zone_category": "Residential", "ev_permitted": false}, "geometry": {"type": "Polygon", "coordinates": [[[-73.8994505878093, 40.7423054495428], [-73.8993437174759, 40.7428299554024], [-73.8996524529325, 40.7431679025875], [-73.89987261743, 40.7433653411351], [-73.8999843792634, 40.7433779096936], [-73.9000952583504, 40.742827090867], [-73.8994505878093, 40.7423054495428]]]}}, {"type": "Feature", "properties": {"zone_id": "0206T7JTY1PEXQ6MFE6A80", "tract_id": "36081024700", "city": "FLUSHING, NY", "zone_code": "R5B", "zone_category": "Residential", "ev_permitted": false}, "geometry": {"type": "Polygon", "coordinates": [[[-73.9006302318333, 40.742826301548], [-73.9006170718847, 40.7428917932439], [-73.9009103023993, 40.74292551765], [-73.9009258821297, 40.7428603041467], [-73.9006302318333, 40.742826301548]]]}}, {"type": "Feature", "properties": {"zone_id": "0207E3MP6V4WEFV33GHLSU", "tract_id": "36081024700", "city": "FLUSHING, NY", "zone_code": "R5B", "zone_category": "Residential", "ev_permitted": false}, "geometry": {"type": "Polygon", "coordinates": [[[-73.9006170718847, 40.7428917932439], [-73.9006016427222, 40.742968577481], [-73.9008920369146, 40.7430019755603], [-73.9009103023993, 40.74292551765], [-73.9006170718847, 40.7428917932439]]]}}, {"type": "Feature", "properties": {"zone_id": "0202W3Q0DC3N8GARJY2WT0", "tract_id": "36081024700", "city": "FLUSHING, NY", "zone_code": "R5B", "zone_category": "Residential", "ev_permitted": false}, "geometry": {"type": "Polygon", "coordinates": [[[-73.9006016427222, 40.742968577481], [-73.9005872671401, 40.7430401215094], [-73.9008750171098, 40.7430732152062], [-73.9008920369146, 40.7430019755603], [-73.9006016427222, 40.742968577481]]]}}, {"type": "Feature", "properties": {"zone_id": "02033GIP2DY0SKVP0VCYQ6", "tract_id": "36081024700", "city": "FLUSHING, NY", "zone_code": "R5B", "zone_category": "Residential", "ev_permitted": false}, "geometry": {"type": "Polygon", "coordinates": [[[-73.9004731941915, 40.7430270013577], [-73.9004579612201, 40.7431028111591], [-73.9008569839514, 40.7431487022381], [-73.9008750171098, 40.7430732152062], [-73.9004731941915, 40.7430270013577]]]}}, {"type": "Feature", "properties": {"zone_id": "0204A8OL3IWMFNT0TI9X5Q", "tract_id": "36081024700", "city": "FLUSHING, NY", "zone_code": "R5B", "zone_category": "Residential", "ev_permitted": false}, "geometry": {"type": "Polygon", "coordinates": [[[-73.9003008747016, 40.742802604392], [-73.9002884646445, 40.7428643606751], [-73.9006150372502, 40.74290191958], [-73.9006274460866, 40.742840163964], [-73.9003008747016, 40.742802604392]]]}}, {"type": "Feature", "properties": {"zone_id": "0200A7N4Y0AZIM0XVE6TWQ", "tract_id": "36081024700", "city": "FLUSHING, NY", "zone_code": "R5B", "zone_category": "Residential", "ev_permitted": false}, "geometry": {"type": "Polygon", "coordinates": [[[-73.9002884646445, 40.7428643606751], [-73.9002763775401, 40.742924513071], [-73.9006029504328, 40.7429620727125], [-73.9006150372502, 40.74290191958], [-73.9002884646445, 40.7428643606751]]]}}, {"type": "Feature", "properties": {"zone_id": "0203U53MOQONE3VO0UWKM9", "tract_id": "36081024700", "city": "FLUSHING, NY", "zone_code": "R5B", "zone_category": "Residential", "ev_permitted": false}, "geometry": {"type": "Polygon", "coordinates": [[[-73.9002763775401, 40.742924513071], [-73.9002596271978, 40.7430078694703], [-73.9004441011134, 40.743171781783], [-73.9004731941915, 40.7430270013577], [-73.9005872671401, 40.7430401215094], [-73.9006029504328, 40.7429620727125], [-73.9002763775401, 40.742924513071]]]}}, {"type": "Feature", "properties": {"zone_id": "0203Z1T90MI77ZNICRTCJE", "tract_id": "36081024700", "city": "FLUSHING, NY", "zone_code": "R5B", "zone_category": "Residential", "ev_permitted": false}, "geometry": {"type": "Polygon", "coordinates": [[[-73.9006825772545, 40.7425657974205], [-73.9006693783141, 40.742631485835], [-73.9009722269724, 40.7426663159299], [-73.9009878530641, 40.7426009071174], [-73.9006825772545, 40.7425657974205]]]}}, {"type": "Feature", "properties": {"zone_id": "0202OD2B7DZSUGYE5YNM92", "tract_id": "36081024700", "city": "FLUSHING, NY", "zone_code": "R5B", "zone_category": "Residential", "ev_permitted": false}, "geometry": {"type": "Polygon", "coordinates": [[[-73.9006693783141, 40.742631485835], [-73.9006562882461, 40.7426966318904], [-73.9009567300677, 40.742731184508], [-73.9009722269724, 40.7426663159299], [-73.9006693783141, 40.742631485835]]]}}, {"type": "Feature", "properties": {"zone_id": "0204S5OWXQ4RDKSKYB8XFL", "tract_id": "36081024700", "city": "FLUSHING, NY", "zone_code": "R5B", "zone_category": "Residential", "ev_permitted": false}, "geometry": {"type": "Polygon", "coordinates": [[[-73.9006562882461, 40.7426966318904], [-73.9006433219511, 40.7427611561994], [-73.9009413800184, 40.7427954355747], [-73.9009567300677, 40.742731184508], [-73.9006562882461, 40.7426966318904]]]}}, {"type": "Feature", "properties": {"zone_id": "0202A2KGP3OFL4G2LVDBS9", "tract_id": "36081024700", "city": "FLUSHING, NY", "zone_code": "R5B", "zone_category": "Residential", "ev_permitted": false}, "geometry": {"type": "Polygon", "coordinates": [[[-73.9006433219511, 40.7427611561994], [-73.9006302318333, 40.742826301548], [-73.9009258821297, 40.7428603041467], [-73.9009413800184, 40.7427954355747], [-73.9006433219511, 40.7427611561994]]]}}, {"type": "Feature", "properties": {"zone_id": "0203FME1C1ZSWK3E17BOKI", "tract_id": "36081024700", "city": "FLUSHING, NY", "zone_code": "R5B", "zone_category": "Residential", "ev_permitted": false}, "geometry": {"type": "Polygon", "coordinates": [[[-73.9003491166947, 40.7425625287107], [-73.9003370296998, 40.7426226811155], [-73.9006636002234, 40.7426602405859], [-73.9006756869302, 40.7426000881471], [-73.9003491166947, 40.7425625287107]]]}}, {"type": "Feature", "properties": {"zone_id": "0202KHFEKMLAB7V6REZ97W", "tract_id": "36081024700", "city": "FLUSHING, NY", "zone_code": "R5B", "zone_category": "Residential", "ev_permitted": false}, "geometry": {"type": "Polygon", "coordinates": [[[-73.9003370296998, 40.7426226811155], [-73.9003249473423, 40.7426828068216], [-73.9006515181537, 40.7427203663259], [-73.9006636002234, 40.7426602405859], [-73.9003370296998, 40.7426226811155]]]}}, {"type": "Feature", "properties": {"zone_id": "02073Z10OYDU0VANICGCWN", "tract_id": "36081024700", "city": "FLUSHING, NY", "zone_code": "R5B", "zone_category": "Residential", "ev_permitted": false}, "geometry": {"type": "Polygon", "coordinates": [[[-73.9003125671126, 40.7427444162788], [-73.9003008747016, 40.742802604392], [-73.9006274460866, 40.742840163964], [-73.9006391391418, 40.7427819765213], [-73.9003125671126, 40.7427444162788]]]}}, {"type": "Feature", "properties": {"zone_id": "0201T1NYF1CBZEYJ7BLXWC", "tract_id": "36081024700", "city": "FLUSHING, NY", "zone_code": "R5B", "zone_category": "Residential", "ev_permitted": false}, "geometry": {"type": "Polygon", "coordinates": [[[-73.9003249473423, 40.7426828068216], [-73.9003125671126, 40.7427444162788], [-73.9006391391418, 40.7427819765213], [-73.9006515181537, 40.7427203663259], [-73.9003249473423, 40.7426828068216]]]}}, {"type": "Feature", "properties": {"zone_id": "0200WKHAN66VUAZHEB8H8P", "tract_id": "36081024700", "city": "FLUSHING, NY", "zone_code": "R5B", "zone_category": "Residential", "ev_permitted": false}, "geometry": {"type": "Polygon", "coordinates": [[[-73.9006956672699, 40.7425006520636], [-73.9006825772545, 40.7425657974205], [-73.9009878530641, 40.7426009071174], [-73.9010033499092, 40.7425360378312], [-73.9006956672699, 40.7425006520636]]]}}, {"type": "Feature", "properties": {"zone_id": "0202A3U87601HLUAPIK13C", "tract_id": "36081024700", "city": "FLUSHING, NY", "zone_code": "R5B", "zone_category": "Residential", "ev_permitted": false}, "geometry": {"type": "Polygon", "coordinates": [[[-73.9007086129925, 40.7424362261005], [-73.9006956672699, 40.7425006520636], [-73.9010033499092, 40.7425360378312], [-73.9010186765958, 40.7424718858086], [-73.9007086129925, 40.7424362261005]]]}}, {"type": "Feature", "properties": {"zone_id": "02061GX4BSVGCIC1RPONUU", "tract_id": "36081024700", "city": "FLUSHING, NY", "zone_code": "R5B", "zone_category": "Residential", "ev_permitted": false}, "geometry": {"type": "Polygon", "coordinates": [[[-73.9007216973732, 40.7423711081383], [-73.9007086129925, 40.7424362261005], [-73.9010186765958, 40.7424718858086], [-73.9010341668724, 40.7424070446178], [-73.9007216973732, 40.7423711081383]]]}}, {"type": "Feature", "properties": {"zone_id": "0204WLEHMBIFBUFUD6Q5RE", "tract_id": "36081024700", "city": "FLUSHING, NY", "zone_code": "R5B", "zone_category": "Residential", "ev_permitted": false}, "geometry": {"type": "Polygon", "coordinates": [[[-73.9007351167888, 40.7423043265718], [-73.9007216973732, 40.7423711081383], [-73.9010341668724, 40.7424070446178], [-73.9010500531345, 40.7423405469002], [-73.9007351167888, 40.7423043265718]]]}}, {"type": "Feature", "properties": {"zone_id": "02037OL60A5RAKKOFB7944", "tract_id": "36081024700", "city": "FLUSHING, NY", "zone_code": "R5B", "zone_category": "Residential", "ev_permitted": false}, "geometry": {"type": "Polygon", "coordinates": [[[-73.9003613544501, 40.7425016274026], [-73.9003491166947, 40.7425625287107], [-73.9006756869302, 40.7426000881471], [-73.9006879243939, 40.7425391868047], [-73.9003613544501, 40.7425016274026]]]}}, {"type": "Feature", "properties": {"zone_id": "0206P2LMDHGK5EHYBPU4AZ", "tract_id": "36081024700", "city": "FLUSHING, NY", "zone_code": "R5B", "zone_category": "Residential", "ev_permitted": false}, "geometry": {"type": "Polygon", "coordinates": [[[-73.9003734358181, 40.7424415016904], [-73.9003613544501, 40.7425016274026], [-73.9006879243939, 40.7425391868047], [-73.900700005474, 40.7424790610585], [-73.9003734358181, 40.7424415016904]]]}}, {"type": "Feature", "properties": {"zone_id": "0204REDEFONSY8B88T6IDK", "tract_id": "36081024700", "city": "FLUSHING, NY", "zone_code": "R5B", "zone_category": "Residential", "ev_permitted": false}, "geometry": {"type": "Polygon", "coordinates": [[[-73.9003853747569, 40.7423820848337], [-73.9003734358181, 40.7424415016904], [-73.900700005474, 40.7424790610585], [-73.9007119450523, 40.7424196441691], [-73.9003853747569, 40.7423820848337]]]}}, {"type": "Feature", "properties": {"zone_id": "0202RDX655Y3MMLG7IBHUJ", "tract_id": "36081024700", "city": "FLUSHING, NY", "zone_code": "R5B", "zone_category": "Residential", "ev_permitted": false}, "geometry": {"type": "Polygon", "coordinates": [[[-73.9003974625884, 40.7423219324226], [-73.9003853747569, 40.7423820848337], [-73.9007119450523, 40.7424196441691], [-73.9007240316718, 40.7423594917232], [-73.9003974625884, 40.7423219324226]]]}}, {"type": "Feature", "properties": {"zone_id": "0204B6CXAX3R21QMMHQRBD", "tract_id": "36081024700", "city": "FLUSHING, NY", "zone_code": "R5B", "zone_category": "Residential", "ev_permitted": false}, "geometry": {"type": "Polygon", "coordinates": [[[-73.9004099962474, 40.7422595515684], [-73.9003974625884, 40.7423219324226], [-73.9007240316718, 40.7423594917232], [-73.900736565956, 40.7422971108346], [-73.9004099962474, 40.7422595515684]]]}}, {"type": "Feature", "properties": {"zone_id": "0204XS67M6R5M4XCSXSJ4I", "tract_id": "36081024700", "city": "FLUSHING, NY", "zone_code": "R5B", "zone_category": "Residential", "ev_permitted": false}, "geometry": {"type": "Polygon", "coordinates": [[[-73.9004219918857, 40.7421998600167], [-73.9004099962474, 40.7422595515684], [-73.900736565956, 40.7422971108346], [-73.9007485603836, 40.7422374199511], [-73.9004219918857, 40.7421998600167]]]}}, {"type": "Feature", "properties": {"zone_id": "020636P0ZMFWBHOW8H5TJK", "tract_id": "36081024700", "city": "FLUSHING, NY", "zone_code": "R5B", "zone_category": "Residential", "ev_permitted": false}, "geometry": {"type": "Polygon", "coordinates": [[[-73.9004338869922, 40.7421406609388], [-73.9004219918857, 40.7421998600167], [-73.9007485603836, 40.7422374199511], [-73.9007604561315, 40.7421782201378], [-73.9004338869922, 40.7421406609388]]]}}, {"type": "Feature", "properties": {"zone_id": "0203UCXW4Q6E5XKBWZMOIP", "tract_id": "36081024700", "city": "FLUSHING, NY", "zone_code": "R5B", "zone_category": "Residential", "ev_permitted": false}, "geometry": {"type": "Polygon", "coordinates": [[[-73.9007485603836, 40.7422374199511], [-73.9007351167888, 40.7423043265718], [-73.9010500531345, 40.7423405469002], [-73.9010659691133, 40.7422739241325], [-73.9007485603836, 40.7422374199511]]]}}, {"type": "Feature", "properties": {"zone_id": "0201F1Z52AY7IAUNT6LQ55", "tract_id": "36081024700", "city": "FLUSHING, NY", "zone_code": "R5B", "zone_category": "Residential", "ev_permitted": false}, "geometry": {"type": "Polygon", "coordinates": [[[-73.8994505878093, 40.7423054495428], [-73.9000952583504, 40.742827090867], [-73.9001497683009, 40.7425562928302], [-73.8997868715503, 40.7425154814291], [-73.8998207710688, 40.7423470813178], [-73.8994505878093, 40.7423054495428]]]}}, {"type": "Feature", "properties": {"zone_id": "02003XR1LFR582R2O1EKCU", "tract_id": "36081024700", "city": "FLUSHING, NY", "zone_code": "R5B", "zone_category": "Residential", "ev_permitted": false}, "geometry": {"type": "Polygon", "coordinates": [[[-73.8998030050225, 40.7424353378044], [-73.8997868715503, 40.7425154814291], [-73.9001497683009, 40.7425562928302], [-73.9001659004227, 40.7424761491543], [-73.8998030050225, 40.7424353378044]]]}}, {"type": "Feature", "properties": {"zone_id": "0201HXJ2F3GLWAWFX0NQPH", "tract_id": "36081024700", "city": "FLUSHING, NY", "zone_code": "R5B", "zone_category": "Residential", "ev_permitted": false}, "geometry": {"type": "Polygon", "coordinates": [[[-73.89981433278, 40.7423790641605], [-73.8998030050225, 40.7424353378044], [-73.9001659004227, 40.7424761491543], [-73.9001772288045, 40.7424198754757], [-73.89981433278, 40.7423790641605]]]}}, {"type": "Feature", "properties": {"zone_id": "020737DUO5SPQA19ZH5Q3K", "tract_id": "36081024700", "city": "FLUSHING, NY", "zone_code": "R5B", "zone_category": "Residential", "ev_permitted": false}, "geometry": {"type": "Polygon", "coordinates": [[[-73.8998254901777, 40.7423236405813], [-73.89981433278, 40.7423790641605], [-73.9001772288045, 40.7424198754757], [-73.9001883849833, 40.742364451861], [-73.8998254901777, 40.7423236405813]]]}}, {"type": "Feature", "properties": {"zone_id": "0203AUG2IGHTWR7VBJH3HR", "tract_id": "36081024700", "city": "FLUSHING, NY", "zone_code": "R5B", "zone_category": "Residential", "ev_permitted": false}, "geometry": {"type": "Polygon", "coordinates": [[[-73.8998423160684, 40.742240053831], [-73.8998254901777, 40.7423236405813], [-73.9001883849833, 40.742364451861], [-73.90020521043, 40.7422808643555], [-73.8998423160684, 40.742240053831]]]}}, {"type": "Feature", "properties": {"zone_id": "0200DJOJN9S44SU8HMVS2L", "tract_id": "36081024700", "city": "FLUSHING, NY", "zone_code": "R5B", "zone_category": "Residential", "ev_permitted": false}, "geometry": {"type": "Polygon", "coordinates": [[[-73.8998637279008, 40.7421336846121], [-73.8998423160684, 40.742240053831], [-73.90020521043, 40.7422808643555], [-73.9002266216962, 40.7421744950698], [-73.8998637279008, 40.7421336846121]]]}}, {"type": "Feature", "properties": {"zone_id": "0207G6FKLQ8NFBL99NHM6O", "tract_id": "36081024700", "city": "FLUSHING, NY", "zone_code": "R5B", "zone_category": "Residential", "ev_permitted": false}, "geometry": {"type": "Polygon", "coordinates": [[[-73.8998752578714, 40.7420761842972], [-73.8998637279008, 40.7421336846121], [-73.9002266216962, 40.7421744950698], [-73.9002381947736, 40.7421169996751], [-73.8998752578714, 40.7420761842972]]]}}, {"type": "Feature", "properties": {"zone_id": "0203BQ5BLWJIFY91TGB7XT", "tract_id": "36081024700", "city": "FLUSHING, NY", "zone_code": "R5B", "zone_category": "Residential", "ev_permitted": false}, "geometry": {"type": "Polygon", "coordinates": [[[-73.8998853239597, 40.7420263999863], [-73.8998752578714, 40.7420761842972], [-73.9002381947736, 40.7421169996751], [-73.9002482162601, 40.7420672103757], [-73.8998853239597, 40.7420263999863]]]}}, {"type": "Feature", "properties": {"zone_id": "0201G9YZ4T8ID4OH7W3Y95", "tract_id": "36081024700", "city": "FLUSHING, NY", "zone_code": "R5B", "zone_category": "Residential", "ev_permitted": false}, "geometry": {"type": "Polygon", "coordinates": [[[-73.8994723874026, 40.7421984504526], [-73.8994505878093, 40.7423054495428], [-73.8998207710688, 40.7423470813178], [-73.8998423160684, 40.742240053831], [-73.8994723874026, 40.7421984504526]]]}}, {"type": "Feature", "properties": {"zone_id": "0203TJX4Z6QQIUBQ9UQCGU", "tract_id": "36081024700", "city": "FLUSHING, NY", "zone_code": "R5B", "zone_category": "Residential", "ev_permitted": false}, "geometry": {"type": "Polygon", "coordinates": [[[-73.899494055672, 40.7420921096315], [-73.8994723874026, 40.7421984504526], [-73.8998423160684, 40.742240053831], [-73.8998637279008, 40.7421336846121], [-73.899494055672, 40.7420921096315]]]}}, {"type": "Feature", "properties": {"zone_id": "0200AMMOOQ6C965JCOXAN9", "tract_id": "36081024700", "city": "FLUSHING, NY", "zone_code": "R5B", "zone_category": "Residential", "ev_permitted": false}, "geometry": {"type": "Polygon", "coordinates": [[[-73.8995057679189, 40.742034629889], [-73.899494055672, 40.7420921096315], [-73.8998637279008, 40.7421336846121], [-73.8998752578714, 40.7420761842972], [-73.8995057679189, 40.742034629889]]]}}, {"type": "Feature", "properties": {"zone_id": "0201Q18PE83DRGQ3OAUDY8", "tract_id": "36081024700", "city": "FLUSHING, NY", "zone_code": "R5B", "zone_category": "Residential", "ev_permitted": false}, "geometry": {"type": "Polygon", "coordinates": [[[-73.9008467937665, 40.741776892047], [-73.9008361122854, 40.7418285070365], [-73.9011755222081, 40.7418673837609], [-73.9011941682794, 40.7418166820008], [-73.9008467937665, 40.741776892047]]]}}, {"type": "Feature", "properties": {"zone_id": "020628PI4I2ZBC4V6UCBOQ", "tract_id": "36081024700", "city": "FLUSHING, NY", "zone_code": "R5B", "zone_category": "Residential", "ev_permitted": false}, "geometry": {"type": "Polygon", "coordinates": [[[-73.9008361122854, 40.7418285070365], [-73.9008245170188, 40.7418845325163], [-73.9011552834569, 40.7419224195424], [-73.9011755222081, 40.7418673837609], [-73.9008361122854, 40.7418285070365]]]}}, {"type": "Feature", "properties": {"zone_id": "0203Q9OF06755JFOJFB7YN", "tract_id": "36081024700", "city": "FLUSHING, NY", "zone_code": "R5B", "zone_category": "Residential", "ev_permitted": false}, "geometry": {"type": "Polygon", "coordinates": [[[-73.9008245170188, 40.7418845325163], [-73.9008135302936, 40.7419376200085], [-73.9011361048975, 40.7419745690138], [-73.9011552834569, 40.7419224195424], [-73.9008245170188, 40.7418845325163]]]}}, {"type": "Feature", "properties": {"zone_id": "0205HLA37L707LSP38GDVN", "tract_id": "36081024700", "city": "FLUSHING, NY", "zone_code": "R5B", "zone_category": "Residential", "ev_permitted": false}, "geometry": {"type": "Polygon", "coordinates": [[[-73.9008135302936, 40.7419376200085], [-73.9008019414977, 40.7419936173845], [-73.9011158753613, 40.7420295766893], [-73.9011361048975, 40.7419745690138], [-73.9008135302936, 40.7419376200085]]]}}, {"type": "Feature", "properties": {"zone_id": "0201Z5CN5FO1F1B5OQ6BUV", "tract_id": "36081024700", "city": "FLUSHING, NY", "zone_code": "R5B", "zone_category": "Residential", "ev_permitted": false}, "geometry": {"type": "Polygon", "coordinates": [[[-73.9008019414977, 40.7419936173845], [-73.9007897124809, 40.7420527058967], [-73.9010941486783, 40.7420886549704], [-73.9011158753613, 40.7420295766893], [-73.9008019414977, 40.7419936173845]]]}}, {"type": "Feature", "properties": {"zone_id": "0207F5N76OCPTM8Q9DC00L", "tract_id": "36081024700", "city": "FLUSHING, NY", "zone_code": "R5B", "zone_category": "Residential", "ev_permitted": false}, "geometry": {"type": "Polygon", "coordinates": [[[-73.9008764168849, 40.7416337575709], [-73.9008614159847, 40.741706237047], [-73.9012196931861, 40.7417472750927], [-73.9012458766138, 40.7416760769685], [-73.9008764168849, 40.7416337575709]]]}}, {"type": "Feature", "properties": {"zone_id": "0206NP943W4OZGZHKYTO06", "tract_id": "36081024700", "city": "FLUSHING, NY", "zone_code": "R5B", "zone_category": "Residential", "ev_permitted": false}, "geometry": {"type": "Polygon", "coordinates": [[[-73.9008614159847, 40.741706237047], [-73.9008467937665, 40.741776892047], [-73.9011941682794, 40.7418166820008], [-73.9012196931861, 40.7417472750927], [-73.9008614159847, 40.741706237047]]]}}, {"type": "Feature", "properties": {"zone_id": "0201QM8WF6KTTSCDX7KVU6", "tract_id": "36081024700", "city": "FLUSHING, NY", "zone_code": "R7X", "zone_category": "Residential", "ev_permitted": false}, "geometry": {"type": "Polygon", "coordinates": [[[-73.9006122443083, 40.7413215706995], [-73.9005552480549, 40.7415969685518], [-73.9012458766138, 40.7416760769685], [-73.9013453653372, 40.7414055452493], [-73.9006122443083, 40.7413215706995]]]}}, {"type": "Feature", "properties": {"zone_id": "0200TE8ACX3SHBQ3F8HM2T", "tract_id": "36081024700", "city": "FLUSHING, NY", "zone_code": "R5B", "zone_category": "Residential", "ev_permitted": false}, "geometry": {"type": "Polygon", "coordinates": [[[-73.9005149425378, 40.7417917186086], [-73.9005033470085, 40.7418477433537], [-73.9008245170188, 40.7418845325163], [-73.9008361122854, 40.7418285070365], [-73.9005149425378, 40.7417917186086]]]}}, {"type": "Feature", "properties": {"zone_id": "0204UQUZH166V57J2DYFKS", "tract_id": "36081024700", "city": "FLUSHING, NY", "zone_code": "R5B", "zone_category": "Residential", "ev_permitted": false}, "geometry": {"type": "Polygon", "coordinates": [[[-73.9005033470085, 40.7418477433537], [-73.9004923609563, 40.741900831519], [-73.9008135302936, 40.7419376200085], [-73.9008245170188, 40.7418845325163], [-73.9005033470085, 40.7418477433537]]]}}, {"type": "Feature", "properties": {"zone_id": "02015NSMXEULQPKNGA9GXA", "tract_id": "36081024700", "city": "FLUSHING, NY", "zone_code": "R5B", "zone_category": "Residential", "ev_permitted": false}, "geometry": {"type": "Polygon", "coordinates": [[[-73.9004923609563, 40.741900831519], [-73.9004807709731, 40.7419568288622], [-73.9008019414977, 40.7419936173845], [-73.9008135302936, 40.7419376200085], [-73.9004923609563, 40.741900831519]]]}}, {"type": "Feature", "properties": {"zone_id": "020156SR7NMMGVZXMLMZUS", "tract_id": "36081024700", "city": "FLUSHING, NY", "zone_code": "R5B", "zone_category": "Residential", "ev_permitted": false}, "geometry": {"type": "Polygon", "coordinates": [[[-73.9004807709731, 40.7419568288622], [-73.9004687715245, 40.742014806639], [-73.9007897124809, 40.7420527058967], [-73.9008019414977, 40.7419936173845], [-73.9004807709731, 40.7419568288622]]]}}, {"type": "Feature", "properties": {"zone_id": "02052353LM2G7EHOYTLV25", "tract_id": "36081024700", "city": "FLUSHING, NY", "zone_code": "R5B", "zone_category": "Residential", "ev_permitted": false}, "geometry": {"type": "Polygon", "coordinates": [[[-73.9005552480549, 40.7415969685518], [-73.9005402477374, 40.7416694479872], [-73.9008614159847, 40.741706237047], [-73.9008764168849, 40.7416337575709], [-73.9005552480549, 40.7415969685518]]]}}, {"type": "Feature", "properties": {"zone_id": "0207AHURVWUSUZ9OTU7SGV", "tract_id": "36081024700", "city": "FLUSHING, NY", "zone_code": "R5B", "zone_category": "Residential", "ev_permitted": false}, "geometry": {"type": "Polygon", "coordinates": [[[-73.9005402477374, 40.7416694479872], [-73.9005256251857, 40.7417401036494], [-73.9008467937665, 40.741776892047], [-73.9008614159847, 40.741706237047], [-73.9005402477374, 40.7416694479872]]]}}, {"type": "Feature", "properties": {"zone_id": "0202AV7MC6RKIRNY9ZOSHN", "tract_id": "36081024700", "city": "FLUSHING, NY", "zone_code": "R5B", "zone_category": "Residential", "ev_permitted": false}, "geometry": {"type": "Polygon", "coordinates": [[[-73.9005256251857, 40.7417401036494], [-73.9005149425378, 40.7417917186086], [-73.9008361122854, 40.7418285070365], [-73.9008467937665, 40.741776892047], [-73.9005256251857, 40.7417401036494]]]}}, {"type": "Feature", "properties": {"zone_id": "0206R70QKKU5EZN6O592Q2", "tract_id": "36081024700", "city": "FLUSHING, NY", "zone_code": "R5B", "zone_category": "Residential", "ev_permitted": false}, "geometry": {"type": "Polygon", "coordinates": [[[-73.8999509698932, 40.7417002823967], [-73.8998965296492, 40.7419707298071], [-73.9002594235009, 40.7420115401632], [-73.9003138613813, 40.741741092582], [-73.8999509698932, 40.7417002823967]]]}}, {"type": "Feature", "properties": {"zone_id": "0205LQZ5669FZ97NJ6RY9U", "tract_id": "36081024700", "city": "FLUSHING, NY", "zone_code": "R5B", "zone_category": "Residential", "ev_permitted": false}, "geometry": {"type": "Polygon", "coordinates": [[[-73.8998965296492, 40.7419707298071], [-73.8998853239597, 40.7420263999863], [-73.9002482162601, 40.7420672103757], [-73.9002594235009, 40.7420115401632], [-73.8998965296492, 40.7419707298071]]]}}, {"type": "Feature", "properties": {"zone_id": "0205YR1M06VCTB39LO5CLC", "tract_id": "36081024700", "city": "FLUSHING, NY", "zone_code": "R5B", "zone_category": "Residential", "ev_permitted": false}, "geometry": {"type": "Polygon", "coordinates": [[[-73.8995555075414, 40.7417905057056], [-73.8995389277095, 40.7418718792657], [-73.8999080713261, 40.7419133939195], [-73.8999244558209, 40.7418319990578], [-73.8995555075414, 40.7417905057056]]]}}, {"type": "Feature", "properties": {"zone_id": "02025BF1MMIZJDT8TVLOKI", "tract_id": "36081024700", "city": "FLUSHING, NY", "zone_code": "R5B", "zone_category": "Residential", "ev_permitted": false}, "geometry": {"type": "Polygon", "coordinates": [[[-73.8995389277095, 40.7418718792657], [-73.8995159090948, 40.7419848541073], [-73.8998853239597, 40.7420263999863], [-73.8999080713261, 40.7419133939195], [-73.8995389277095, 40.7418718792657]]]}}, {"type": "Feature", "properties": {"zone_id": "02063FHUXCYBPI03TXOGN9", "tract_id": "36081024700", "city": "FLUSHING, NY", "zone_code": "R5B", "zone_category": "Residential", "ev_permitted": false}, "geometry": {"type": "Polygon", "coordinates": [[[-73.8995159090948, 40.7419848541073], [-73.8995057679189, 40.742034629889], [-73.8998752578714, 40.7420761842972], [-73.8998853239597, 40.7420263999863], [-73.8995159090948, 40.7419848541073]]]}}, {"type": "Feature", "properties": {"zone_id": "02035OLTPAF2OHCM8KB01R", "tract_id": "36081024700", "city": "FLUSHING, NY", "zone_code": "R5B", "zone_category": "Residential", "ev_permitted": false}, "geometry": {"type": "Polygon", "coordinates": [[[-73.8999842831315, 40.7415347886001], [-73.899973004064, 40.7415908198929], [-73.9003358949685, 40.741631630712], [-73.9003471737376, 40.741575599384], [-73.8999842831315, 40.7415347886001]]]}}, {"type": "Feature", "properties": {"zone_id": "0202J59HHB7OLG27JIVZ8Q", "tract_id": "36081024700", "city": "FLUSHING, NY", "zone_code": "R5B", "zone_category": "Residential", "ev_permitted": false}, "geometry": {"type": "Polygon", "coordinates": [[[-73.899973004064, 40.7415908198929], [-73.8999622946102, 40.7416440213778], [-73.9003251094699, 40.7416852158149], [-73.9003358949685, 40.741631630712], [-73.899973004064, 40.7415908198929]]]}}, {"type": "Feature", "properties": {"zone_id": "0203R0X6OATT4NV7LHI1VM", "tract_id": "36081024700", "city": "FLUSHING, NY", "zone_code": "R5B", "zone_category": "Residential", "ev_permitted": false}, "geometry": {"type": "Polygon", "coordinates": [[[-73.8999622946102, 40.7416440213778], [-73.8999509698932, 40.7417002823967], [-73.9003138613813, 40.741741092582], [-73.9003251094699, 40.7416852158149], [-73.8999622946102, 40.7416440213778]]]}}, {"type": "Feature", "properties": {"zone_id": "0204IEI6G6J95CBN77EBG4", "tract_id": "36081024700", "city": "FLUSHING, NY", "zone_code": "R5B", "zone_category": "Residential", "ev_permitted": false}, "geometry": {"type": "Polygon", "coordinates": [[[-73.899585892628, 40.7416413743463], [-73.8995736891006, 40.7417012665947], [-73.8999424244512, 40.7417427365168], [-73.8999544835628, 40.7416828272408], [-73.899585892628, 40.7416413743463]]]}}, {"type": "Feature", "properties": {"zone_id": "0205FR19149WLT5VSC64LA", "tract_id": "36081024700", "city": "FLUSHING, NY", "zone_code": "R5B", "zone_category": "Residential", "ev_permitted": false}, "geometry": {"type": "Polygon", "coordinates": [[[-73.899616047687, 40.7414933754581], [-73.8996016784453, 40.7415638991269], [-73.8999700833025, 40.741605331433], [-73.8999842831315, 40.7415347886001], [-73.899616047687, 40.7414933754581]]]}}, {"type": "Feature", "properties": {"zone_id": "0203MAA5625180IA24FQMN", "tract_id": "36081024700", "city": "FLUSHING, NY", "zone_code": "R5B", "zone_category": "Residential", "ev_permitted": false}, "geometry": {"type": "Polygon", "coordinates": [[[-73.8996016784453, 40.7415638991269], [-73.899585892628, 40.7416413743463], [-73.8999544835628, 40.7416828272408], [-73.8999700833025, 40.741605331433], [-73.8996016784453, 40.7415638991269]]]}}, {"type": "Feature", "properties": {"zone_id": "0200TTCUU6SJS1NBJ08SKI", "tract_id": "36081024700", "city": "FLUSHING, NY", "zone_code": "R5B", "zone_category": "Residential", "ev_permitted": false}, "geometry": {"type": "Polygon", "coordinates": [[[-73.8995736891006, 40.7417012665947], [-73.8995555075414, 40.7417905057056], [-73.8999244558209, 40.7418319990578], [-73.8999424244512, 40.7417427365168], [-73.8995736891006, 40.7417012665947]]]}}, {"type": "Feature", "properties": {"zone_id": "02052J56P2DVZEPVPB3K50", "tract_id": "36081024700", "city": "FLUSHING, NY", "zone_code": "R7X", "zone_category": "Residential", "ev_permitted": false}, "geometry": {"type": "Polygon", "coordinates": [[[-73.9000397567376, 40.7412592049058], [-73.8999962044111, 40.7414755656939], [-73.900359094702, 40.7415163764406], [-73.9004026458777, 40.7413000148138], [-73.9000397567376, 40.7412592049058]]]}}, {"type": "Feature", "properties": {"zone_id": "020482B2F6XCYDJB4LAY7W", "tract_id": "36081024700", "city": "FLUSHING, NY", "zone_code": "R7X", "zone_category": "Residential", "ev_permitted": false}, "geometry": {"type": "Polygon", "coordinates": [[[-73.8999962044111, 40.7414755656939], [-73.8999842831315, 40.7415347886001], [-73.9003471737376, 40.741575599384], [-73.900359094702, 40.7415163764406], [-73.8999962044111, 40.7414755656939]]]}}, {"type": "Feature", "properties": {"zone_id": "02073WC0EFCXUULGBQRK3S", "tract_id": "36081024700", "city": "FLUSHING, NY", "zone_code": "R7X", "zone_category": "Residential", "ev_permitted": false}, "geometry": {"type": "Polygon", "coordinates": [[[-73.8998265307804, 40.7412352248726], [-73.8997710563133, 40.7415108077625], [-73.8999842831315, 40.7415347886001], [-73.9000397567376, 40.7412592049058], [-73.8998265307804, 40.7412352248726]]]}}, {"type": "Feature", "properties": {"zone_id": "02058D4RQTOQEFWMT382XU", "tract_id": "36081024700", "city": "FLUSHING, NY", "zone_code": "R7X", "zone_category": "Residential", "ev_permitted": false}, "geometry": {"type": "Polygon", "coordinates": [[[-73.899672181356, 40.7412178662921], [-73.899616047687, 40.7414933754581], [-73.8997710563133, 40.7415108077625], [-73.8998265307804, 40.7412352248726], [-73.899672181356, 40.7412178662921]]]}}, {"type": "Feature", "properties": {"zone_id": "0203GFKAJR3S7OYDS1S9EC", "tract_id": "36081024700", "city": "FLUSHING, NY", "zone_code": "R6A", "zone_category": "Residential", "ev_permitted": false}, "geometry": {"type": "Polygon", "coordinates": [[[-73.8983818994778, 40.7429603382325], [-73.8983337118279, 40.7432005297717], [-73.8984007621932, 40.7432168659788], [-73.8984505908256, 40.7429684941259], [-73.8983818994778, 40.7429603382325]]]}}, {"type": "Feature", "properties": {"zone_id": "02056835RRNZ728LUZF73F", "tract_id": "36081024700", "city": "FLUSHING, NY", "zone_code": "R4-1", "zone_category": "Residential", "ev_permitted": false}, "geometry": {"type": "Polygon", "coordinates": [[[-73.898444130361, 40.742295746014], [-73.89843245654, 40.7423522349353], [-73.8987900305376, 40.7423946887402], [-73.8988013706183, 40.7423381594387], [-73.898444130361, 40.742295746014]]]}}, {"type": "Feature", "properties": {"zone_id": "0203LW6KVS3SXIFV7D53IB", "tract_id": "36081024700", "city": "FLUSHING, NY", "zone_code": "R4-1", "zone_category": "Residential", "ev_permitted": false}, "geometry": {"type": "Polygon", "coordinates": [[[-73.89843245654, 40.7423522349353], [-73.8984150234776, 40.7424365973799], [-73.898773094854, 40.7424791099958], [-73.8987900305376, 40.7423946887402], [-73.89843245654, 40.7423522349353]]]}}, {"type": "Feature", "properties": {"zone_id": "020562AK9YFR1VCA6FE6C1", "tract_id": "36081024700", "city": "FLUSHING, NY", "zone_code": "R4-1", "zone_category": "Residential", "ev_permitted": false}, "geometry": {"type": "Polygon", "coordinates": [[[-73.8984150234776, 40.7424365973799], [-73.8983984103263, 40.7425169919396], [-73.8987569559714, 40.7425595598303], [-73.898773094854, 40.7424791099958], [-73.8984150234776, 40.7424365973799]]]}}, {"type": "Feature", "properties": {"zone_id": "0202AOK8LYQD3ATQMGGJ1H", "tract_id": "36081024700", "city": "FLUSHING, NY", "zone_code": "R4-1", "zone_category": "Residential", "ev_permitted": false}, "geometry": {"type": "Polygon", "coordinates": [[[-73.8985005931305, 40.7420225080193], [-73.898444130361, 40.742295746014], [-73.8988013706183, 40.7423381594387], [-73.8986703999931, 40.7422001500233], [-73.8986813365577, 40.7421520389064], [-73.8986116653511, 40.7421423786011], [-73.8985005931305, 40.7420225080193]]]}}, {"type": "Feature", "properties": {"zone_id": "020074MQD401KXT877QHP7", "tract_id": "36081024700", "city": "", "zone_code": "R6A", "zone_category": "Residential", "ev_permitted": false}, "geometry": {"type": "Polygon", "coordinates": [[[-73.8980178546949, 40.7428654768212], [-73.8979678485001, 40.7431141715566], [-73.8980643327604, 40.74313761681], [-73.898116678956, 40.7428772867054], [-73.8980178546949, 40.7428654768212]]]}}, {"type": "Feature", "properties": {"zone_id": "02019SIH57B74E89VER2ZW", "tract_id": "36081024700", "city": "FLUSHING, NY", "zone_code": "R4-1", "zone_category": "Residential", "ev_permitted": false}, "geometry": {"type": "Polygon", "coordinates": [[[-73.8993437174759, 40.7428299554024], [-73.8992833173027, 40.7431263892426], [-73.8996524529325, 40.7431679025875], [-73.8993437174759, 40.7428299554024]]]}}, {"type": "Feature", "properties": {"zone_id": "020381WYLBHQP3ZK9ZYQMW", "tract_id": "36081024700", "city": "FLUSHING, NY", "zone_code": "R4-1", "zone_category": "Residential", "ev_permitted": false}, "geometry": {"type": "Polygon", "coordinates": [[[-73.8987023486085, 40.7428317617376], [-73.8986811296241, 40.7429375266168], [-73.8990409727139, 40.7429802479393], [-73.8990636062193, 40.7428746507642], [-73.8987023486085, 40.7428317617376]]]}}, {"type": "Feature", "properties": {"zone_id": "0206D030WQ0V8T5F5K5RV4", "tract_id": "36081024700", "city": "FLUSHING, NY", "zone_code": "R4-1", "zone_category": "Residential", "ev_permitted": false}, "geometry": {"type": "Polygon", "coordinates": [[[-73.8986811296241, 40.7429375266168], [-73.8986696990391, 40.7429945076305], [-73.899028748987, 40.7430371341367], [-73.8990409727139, 40.7429802479393], [-73.8986811296241, 40.7429375266168]]]}}, {"type": "Feature", "properties": {"zone_id": "0201MJQJWAD6HD6YD468HG", "tract_id": "36081024700", "city": "FLUSHING, NY", "zone_code": "R4-1", "zone_category": "Residential", "ev_permitted": false}, "geometry": {"type": "Polygon", "coordinates": [[[-73.8987242768815, 40.7427224532767], [-73.8987023486085, 40.7428317617376], [-73.8990636062193, 40.7428746507642], [-73.8990864155141, 40.742768225305], [-73.8988129457331, 40.742735758021], [-73.8988135254025, 40.7427330490864], [-73.8987242768815, 40.7427224532767]]]}}, {"type": "Feature", "properties": {"zone_id": "0200EWVNHD03AEX8PTHYWZ", "tract_id": "36081024700", "city": "FLUSHING, NY", "zone_code": "R4-1", "zone_category": "Residential", "ev_permitted": false}, "geometry": {"type": "Polygon", "coordinates": [[[-73.8986696990391, 40.7429945076305], [-73.8986581129762, 40.743052261428], [-73.8990163956474, 40.7430947966543], [-73.899028748987, 40.7430371341367], [-73.8986696990391, 40.7429945076305]]]}}, {"type": "Feature", "properties": {"zone_id": "0202H413A4FGUTB3CE5KAH", "tract_id": "36081024700", "city": "FLUSHING, NY", "zone_code": "R4-1", "zone_category": "Residential", "ev_permitted": false}, "geometry": {"type": "Polygon", "coordinates": [[[-73.8983366081247, 40.7428160618359], [-73.8983203586984, 40.7428946937359], [-73.8986811296241, 40.7429375266168], [-73.898696915871, 40.7428588401548], [-73.8983366081247, 40.7428160618359]]]}}, {"type": "Feature", "properties": {"zone_id": "020710F8UGDQRMFP6JSJR3", "tract_id": "36081024700", "city": "FLUSHING, NY", "zone_code": "R4-1", "zone_category": "Residential", "ev_permitted": false}, "geometry": {"type": "Polygon", "coordinates": [[[-73.8983203586984, 40.7428946937359], [-73.8983085915921, 40.7429516350685], [-73.8986696990391, 40.7429945076305], [-73.8986811296241, 40.7429375266168], [-73.8983203586984, 40.7428946937359]]]}}, {"type": "Feature", "properties": {"zone_id": "0205L68HN5I78V6RHO2J8I", "tract_id": "36081024700", "city": "FLUSHING, NY", "zone_code": "R6A", "zone_category": "Residential", "ev_permitted": false}, "geometry": {"type": "Polygon", "coordinates": [[[-73.8983085915921, 40.7429516350685], [-73.8982614298268, 40.7431829192039], [-73.8983337118279, 40.7432005297717], [-73.8983818994778, 40.7429603382325], [-73.8983085915921, 40.7429516350685]]]}}, {"type": "Feature", "properties": {"zone_id": "0203L8DHWUVO1SECWPKUFO", "tract_id": "36081024700", "city": "FLUSHING, NY", "zone_code": "R4-1", "zone_category": "Residential", "ev_permitted": false}, "geometry": {"type": "Polygon", "coordinates": [[[-73.8983984103263, 40.7425169919396], [-73.8983769341639, 40.7426209183912], [-73.8987360918271, 40.7426635599622], [-73.8987569559714, 40.7425595598303], [-73.8983984103263, 40.7425169919396]]]}}, {"type": "Feature", "properties": {"zone_id": "0204WXUF1OT68RB7GJNS2T", "tract_id": "36081024700", "city": "FLUSHING, NY", "zone_code": "R4-1", "zone_category": "Residential", "ev_permitted": false}, "geometry": {"type": "Polygon", "coordinates": [[[-73.8983769341639, 40.7426209183912], [-73.8983652285825, 40.7426775618596], [-73.898724720916, 40.7427202424069], [-73.8987360918271, 40.7426635599622], [-73.8983769341639, 40.7426209183912]]]}}, {"type": "Feature", "properties": {"zone_id": "02067DFJATKBE0VJNW01Y4", "tract_id": "36081024700", "city": "FLUSHING, NY", "zone_code": "R4-1", "zone_category": "Residential", "ev_permitted": false}, "geometry": {"type": "Polygon", "coordinates": [[[-73.8983652285825, 40.7426775618596], [-73.8983530306307, 40.7427365890056], [-73.8987128705771, 40.7427793113528], [-73.898724720916, 40.7427202424069], [-73.8983652285825, 40.7426775618596]]]}}, {"type": "Feature", "properties": {"zone_id": "020262JDBSWB8UHP5CHOWC", "tract_id": "36081024700", "city": "FLUSHING, NY", "zone_code": "R4-1", "zone_category": "Residential", "ev_permitted": false}, "geometry": {"type": "Polygon", "coordinates": [[[-73.8983530306307, 40.7427365890056], [-73.8983366081247, 40.7428160618359], [-73.898696915871, 40.7428588401548], [-73.8987128705771, 40.7427793113528], [-73.8983530306307, 40.7427365890056]]]}}, {"type": "Feature", "properties": {"zone_id": "0204LLEET902G9Q0OE9DYM", "tract_id": "36081024700", "city": "FLUSHING, NY", "zone_code": "R4-1", "zone_category": "Residential", "ev_permitted": false}, "geometry": {"type": "Polygon", "coordinates": [[[-73.8988013706183, 40.7423381594387], [-73.8987242768815, 40.7427224532767], [-73.8988135254025, 40.7427330490864], [-73.8988129457331, 40.742735758021], [-73.8990864155141, 40.742768225305], [-73.8991339496026, 40.7425464396592], [-73.8989818987362, 40.7425283879476], [-73.8988013706183, 40.7423381594387]]]}}, {"type": "Feature", "properties": {"zone_id": "02044TYEK9GOT590P0YW9J", "tract_id": "36081024700", "city": "FLUSHING, NY", "zone_code": "R6A", "zone_category": "Residential", "ev_permitted": false}, "geometry": {"type": "Polygon", "coordinates": [[[-73.8979410269155, 40.7428562953103], [-73.8979015694044, 40.7430980662521], [-73.8979678485001, 40.7431141715566], [-73.8980178546949, 40.7428654768212], [-73.8979410269155, 40.7428562953103]]]}}, {"type": "Feature", "properties": {"zone_id": "0207BPP3FZTMPMR0ON8QHA", "tract_id": "36081024700", "city": "FLUSHING, NY", "zone_code": "R6A", "zone_category": "Residential", "ev_permitted": false}, "geometry": {"type": "Polygon", "coordinates": [[[-73.8978622899168, 40.7428468857995], [-73.8978259038357, 40.7430796787861], [-73.8979015694044, 40.7430980662521], [-73.8979410269155, 40.7428562953103], [-73.8978622899168, 40.7428468857995]]]}}, {"type": "Feature", "properties": {"zone_id": "0205VV2ZLQ09VM7YV41IGJ", "tract_id": "36081024700", "city": "FLUSHING, NY", "zone_code": "R4-1", "zone_category": "Residential", "ev_permitted": false}, "geometry": {"type": "Polygon", "coordinates": [[[-73.8977929385217, 40.7427656625195], [-73.8977323795742, 40.7430569533734], [-73.8978259038357, 40.7430796787861], [-73.8978734811997, 40.7427752886919], [-73.8977929385217, 40.7427656625195]]]}}, {"type": "Feature", "properties": {"zone_id": "0205TWDI8A736NMM8VN2DB", "tract_id": "36081024700", "city": "FLUSHING, NY", "zone_code": "R4-1", "zone_category": "Residential", "ev_permitted": false}, "geometry": {"type": "Polygon", "coordinates": [[[-73.8974763747423, 40.7427278304837], [-73.8974237991892, 40.7429819689934], [-73.8977323795742, 40.7430569533734], [-73.8977929385217, 40.7427656625195], [-73.8974763747423, 40.7427278304837]]]}}, {"type": "Feature", "properties": {"zone_id": "0204HIFQFSO6R2S55JREDM", "tract_id": "36081024700", "city": "FLUSHING, NY", "zone_code": "R4-1", "zone_category": "Residential", "ev_permitted": false}, "geometry": {"type": "Polygon", "coordinates": [[[-73.8979141101878, 40.7425153417627], [-73.8978970579407, 40.7426244414915], [-73.8981611715171, 40.7426560046837], [-73.8981829931876, 40.7425474754744], [-73.8979141101878, 40.7425153417627]]]}}, {"type": "Feature", "properties": {"zone_id": "0202XO0E7IERHW4LSKCHSY", "tract_id": "36081024700", "city": "FLUSHING, NY", "zone_code": "R4-1", "zone_category": "Residential", "ev_permitted": false}, "geometry": {"type": "Polygon", "coordinates": [[[-73.8978970579407, 40.7426244414915], [-73.8978800056388, 40.7427335405135], [-73.8981393497755, 40.7427645338872], [-73.8981611715171, 40.7426560046837], [-73.8978970579407, 40.7426244414915]]]}}, {"type": "Feature", "properties": {"zone_id": "0202G6GR8LEI3XF2X3BIWW", "tract_id": "36081024700", "city": "FLUSHING, NY", "zone_code": "R4-1", "zone_category": "Residential", "ev_permitted": false}, "geometry": {"type": "Polygon", "coordinates": [[[-73.8978800056388, 40.7427335405135], [-73.8978718419347, 40.7427857715776], [-73.8981289029422, 40.7428164917244], [-73.8981393497755, 40.7427645338872], [-73.8978800056388, 40.7427335405135]]]}}, {"type": "Feature", "properties": {"zone_id": "0206MDLEOYCAYL77O4H7PQ", "tract_id": "36081024700", "city": "FLUSHING, NY", "zone_code": "R4-1", "zone_category": "Residential", "ev_permitted": false}, "geometry": {"type": "Polygon", "coordinates": [[[-73.8978718419347, 40.7427857715776], [-73.8978622899168, 40.7428468857995], [-73.898116678956, 40.7428772867054], [-73.8981289029422, 40.7428164917244], [-73.8978718419347, 40.7427857715776]]]}}, {"type": "Feature", "properties": {"zone_id": "0202YAS6JNF9BRAY7VNQMU", "tract_id": "36081024700", "city": "FLUSHING, NY", "zone_code": "R4-1", "zone_category": "Residential", "ev_permitted": false}, "geometry": {"type": "Polygon", "coordinates": [[[-73.8975051596063, 40.7425886914466], [-73.8974763747423, 40.7427278304837], [-73.8978734811997, 40.7427752886919], [-73.8978953570969, 40.7426353241347], [-73.8975051596063, 40.7425886914466]]]}}, {"type": "Feature", "properties": {"zone_id": "0204LKCKM0B3XK498AOLN4", "tract_id": "36081024700", "city": "FLUSHING, NY", "zone_code": "R4-1", "zone_category": "Residential", "ev_permitted": false}, "geometry": {"type": "Polygon", "coordinates": [[[-73.8971083199057, 40.7426158529334], [-73.8970502746213, 40.7429005920049], [-73.8972249250279, 40.7429395641444], [-73.8972866242481, 40.7426368971515], [-73.8971083199057, 40.7426158529334]]]}}, {"type": "Feature", "properties": {"zone_id": "0201CXW66L18O9TH6UZ2YS", "tract_id": "36081024700", "city": "FLUSHING, NY", "zone_code": "R4-1", "zone_category": "Residential", "ev_permitted": false}, "geometry": {"type": "Polygon", "coordinates": [[[-73.8970145881989, 40.7426047908503], [-73.8969584639189, 40.7428801054556], [-73.8970502746213, 40.7429005920049], [-73.8971083199057, 40.7426158529334], [-73.8970145881989, 40.7426047908503]]]}}, {"type": "Feature", "properties": {"zone_id": "0206XT0I7JL0UDR4ISVCBU", "tract_id": "36081024700", "city": "FLUSHING, NY", "zone_code": "R4-1", "zone_category": "Residential", "ev_permitted": false}, "geometry": {"type": "Polygon", "coordinates": [[[-73.8969961546236, 40.7425331750598], [-73.8969370727698, 40.7425817600971], [-73.896934309836, 40.7425953153843], [-73.8972866242481, 40.7426368971515], [-73.8973004459967, 40.7425690883568], [-73.8969961546236, 40.7425331750598]]]}}, {"type": "Feature", "properties": {"zone_id": "0206SP8U0CXW1XK8ZLTSZX", "tract_id": "36081024700", "city": "FLUSHING, NY", "zone_code": "R4-1", "zone_category": "Residential", "ev_permitted": false}, "geometry": {"type": "Polygon", "coordinates": [[[-73.896934309836, 40.7425953153843], [-73.8968798310854, 40.7428625586028], [-73.8969584639189, 40.7428801054556], [-73.8970145881989, 40.7426047908503], [-73.896934309836, 40.7425953153843]]]}}, {"type": "Feature", "properties": {"zone_id": "0204GY1DXKQKDHZGWJN0LB", "tract_id": "36081024700", "city": "FLUSHING, NY", "zone_code": "R4-1", "zone_category": "Residential", "ev_permitted": false}, "geometry": {"type": "Polygon", "coordinates": [[[-73.8969370727698, 40.7425817600971], [-73.8966520284605, 40.742811725193], [-73.8968798310854, 40.7428625586028], [-73.8969370727698, 40.7425817600971]]]}}, {"type": "Feature", "properties": {"zone_id": "0203EX5FELC4K21NWRZQJ6", "tract_id": "36081024700", "city": "FLUSHING, NY", "zone_code": "R4-1", "zone_category": "Residential", "ev_permitted": false}, "geometry": {"type": "Polygon", "coordinates": [[[-73.8979479989943, 40.7422985221191], [-73.8979315756882, 40.7424035997044], [-73.8982053435471, 40.7424363159802], [-73.8982263607642, 40.7423317883806], [-73.8979479989943, 40.7422985221191]]]}}, {"type": "Feature", "properties": {"zone_id": "0205D7FSGAHVS65G5SCMQ4", "tract_id": "36081024700", "city": "FLUSHING, NY", "zone_code": "R4-1", "zone_category": "Residential", "ev_permitted": false}, "geometry": {"type": "Polygon", "coordinates": [[[-73.8979315756882, 40.7424035997044], [-73.8979228084231, 40.742459692743], [-73.8981941241566, 40.7424921166745], [-73.8982053435471, 40.7424363159802], [-73.8979315756882, 40.7424035997044]]]}}, {"type": "Feature", "properties": {"zone_id": "0200684SD52KFDUSRNZJ4M", "tract_id": "36081024700", "city": "FLUSHING, NY", "zone_code": "R4-1", "zone_category": "Residential", "ev_permitted": false}, "geometry": {"type": "Polygon", "coordinates": [[[-73.8979228084231, 40.742459692743], [-73.8979141101878, 40.7425153417627], [-73.8981829931876, 40.7425474754744], [-73.8981941241566, 40.7424921166745], [-73.8979228084231, 40.742459692743]]]}}, {"type": "Feature", "properties": {"zone_id": "020623TGD4E8M3EMQCLK4X", "tract_id": "36081024700", "city": "FLUSHING, NY", "zone_code": "R4-1", "zone_category": "Residential", "ev_permitted": false}, "geometry": {"type": "Polygon", "coordinates": [[[-73.897573702572, 40.7422573739302], [-73.8975589836095, 40.742328518176], [-73.8979362630068, 40.7423736067435], [-73.8979474490024, 40.7423020403607], [-73.897573702572, 40.7422573739302]]]}}, {"type": "Feature", "properties": {"zone_id": "0204FCE8UI8TTKAM0QA8PF", "tract_id": "36081024700", "city": "FLUSHING, NY", "zone_code": "R4-1", "zone_category": "Residential", "ev_permitted": false}, "geometry": {"type": "Polygon", "coordinates": [[[-73.8975589836095, 40.742328518176], [-73.8975463271659, 40.7423896991776], [-73.8979266439318, 40.7424351509407], [-73.8979362630068, 40.7423736067435], [-73.8975589836095, 40.742328518176]]]}}, {"type": "Feature", "properties": {"zone_id": "0201W0WEUZ3LXFDSJ1SYJM", "tract_id": "36081024700", "city": "FLUSHING, NY", "zone_code": "R4-1", "zone_category": "Residential", "ev_permitted": false}, "geometry": {"type": "Polygon", "coordinates": [[[-73.8975463271659, 40.7423896991776], [-73.8975332062547, 40.7424531219414], [-73.8979166721717, 40.7424989503517], [-73.8979266439318, 40.7424351509407], [-73.8975463271659, 40.7423896991776]]]}}, {"type": "Feature", "properties": {"zone_id": "0200BS5D7EP2XT0EHJFMQX", "tract_id": "36081024700", "city": "FLUSHING, NY", "zone_code": "R4-1", "zone_category": "Residential", "ev_permitted": false}, "geometry": {"type": "Polygon", "coordinates": [[[-73.8975332062547, 40.7424531219414], [-73.8975051596063, 40.7425886914466], [-73.8978953570969, 40.7426353241347], [-73.8979166721717, 40.7424989503517], [-73.8975332062547, 40.7424531219414]]]}}, {"type": "Feature", "properties": {"zone_id": "0207797KF6JN4V7Z9I23FJ", "tract_id": "36081024700", "city": "FLUSHING, NY", "zone_code": "R4-1", "zone_category": "Residential", "ev_permitted": false}, "geometry": {"type": "Polygon", "coordinates": [[[-73.8978487570189, 40.7420674533265], [-73.8976637651242, 40.7421951866658], [-73.8979586424352, 40.7422304279586], [-73.8979816328762, 40.7420833330995], [-73.8978487570189, 40.7420674533265]]]}}, {"type": "Feature", "properties": {"zone_id": "0205QRB0QSX2Z0Q4D79RBW", "tract_id": "36081024700", "city": "FLUSHING, NY", "zone_code": "R4-1", "zone_category": "Residential", "ev_permitted": false}, "geometry": {"type": "Polygon", "coordinates": [[[-73.8979820592463, 40.7420806050613], [-73.8979735719616, 40.7421349058771], [-73.8982590859472, 40.7421690265031], [-73.898270492338, 40.7421122970531], [-73.8980578854378, 40.7420868886067], [-73.8980573944142, 40.7420896088586], [-73.8979820592463, 40.7420806050613]]]}}, {"type": "Feature", "properties": {"zone_id": "02020MO58DO0OPVFS7AD5Z", "tract_id": "36081024700", "city": "FLUSHING, NY", "zone_code": "R4-1", "zone_category": "Residential", "ev_permitted": false}, "geometry": {"type": "Polygon", "coordinates": [[[-73.8979735719616, 40.7421349058771], [-73.8979654494587, 40.742186872087], [-73.8982486923607, 40.7422207216088], [-73.8982590859472, 40.7421690265031], [-73.8979735719616, 40.7421349058771]]]}}, {"type": "Feature", "properties": {"zone_id": "02002HI21724TNAQDMCM18", "tract_id": "36081024700", "city": "FLUSHING, NY", "zone_code": "R4-1", "zone_category": "Residential", "ev_permitted": false}, "geometry": {"type": "Polygon", "coordinates": [[[-73.8979654494587, 40.742186872087], [-73.8979569192275, 40.7422414490068], [-73.898237775594, 40.7422750139725], [-73.8982486923607, 40.7422207216088], [-73.8979654494587, 40.742186872087]]]}}, {"type": "Feature", "properties": {"zone_id": "02065A0V3H9RLPJ4T85BG5", "tract_id": "36081024700", "city": "FLUSHING, NY", "zone_code": "R4-1", "zone_category": "Residential", "ev_permitted": false}, "geometry": {"type": "Polygon", "coordinates": [[[-73.8979569192275, 40.7422414490068], [-73.8979479989943, 40.7422985221191], [-73.8982263607642, 40.7423317883806], [-73.898237775594, 40.7422750139725], [-73.8979569192275, 40.7422414490068]]]}}, {"type": "Feature", "properties": {"zone_id": "0203EE2MDMSPWY7291RCO3", "tract_id": "36081024700", "city": "FLUSHING, NY", "zone_code": "R4-1", "zone_category": "Residential", "ev_permitted": false}, "geometry": {"type": "Polygon", "coordinates": [[[-73.8976637651242, 40.7421951866658], [-73.897573702572, 40.7422573739302], [-73.8979474490024, 40.7423020403607], [-73.8979586424352, 40.7422304279586], [-73.8976637651242, 40.7421951866658]]]}}, {"type": "Feature", "properties": {"zone_id": "02001Z2KYVCH0XAJ3UQESG", "tract_id": "36081024700", "city": "FLUSHING, NY", "zone_code": "R4-1", "zone_category": "Residential", "ev_permitted": false}, "geometry": {"type": "Polygon", "coordinates": [[[-73.8971453621336, 40.7424119047978], [-73.8970909244763, 40.7424540190811], [-73.8969961546236, 40.7425331750598], [-73.8973004459967, 40.7425690883568], [-73.8973280921797, 40.7424334714656], [-73.8971453621336, 40.7424119047978]]]}}, {"type": "Feature", "properties": {"zone_id": "0207K4CVCDFUJAHUW7DRTB", "tract_id": "36081024700", "city": "FLUSHING, NY", "zone_code": "R4-1", "zone_category": "Residential", "ev_permitted": false}, "geometry": {"type": "Polygon", "coordinates": [[[-73.8973649827607, 40.7422524985872], [-73.8971453621336, 40.7424119047978], [-73.8973280921797, 40.7424334714656], [-73.8973649827607, 40.7422524985872]]]}}, {"type": "Feature", "properties": {"zone_id": "0206RMD4JIT0O0RX7CPNLE", "tract_id": "36081024700", "city": "FLUSHING, NY", "zone_code": "R4-1", "zone_category": "Residential", "ev_permitted": false}, "geometry": {"type": "Polygon", "coordinates": [[[-73.898507188484, 40.7414602605855], [-73.8984008900998, 40.7419746633444], [-73.8985077371479, 40.7419879372827], [-73.8985005931305, 40.7420225080193], [-73.8986116653511, 40.7421423786011], [-73.8986813365577, 40.7421520389064], [-73.8986703999931, 40.7422001500233], [-73.8989818987362, 40.7425283879476], [-73.8991339496026, 40.7425464396592], [-73.8992350225617, 40.7420748522975], [-73.8986742169411, 40.7415959613821], [-73.8986843641189, 40.7415468560098], [-73.8986009307298, 40.7415369503071], [-73.898507188484, 40.7414602605855]]]}}, {"type": "Feature", "properties": {"zone_id": "0202KHVN8J2LNXPS71UWO8", "tract_id": "36081024700", "city": "FLUSHING, NY", "zone_code": "R5B", "zone_category": "Residential", "ev_permitted": false}, "geometry": {"type": "Polygon", "coordinates": [[[-73.8989497938139, 40.7418312864377], [-73.8992350225617, 40.7420748522975], [-73.899278850828, 40.7418703528991], [-73.8989497938139, 40.7418312864377]]]}}, {"type": "Feature", "properties": {"zone_id": "0203R4XSWDRKP5NQ09Y3YC", "tract_id": "36081024700", "city": "FLUSHING, NY", "zone_code": "R5B", "zone_category": "Residential", "ev_permitted": false}, "geometry": {"type": "Polygon", "coordinates": [[[-73.8989207418894, 40.7417431091483], [-73.898909888858, 40.7417972112148], [-73.8989497938139, 40.7418312864377], [-73.899278850828, 40.7418703528991], [-73.8992965590208, 40.7417877268234], [-73.8989207418894, 40.7417431091483]]]}}, {"type": "Feature", "properties": {"zone_id": "0203K39UQ83QQWO6BLGVUC", "tract_id": "36081024700", "city": "FLUSHING, NY", "zone_code": "R5B", "zone_category": "Residential", "ev_permitted": false}, "geometry": {"type": "Polygon", "coordinates": [[[-73.8989643297664, 40.7415258276199], [-73.8989536964936, 40.7415788323352], [-73.8993317110391, 40.7416237111056], [-73.8993430524685, 40.7415707898885], [-73.8989643297664, 40.7415258276199]]]}}, {"type": "Feature", "properties": {"zone_id": "0203NJGLF580T9JSQGP7UV", "tract_id": "36081024700", "city": "FLUSHING, NY", "zone_code": "R5B", "zone_category": "Residential", "ev_permitted": false}, "geometry": {"type": "Polygon", "coordinates": [[[-73.8989425139931, 40.7416345741176], [-73.8989316284126, 40.7416888412828], [-73.8993081721694, 40.7417335452823], [-73.8993197834503, 40.7416793644407], [-73.8989425139931, 40.7416345741176]]]}}, {"type": "Feature", "properties": {"zone_id": "0201N6ATIG5AYAOI5UIRG0", "tract_id": "36081024700", "city": "FLUSHING, NY", "zone_code": "R5B", "zone_category": "Residential", "ev_permitted": false}, "geometry": {"type": "Polygon", "coordinates": [[[-73.8989316284126, 40.7416888412828], [-73.8989207418894, 40.7417431091483], [-73.8992965590208, 40.7417877268234], [-73.8993081721694, 40.7417335452823], [-73.8989316284126, 40.7416888412828]]]}}, {"type": "Feature", "properties": {"zone_id": "0206Z4GTTYMQHKR516AD6I", "tract_id": "36081024700", "city": "FLUSHING, NY", "zone_code": "R5B", "zone_category": "Residential", "ev_permitted": false}, "geometry": {"type": "Polygon", "coordinates": [[[-73.8989536964936, 40.7415788323352], [-73.8989425139931, 40.7416345741176], [-73.8993197834503, 40.7416793644407], [-73.8993317110391, 40.7416237111056], [-73.8989536964936, 40.7415788323352]]]}}, {"type": "Feature", "properties": {"zone_id": "0203M8M6OX11E103OQXK4F", "tract_id": "36081024700", "city": "FLUSHING, NY", "zone_code": "R4-1", "zone_category": "Residential", "ev_permitted": false}, "geometry": {"type": "Polygon", "coordinates": [[[-73.8980179050975, 40.741857824373], [-73.8980058137254, 40.7419255792824], [-73.8984008900998, 40.7419746633444], [-73.8984151866014, 40.7419054783251], [-73.8980179050975, 40.741857824373]]]}}, {"type": "Feature", "properties": {"zone_id": "02036TL89XRTOBSFKDSZJS", "tract_id": "36081024700", "city": "FLUSHING, NY", "zone_code": "R4-1", "zone_category": "Residential", "ev_permitted": false}, "geometry": {"type": "Polygon", "coordinates": [[[-73.8980965199528, 40.7417548711361], [-73.8980278018674, 40.7418042646973], [-73.898426226555, 40.7418520552369], [-73.8984325897446, 40.7418212584871], [-73.8984036043175, 40.7417917051791], [-73.8980965199528, 40.7417548711361]]]}}, {"type": "Feature", "properties": {"zone_id": "0202WJ4Z6UQP8SB4R3WAQ7", "tract_id": "36081024700", "city": "FLUSHING, NY", "zone_code": "R4-1", "zone_category": "Residential", "ev_permitted": false}, "geometry": {"type": "Polygon", "coordinates": [[[-73.8980278018674, 40.7418042646973], [-73.8980179050975, 40.741857824373], [-73.8984151866014, 40.7419054783251], [-73.898426226555, 40.7418520552369], [-73.8980278018674, 40.7418042646973]]]}}, {"type": "Feature", "properties": {"zone_id": "02058U8Y822RDG8MJQUOPZ", "tract_id": "36081024700", "city": "LONG ISLAND CITY, NY", "zone_code": "R5B", "zone_category": "Residential", "ev_permitted": false}, "geometry": {"type": "Polygon", "coordinates": [[[-73.8986843641189, 40.7415468560098], [-73.8986742169411, 40.7415959613821], [-73.898909888858, 40.7417972112148], [-73.8989536964936, 40.7415788323352], [-73.8986843641189, 40.7415468560098]]]}}, {"type": "Feature", "properties": {"zone_id": "02044UWOM7OJT4D0XRIIBP", "tract_id": "36081024700", "city": "FLUSHING, NY", "zone_code": "R4-1", "zone_category": "Residential", "ev_permitted": false}, "geometry": {"type": "Polygon", "coordinates": [[[-73.8982193806414, 40.7416892905112], [-73.8981252181168, 40.7417583135445], [-73.8983380381415, 40.7417838408058], [-73.8982193806414, 40.7416892905112]]]}}, {"type": "Feature", "properties": {"zone_id": "02048AP9BB53Y2PEQX8L3A", "tract_id": "36081024700", "city": "FLUSHING, NY", "zone_code": "R7X", "zone_category": "Residential", "ev_permitted": false}, "geometry": {"type": "Polygon", "coordinates": [[[-73.89911635221, 40.7411566290458], [-73.8989789173283, 40.7414531105268], [-73.8989643297664, 40.7415258276199], [-73.8993430524685, 40.7415707898885], [-73.8994239370548, 40.7411933849248], [-73.89911635221, 40.7411566290458]]]}}, {"type": "Feature", "properties": {"zone_id": "0200CPFPT9CZVLWLQPMQ5G", "tract_id": "36081024700", "city": "FLUSHING, NY", "zone_code": "PARK", "zone_category": "Other", "ev_permitted": false}, "geometry": {"type": "Polygon", "coordinates": [[[-73.8989719858152, 40.7411393766428], [-73.8988700425463, 40.7411785860612], [-73.8987607304049, 40.7412320001447], [-73.8986658366089, 40.7412900151601], [-73.8985753640421, 40.7413583686658], [-73.8984810480088, 40.7414407739549], [-73.898507188484, 40.7414602605855], [-73.8986009307298, 40.7415369503071], [-73.8989536964936, 40.7415788323352], [-73.8989789173283, 40.7414531105268], [-73.89911635221, 40.7411566290458], [-73.8989719858152, 40.7411393766428]]]}}, {"type": "Feature", "properties": {"zone_id": "0206OOUW1TWZXSJ5I2LVJJ", "tract_id": "36081024700", "city": "FLUSHING, NY", "zone_code": "R7X", "zone_category": "Residential", "ev_permitted": false}, "geometry": {"type": "Polygon", "coordinates": [[[-73.8978776540495, 40.7409117948299], [-73.8977729035425, 40.741370911987], [-73.8981966573898, 40.7416704195531], [-73.8980965199528, 40.7417548711361], [-73.8981252181168, 40.7417583135445], [-73.8982193806414, 40.7416892905112], [-73.8983380381415, 40.7417838408058], [-73.8984036043175, 40.7417917051791], [-73.8984325897446, 40.7418212584871], [-73.898507188484, 40.7414602605855], [-73.8984251848691, 40.7414009571388], [-73.8984314550551, 40.7413717518227], [-73.8981781463231, 40.7411120559815], [-73.8981511177162, 40.741097173702], [-73.8981536057231, 40.74108498551], [-73.897993638163, 40.7409368419331], [-73.8978776540495, 40.7409117948299]]]}}, {"type": "Feature", "properties": {"zone_id": "0207JAKNBWCHZ3HDS8ZP67", "tract_id": "36081024700", "city": "FLUSHING, NY", "zone_code": "PARK", "zone_category": "Other", "ev_permitted": false}, "geometry": {"type": "Polygon", "coordinates": [[[-73.8980274143566, 40.7418045426063], [-73.8978741149559, 40.7419092171527], [-73.8980058137254, 40.7419255792824], [-73.8980274143566, 40.7418045426063]]]}}]}