{"type": "FeatureCollection", "features": [{"type": "Feature", "properties": {"zone_id": "0200W9PPQYJDJZBQNY2S6M", "tract_id": "36061015002", "city": "NEW YORK, NY", "zone_code": "R8B", "zone_category": "Residential", "ev_permitted": false}, "geometry": {"type": "Polygon", "coordinates": [[[-73.9576246162979, 40.7837874161255], [-73.957261845592, 40.7842775315522], [-73.9580083769078, 40.7845928610379], [-73.9583711438364, 40.784102743285], [-73.9576246162979, 40.7837874161255]]]}}, {"type": "Feature", "properties": {"zone_id": "02008B01DNLKYWNCQJMZNY", "tract_id": "36061015002", "city": "NEW YORK, NY", "zone_code": "R8B", "zone_category": "Residential", "ev_permitted": false}, "geometry": {"type": "Polygon", "coordinates": [[[-73.9578213980183, 40.7833745299079], [-73.9576415113781, 40.7836209837594], [-73.9584510173864, 40.7839617913235], [-73.9586309028753, 40.7837153362217], [-73.9578213980183, 40.7833745299079]]]}}, {"type": "Feature", "properties": {"zone_id": "0200RALH99LWS8RW5LX9K6", "tract_id": "36061015002", "city": "NEW YORK, NY", "zone_code": "R8B", "zone_category": "Residential", "ev_permitted": false}, "geometry": {"type": "Polygon", "coordinates": [[[-73.9573742455594, 40.783681660394], [-73.9571899990003, 40.7839305831441], [-73.9572797382093, 40.7839684886821], [-73.9574639836134, 40.7837195657895], [-73.9573742455594, 40.783681660394]]]}}, {"type": "Feature", "properties": {"zone_id": "0201B05CD2RR72LF3I6W5T", "tract_id": "36061015002", "city": "NEW YORK, NY", "zone_code": "R8B", "zone_category": "Residential", "ev_permitted": false}, "geometry": {"type": "Polygon", "coordinates": [[[-73.9574639836134, 40.7837195657895], [-73.9572797382093, 40.7839684886821], [-73.95736067206, 40.7840026752688], [-73.9575449181805, 40.7837537522486], [-73.9574639836134, 40.7837195657895]]]}}, {"type": "Feature", "properties": {"zone_id": "0205Q0J89L6U2V3MMKZAO3", "tract_id": "36061015002", "city": "NEW YORK, NY", "zone_code": "R8B", "zone_category": "Residential", "ev_permitted": false}, "geometry": {"type": "Polygon", "coordinates": [[[-73.9575449181805, 40.7837537522486], [-73.95736067206, 40.7840026752688], [-73.9574403703817, 40.7840363399745], [-73.9576246162979, 40.7837874161255], [-73.9575449181805, 40.7837537522486]]]}}, {"type": "Feature", "properties": {"zone_id": "0201COBKJ2UMX7047FHXF2", "tract_id": "36061015002", "city": "NEW YORK, NY", "zone_code": "R8B", "zone_category": "Residential", "ev_permitted": false}, "geometry": {"type": "Polygon", "coordinates": [[[-73.9588668166431, 40.7826679281151], [-73.9586848827897, 40.7829171956053], [-73.9587312211157, 40.7829367044791], [-73.9585484126374, 40.7831871673445], [-73.9589064000265, 40.7833378809058], [-73.9592711403768, 40.7828381493563], [-73.9588668166431, 40.7826679281151]]]}}, {"type": "Feature", "properties": {"zone_id": "02034G3TH8C238WP1P1V1X", "tract_id": "36061015002", "city": "NEW YORK, NY", "zone_code": "R8B", "zone_category": "Residential", "ev_permitted": false}, "geometry": {"type": "Polygon", "coordinates": [[[-73.9587013667075, 40.782598272659], [-73.958519432425, 40.7828475398907], [-73.9585971079587, 40.7828802418466], [-73.9587790420392, 40.7826309751962], [-73.9587013667075, 40.782598272659]]]}}, {"type": "Feature", "properties": {"zone_id": "0200IEA64BRBP5KDTQABCQ", "tract_id": "36061015002", "city": "NEW YORK, NY", "zone_code": "R8B", "zone_category": "Residential", "ev_permitted": false}, "geometry": {"type": "Polygon", "coordinates": [[[-73.9587790420392, 40.7826309751962], [-73.9585971079587, 40.7828802418466], [-73.9586848827897, 40.7829171956053], [-73.9588668166431, 40.7826679281151], [-73.9587790420392, 40.7826309751962]]]}}, {"type": "Feature", "properties": {"zone_id": "0206OSC1JR5S7RZ4XGPGDW", "tract_id": "36061015002", "city": "NEW YORK, NY", "zone_code": "R8B", "zone_category": "Residential", "ev_permitted": false}, "geometry": {"type": "Polygon", "coordinates": [[[-73.958359638342, 40.7832767626056], [-73.9581785336123, 40.7835248877645], [-73.9583055279292, 40.7835783536002], [-73.9584866323315, 40.7833302275411], [-73.958359638342, 40.7832767626056]]]}}, {"type": "Feature", "properties": {"zone_id": "020783BH5I040332856EJ6", "tract_id": "36061015002", "city": "NEW YORK, NY", "zone_code": "R10", "zone_category": "Residential", "ev_permitted": false}, "geometry": {"type": "Polygon", "coordinates": [[[-73.9583532878633, 40.7835129188373], [-73.9583055279292, 40.7835783536002], [-73.9586309028753, 40.7837153362217], [-73.9586784146345, 40.7836502413201], [-73.9583532878633, 40.7835129188373]]]}}, {"type": "Feature", "properties": {"zone_id": "0201CQH9ITUXKDBA81CIYV", "tract_id": "36061015002", "city": "NEW YORK, NY", "zone_code": "R10", "zone_category": "Residential", "ev_permitted": false}, "geometry": {"type": "Polygon", "coordinates": [[[-73.9584866323315, 40.7833302275411], [-73.9583532878633, 40.7835129188373], [-73.9586784146345, 40.7836502413201], [-73.9588120064372, 40.7834672103592], [-73.9584866323315, 40.7833302275411]]]}}, {"type": "Feature", "properties": {"zone_id": "0207AQYF3PPIE8DJ5ZSTA8", "tract_id": "36061015002", "city": "NEW YORK, NY", "zone_code": "R8B", "zone_category": "Residential", "ev_permitted": false}, "geometry": {"type": "Polygon", "coordinates": [[[-73.9580025036694, 40.7831264060073], [-73.9578213980183, 40.7833745299079], [-73.9579034090691, 40.783409058], [-73.958084514509, 40.783160933269], [-73.9580025036694, 40.7831264060073]]]}}, {"type": "Feature", "properties": {"zone_id": "0206YUVB80742YICH6LFR9", "tract_id": "36061015002", "city": "NEW YORK, NY", "zone_code": "R8B", "zone_category": "Residential", "ev_permitted": false}, "geometry": {"type": "Polygon", "coordinates": [[[-73.958084514509, 40.783160933269], [-73.9579034090691, 40.783409058], [-73.9579745335624, 40.7834390014756], [-73.9581556378943, 40.7831908766337], [-73.958084514509, 40.783160933269]]]}}, {"type": "Feature", "properties": {"zone_id": "02032XRTZPALVJA1GJPUZV", "tract_id": "36061015002", "city": "NEW YORK, NY", "zone_code": "R8B", "zone_category": "Residential", "ev_permitted": false}, "geometry": {"type": "Polygon", "coordinates": [[[-73.9581556378943, 40.7831908766337], [-73.9579745335624, 40.7834390014756], [-73.9581785336123, 40.7835248877645], [-73.958359638342, 40.7832767626056], [-73.9581556378943, 40.7831908766337]]]}}, {"type": "Feature", "properties": {"zone_id": "0203IPOUZYNOFG5WEKH1TS", "tract_id": "36061015002", "city": "NEW YORK, NY", "zone_code": "R8B", "zone_category": "Residential", "ev_permitted": false}, "geometry": {"type": "Polygon", "coordinates": [[[-73.9572906899374, 40.78315109347], [-73.9571108019366, 40.7833975465015], [-73.9576415113781, 40.7836209837594], [-73.9578213980183, 40.7833745299079], [-73.9572906899374, 40.78315109347]]]}}, {"type": "Feature", "properties": {"zone_id": "0202JHVFSCPCEQJSHUOFAH", "tract_id": "36061015002", "city": "NEW YORK, NY", "zone_code": "R8B", "zone_category": "Residential", "ev_permitted": false}, "geometry": {"type": "Polygon", "coordinates": [[[-73.9579986072365, 40.7826282657353], [-73.957865332225, 40.7828108616539], [-73.9576157279035, 40.7827057756349], [-73.9575661932754, 40.7827736420282], [-73.9582525580957, 40.783062609632], [-73.9584353664201, 40.7828121479334], [-73.9579986072365, 40.7826282657353]]]}}, {"type": "Feature", "properties": {"zone_id": "0201YEF94U0KL4XN3UE9G1", "tract_id": "36061015002", "city": "NEW YORK, NY", "zone_code": "R8B", "zone_category": "Residential", "ev_permitted": false}, "geometry": {"type": "Polygon", "coordinates": [[[-73.9584353664201, 40.7828121479334], [-73.9582525580957, 40.783062609632], [-73.9585484126374, 40.7831871673445], [-73.9587312211157, 40.7829367044791], [-73.9584353664201, 40.7828121479334]]]}}, {"type": "Feature", "properties": {"zone_id": "0207FN4ZL9N4EQHJLK3FBK", "tract_id": "36061015002", "city": "NEW YORK, NY", "zone_code": "R8B", "zone_category": "Residential", "ev_permitted": false}, "geometry": {"type": "Polygon", "coordinates": [[[-73.9584630374544, 40.7824979340084], [-73.9582811025539, 40.7827472008676], [-73.9584353664201, 40.7828121479334], [-73.9586173018449, 40.7825628808335], [-73.9584630374544, 40.7824979340084]]]}}, {"type": "Feature", "properties": {"zone_id": "0207O1LEB150JPHMSK9J7X", "tract_id": "36061015002", "city": "NEW YORK, NY", "zone_code": "R8B", "zone_category": "Residential", "ev_permitted": false}, "geometry": {"type": "Polygon", "coordinates": [[[-73.9586173018449, 40.7825628808335], [-73.9584353664201, 40.7828121479334], [-73.958519432425, 40.7828475398907], [-73.9587013667075, 40.782598272659], [-73.9586173018449, 40.7825628808335]]]}}, {"type": "Feature", "properties": {"zone_id": "0204OKY1536GWND64CS58S", "tract_id": "36061015002", "city": "NEW YORK, NY", "zone_code": "R8B", "zone_category": "Residential", "ev_permitted": false}, "geometry": {"type": "Polygon", "coordinates": [[[-73.9574717969585, 40.7829029703948], [-73.9572906899374, 40.78315109347], [-73.9578213980183, 40.7833745299079], [-73.9580025036694, 40.7831264060073], [-73.9574717969585, 40.7829029703948]]]}}, {"type": "Feature", "properties": {"zone_id": "0202UVEK258H4IF1FK2FPW", "tract_id": "36061015002", "city": "NEW YORK, NY", "zone_code": "R10", "zone_category": "Residential", "ev_permitted": false}, "geometry": {"type": "Polygon", "coordinates": [[[-73.9577490033891, 40.7825231800021], [-73.9576157279035, 40.7827057756349], [-73.957865332225, 40.7828108616539], [-73.9579986072365, 40.7826282657353], [-73.9577490033891, 40.7825231800021]]]}}, {"type": "Feature", "properties": {"zone_id": "0200CQ76PHRG0JJRXPJ1NK", "tract_id": "36061015002", "city": "NEW YORK, NY", "zone_code": "R8B", "zone_category": "Residential", "ev_permitted": false}, "geometry": {"type": "Polygon", "coordinates": [[[-73.9570417964035, 40.7838679821348], [-73.9568632706213, 40.7841091731013], [-73.957261845592, 40.7842775315522], [-73.9574403703817, 40.7840363399745], [-73.9570417964035, 40.7838679821348]]]}}, {"type": "Feature", "properties": {"zone_id": "02066I3D7GFIBW3XFVL8VW", "tract_id": "36061015002", "city": "NEW YORK, NY", "zone_code": "R8B", "zone_category": "Residential", "ev_permitted": false}, "geometry": {"type": "Polygon", "coordinates": [[[-73.9570200519311, 40.7835320473619], [-73.9568358044619, 40.7837809695515], [-73.9571899990003, 40.7839305831441], [-73.9573742455594, 40.783681660394], [-73.9570200519311, 40.7835320473619]]]}}, {"type": "Feature", "properties": {"zone_id": "02035S3RIRW68LBBRD3D1X", "tract_id": "36061015002", "city": "NEW YORK, NY", "zone_code": "R10", "zone_category": "Residential", "ev_permitted": false}, "geometry": {"type": "Polygon", "coordinates": [[[-73.9568358044619, 40.7837809695515], [-73.956657277242, 40.7840221609044], [-73.9568632706213, 40.7841091731013], [-73.9570417964035, 40.7838679821348], [-73.9568358044619, 40.7837809695515]]]}}, {"type": "Feature", "properties": {"zone_id": "02049N8T2W3860HY0T93FM", "tract_id": "36061015002", "city": "NEW YORK, NY", "zone_code": "R10", "zone_category": "Residential", "ev_permitted": false}, "geometry": {"type": "Polygon", "coordinates": [[[-73.9564813742213, 40.7836210264957], [-73.9562970791551, 40.7838700096368], [-73.9564151728436, 40.7839198941658], [-73.9565994685311, 40.7836709101354], [-73.9564813742213, 40.7836210264957]]]}}, {"type": "Feature", "properties": {"zone_id": "0201G3LTFASOCG8FEV96L1", "tract_id": "36061015002", "city": "NEW YORK, NY", "zone_code": "R10", "zone_category": "Residential", "ev_permitted": false}, "geometry": {"type": "Polygon", "coordinates": [[[-73.956421162698, 40.7835955909284], [-73.9562368665517, 40.7838445753791], [-73.9562970791551, 40.7838700096368], [-73.9564813742213, 40.7836210264957], [-73.956421162698, 40.7835955909284]]]}}, {"type": "Feature", "properties": {"zone_id": "0207FDTUEDH1SX4BYJUEZG", "tract_id": "36061015002", "city": "NEW YORK, NY", "zone_code": "R10", "zone_category": "Residential", "ev_permitted": false}, "geometry": {"type": "Polygon", "coordinates": [[[-73.956363871548, 40.7835713916974], [-73.9561795752554, 40.7838203746522], [-73.9562368665517, 40.7838445753791], [-73.956421162698, 40.7835955909284], [-73.956363871548, 40.7835713916974]]]}}, {"type": "Feature", "properties": {"zone_id": "02001E1GV3LDVUEUT06J46", "tract_id": "36061015002", "city": "NEW YORK, NY", "zone_code": "R10", "zone_category": "Residential", "ev_permitted": false}, "geometry": {"type": "Polygon", "coordinates": [[[-73.9563027701534, 40.7835455812175], [-73.9561184737033, 40.7837945647782], [-73.9561795752554, 40.7838203746522], [-73.956363871548, 40.7835713916974], [-73.9563027701534, 40.7835455812175]]]}}, {"type": "Feature", "properties": {"zone_id": "0200P34JNONUCHPATBBLKY", "tract_id": "36061015002", "city": "NEW YORK, NY", "zone_code": "R8B", "zone_category": "Residential", "ev_permitted": false}, "geometry": {"type": "Polygon", "coordinates": [[[-73.9569615072869, 40.7826881270673], [-73.9567806635606, 40.7829358903928], [-73.9562290370999, 40.7827036390785], [-73.9560488826864, 40.782950450127], [-73.9568762104258, 40.7832987785079], [-73.9572372066548, 40.7828042031285], [-73.9569615072869, 40.7826881270673]]]}}, {"type": "Feature", "properties": {"zone_id": "0203UFC9IDUTIL2QY7SU2P", "tract_id": "36061015002", "city": "NEW YORK, NY", "zone_code": "R10", "zone_category": "Residential", "ev_permitted": false}, "geometry": {"type": "Polygon", "coordinates": [[[-73.9565816223831, 40.7833468508531], [-73.9564031416675, 40.7835879800125], [-73.9565994685311, 40.7836709101354], [-73.9567779487576, 40.7834297813776], [-73.9565816223831, 40.7833468508531]]]}}, {"type": "Feature", "properties": {"zone_id": "02034MWJVLA9YAGIKUY1O2", "tract_id": "36061015002", "city": "NEW YORK, NY", "zone_code": "R8B", "zone_category": "Residential", "ev_permitted": false}, "geometry": {"type": "Polygon", "coordinates": [[[-73.9563350569114, 40.7832426984437], [-73.9561565755821, 40.7834838272251], [-73.9564031416675, 40.7835879800125], [-73.9565816223831, 40.7833468508531], [-73.9563350569114, 40.7832426984437]]]}}, {"type": "Feature", "properties": {"zone_id": "02020L0G3Z531J4I1KTP9P", "tract_id": "36061015002", "city": "NEW YORK, NY", "zone_code": "R8B", "zone_category": "Residential", "ev_permitted": false}, "geometry": {"type": "Polygon", "coordinates": [[[-73.9562401846153, 40.7835191447812], [-73.9560558889291, 40.7837681275406], [-73.9561184737033, 40.7837945647782], [-73.9563027701534, 40.7835455812175], [-73.9562401846153, 40.7835191447812]]]}}, {"type": "Feature", "properties": {"zone_id": "0204Z7CYK5DRBTVXP5VWSC", "tract_id": "36061015002", "city": "NEW YORK, NY", "zone_code": "R8B", "zone_category": "Residential", "ev_permitted": false}, "geometry": {"type": "Polygon", "coordinates": [[[-73.9562002094481, 40.7835022589206], [-73.9560159127348, 40.7837512416163], [-73.9560558889291, 40.7837681275406], [-73.9562401846153, 40.7835191447812], [-73.9562002094481, 40.7835022589206]]]}}, {"type": "Feature", "properties": {"zone_id": "02024DUN2N6C60M9VXT3SC", "tract_id": "36061015002", "city": "NEW YORK, NY", "zone_code": "R8B", "zone_category": "Residential", "ev_permitted": false}, "geometry": {"type": "Polygon", "coordinates": [[[-73.9561565755821, 40.7834838272251], [-73.955972279681, 40.7837328098521], [-73.9560159127348, 40.7837512416163], [-73.9562002094481, 40.7835022589206], [-73.9561565755821, 40.7834838272251]]]}}, {"type": "Feature", "properties": {"zone_id": "0204V2AKRYMIVW4HUDTTFE", "tract_id": "36061015002", "city": "NEW YORK, NY", "zone_code": "LH-1A", "zone_category": "Other", "ev_permitted": false}, "geometry": {"type": "Polygon", "coordinates": [[[-73.9560347474423, 40.7834323649544], [-73.9558504512281, 40.7836813473885], [-73.9559144405537, 40.783708377611], [-73.9560987375277, 40.783459395076], [-73.9560347474423, 40.7834323649544]]]}}, {"type": "Feature", "properties": {"zone_id": "0201FSK9I65EYAA5RB1JTO", "tract_id": "36061015002", "city": "NEW YORK, NY", "zone_code": "R8B", "zone_category": "Residential", "ev_permitted": false}, "geometry": {"type": "Polygon", "coordinates": [[[-73.9560987375277, 40.783459395076], [-73.9559144405537, 40.783708377611], [-73.955972279681, 40.7837328098521], [-73.9561565755821, 40.7834838272251], [-73.9560987375277, 40.783459395076]]]}}, {"type": "Feature", "properties": {"zone_id": "02028RGWBYBR6Y0JM8IDOD", "tract_id": "36061015002", "city": "NEW YORK, NY", "zone_code": "R8B", "zone_category": "Residential", "ev_permitted": false}, "geometry": {"type": "Polygon", "coordinates": [[[-73.9559629732928, 40.7834020455195], [-73.9557786759694, 40.7836510285423], [-73.9558504512281, 40.7836813473885], [-73.9560347474423, 40.7834323649544], [-73.9559629732928, 40.7834020455195]]]}}, {"type": "Feature", "properties": {"zone_id": "0205DJMCTL22087XWHKKCD", "tract_id": "36061015002", "city": "NEW YORK, NY", "zone_code": "R8B", "zone_category": "Residential", "ev_permitted": false}, "geometry": {"type": "Polygon", "coordinates": [[[-73.9562552233239, 40.7832089760028], [-73.9560767427207, 40.7834501039595], [-73.9561565755821, 40.7834838272251], [-73.9563350569114, 40.7832426984437], [-73.9562552233239, 40.7832089760028]]]}}, {"type": "Feature", "properties": {"zone_id": "02008792BD275IU8NA0W6A", "tract_id": "36061015002", "city": "NEW YORK, NY", "zone_code": "LH-1A", "zone_category": "Other", "ev_permitted": false}, "geometry": {"type": "Polygon", "coordinates": [[[-73.9560746152183, 40.7831326836119], [-73.9558961332407, 40.783373811994], [-73.9560767427207, 40.7834501039595], [-73.9562552233239, 40.7832089760028], [-73.9560746152183, 40.7831326836119]]]}}, {"type": "Feature", "properties": {"zone_id": "0204XE62QC667QPQ6UNLYG", "tract_id": "36061015002", "city": "NEW YORK, NY", "zone_code": "LH-1A", "zone_category": "Other", "ev_permitted": false}, "geometry": {"type": "Polygon", "coordinates": [[[-73.9560138525756, 40.783107016447], [-73.9558352584932, 40.7833482957632], [-73.9558961332407, 40.783373811994], [-73.9560746152183, 40.7831326836119], [-73.9560138525756, 40.783107016447]]]}}, {"type": "Feature", "properties": {"zone_id": "0207B4IWU2YKO2SMK1NMO4", "tract_id": "36061015002", "city": "NEW YORK, NY", "zone_code": "R8B", "zone_category": "Residential", "ev_permitted": false}, "geometry": {"type": "Polygon", "coordinates": [[[-73.9559580812902, 40.7830834577083], [-73.9557794870694, 40.7833247362364], [-73.9558352584932, 40.7833482957632], [-73.9560138525756, 40.783107016447], [-73.9559580812902, 40.7830834577083]]]}}, {"type": "Feature", "properties": {"zone_id": "0203W8VD5I6XNNF4X7Q2TW", "tract_id": "36061015002", "city": "NEW YORK, NY", "zone_code": "R8B", "zone_category": "Residential", "ev_permitted": false}, "geometry": {"type": "Polygon", "coordinates": [[[-73.9567161503706, 40.782584824717], [-73.9565353041635, 40.7828325869581], [-73.9567806635606, 40.7829358903928], [-73.9569615072869, 40.7826881270673], [-73.9567161503706, 40.782584824717]]]}}, {"type": "Feature", "properties": {"zone_id": "0205ZAXXD8RVLVC2I5KOR2", "tract_id": "36061015002", "city": "NEW YORK, NY", "zone_code": "R8B", "zone_category": "Residential", "ev_permitted": false}, "geometry": {"type": "Polygon", "coordinates": [[[-73.9565497732042, 40.7825147751473], [-73.9563687757545, 40.7827627457605], [-73.9565353041635, 40.7828325869581], [-73.9567161503706, 40.782584824717], [-73.9565497732042, 40.7825147751473]]]}}, {"type": "Feature", "properties": {"zone_id": "0207ETZDMZZXDK2CAVT1G9", "tract_id": "36061015002", "city": "NEW YORK, NY", "zone_code": "R8B", "zone_category": "Residential", "ev_permitted": false}, "geometry": {"type": "Polygon", "coordinates": [[[-73.9560354368125, 40.7826221266005], [-73.955948669099, 40.7827409990626], [-73.9556907766928, 40.7826324163332], [-73.9555973900769, 40.7827603544136], [-73.9560488826864, 40.782950450127], [-73.9562290370999, 40.7827036390785], [-73.9560354368125, 40.7826221266005]]]}}, {"type": "Feature", "properties": {"zone_id": "0202G0PE2FF45KAT8MWQKB", "tract_id": "36061015002", "city": "", "zone_code": "R10", "zone_category": "Residential", "ev_permitted": false}, "geometry": {"type": "Polygon", "coordinates": [[[-73.9557775456497, 40.7825135440637], [-73.9556907766928, 40.7826324163332], [-73.955948669099, 40.7827409990626], [-73.9560354368125, 40.7826221266005], [-73.9557775456497, 40.7825135440637]]]}}, {"type": "Feature", "properties": {"zone_id": "020586JZG7XTVSHNZX30MF", "tract_id": "36061015002", "city": "NEW YORK, NY", "zone_code": "R8B", "zone_category": "Residential", "ev_permitted": false}, "geometry": {"type": "Polygon", "coordinates": [[[-73.95532992272, 40.7831348299427], [-73.9551457375733, 40.7833836602348], [-73.9555318398516, 40.783546759783], [-73.9557160258554, 40.7832979288808], [-73.95532992272, 40.7831348299427]]]}}, {"type": "Feature", "properties": {"zone_id": "0205SGK797K73APV88BO9C", "tract_id": "36061015002", "city": "NEW YORK, NY", "zone_code": "R8B", "zone_category": "Residential", "ev_permitted": false}, "geometry": {"type": "Polygon", "coordinates": [[[-73.9558350616499, 40.7833482120722], [-73.9556508759519, 40.7835970431627], [-73.9557118366703, 40.7836227942087], [-73.9558961332407, 40.783373811994], [-73.9558350616499, 40.7833482120722]]]}}, {"type": "Feature", "properties": {"zone_id": "0207DBUH8HBDNNYGUOHJAL", "tract_id": "36061015002", "city": "NEW YORK, NY", "zone_code": "LH-1A", "zone_category": "Other", "ev_permitted": false}, "geometry": {"type": "Polygon", "coordinates": [[[-73.9557750908979, 40.7833228788455], [-73.9555909050459, 40.7835717098411], [-73.9556508759519, 40.7835970431627], [-73.9558350616499, 40.7833482120722], [-73.9557750908979, 40.7833228788455]]]}}, {"type": "Feature", "properties": {"zone_id": "0205XTMI42KPM75FQZ8LVT", "tract_id": "36061015002", "city": "NEW YORK, NY", "zone_code": "LH-1A", "zone_category": "Other", "ev_permitted": false}, "geometry": {"type": "Polygon", "coordinates": [[[-73.9557160258554, 40.7832979288808], [-73.9555318398516, 40.783546759783], [-73.9555909050459, 40.7835717098411], [-73.9557750908979, 40.7833228788455], [-73.9557160258554, 40.7832979288808]]]}}, {"type": "Feature", "properties": {"zone_id": "0203R9OEKCSN99JYQKXLNW", "tract_id": "36061015002", "city": "NEW YORK, NY", "zone_code": "R8B", "zone_category": "Residential", "ev_permitted": false}, "geometry": {"type": "Polygon", "coordinates": [[[-73.9558961332407, 40.783373811994], [-73.9557118366703, 40.7836227942087], [-73.9557786759694, 40.7836510285423], [-73.9559629732928, 40.7834020455195], [-73.9558961332407, 40.783373811994]]]}}, {"type": "Feature", "properties": {"zone_id": "02068Z41V9R5MB10B0QK8K", "tract_id": "36061015002", "city": "NEW YORK, NY", "zone_code": "R8B", "zone_category": "Residential", "ev_permitted": false}, "geometry": {"type": "Polygon", "coordinates": [[[-73.9555085189849, 40.7828935521046], [-73.95532992272, 40.7831348299427], [-73.9557794870694, 40.7833247362364], [-73.9559580812902, 40.7830834577083], [-73.9555085189849, 40.7828935521046]]]}}, {"type": "Feature", "properties": {"zone_id": "0206A0BD85FBHA4X1A2V6F", "tract_id": "36061015002", "city": "NEW YORK, NY", "zone_code": "R8B", "zone_category": "Residential", "ev_permitted": false}, "geometry": {"type": "Polygon", "coordinates": [[[-73.9590171852071, 40.7819163062365], [-73.958838509188, 40.7821618770974], [-73.9595625979918, 40.7824672418621], [-73.9597412721598, 40.78222166989], [-73.9590171852071, 40.7819163062365]]]}}, {"type": "Feature", "properties": {"zone_id": "0206BX28M7R3RC3NPPGCZQ", "tract_id": "36061015002", "city": "NEW YORK, NY", "zone_code": "R10", "zone_category": "Residential", "ev_permitted": false}, "geometry": {"type": "Polygon", "coordinates": [[[-73.9591615197235, 40.7822980992465], [-73.9590738742423, 40.7824185589374], [-73.9594749530134, 40.7825877018549], [-73.9595625979918, 40.7824672418621], [-73.9591615197235, 40.7822980992465]]]}}, {"type": "Feature", "properties": {"zone_id": "02059AHCP2Z2S0VPUKXOUN", "tract_id": "36061015002", "city": "NEW YORK, NY", "zone_code": "R10", "zone_category": "Residential", "ev_permitted": false}, "geometry": {"type": "Polygon", "coordinates": [[[-73.9591329194556, 40.7824434593969], [-73.9590416433291, 40.7825689094135], [-73.9593836764092, 40.7827131521394], [-73.9594749530134, 40.7825877018549], [-73.9591329194556, 40.7824434593969]]]}}, {"type": "Feature", "properties": {"zone_id": "0207AIWBGGEQ87QWY24XT4", "tract_id": "36061015002", "city": "NEW YORK, NY", "zone_code": "R8B", "zone_category": "Residential", "ev_permitted": false}, "geometry": {"type": "Polygon", "coordinates": [[[-73.9589125595237, 40.7821931061958], [-73.9587336362771, 40.7824390154743], [-73.9590416433291, 40.7825689094135], [-73.9591329194556, 40.7824434593969], [-73.9590738742423, 40.7824185589374], [-73.9591615197235, 40.7822980992465], [-73.9589125595237, 40.7821931061958]]]}}, {"type": "Feature", "properties": {"zone_id": "02064GB09JTUHAIU1UOZIZ", "tract_id": "36061015002", "city": "NEW YORK, NY", "zone_code": "R8B", "zone_category": "Residential", "ev_permitted": false}, "geometry": {"type": "Polygon", "coordinates": [[[-73.9585957390204, 40.7820594945179], [-73.9584168149631, 40.7823054026068], [-73.9587336362771, 40.7824390154743], [-73.9589125595237, 40.7821931061958], [-73.9585957390204, 40.7820594945179]]]}}, {"type": "Feature", "properties": {"zone_id": "0200V0UBTPGXA7ZHURP4TJ", "tract_id": "36061015002", "city": "NEW YORK, NY", "zone_code": "R10", "zone_category": "Residential", "ev_permitted": false}, "geometry": {"type": "Polygon", "coordinates": [[[-73.9597628614427, 40.781409221109], [-73.959606086112, 40.7816246985001], [-73.9596313513805, 40.7816353448048], [-73.9596089820568, 40.7816660885394], [-73.959696115395, 40.7817028024086], [-73.959684999664, 40.7817180783947], [-73.9600084996513, 40.7818543847766], [-73.9601987570276, 40.7815928855621], [-73.9597628614427, 40.781409221109]]]}}, {"type": "Feature", "properties": {"zone_id": "0207HKBY4AZ4EOPLS2CYWF", "tract_id": "36061015002", "city": "NEW YORK, NY", "zone_code": "R8B", "zone_category": "Residential", "ev_permitted": false}, "geometry": {"type": "Polygon", "coordinates": [[[-73.9595187852669, 40.7816280848639], [-73.9593363686592, 40.7818788014169], [-73.9598380669067, 40.7820886283776], [-73.9600084996513, 40.7818543847766], [-73.959684999664, 40.7817180783947], [-73.959696115395, 40.7817028024086], [-73.9595187852669, 40.7816280848639]]]}}, {"type": "Feature", "properties": {"zone_id": "0201B51TX54PQBU397O2JT", "tract_id": "36061015002", "city": "NEW YORK, NY", "zone_code": "R8B", "zone_category": "Residential", "ev_permitted": false}, "geometry": {"type": "Polygon", "coordinates": [[[-73.959358825766, 40.7815606842687], [-73.9591761302644, 40.7818117855259], [-73.9593363686592, 40.7818788014169], [-73.9595187852669, 40.7816280848639], [-73.959358825766, 40.7815606842687]]]}}, {"type": "Feature", "properties": {"zone_id": "02053DGDVMPW5CYJQ88Q3Y", "tract_id": "36061015002", "city": "NEW YORK, NY", "zone_code": "R8B", "zone_category": "Residential", "ev_permitted": false}, "geometry": {"type": "Polygon", "coordinates": [[[-73.9586923904486, 40.7817793304941], [-73.9585137135992, 40.7820249008565], [-73.958838509188, 40.7821618770974], [-73.9590171852071, 40.7819163062365], [-73.9586923904486, 40.7817793304941]]]}}, {"type": "Feature", "properties": {"zone_id": "0205VIIZ7JV99GCLUJEGBS", "tract_id": "36061015002", "city": "NEW YORK, NY", "zone_code": "R8B", "zone_category": "Residential", "ev_permitted": false}, "geometry": {"type": "Polygon", "coordinates": [[[-73.9592782939608, 40.7815267514659], [-73.9590954585476, 40.7817780457765], [-73.9591761302644, 40.7818117855259], [-73.959358825766, 40.7815606842687], [-73.9592782939608, 40.7815267514659]]]}}, {"type": "Feature", "properties": {"zone_id": "0203NUG3KSOTP12N5UVKLQ", "tract_id": "36061015002", "city": "NEW YORK, NY", "zone_code": "R8B", "zone_category": "Residential", "ev_permitted": false}, "geometry": {"type": "Polygon", "coordinates": [[[-73.9590306847262, 40.781422418925], [-73.95884741846, 40.7816743057315], [-73.9590954585476, 40.7817780457765], [-73.9592782939608, 40.7815267514659], [-73.9590306847262, 40.781422418925]]]}}, {"type": "Feature", "properties": {"zone_id": "02050CGXBB02IISW7357M8", "tract_id": "36061015002", "city": "NEW YORK, NY", "zone_code": "R8B", "zone_category": "Residential", "ev_permitted": false}, "geometry": {"type": "Polygon", "coordinates": [[[-73.9579309396699, 40.7822739132717], [-73.9577490033891, 40.7825231800021], [-73.9582003526685, 40.7827132047031], [-73.9583820040638, 40.7824638184167], [-73.9579309396699, 40.7822739132717]]]}}, {"type": "Feature", "properties": {"zone_id": "0206P1ADJN21GYHJAM4PFS", "tract_id": "36061015002", "city": "NEW YORK, NY", "zone_code": "R8B", "zone_category": "Residential", "ev_permitted": false}, "geometry": {"type": "Polygon", "coordinates": [[[-73.9583820040638, 40.7824638184167], [-73.9582003526685, 40.7827132047031], [-73.9582811025539, 40.7827472008676], [-73.9584630374544, 40.7824979340084], [-73.9583820040638, 40.7824638184167]]]}}, {"type": "Feature", "properties": {"zone_id": "0205LRMP5R72ZY5PZ1PKVZ", "tract_id": "36061015002", "city": "NEW YORK, NY", "zone_code": "R8B", "zone_category": "Residential", "ev_permitted": false}, "geometry": {"type": "Polygon", "coordinates": [[[-73.9585137135992, 40.7820249008565], [-73.9583347893316, 40.782270809522], [-73.9584168149631, 40.7823054026068], [-73.9585957390204, 40.7820594945179], [-73.9585137135992, 40.7820249008565]]]}}, {"type": "Feature", "properties": {"zone_id": "0205OZPO1HGOSIYWHOOYWY", "tract_id": "36061015002", "city": "NEW YORK, NY", "zone_code": "R10", "zone_category": "Residential", "ev_permitted": false}, "geometry": {"type": "Polygon", "coordinates": [[[-73.9572540115157, 40.7819889122808], [-73.9570707078698, 40.7822400500126], [-73.9575130474862, 40.7824262860611], [-73.9576963509009, 40.7821751476332], [-73.9572540115157, 40.7819889122808]]]}}, {"type": "Feature", "properties": {"zone_id": "0206NSR1NA7GGG4R0RWQCT", "tract_id": "36061015002", "city": "NEW YORK, NY", "zone_code": "R10", "zone_category": "Residential", "ev_permitted": false}, "geometry": {"type": "Polygon", "coordinates": [[[-73.9572137807811, 40.7823002874836], [-73.9570323348838, 40.782548875908], [-73.9573316032873, 40.7826748749522], [-73.9575130474862, 40.7824262860611], [-73.9572137807811, 40.7823002874836]]]}}, {"type": "Feature", "properties": {"zone_id": "02023G9LMKJ461DSELB4BC", "tract_id": "36061015002", "city": "NEW YORK, NY", "zone_code": "R10", "zone_category": "Residential", "ev_permitted": false}, "geometry": {"type": "Polygon", "coordinates": [[[-73.9583941632878, 40.7816535580825], [-73.9580365606449, 40.7821450361945], [-73.9583347893316, 40.782270809522], [-73.9586923904486, 40.7817793304941], [-73.9583941632878, 40.7816535580825]]]}}, {"type": "Feature", "properties": {"zone_id": "0202J7SYH9Q69Z5XVMD581", "tract_id": "36061015002", "city": "NEW YORK, NY", "zone_code": "R10", "zone_category": "Residential", "ev_permitted": false}, "geometry": {"type": "Polygon", "coordinates": [[[-73.957832235254, 40.7814164982101], [-73.9576553177728, 40.7816596465603], [-73.9579763337769, 40.781795034452], [-73.9581532504456, 40.781551885614], [-73.957832235254, 40.7814164982101]]]}}, {"type": "Feature", "properties": {"zone_id": "0202HYUCYTSHNE2J01167O", "tract_id": "36061015002", "city": "NEW YORK, NY", "zone_code": "R8B", "zone_category": "Residential", "ev_permitted": false}, "geometry": {"type": "Polygon", "coordinates": [[[-73.9574527353574, 40.7815742095391], [-73.9572720079386, 40.7818225913504], [-73.9577956077124, 40.7820434163733], [-73.9579763337769, 40.781795034452], [-73.9574527353574, 40.7815742095391]]]}}, {"type": "Feature", "properties": {"zone_id": "02041VWMJS2LM61VK31H9L", "tract_id": "36061015002", "city": "NEW YORK, NY", "zone_code": "R8B", "zone_category": "Residential", "ev_permitted": false}, "geometry": {"type": "Polygon", "coordinates": [[[-73.9571577431408, 40.781449796857], [-73.9570729827087, 40.7815662861303], [-73.95708504355, 40.7815713729058], [-73.9569890758172, 40.7817032649957], [-73.9572720079386, 40.7818225913504], [-73.9574527353574, 40.7815742095391], [-73.9571577431408, 40.781449796857]]]}}, {"type": "Feature", "properties": {"zone_id": "020697W7Z79NJW5C5XFJ25", "tract_id": "36061015002", "city": "NEW YORK, NY", "zone_code": "R10", "zone_category": "Residential", "ev_permitted": false}, "geometry": {"type": "Polygon", "coordinates": [[[-73.9596151914804, 40.7813469994886], [-73.9594360464388, 40.7815932210849], [-73.9596089820568, 40.7816660885394], [-73.9596313513805, 40.7816353448048], [-73.959606086112, 40.7816246985001], [-73.9597628614427, 40.781409221109], [-73.9596151914804, 40.7813469994886]]]}}, {"type": "Feature", "properties": {"zone_id": "0202FW1NGZE69EFWCGEETL", "tract_id": "36061015002", "city": "NEW YORK, NY", "zone_code": "R10", "zone_category": "Residential", "ev_permitted": false}, "geometry": {"type": "Polygon", "coordinates": [[[-73.9594479096581, 40.7812765146151], [-73.9592687641876, 40.781522735954], [-73.9594360464388, 40.7815932210849], [-73.9596151914804, 40.7813469994886], [-73.9594479096581, 40.7812765146151]]]}}, {"type": "Feature", "properties": {"zone_id": "0205NAW43KK5MTEHDZRQY2", "tract_id": "36061015002", "city": "NEW YORK, NY", "zone_code": "R8B", "zone_category": "Residential", "ev_permitted": false}, "geometry": {"type": "Polygon", "coordinates": [[[-73.9588513794255, 40.7810251597862], [-73.9584883398022, 40.78152412346], [-73.95884741846, 40.7816743057315], [-73.9590306847262, 40.781422418925], [-73.9589526900204, 40.7813895548271], [-73.959131835377, 40.7811433339742], [-73.9588513794255, 40.7810251597862]]]}}, {"type": "Feature", "properties": {"zone_id": "0201RU3SCLEYK38RHNW5MG", "tract_id": "36061015002", "city": "NEW YORK, NY", "zone_code": "R10", "zone_category": "Residential", "ev_permitted": false}, "geometry": {"type": "Polygon", "coordinates": [[[-73.959131835377, 40.7811433339742], [-73.9589526900204, 40.7813895548271], [-73.9592687641876, 40.781522735954], [-73.9594479096581, 40.7812765146151], [-73.959131835377, 40.7811433339742]]]}}, {"type": "Feature", "properties": {"zone_id": "0207ES9RLQ663E5GF41O9L", "tract_id": "36061015002", "city": "NEW YORK, NY", "zone_code": "R8B", "zone_category": "Residential", "ev_permitted": false}, "geometry": {"type": "Polygon", "coordinates": [[[-73.9579046846912, 40.7809468663193], [-73.9577197593988, 40.7812010182046], [-73.9582469193617, 40.7814231494385], [-73.9584318395613, 40.7811689967146], [-73.9579046846912, 40.7809468663193]]]}}, {"type": "Feature", "properties": {"zone_id": "0201BXHIZQTSXFOPCJ5P06", "tract_id": "36061015002", "city": "NEW YORK, NY", "zone_code": "R8B", "zone_category": "Residential", "ev_permitted": false}, "geometry": {"type": "Polygon", "coordinates": [[[-73.9572211882782, 40.7811587917101], [-73.9570442683259, 40.7814019391315], [-73.9576553177728, 40.7816596465603], [-73.957832235254, 40.7814164982101], [-73.9572211882782, 40.7811587917101]]]}}, {"type": "Feature", "properties": {"zone_id": "02043YV34PRFNOP9EQ58Q3", "tract_id": "36061015002", "city": "NEW YORK, NY", "zone_code": "C5-1", "zone_category": "Commercial", "ev_permitted": true}, "geometry": {"type": "Polygon", "coordinates": [[[-73.9584046096491, 40.7808369050006], [-73.9582260684177, 40.7810822902034], [-73.9584318395613, 40.7811689967146], [-73.9586103802673, 40.7809236104936], [-73.9584046096491, 40.7808369050006]]]}}, {"type": "Feature", "properties": {"zone_id": "02053PJ3OE5VD0174918SC", "tract_id": "36061015002", "city": "NEW YORK, NY", "zone_code": "R10", "zone_category": "Residential", "ev_permitted": false}, "geometry": {"type": "Polygon", "coordinates": [[[-73.958083225819, 40.7807014823117], [-73.9579046846912, 40.7809468663193], [-73.9582260684177, 40.7810822902034], [-73.9584046096491, 40.7808369050006], [-73.958083225819, 40.7807014823117]]]}}, {"type": "Feature", "properties": {"zone_id": "0204TZ1E3IQ3ZSVCAFBBOG", "tract_id": "36061015002", "city": "NEW YORK, NY", "zone_code": "R10", "zone_category": "Residential", "ev_permitted": false}, "geometry": {"type": "Polygon", "coordinates": [[[-73.957335245757, 40.7803862973169], [-73.9571567027174, 40.78063168088], [-73.9575773915722, 40.7808089526739], [-73.9577559344612, 40.7805635684659], [-73.957335245757, 40.7803862973169]]]}}, {"type": "Feature", "properties": {"zone_id": "0204VYEQGWKVR1H2YHLCQO", "tract_id": "36061015002", "city": "NEW YORK, NY", "zone_code": "R8B", "zone_category": "Residential", "ev_permitted": false}, "geometry": {"type": "Polygon", "coordinates": [[[-73.9571567027174, 40.78063168088], [-73.956971778218, 40.780885832281], [-73.9573924654141, 40.7810631033367], [-73.9575773915722, 40.7808089526739], [-73.9571567027174, 40.78063168088]]]}}, {"type": "Feature", "properties": {"zone_id": "0200RI2QCNO8IZOBUV4XFH", "tract_id": "36061015002", "city": "NEW YORK, NY", "zone_code": "R8B", "zone_category": "Residential", "ev_permitted": false}, "geometry": {"type": "Polygon", "coordinates": [[[-73.9576600378891, 40.7808437784097], [-73.9574751119497, 40.7810979292038], [-73.9577197593988, 40.7812010182046], [-73.9579046846912, 40.7809468663193], [-73.9576600378891, 40.7808437784097]]]}}, {"type": "Feature", "properties": {"zone_id": "0204DR1C58R1QSZ75EKXNB", "tract_id": "36061015002", "city": "NEW YORK, NY", "zone_code": "R8B", "zone_category": "Residential", "ev_permitted": false}, "geometry": {"type": "Polygon", "coordinates": [[[-73.9575773915722, 40.7808089526739], [-73.9573924654141, 40.7810631033367], [-73.9574751119497, 40.7810979292038], [-73.9576600378891, 40.7808437784097], [-73.9575773915722, 40.7808089526739]]]}}, {"type": "Feature", "properties": {"zone_id": "0206MDWY8COR98E9PHR7X3", "tract_id": "36061015002", "city": "NEW YORK, NY", "zone_code": "R10", "zone_category": "Residential", "ev_permitted": false}, "geometry": {"type": "Polygon", "coordinates": [[[-73.9577559344612, 40.7805635684659], [-73.9575773915722, 40.7808089526739], [-73.9579046846912, 40.7809468663193], [-73.958083225819, 40.7807014823117], [-73.9577559344612, 40.7805635684659]]]}}, {"type": "Feature", "properties": {"zone_id": "0207OI6XDWBEDMJG4SHBP3", "tract_id": "36061015002", "city": "NEW YORK, NY", "zone_code": "R10", "zone_category": "Residential", "ev_permitted": false}, "geometry": {"type": "Polygon", "coordinates": [[[-73.9569317658712, 40.7818532373472], [-73.9565670142831, 40.7823529615682], [-73.9570323348838, 40.782548875908], [-73.9572137807811, 40.7823002874836], [-73.9570707078698, 40.7822400500126], [-73.9572540115157, 40.7819889122808], [-73.9569317658712, 40.7818532373472]]]}}, {"type": "Feature", "properties": {"zone_id": "0204CH9I6RQ689PPNXWCOL", "tract_id": "36061015002", "city": "NEW YORK, NY", "zone_code": "R8B", "zone_category": "Residential", "ev_permitted": false}, "geometry": {"type": "Polygon", "coordinates": [[[-73.9559583928855, 40.7822657829993], [-73.9557775456497, 40.7825135440637], [-73.9563687757545, 40.7827627457605], [-73.9565497732042, 40.7825147751473], [-73.9559583928855, 40.7822657829993]]]}}, {"type": "Feature", "properties": {"zone_id": "0202YR0LVWIPH8P80SD9OE", "tract_id": "36061015002", "city": "NEW YORK, NY", "zone_code": "R10", "zone_category": "Residential", "ev_permitted": false}, "geometry": {"type": "Polygon", "coordinates": [[[-73.9566824715776, 40.7817482758828], [-73.9565887541053, 40.7818766720848], [-73.9563238285986, 40.7817651285363], [-73.9560527921629, 40.7821364558602], [-73.9565670142831, 40.7823529615682], [-73.9569317658712, 40.7818532373472], [-73.9566824715776, 40.7817482758828]]]}}, {"type": "Feature", "properties": {"zone_id": "0207FIGTODDIBDIYX17H6J", "tract_id": "36061015002", "city": "NEW YORK, NY", "zone_code": "R10", "zone_category": "Residential", "ev_permitted": false}, "geometry": {"type": "Polygon", "coordinates": [[[-73.9564175464246, 40.7816367325475], [-73.9563680048944, 40.7817046068663], [-73.95663292931, 40.781816150314], [-73.9566824715776, 40.7817482758828], [-73.9564175464246, 40.7816367325475]]]}}, {"type": "Feature", "properties": {"zone_id": "020197H6RX5X9S99NMI3SU", "tract_id": "36061015002", "city": "NEW YORK, NY", "zone_code": "R10", "zone_category": "Residential", "ev_permitted": false}, "geometry": {"type": "Polygon", "coordinates": [[[-73.9563680048944, 40.7817046068663], [-73.9563238285986, 40.7817651285363], [-73.9565887541053, 40.7818766720848], [-73.95663292931, 40.781816150314], [-73.9563680048944, 40.7817046068663]]]}}, {"type": "Feature", "properties": {"zone_id": "0201JV0CNRXZU481TAR8C9", "tract_id": "36061015002", "city": "NEW YORK, NY", "zone_code": "R8B", "zone_category": "Residential", "ev_permitted": false}, "geometry": {"type": "Polygon", "coordinates": [[[-73.9568783703489, 40.7810142063656], [-73.9567014504534, 40.7812573532665], [-73.9570442683259, 40.7814019391315], [-73.9572211882782, 40.7811587917101], [-73.9568783703489, 40.7810142063656]]]}}, {"type": "Feature", "properties": {"zone_id": "0200BVRB1JO3STPK1OMMEJ", "tract_id": "36061015002", "city": "NEW YORK, NY", "zone_code": "R8B", "zone_category": "Residential", "ev_permitted": false}, "geometry": {"type": "Polygon", "coordinates": [[[-73.9567014504534, 40.7812573532665], [-73.9565207210921, 40.7815057339115], [-73.9569890758172, 40.7817032649957], [-73.95708504355, 40.7815713729058], [-73.9570729827087, 40.7815662861303], [-73.9571577431408, 40.781449796857], [-73.9567014504534, 40.7812573532665]]]}}]}