{"type": "FeatureCollection", "features": [{"type": "Feature", "properties": {"zone_id": "0201CML6ALXJAFUT12NIXP", "tract_id": "36005001904", "city": "NY", "zone_code": "C8-2", "zone_category": "Commercial", "ev_permitted": true}, "geometry": {"type": "Polygon", "coordinates": [[[-73.8982124026621, 40.7997819629162], [-73.8981701165334, 40.7998259164145], [-73.8980425521288, 40.7999162425145], [-73.8979993911299, 40.7999601726908], [-73.8979568494813, 40.8000192483294], [-73.8979334903465, 40.8000535992066], [-73.8979031685345, 40.8000844046613], [-73.8978123798264, 40.8001483230323], [-73.8976087742841, 40.8002592173579], [-73.8974527210385, 40.8004058897389], [-73.8973373286936, 40.8005002478513], [-73.8972412650292, 40.8005627466357], [-73.8970118768555, 40.8006564912143], [-73.896843657106, 40.8007444025821], [-73.8967262533053, 40.8008606922167], [-73.8966593257438, 40.8009306218464], [-73.8966412228417, 40.8009580539544], [-73.8966285341238, 40.8009882340623], [-73.8966212659862, 40.8010170474563], [-73.8966193919369, 40.8010609614301], [-73.896630297807, 40.8013470448025], [-73.8966449226261, 40.8014277601289], [-73.8966483679051, 40.8014831461244], [-73.8966494792215, 40.8015237237772], [-73.8966576712324, 40.8015859754084], [-73.896678478411, 40.8016571718434], [-73.8967374237541, 40.8018103778543], [-73.8967788349896, 40.8018913848593], [-73.8968041574053, 40.8019203208912], [-73.89683794505, 40.801950523643], [-73.8968721439011, 40.8019767427249], [-73.8969311019015, 40.8020093787576], [-73.8969756751517, 40.8020275167677], [-73.8970202496551, 40.8020442628112], [-73.8970839267832, 40.8020760330998], [-73.8971170887148, 40.8020996021908], [-73.8971833057054, 40.8021339625521], [-73.897211221241, 40.8021424881111], [-73.897233396501, 40.8021467799962], [-73.8972575781717, 40.8021481569638], [-73.8973299290368, 40.8021456757236], [-73.8973798296021, 40.8021403603399], [-73.8974282280293, 40.8021413491821], [-73.8974713779841, 40.8021489754898], [-73.8975164474228, 40.8021620975107], [-73.8975952802845, 40.8021956404252], [-73.8976686783992, 40.8022229178468], [-73.8978149059883, 40.802260101124], [-73.8979178160169, 40.8022807778481], [-73.8980279748603, 40.8022849921746], [-73.8981011689687, 40.8022777936019], [-73.8981616516505, 40.8022645255027], [-73.8982375876171, 40.8022353911173], [-73.8982775253233, 40.8022104063936], [-73.8983084040483, 40.8021829761709], [-73.8983272482127, 40.802157944714], [-73.8983489264023, 40.802122060508], [-73.8983733098627, 40.8020300376232], [-73.8983915694553, 40.8018996790546], [-73.8985094010474, 40.8016088420371], [-73.8990123555819, 40.8017547478397], [-73.8989550993416, 40.8018590040042], [-73.8991049374337, 40.8018975610881], [-73.8992189951187, 40.8017123909323], [-73.898540868024, 40.8014973387423], [-73.8986427445498, 40.8013696485768], [-73.8986961878537, 40.8013411560036], [-73.8987559435351, 40.8013073323198], [-73.8987992883197, 40.8012796065548], [-73.8989537593073, 40.8010703100749], [-73.8990571122605, 40.8009564602334], [-73.8991263231244, 40.8008486611626], [-73.899160448946, 40.8007652210627], [-73.8992062595794, 40.8006236953242], [-73.8992122345427, 40.800528501243], [-73.8991977153629, 40.8004310548117], [-73.8991572429884, 40.8003112441994], [-73.8991471850014, 40.8002756580957], [-73.8991439343744, 40.8002546326502], [-73.8991440349814, 40.8002364425212], [-73.8991599558538, 40.8001519620195], [-73.8982124026621, 40.7997819629162]]]}}, {"type": "Feature", "properties": {"zone_id": "02066OF43MMMH9RL2KM6R6", "tract_id": "36005001904", "city": "NY", "zone_code": "C8-2", "zone_category": "Commercial", "ev_permitted": true}, "geometry": {"type": "Polygon", "coordinates": [[[-73.8986436462821, 40.7995623015477], [-73.8984208675318, 40.7995668054759], [-73.8983736543871, 40.7995731537658], [-73.89833692524, 40.7995912750599], [-73.8983122887101, 40.7996189005228], [-73.8982869834359, 40.7996648196017], [-73.8982124026621, 40.7997819629162], [-73.8991599558538, 40.8001519620195], [-73.8991740645622, 40.8000777463568], [-73.8991777451825, 40.8000419741229], [-73.8991750400444, 40.7999947318569], [-73.8991607078773, 40.7999271510362], [-73.8991118390901, 40.7997690111921], [-73.8991077049494, 40.7997574812934], [-73.8990978448462, 40.7997433100376], [-73.8990843059035, 40.7997338327794], [-73.8990663764363, 40.7997233728829], [-73.8987518379824, 40.7995796881575], [-73.8987113420625, 40.799568585131], [-73.8986763299333, 40.799563702558], [-73.8986436462821, 40.7995623015477]]]}}, {"type": "Feature", "properties": {"zone_id": "0204YD2HRCVF7AS48D6OC6", "tract_id": "36005001904", "city": "NY", "zone_code": "M3-1", "zone_category": "Industrial", "ev_permitted": true}, "geometry": {"type": "Polygon", "coordinates": [[[-73.8951043827112, 40.7952064567214], [-73.8950808695073, 40.7963770632453], [-73.8960682461743, 40.7977997276278], [-73.8979047041238, 40.7978768490031], [-73.8995816262902, 40.7971701821454], [-73.8995414210483, 40.7962890882003], [-73.8972802672163, 40.7952797797047], [-73.8951043827112, 40.7952064567214]], [[-73.8966748850829, 40.7961780298016], [-73.89670896648, 40.7961814604758], [-73.8967588566977, 40.7961930827531], [-73.8967972243596, 40.7962049469444], [-73.8968301855607, 40.7962206589194], [-73.8968566374583, 40.7962359202822], [-73.8968857516737, 40.7962479265305], [-73.896924836308, 40.7962577648751], [-73.8969660625107, 40.7962638817731], [-73.8970241220285, 40.7962650438456], [-73.8972347043434, 40.7962451928798], [-73.8973239254251, 40.7962432185419], [-73.8975157250502, 40.7962470978257], [-73.8975788225899, 40.7962603103468], [-73.8976461499007, 40.7962857070442], [-73.8977327497684, 40.7963222838192], [-73.8978106141515, 40.7963534824233], [-73.8979033847208, 40.7963823424059], [-73.8980243312064, 40.7964112694034], [-73.8982263454589, 40.796444070628], [-73.898411482283, 40.7964927259967], [-73.8985068742864, 40.7965156756977], [-73.8985875089055, 40.7965495828262], [-73.8986765364736, 40.796591158982], [-73.898746619281, 40.7966327163205], [-73.8987957600512, 40.796673725432], [-73.8988456072474, 40.7967342217604], [-73.8988658664111, 40.7967759608416], [-73.8988766320166, 40.7968145521463], [-73.8988741547459, 40.79688960082], [-73.8988659567691, 40.7969343630302], [-73.8988523640754, 40.796969178698], [-73.898834334596, 40.7969909724569], [-73.8988174142976, 40.7970050717539], [-73.8988077263954, 40.7970117412435], [-73.8987879513754, 40.7970225053568], [-73.8987601870823, 40.7970343635038], [-73.8987002076184, 40.7970555385939], [-73.8985564002935, 40.7971094832162], [-73.8984819109478, 40.7971349091074], [-73.8983807096917, 40.7971828531474], [-73.8983011748628, 40.797233560068], [-73.8982397003782, 40.7972829113045], [-73.8981944607249, 40.7973432550651], [-73.8981347666076, 40.7974090758455], [-73.898087757664, 40.7974460885858], [-73.898042573336, 40.7974707510213], [-73.8979883592992, 40.7974954054481], [-73.8979052387314, 40.7975282686151], [-73.8978275615375, 40.7975446685193], [-73.8977589320357, 40.7975487244974], [-73.8977137917981, 40.7975445676184], [-73.8976686578956, 40.7975362931932], [-73.897455652056, 40.7974798363177], [-73.8973022112475, 40.7974426468233], [-73.8971993088894, 40.7974219695337], [-73.8970007039963, 40.7973957168638], [-73.8969357073397, 40.7973860521236], [-73.8968833591564, 40.7973722818312], [-73.8968382339804, 40.7973585179797], [-73.8967534200785, 40.7973186431931], [-73.896679718588, 40.7972588202091], [-73.8965709892279, 40.7971510779852], [-73.8964861260898, 40.7970456238437], [-73.8963908184052, 40.796903703909], [-73.8963499270516, 40.7968117618082], [-73.8963338314527, 40.7967216738057], [-73.8963341094636, 40.7966440817156], [-73.8963524007837, 40.7965798807849], [-73.8964023430656, 40.7964649213918], [-73.8964487836448, 40.7963839151413], [-73.8964720758021, 40.7963084685365], [-73.8964903703229, 40.7962789314656], [-73.8965253647777, 40.7962392462404], [-73.8965593693369, 40.796213003235], [-73.8966021464006, 40.7961920815362], [-73.8966445831859, 40.7961800951293], [-73.8966748850829, 40.7961780298016]]]}}, {"type": "Feature", "properties": {"zone_id": "0202Q3W145E2IFHISUZ8VG", "tract_id": "36005001904", "city": "NY", "zone_code": "M3-1", "zone_category": "Industrial", "ev_permitted": true}, "geometry": {"type": "Polygon", "coordinates": [[[-73.8966748850829, 40.7961780298016], [-73.8966445831859, 40.7961800951293], [-73.8966021464006, 40.7961920815362], [-73.8965593693369, 40.796213003235], [-73.8965253647777, 40.7962392462404], [-73.8964903703229, 40.7962789314656], [-73.8964720758021, 40.7963084685365], [-73.8964487836448, 40.7963839151413], [-73.8964023430656, 40.7964649213918], [-73.8963524007837, 40.7965798807849], [-73.8963341094636, 40.7966440817156], [-73.8963338314527, 40.7967216738057], [-73.8963499270516, 40.7968117618082], [-73.8963908184052, 40.796903703909], [-73.8964861260898, 40.7970456238437], [-73.8965709892279, 40.7971510779852], [-73.896679718588, 40.7972588202091], [-73.8967534200785, 40.7973186431931], [-73.8968382339804, 40.7973585179797], [-73.8968833591564, 40.7973722818312], [-73.8969357073397, 40.7973860521236], [-73.8970007039963, 40.7973957168638], [-73.8971993088894, 40.7974219695337], [-73.8973022112475, 40.7974426468233], [-73.897455652056, 40.7974798363177], [-73.8976686578956, 40.7975362931932], [-73.8977137917981, 40.7975445676184], [-73.8977589320357, 40.7975487244974], [-73.8978275615375, 40.7975446685193], [-73.8979052387314, 40.7975282686151], [-73.8979883592992, 40.7974954054481], [-73.898042573336, 40.7974707510213], [-73.898087757664, 40.7974460885858], [-73.8981347666076, 40.7974090758455], [-73.8981944607249, 40.7973432550651], [-73.8982397003782, 40.7972829113045], [-73.8983011748628, 40.797233560068], [-73.8983807096917, 40.7971828531474], [-73.8984819109478, 40.7971349091074], [-73.8985564002935, 40.7971094832162], [-73.8987002076184, 40.7970555385939], [-73.8987601870823, 40.7970343635038], [-73.8987879513754, 40.7970225053568], [-73.8988077263954, 40.7970117412435], [-73.8988174142976, 40.7970050717539], [-73.898834334596, 40.7969909724569], [-73.8988523640754, 40.796969178698], [-73.8988659567691, 40.7969343630302], [-73.8988741547459, 40.79688960082], [-73.8988766320166, 40.7968145521463], [-73.8988658664111, 40.7967759608416], [-73.8988456072474, 40.7967342217604], [-73.8987957600512, 40.796673725432], [-73.898746619281, 40.7966327163205], [-73.8986765364736, 40.796591158982], [-73.8985875089055, 40.7965495828262], [-73.8985068742864, 40.7965156756977], [-73.898411482283, 40.7964927259967], [-73.8982263454589, 40.796444070628], [-73.8980243312064, 40.7964112694034], [-73.8979033847208, 40.7963823424059], [-73.8978106141515, 40.7963534824233], [-73.8977327497684, 40.7963222838192], [-73.8976461499007, 40.7962857070442], [-73.8975788225899, 40.7962603103468], [-73.8975157250502, 40.7962470978257], [-73.8973239254251, 40.7962432185419], [-73.8972347043434, 40.7962451928798], [-73.8970241220285, 40.7962650438456], [-73.8969660625107, 40.7962638817731], [-73.896924836308, 40.7962577648751], [-73.8968857516737, 40.7962479265305], [-73.8968566374583, 40.7962359202822], [-73.8968301855607, 40.7962206589194], [-73.8967972243596, 40.7962049469444], [-73.8967588566977, 40.7961930827531], [-73.89670896648, 40.7961814604758], [-73.8966748850829, 40.7961780298016]]]}}]}