{"type": "FeatureCollection", "features": [{"type": "Feature", "properties": {"zone_id": "0206A7VIBJJRVPLU8W72P9", "tract_id": "36005037600", "city": "BRONX, NY", "zone_code": "PARK", "zone_category": "Other", "ev_permitted": false}, "geometry": {"type": "Polygon", "coordinates": [[[-73.8702708548174, 40.8757757520388], [-73.8693406004754, 40.8763405645871], [-73.8691137088395, 40.8764903032254], [-73.868405765798, 40.8770016487684], [-73.8682290760414, 40.8772703853622], [-73.8682229461365, 40.8775823013546], [-73.868228279456, 40.8776148692612], [-73.868232789783, 40.8776259670138], [-73.8682503390217, 40.877656141616], [-73.8682581072693, 40.8776656832223], [-73.8682782165966, 40.8776834816029], [-73.8683012989936, 40.8776981875339], [-73.8683299052638, 40.8777128484697], [-73.8683517892274, 40.8777212981078], [-73.8693325386237, 40.8779674905608], [-73.8698720012205, 40.8767056856874], [-73.8700501120357, 40.8767529078657], [-73.8702687010275, 40.8762272637106], [-73.8702708548174, 40.8757757520388]]]}}, {"type": "Feature", "properties": {"zone_id": "02064C9WVL3TPMOJX4AGHC", "tract_id": "36005037600", "city": "BRONX, NY", "zone_code": "R5A", "zone_category": "Other", "ev_permitted": false}, "geometry": {"type": "Polygon", "coordinates": [[[-73.8681817788624, 40.8767211079703], [-73.8681801586595, 40.8767679090838], [-73.8683532279589, 40.8767725887892], [-73.8683522872485, 40.8767998024345], [-73.8684526946325, 40.8767284329724], [-73.8681817788624, 40.8767211079703]]]}}, {"type": "Feature", "properties": {"zone_id": "0205QGPSXNAV6DL7JFIVHE", "tract_id": "36005037600", "city": "BRONX, NY", "zone_code": "R5A", "zone_category": "Other", "ev_permitted": false}, "geometry": {"type": "Polygon", "coordinates": [[[-73.868183451141, 40.8766727856965], [-73.8681817788624, 40.8767211079703], [-73.8684526946325, 40.8767284329724], [-73.8685182481247, 40.8766818382135], [-73.868183451141, 40.8766727856965]]]}}, {"type": "Feature", "properties": {"zone_id": "0205G7QOQ7ZARZ6FNKW3ME", "tract_id": "36005037600", "city": "BRONX, NY", "zone_code": "R5A", "zone_category": "Other", "ev_permitted": false}, "geometry": {"type": "Polygon", "coordinates": [[[-73.8681801586595, 40.8767679090838], [-73.8681730855648, 40.8769722910409], [-73.8683522872485, 40.8767998024345], [-73.8683532279589, 40.8767725887892], [-73.8681801586595, 40.8767679090838]]]}}, {"type": "Feature", "properties": {"zone_id": "0204DWLO3TN37ZNS5Y03JY", "tract_id": "36005037600", "city": "BRONX, NY", "zone_code": "R5A", "zone_category": "Other", "ev_permitted": false}, "geometry": {"type": "Polygon", "coordinates": [[[-73.8686476855397, 40.876358231486], [-73.8686431331284, 40.8764898029973], [-73.8687830901637, 40.8764935871425], [-73.8689662055084, 40.8763634270518], [-73.8686476855397, 40.876358231486]]]}}, {"type": "Feature", "properties": {"zone_id": "0203T2QTGPIVIGJSBTMAMD", "tract_id": "36005037600", "city": "BRONX, NY", "zone_code": "R5A", "zone_category": "Other", "ev_permitted": false}, "geometry": {"type": "Polygon", "coordinates": [[[-73.8686501988174, 40.876285600863], [-73.8686476855397, 40.876358231486], [-73.8689662055084, 40.8763634270518], [-73.869066043475, 40.8762923845392], [-73.8686501988174, 40.876285600863]]]}}, {"type": "Feature", "properties": {"zone_id": "02078M2NEPMM263ZRUMY4B", "tract_id": "36005037600", "city": "BRONX, NY", "zone_code": "R5A", "zone_category": "Other", "ev_permitted": false}, "geometry": {"type": "Polygon", "coordinates": [[[-73.8686528004714, 40.8762104042918], [-73.8686501988174, 40.876285600863], [-73.869066043475, 40.8762923845392], [-73.8691021628694, 40.876266786818], [-73.869102721192, 40.8762220530609], [-73.8686528004714, 40.8762104042918]]]}}, {"type": "Feature", "properties": {"zone_id": "0205PIPO8VR8IOPQ3667J8", "tract_id": "36005037600", "city": "BRONX, NY", "zone_code": "R5A", "zone_category": "Other", "ev_permitted": false}, "geometry": {"type": "Polygon", "coordinates": [[[-73.8686548209047, 40.8761520149519], [-73.8686528004714, 40.8762104042918], [-73.869102721192, 40.8762220530609], [-73.86910295102, 40.8761636174164], [-73.8686548209047, 40.8761520149519]]]}}, {"type": "Feature", "properties": {"zone_id": "0203YNZ3SLSPP8JUKVMYRI", "tract_id": "36005037600", "city": "BRONX, NY", "zone_code": "R5A", "zone_category": "Other", "ev_permitted": false}, "geometry": {"type": "Polygon", "coordinates": [[[-73.8681884060981, 40.8765296070251], [-73.8681868457769, 40.8765746909523], [-73.8686513210182, 40.8765872490503], [-73.8687124811547, 40.8765437766381], [-73.8681884060981, 40.8765296070251]]]}}, {"type": "Feature", "properties": {"zone_id": "0204RBTNLTAVIC0V17BWU1", "tract_id": "36005037600", "city": "BRONX, NY", "zone_code": "R5A", "zone_category": "Other", "ev_permitted": false}, "geometry": {"type": "Polygon", "coordinates": [[[-73.8681902070235, 40.876477557382], [-73.8681884060981, 40.8765296070251], [-73.8687124811547, 40.8765437766381], [-73.8687830901637, 40.8764935871425], [-73.8681902070235, 40.876477557382]]]}}, {"type": "Feature", "properties": {"zone_id": "0204A8IM2O6PTHPVPUMCSE", "tract_id": "36005037600", "city": "BRONX, NY", "zone_code": "R5A", "zone_category": "Other", "ev_permitted": false}, "geometry": {"type": "Polygon", "coordinates": [[[-73.8681852004276, 40.8766201717746], [-73.868183451141, 40.8766727856965], [-73.8685182481247, 40.8766818382135], [-73.8685896194286, 40.8766311065636], [-73.8681852004276, 40.8766201717746]]]}}, {"type": "Feature", "properties": {"zone_id": "0203UG68GPILIYRRC6HXPZ", "tract_id": "36005037600", "city": "BRONX, NY", "zone_code": "R5A", "zone_category": "Other", "ev_permitted": false}, "geometry": {"type": "Polygon", "coordinates": [[[-73.8681868457769, 40.8765746909523], [-73.8681852004276, 40.8766201717746], [-73.8685896194286, 40.8766311065636], [-73.8686513210182, 40.8765872490503], [-73.8681868457769, 40.8765746909523]]]}}, {"type": "Feature", "properties": {"zone_id": "0202PF1CST5EYHVJNXCF9C", "tract_id": "36005037600", "city": "BRONX, NY", "zone_code": "R5A", "zone_category": "Other", "ev_permitted": false}, "geometry": {"type": "Polygon", "coordinates": [[[-73.8681998585802, 40.876198675838], [-73.8681902070235, 40.876477557382], [-73.8686431331284, 40.8764898029973], [-73.8686528004714, 40.8762104042918], [-73.8681998585802, 40.876198675838]]]}}, {"type": "Feature", "properties": {"zone_id": "0200D2O5S5OCODDMYE2T4L", "tract_id": "36005037600", "city": "BRONX, NY", "zone_code": "R5A", "zone_category": "Other", "ev_permitted": false}, "geometry": {"type": "Polygon", "coordinates": [[[-73.8682027614911, 40.8761235302094], [-73.8681998585802, 40.876198675838], [-73.8686528004714, 40.8762104042918], [-73.868655383425, 40.8761357677036], [-73.8682027614911, 40.8761235302094]]]}}, {"type": "Feature", "properties": {"zone_id": "0206TOUOUZGYGZC3OZ2PL5", "tract_id": "36005037600", "city": "BRONX, NY", "zone_code": "R5A", "zone_category": "Other", "ev_permitted": false}, "geometry": {"type": "Polygon", "coordinates": [[[-73.8692989631321, 40.875966298864], [-73.8692943801124, 40.8761409514492], [-73.8695720385713, 40.8759697465113], [-73.8692989631321, 40.875966298864]]]}}, {"type": "Feature", "properties": {"zone_id": "02035I5WGJEWVMK1FMMW5S", "tract_id": "36005037600", "city": "BRONX, NY", "zone_code": "R5A", "zone_category": "Other", "ev_permitted": false}, "geometry": {"type": "Polygon", "coordinates": [[[-73.869300475146, 40.8759086670856], [-73.8692989631321, 40.875966298864], [-73.8695720385713, 40.8759697465113], [-73.8696333882213, 40.875931944141], [-73.8696338893793, 40.8759128771167], [-73.869300475146, 40.8759086670856]]]}}, {"type": "Feature", "properties": {"zone_id": "02076BA38K1B4BOOW3QYK7", "tract_id": "36005037600", "city": "BRONX, NY", "zone_code": "R5A", "zone_category": "Other", "ev_permitted": false}, "geometry": {"type": "Polygon", "coordinates": [[[-73.8696398812212, 40.8756844508166], [-73.8696333882213, 40.875931944141], [-73.869749272678, 40.8758627867809], [-73.8697538764647, 40.875687309292], [-73.8696398812212, 40.8756844508166]]]}}, {"type": "Feature", "properties": {"zone_id": "020783DLM74W8IA2Q431FV", "tract_id": "36005037600", "city": "BRONX, NY", "zone_code": "R5A", "zone_category": "Other", "ev_permitted": false}, "geometry": {"type": "Polygon", "coordinates": [[[-73.8697538764647, 40.875687309292], [-73.869749272678, 40.8758627867809], [-73.8700571359619, 40.8756949129571], [-73.8697538764647, 40.875687309292]]]}}, {"type": "Feature", "properties": {"zone_id": "0207NBMAKQAR6ZPBM8M6JY", "tract_id": "36005037600", "city": "BRONX, NY", "zone_code": "R5A", "zone_category": "Other", "ev_permitted": false}, "geometry": {"type": "Polygon", "coordinates": [[[-73.8693036421747, 40.875787993347], [-73.8693020782141, 40.8758475664671], [-73.8696354921439, 40.8758517750884], [-73.8696369458435, 40.8757963516421], [-73.8693036421747, 40.875787993347]]]}}, {"type": "Feature", "properties": {"zone_id": "0200C60YJ5CKXVRO6N6IJB", "tract_id": "36005037600", "city": "BRONX, NY", "zone_code": "R5A", "zone_category": "Other", "ev_permitted": false}, "geometry": {"type": "Polygon", "coordinates": [[[-73.8693050951713, 40.8757325966035], [-73.8693036421747, 40.875787993347], [-73.8696369458435, 40.8757963516421], [-73.8696383994884, 40.8757409548955], [-73.8693050951713, 40.8757325966035]]]}}, {"type": "Feature", "properties": {"zone_id": "0202EU068DE5WXJ2BPR7VB", "tract_id": "36005037600", "city": "BRONX, NY", "zone_code": "R5A", "zone_category": "Other", "ev_permitted": false}, "geometry": {"type": "Polygon", "coordinates": [[[-73.8693065753359, 40.8756760925266], [-73.8693050951713, 40.8757325966035], [-73.8696383994884, 40.8757409548955], [-73.8696398812212, 40.8756844508166], [-73.8693065753359, 40.8756760925266]]]}}, {"type": "Feature", "properties": {"zone_id": "0201SBZK0JMC3XA4KK7F70", "tract_id": "36005037600", "city": "BRONX, NY", "zone_code": "R5A", "zone_category": "Other", "ev_permitted": false}, "geometry": {"type": "Polygon", "coordinates": [[[-73.8693096314731, 40.8755614325687], [-73.8693065753359, 40.8756760925266], [-73.8696560152426, 40.8756848554934], [-73.869659089583, 40.875567685711], [-73.8693096314731, 40.8755614325687]]]}}, {"type": "Feature", "properties": {"zone_id": "0201N5NRJU5TKY97A7H7S6", "tract_id": "36005037600", "city": "BRONX, NY", "zone_code": "R5A", "zone_category": "Other", "ev_permitted": false}, "geometry": {"type": "Polygon", "coordinates": [[[-73.8693020782141, 40.8758475664671], [-73.869300475146, 40.8759086670856], [-73.8696338893793, 40.8759128771167], [-73.8696354921439, 40.8758517750884], [-73.8693020782141, 40.8758475664671]]]}}, {"type": "Feature", "properties": {"zone_id": "0203VB3A5KKTF788U89VZ2", "tract_id": "36005037600", "city": "BRONX, NY", "zone_code": "R5A", "zone_category": "Other", "ev_permitted": false}, "geometry": {"type": "Polygon", "coordinates": [[[-73.8700956356197, 40.8754243113127], [-73.8700889303404, 40.8756775752309], [-73.8701223093214, 40.875659374327], [-73.8701229156808, 40.875643719447], [-73.8701286630317, 40.8754249028697], [-73.8700956356197, 40.8754243113127]]]}}, {"type": "Feature", "properties": {"zone_id": "02037JVE76NZ40FR7TKG9W", "tract_id": "36005037600", "city": "BRONX, NY", "zone_code": "R5A", "zone_category": "Other", "ev_permitted": false}, "geometry": {"type": "Polygon", "coordinates": [[[-73.8699760121478, 40.875422171257], [-73.8699744121337, 40.8756931524133], [-73.8700571359619, 40.8756949129571], [-73.8700889303404, 40.8756775752309], [-73.8700956356197, 40.8754243113127], [-73.8699760121478, 40.875422171257]]]}}, {"type": "Feature", "properties": {"zone_id": "0206W3D29OF6CCJTXY12SR", "tract_id": "36005037600", "city": "BRONX, NY", "zone_code": "R5A", "zone_category": "Other", "ev_permitted": false}, "geometry": {"type": "Polygon", "coordinates": [[[-73.8698677631445, 40.8754202350223], [-73.8698605868771, 40.875689985185], [-73.8699744121337, 40.8756931524133], [-73.8699760121478, 40.875422171257], [-73.8698677631445, 40.8754202350223]]]}}, {"type": "Feature", "properties": {"zone_id": "0200Z9D3WF26FBQ4DCACXE", "tract_id": "36005037600", "city": "BRONX, NY", "zone_code": "R5A", "zone_category": "Other", "ev_permitted": false}, "geometry": {"type": "Polygon", "coordinates": [[[-73.8697609331795, 40.8754183234749], [-73.8697538764647, 40.875687309292], [-73.8698605868771, 40.875689985185], [-73.8698677631445, 40.8754202350223], [-73.8697609331795, 40.8754183234749]]]}}, {"type": "Feature", "properties": {"zone_id": "0201NNP5UME5DFNUDS2LC1", "tract_id": "36005037600", "city": "BRONX, NY", "zone_code": "R5A", "zone_category": "Other", "ev_permitted": false}, "geometry": {"type": "Polygon", "coordinates": [[[-73.8696630543132, 40.8754165723035], [-73.8696560152426, 40.8756848554934], [-73.8697538764647, 40.875687309292], [-73.8697609331795, 40.8754183234749], [-73.8696630543132, 40.8754165723035]]]}}, {"type": "Feature", "properties": {"zone_id": "0206JHMHI8T3KTOZ0ETLD3", "tract_id": "36005037600", "city": "BRONX, NY", "zone_code": "R5A", "zone_category": "Other", "ev_permitted": false}, "geometry": {"type": "Polygon", "coordinates": [[[-73.8695626132363, 40.8754147752921], [-73.869558648278, 40.8755658886961], [-73.869659089583, 40.875567685711], [-73.8696630543132, 40.8754165723035], [-73.8695626132363, 40.8754147752921]]]}}, {"type": "Feature", "properties": {"zone_id": "02009NN3JHJMR4NWFD1PPN", "tract_id": "36005037600", "city": "BRONX, NY", "zone_code": "R5A", "zone_category": "Other", "ev_permitted": false}, "geometry": {"type": "Polygon", "coordinates": [[[-73.8694420363721, 40.875412618147], [-73.8694380711412, 40.8755637308443], [-73.869558648278, 40.8755658886961], [-73.8695626132363, 40.8754147752921], [-73.8694420363721, 40.875412618147]]]}}, {"type": "Feature", "properties": {"zone_id": "0201CWU0HJE8E6M6FP233Z", "tract_id": "36005037600", "city": "BRONX, NY", "zone_code": "R5A", "zone_category": "Other", "ev_permitted": false}, "geometry": {"type": "Polygon", "coordinates": [[[-73.8693135525836, 40.8754103092859], [-73.8693096314731, 40.8755614325687], [-73.8694380711412, 40.8755637308443], [-73.8694420363721, 40.875412618147], [-73.8693135525836, 40.8754103092859]]]}}, {"type": "Feature", "properties": {"zone_id": "0200AYL7HD60EQUTGT1IEX", "tract_id": "36005037600", "city": "BRONX, NY", "zone_code": "R5A", "zone_category": "Other", "ev_permitted": false}, "geometry": {"type": "Polygon", "coordinates": [[[-73.8696300184031, 40.8749982494625], [-73.8696219154418, 40.8752529381591], [-73.8697274155064, 40.8752550261028], [-73.8697355171382, 40.8750003373979], [-73.8696300184031, 40.8749982494625]]]}}, {"type": "Feature", "properties": {"zone_id": "020225XRJRI6ZCMOENCWSA", "tract_id": "36005037600", "city": "BRONX, NY", "zone_code": "R5A", "zone_category": "Other", "ev_permitted": false}, "geometry": {"type": "Polygon", "coordinates": [[[-73.8697320211992, 40.8751102399958], [-73.8697294899926, 40.8751898127381], [-73.8701464617768, 40.8751980630267], [-73.8701489924848, 40.8751184902753], [-73.8697320211992, 40.8751102399958]]]}}, {"type": "Feature", "properties": {"zone_id": "02021JGA2ZUMIO89V2L3RG", "tract_id": "36005037600", "city": "BRONX, NY", "zone_code": "R5A", "zone_category": "Other", "ev_permitted": false}, "geometry": {"type": "Polygon", "coordinates": [[[-73.8697294899926, 40.8751898127381], [-73.8697274155064, 40.8752550261028], [-73.8701443876994, 40.8752632763988], [-73.8701464617768, 40.8751980630267], [-73.8697294899926, 40.8751898127381]]]}}, {"type": "Feature", "properties": {"zone_id": "0200KLJ7KA6FXYJY06R5PN", "tract_id": "36005037600", "city": "BRONX, NY", "zone_code": "R5A", "zone_category": "Other", "ev_permitted": false}, "geometry": {"type": "Polygon", "coordinates": [[[-73.869422070957, 40.8749941343702], [-73.8694139671996, 40.8752488230524], [-73.8695164126053, 40.8752508508184], [-73.8695245159719, 40.8749961614266], [-73.869422070957, 40.8749941343702]]]}}, {"type": "Feature", "properties": {"zone_id": "02010IV6VZUPZBHCN1YZ13", "tract_id": "36005037600", "city": "BRONX, NY", "zone_code": "R5A", "zone_category": "Other", "ev_permitted": false}, "geometry": {"type": "Polygon", "coordinates": [[[-73.8695245159719, 40.8749961614266], [-73.8695164126053, 40.8752508508184], [-73.8696219154418, 40.8752529381591], [-73.8696300184031, 40.8749982494625], [-73.8695245159719, 40.8749961614266]]]}}, {"type": "Feature", "properties": {"zone_id": "02056SHOX5QTO9FCPTYQKE", "tract_id": "36005037600", "city": "BRONX, NY", "zone_code": "R5A", "zone_category": "Other", "ev_permitted": false}, "geometry": {"type": "Polygon", "coordinates": [[[-73.8693365014119, 40.8749924404122], [-73.869327223601, 40.8752471066801], [-73.8694139671996, 40.8752488230524], [-73.869422070957, 40.8749941343702], [-73.8693365014119, 40.8749924404122]]]}}, {"type": "Feature", "properties": {"zone_id": "0205NNZ6ABU24QPABFT2HA", "tract_id": "36005037600", "city": "BRONX, NY", "zone_code": "R5A", "zone_category": "Other", "ev_permitted": false}, "geometry": {"type": "Polygon", "coordinates": [[[-73.8697394401514, 40.8748770274665], [-73.8697369553368, 40.8749551366616], [-73.8701539265761, 40.8749633869246], [-73.8701564109012, 40.8748852777206], [-73.8697394401514, 40.8748770274665]]]}}, {"type": "Feature", "properties": {"zone_id": "0204B2D8VY6JOWQUBJ8SW4", "tract_id": "36005037600", "city": "BRONX, NY", "zone_code": "R5A", "zone_category": "Other", "ev_permitted": false}, "geometry": {"type": "Polygon", "coordinates": [[[-73.8697369553368, 40.8749551366616], [-73.8697344961561, 40.8750324434675], [-73.8701514669541, 40.8750406937382], [-73.8701539265761, 40.8749633869246], [-73.8697369553368, 40.8749551366616]]]}}, {"type": "Feature", "properties": {"zone_id": "0202S6AV30S3KSJB4MUS2H", "tract_id": "36005037600", "city": "BRONX, NY", "zone_code": "R5A", "zone_category": "Other", "ev_permitted": false}, "geometry": {"type": "Polygon", "coordinates": [[[-73.8697344961561, 40.8750324434675], [-73.8697320211992, 40.8751102399958], [-73.8701489924848, 40.8751184902753], [-73.8701514669541, 40.8750406937382], [-73.8697344961561, 40.8750324434675]]]}}, {"type": "Feature", "properties": {"zone_id": "0201QMB711KOJW546RW7LT", "tract_id": "36005037600", "city": "BRONX, NY", "zone_code": "R5A", "zone_category": "Other", "ev_permitted": false}, "geometry": {"type": "Polygon", "coordinates": [[[-73.8693390992776, 40.8749211062271], [-73.8693365014119, 40.8749924404122], [-73.8697355171382, 40.8750003373979], [-73.8697377868993, 40.8749289958077], [-73.8693390992776, 40.8749211062271]]]}}, {"type": "Feature", "properties": {"zone_id": "02032L8MHMDHYBQ4ZUSIVH", "tract_id": "36005037600", "city": "BRONX, NY", "zone_code": "R5A", "zone_category": "Other", "ev_permitted": false}, "geometry": {"type": "Polygon", "coordinates": [[[-73.8693416441852, 40.874851281256], [-73.8693390992776, 40.8749211062271], [-73.8697377868993, 40.8749289958077], [-73.8697400083377, 40.8748591648421], [-73.8693416441852, 40.874851281256]]]}}, {"type": "Feature", "properties": {"zone_id": "0201P6CCIMZL6W4ERRGFID", "tract_id": "36005037600", "city": "BRONX, NY", "zone_code": "R5A", "zone_category": "Other", "ev_permitted": false}, "geometry": {"type": "Polygon", "coordinates": [[[-73.8697933311015, 40.8745888519096], [-73.8697890777539, 40.8747225528482], [-73.8701613519369, 40.8747299186092], [-73.8701656045364, 40.8745962176571], [-73.8697933311015, 40.8745888519096]]]}}, {"type": "Feature", "properties": {"zone_id": "0205XZHSJATS19CGPDQ7FR", "tract_id": "36005037600", "city": "BRONX, NY", "zone_code": "R5A", "zone_category": "Other", "ev_permitted": false}, "geometry": {"type": "Polygon", "coordinates": [[[-73.8697443830866, 40.8747216683738], [-73.8697419387443, 40.8747984974032], [-73.8701589090018, 40.8748067476485], [-73.8701613519369, 40.8747299186092], [-73.8697443830866, 40.8747216683738]]]}}, {"type": "Feature", "properties": {"zone_id": "0204M1PTO4XK62RBSSY9AQ", "tract_id": "36005037600", "city": "BRONX, NY", "zone_code": "R5A", "zone_category": "Other", "ev_permitted": false}, "geometry": {"type": "Polygon", "coordinates": [[[-73.8697419387443, 40.8747984974032], [-73.8697394401514, 40.8748770274665], [-73.8701564109012, 40.8748852777206], [-73.8701589090018, 40.8748067476485], [-73.8697419387443, 40.8747984974032]]]}}, {"type": "Feature", "properties": {"zone_id": "0203FA4PDQINC4QALP496K", "tract_id": "36005037600", "city": "BRONX, NY", "zone_code": "R5A", "zone_category": "Other", "ev_permitted": false}, "geometry": {"type": "Polygon", "coordinates": [[[-73.8693441440818, 40.8747826900723], [-73.8693416441852, 40.874851281256], [-73.8697400083377, 40.8748591648421], [-73.8697421912543, 40.8747905669687], [-73.8693441440818, 40.8747826900723]]]}}, {"type": "Feature", "properties": {"zone_id": "0205WYU2258VY2JG4A1PAN", "tract_id": "36005037600", "city": "BRONX, NY", "zone_code": "R5A", "zone_category": "Other", "ev_permitted": false}, "geometry": {"type": "Polygon", "coordinates": [[[-73.8693515226849, 40.874580108481], [-73.8693466528967, 40.8747137974643], [-73.8697890777539, 40.8747225528482], [-73.8697933311015, 40.8745888519096], [-73.8693515226849, 40.874580108481]]]}}, {"type": "Feature", "properties": {"zone_id": "020368VIB2BNJW03G6JXJ1", "tract_id": "36005037600", "city": "BRONX, NY", "zone_code": "R5A", "zone_category": "Other", "ev_permitted": false}, "geometry": {"type": "Polygon", "coordinates": [[[-73.8693466528967, 40.8747137974643], [-73.8693441440818, 40.8747826900723], [-73.8697421912543, 40.8747905669687], [-73.8697443830866, 40.8747216683738], [-73.8693466528967, 40.8747137974643]]]}}, {"type": "Feature", "properties": {"zone_id": "0201OAUB62B8PO80IAO720", "tract_id": "36005037600", "city": "BRONX, NY", "zone_code": "R5A", "zone_category": "Other", "ev_permitted": false}, "geometry": {"type": "Polygon", "coordinates": [[[-73.8698007369597, 40.8743560412511], [-73.8697979435151, 40.8744438458633], [-73.8701702170642, 40.8744512115972], [-73.870173009092, 40.874363406975], [-73.8698007369597, 40.8743560412511]]]}}, {"type": "Feature", "properties": {"zone_id": "0202JI6VN9U5LG9993LCV1", "tract_id": "36005037600", "city": "BRONX, NY", "zone_code": "R5A", "zone_category": "Other", "ev_permitted": false}, "geometry": {"type": "Polygon", "coordinates": [[[-73.8697979435151, 40.8744438458633], [-73.8697933311015, 40.8745888519096], [-73.8701656045364, 40.8745962176571], [-73.8701702170642, 40.8744512115972], [-73.8697979435151, 40.8744438458633]]]}}, {"type": "Feature", "properties": {"zone_id": "0202DF09YRWXSCK7JPF5PK", "tract_id": "36005037600", "city": "BRONX, NY", "zone_code": "R5A", "zone_category": "Other", "ev_permitted": false}, "geometry": {"type": "Polygon", "coordinates": [[[-73.8693619127088, 40.8742949501819], [-73.8693568062236, 40.8744351158584], [-73.8697979435151, 40.8744438458633], [-73.8698024029775, 40.874303666791], [-73.8693619127088, 40.8742949501819]]]}}, {"type": "Feature", "properties": {"zone_id": "0204FEBZJB4CGZUGHIKTVL", "tract_id": "36005037600", "city": "BRONX, NY", "zone_code": "R5A", "zone_category": "Other", "ev_permitted": false}, "geometry": {"type": "Polygon", "coordinates": [[[-73.8693568062236, 40.8744351158584], [-73.8693542388037, 40.8745055788085], [-73.8697957014629, 40.8745143148109], [-73.8697979435151, 40.8744438458633], [-73.8693568062236, 40.8744351158584]]]}}, {"type": "Feature", "properties": {"zone_id": "0203XD7FT02QD7BJ89EEF9", "tract_id": "36005037600", "city": "BRONX, NY", "zone_code": "R5A", "zone_category": "Other", "ev_permitted": false}, "geometry": {"type": "Polygon", "coordinates": [[[-73.8693542388037, 40.8745055788085], [-73.8693515226849, 40.874580108481], [-73.8697933311015, 40.8745888519096], [-73.8697957014629, 40.8745143148109], [-73.8693542388037, 40.8745055788085]]]}}, {"type": "Feature", "properties": {"zone_id": "02078F86KNC9KBCNFUBL26", "tract_id": "36005037600", "city": "BRONX, NY", "zone_code": "R5A", "zone_category": "Other", "ev_permitted": false}, "geometry": {"type": "Polygon", "coordinates": [[[-73.8698106797361, 40.8740434821689], [-73.8698081950294, 40.8741215948906], [-73.8701804658499, 40.8741289605908], [-73.8701829501195, 40.8740508478612], [-73.8698106797361, 40.8740434821689]]]}}, {"type": "Feature", "properties": {"zone_id": "02047POXORP35B1QV2HOZ3", "tract_id": "36005037600", "city": "BRONX, NY", "zone_code": "R5A", "zone_category": "Other", "ev_permitted": false}, "geometry": {"type": "Polygon", "coordinates": [[[-73.8698081950294, 40.8741215948906], [-73.8698057281084, 40.8741991307621], [-73.8701780002884, 40.8742064964712], [-73.8701804658499, 40.8741289605908], [-73.8698081950294, 40.8741215948906]]]}}, {"type": "Feature", "properties": {"zone_id": "020419YK1KA6OEM1QPC2HQ", "tract_id": "36005037600", "city": "BRONX, NY", "zone_code": "R5A", "zone_category": "Other", "ev_permitted": false}, "geometry": {"type": "Polygon", "coordinates": [[[-73.8698057281084, 40.8741991307621], [-73.8698031970233, 40.8742787042219], [-73.8701754687228, 40.874286069938], [-73.8701780002884, 40.8742064964712], [-73.8698057281084, 40.8741991307621]]]}}, {"type": "Feature", "properties": {"zone_id": "0201T1GJY359AJWRRA7GMO", "tract_id": "36005037600", "city": "BRONX, NY", "zone_code": "R5A", "zone_category": "Other", "ev_permitted": false}, "geometry": {"type": "Polygon", "coordinates": [[[-73.8698031970233, 40.8742787042219], [-73.8698007369597, 40.8743560412511], [-73.870173009092, 40.874363406975], [-73.8701754687228, 40.874286069938], [-73.8698031970233, 40.8742787042219]]]}}, {"type": "Feature", "properties": {"zone_id": "0202WZ6R12OX9H6VQ9I1YS", "tract_id": "36005037600", "city": "BRONX, NY", "zone_code": "R5A", "zone_category": "Other", "ev_permitted": false}, "geometry": {"type": "Polygon", "coordinates": [[[-73.8693719553483, 40.8740193017339], [-73.869366957516, 40.8741564841228], [-73.8698068072542, 40.8741651880464], [-73.869811171971, 40.8740279936833], [-73.8693719553483, 40.8740193017339]]]}}, {"type": "Feature", "properties": {"zone_id": "0207CFOT4BDUNBWJT8SAOI", "tract_id": "36005037600", "city": "BRONX, NY", "zone_code": "R5A", "zone_category": "Other", "ev_permitted": false}, "geometry": {"type": "Polygon", "coordinates": [[[-73.869366957516, 40.8741564841228], [-73.8693619127088, 40.8742949501819], [-73.8698024029775, 40.874303666791], [-73.8698068072542, 40.8741651880464], [-73.869366957516, 40.8741564841228]]]}}, {"type": "Feature", "properties": {"zone_id": "0200XAAAK72P9RFLKPKCK5", "tract_id": "36005037600", "city": "BRONX, NY", "zone_code": "R5A", "zone_category": "Other", "ev_permitted": false}, "geometry": {"type": "Polygon", "coordinates": [[[-73.8686655768466, 40.875841176354], [-73.8686624775411, 40.8759307266336], [-73.8691062064855, 40.8759427224766], [-73.8691073222168, 40.8758532430109], [-73.8686655768466, 40.875841176354]]]}}, {"type": "Feature", "properties": {"zone_id": "0207KY44YJQYSF4G41GYV1", "tract_id": "36005037600", "city": "BRONX, NY", "zone_code": "R5A", "zone_category": "Other", "ev_permitted": false}, "geometry": {"type": "Polygon", "coordinates": [[[-73.868660485568, 40.8759883051596], [-73.8686586123823, 40.8760424507124], [-73.8691048117008, 40.8760545133116], [-73.8691054876613, 40.876000335478], [-73.868660485568, 40.8759883051596]]]}}, {"type": "Feature", "properties": {"zone_id": "0206L5JE2ZRZPOKMFW2KLV", "tract_id": "36005037600", "city": "BRONX, NY", "zone_code": "R5A", "zone_category": "Other", "ev_permitted": false}, "geometry": {"type": "Polygon", "coordinates": [[[-73.8686586123823, 40.8760424507124], [-73.8686566822609, 40.8760982375711], [-73.8691041149169, 40.8761103338976], [-73.8691048117008, 40.8760545133116], [-73.8686586123823, 40.8760424507124]]]}}, {"type": "Feature", "properties": {"zone_id": "0202QBYZHQM8GE4DTCGJEW", "tract_id": "36005037600", "city": "BRONX, NY", "zone_code": "R5A", "zone_category": "Other", "ev_permitted": false}, "geometry": {"type": "Polygon", "coordinates": [[[-73.8686566822609, 40.8760982375711], [-73.8686548209047, 40.8761520149519], [-73.86910295102, 40.8761636174164], [-73.8691041149169, 40.8761103338976], [-73.8686566822609, 40.8760982375711]]]}}, {"type": "Feature", "properties": {"zone_id": "0201L38BH85GBJOY2OQINP", "tract_id": "36005037600", "city": "BRONX, NY", "zone_code": "R5A", "zone_category": "Other", "ev_permitted": false}, "geometry": {"type": "Polygon", "coordinates": [[[-73.8686624775411, 40.8759307266336], [-73.868660485568, 40.8759883051596], [-73.8691054876613, 40.876000335478], [-73.8691062064855, 40.8759427224766], [-73.8686624775411, 40.8759307266336]]]}}, {"type": "Feature", "properties": {"zone_id": "02042T8DOMSKSI0ERWMPY7", "tract_id": "36005037600", "city": "BRONX, NY", "zone_code": "R5A", "zone_category": "Other", "ev_permitted": false}, "geometry": {"type": "Polygon", "coordinates": [[[-73.8686717313742, 40.8756632920129], [-73.8686684130891, 40.8757592044682], [-73.8691083477167, 40.8757710385948], [-73.8691095446052, 40.875675127235], [-73.8686717313742, 40.8756632920129]]]}}, {"type": "Feature", "properties": {"zone_id": "0206G06X9UCN01O7J5RZAI", "tract_id": "36005037600", "city": "BRONX, NY", "zone_code": "R5A", "zone_category": "Other", "ev_permitted": false}, "geometry": {"type": "Polygon", "coordinates": [[[-73.8687672082987, 40.8755750490337], [-73.8687660757272, 40.8756657960479], [-73.8691095446052, 40.875675127235], [-73.8691106767994, 40.8755843338433], [-73.8687672082987, 40.8755750490337]]]}}, {"type": "Feature", "properties": {"zone_id": "0201MPX2CGSW6NWXBP87QN", "tract_id": "36005037600", "city": "BRONX, NY", "zone_code": "R5A", "zone_category": "Other", "ev_permitted": false}, "geometry": {"type": "Polygon", "coordinates": [[[-73.8686684130891, 40.8757592044682], [-73.8686655768466, 40.875841176354], [-73.8691073222168, 40.8758532430109], [-73.8691083477167, 40.8757710385948], [-73.8686684130891, 40.8757592044682]]]}}, {"type": "Feature", "properties": {"zone_id": "0201ROMW4XSNKGUYGDLRBC", "tract_id": "36005037600", "city": "BRONX, NY", "zone_code": "R5A", "zone_category": "Other", "ev_permitted": false}, "geometry": {"type": "Polygon", "coordinates": [[[-73.8682095219187, 40.8759184796497], [-73.8682069782458, 40.8759959345724], [-73.8686597983251, 40.8760081778981], [-73.8686624775411, 40.8759307266336], [-73.8682095219187, 40.8759184796497]]]}}, {"type": "Feature", "properties": {"zone_id": "0206YSP8W0HQ1AGP6O6MAE", "tract_id": "36005037600", "city": "BRONX, NY", "zone_code": "R5A", "zone_category": "Other", "ev_permitted": false}, "geometry": {"type": "Polygon", "coordinates": [[[-73.8682069782458, 40.8759959345724], [-73.8682047349435, 40.8760586849496], [-73.8686576267255, 40.8760709297703], [-73.8686597983251, 40.8760081778981], [-73.8682069782458, 40.8759959345724]]]}}, {"type": "Feature", "properties": {"zone_id": "02016TCXAMF5RDQ2RFH37M", "tract_id": "36005037600", "city": "BRONX, NY", "zone_code": "R5A", "zone_category": "Other", "ev_permitted": false}, "geometry": {"type": "Polygon", "coordinates": [[[-73.8682047349435, 40.8760586849496], [-73.8682027614911, 40.8761235302094], [-73.868655383425, 40.8761357677036], [-73.8686576267255, 40.8760709297703], [-73.8682047349435, 40.8760586849496]]]}}, {"type": "Feature", "properties": {"zone_id": "0202WNSMZ7W2J542LESL56", "tract_id": "36005037600", "city": "BRONX, NY", "zone_code": "R5A", "zone_category": "Other", "ev_permitted": false}, "geometry": {"type": "Polygon", "coordinates": [[[-73.8682188108956, 40.8756510458054], [-73.8682095219187, 40.8759184796497], [-73.8686624775411, 40.8759307266336], [-73.8686717313742, 40.8756632920129], [-73.8682188108956, 40.8756510458054]]]}}, {"type": "Feature", "properties": {"zone_id": "0202VNR8T9V50ZUFFZ8Y1N", "tract_id": "36005037600", "city": "BRONX, NY", "zone_code": "R5A", "zone_category": "Other", "ev_permitted": false}, "geometry": {"type": "Polygon", "coordinates": [[[-73.8682210693068, 40.8755857961435], [-73.8682188108956, 40.8756510458054], [-73.8685773047378, 40.8756607393248], [-73.8685795646504, 40.8755954889554], [-73.8682210693068, 40.8755857961435]]]}}, {"type": "Feature", "properties": {"zone_id": "0203VN9W5371J03JRXNHZV", "tract_id": "36005037600", "city": "BRONX, NY", "zone_code": "R5A", "zone_category": "Other", "ev_permitted": false}, "geometry": {"type": "Polygon", "coordinates": [[[-73.8687683378045, 40.8754844467588], [-73.8687672082987, 40.8755750490337], [-73.8691106767994, 40.8755843338433], [-73.8691118076873, 40.8754937322699], [-73.8687683378045, 40.8754844467588]]]}}, {"type": "Feature", "properties": {"zone_id": "0203OFF87ZVFD1OBNZ9ODH", "tract_id": "36005037600", "city": "BRONX, NY", "zone_code": "R5A", "zone_category": "Other", "ev_permitted": false}, "geometry": {"type": "Polygon", "coordinates": [[[-73.8687694263905, 40.8753972220353], [-73.8687683378045, 40.8754844467588], [-73.8691118076873, 40.8754937322699], [-73.8691128958229, 40.8754065075434], [-73.8687694263905, 40.8753972220353]]]}}, {"type": "Feature", "properties": {"zone_id": "0200HHR7PFJALVXDGT2L41", "tract_id": "36005037600", "city": "BRONX, NY", "zone_code": "R5A", "zone_category": "Other", "ev_permitted": false}, "geometry": {"type": "Polygon", "coordinates": [[[-73.8686810204824, 40.8753948322642], [-73.8686717313742, 40.8756632920129], [-73.8687660757272, 40.8756657960479], [-73.8687694263905, 40.8753972220353], [-73.8686810204824, 40.8753948322642]]]}}, {"type": "Feature", "properties": {"zone_id": "0202ZGUXCB3FKS46ZEOOX9", "tract_id": "36005037600", "city": "BRONX, NY", "zone_code": "R5A", "zone_category": "Other", "ev_permitted": false}, "geometry": {"type": "Polygon", "coordinates": [[[-73.8689126086044, 40.8751129194934], [-73.8689081160889, 40.8752393049124], [-73.8691170676833, 40.8752429660541], [-73.8691215098344, 40.8751179816383], [-73.8689126086044, 40.8751129194934]]]}}, {"type": "Feature", "properties": {"zone_id": "020620CL1MO2DG5EIAN1UC", "tract_id": "36005037600", "city": "BRONX, NY", "zone_code": "R5A", "zone_category": "Other", "ev_permitted": false}, "geometry": {"type": "Polygon", "coordinates": [[[-73.8686875458239, 40.8749757081744], [-73.8686783178683, 40.875235276783], [-73.8687688856983, 40.8752368644899], [-73.8687780917388, 40.8749779022296], [-73.8686875458239, 40.8749757081744]]]}}, {"type": "Feature", "properties": {"zone_id": "0206SG6YVBBZPCM88S9EIO", "tract_id": "36005037600", "city": "BRONX, NY", "zone_code": "R5A", "zone_category": "Other", "ev_permitted": false}, "geometry": {"type": "Polygon", "coordinates": [[[-73.8685995204283, 40.8749735745347], [-73.8685902705978, 40.8752337333311], [-73.8686783178683, 40.875235276783], [-73.8686875458239, 40.8749757081744], [-73.8685995204283, 40.8749735745347]]]}}, {"type": "Feature", "properties": {"zone_id": "0204DPGL3QKI7DFY6MMDVN", "tract_id": "36005037600", "city": "BRONX, NY", "zone_code": "R5A", "zone_category": "Other", "ev_permitted": false}, "geometry": {"type": "Polygon", "coordinates": [[[-73.8687734117945, 40.8751095453031], [-73.8687688856983, 40.8752368644899], [-73.8689081160889, 40.8752393049124], [-73.8689126086044, 40.8751129194934], [-73.8687734117945, 40.8751095453031]]]}}, {"type": "Feature", "properties": {"zone_id": "0204D74ZS80QH8A3PW0I5I", "tract_id": "36005037600", "city": "BRONX, NY", "zone_code": "R5A", "zone_category": "Other", "ev_permitted": false}, "geometry": {"type": "Polygon", "coordinates": [[[-73.8685866081122, 40.8753922795994], [-73.8685773047378, 40.8756607393248], [-73.8686717313742, 40.8756632920129], [-73.8686810204824, 40.8753948322642], [-73.8685866081122, 40.8753922795994]]]}}, {"type": "Feature", "properties": {"zone_id": "0204QG4NDER42EMYT1ZC5E", "tract_id": "36005037600", "city": "BRONX, NY", "zone_code": "R5A", "zone_category": "Other", "ev_permitted": false}, "geometry": {"type": "Polygon", "coordinates": [[[-73.8682281018307, 40.8753825860926], [-73.8682260083677, 40.8754430832757], [-73.8685555915177, 40.8754519948327], [-73.8685576846811, 40.8753914976437], [-73.8682281018307, 40.8753825860926]]]}}, {"type": "Feature", "properties": {"zone_id": "0202Y29XGO9ARF9GE3F6T6", "tract_id": "36005037600", "city": "BRONX, NY", "zone_code": "R5A", "zone_category": "Other", "ev_permitted": false}, "geometry": {"type": "Polygon", "coordinates": [[[-73.8685576846811, 40.8753914976437], [-73.8685555915177, 40.8754519948327], [-73.8682260083677, 40.8754430832757], [-73.868223474066, 40.8755162956646], [-73.8685819681082, 40.8755259891708], [-73.8685866081122, 40.8753922795994], [-73.8685576846811, 40.8753914976437]]]}}, {"type": "Feature", "properties": {"zone_id": "02050CQ6VQM9YUQ7MWN9A1", "tract_id": "36005037600", "city": "BRONX, NY", "zone_code": "R5A", "zone_category": "Other", "ev_permitted": false}, "geometry": {"type": "Polygon", "coordinates": [[[-73.868223474066, 40.8755162956646], [-73.8682210693068, 40.8755857961435], [-73.8685795646504, 40.8755954889554], [-73.8685819681082, 40.8755259891708], [-73.868223474066, 40.8755162956646]]]}}, {"type": "Feature", "properties": {"zone_id": "0203QJBF3WP2PG0Q8MXCNW", "tract_id": "36005037600", "city": "BRONX, NY", "zone_code": "R5A", "zone_category": "Other", "ev_permitted": false}, "geometry": {"type": "Polygon", "coordinates": [[[-73.8682467904717, 40.8751023291982], [-73.8682421118529, 40.8752276295013], [-73.8685902705978, 40.8752337333311], [-73.8685946431124, 40.8751107612214], [-73.8682467904717, 40.8751023291982]]]}}, {"type": "Feature", "properties": {"zone_id": "02058EZ7BTHOM4GM21KHRO", "tract_id": "36005037600", "city": "BRONX, NY", "zone_code": "R5A", "zone_category": "Other", "ev_permitted": false}, "geometry": {"type": "Polygon", "coordinates": [[[-73.8687780917388, 40.8749779022296], [-73.8687758679284, 40.8750404474796], [-73.8691239665326, 40.8750488838086], [-73.8691261890901, 40.8749863385509], [-73.8687780917388, 40.8749779022296]]]}}, {"type": "Feature", "properties": {"zone_id": "02000OIHQBSA0ZNQZT0D0R", "tract_id": "36005037600", "city": "BRONX, NY", "zone_code": "R5A", "zone_category": "Other", "ev_permitted": false}, "geometry": {"type": "Polygon", "coordinates": [[[-73.8687758679284, 40.8750404474796], [-73.8687734117945, 40.8751095453031], [-73.8691215098344, 40.8751179816383], [-73.8691239665326, 40.8750488838086], [-73.8687758679284, 40.8750404474796]]]}}, {"type": "Feature", "properties": {"zone_id": "0201D8G27EKHPSWR5APBPV", "tract_id": "36005037600", "city": "BRONX, NY", "zone_code": "R5A", "zone_category": "Other", "ev_permitted": false}, "geometry": {"type": "Polygon", "coordinates": [[[-73.8686925071909, 40.8748361698338], [-73.8686899510442, 40.8749080598434], [-73.8691285938631, 40.8749186909135], [-73.8691311495359, 40.8748468008943], [-73.8686925071909, 40.8748361698338]]]}}, {"type": "Feature", "properties": {"zone_id": "02009JJ9PXC82RIICUSBFH", "tract_id": "36005037600", "city": "BRONX, NY", "zone_code": "R5A", "zone_category": "Other", "ev_permitted": false}, "geometry": {"type": "Polygon", "coordinates": [[[-73.8686899510442, 40.8749080598434], [-73.8686875458239, 40.8749757081744], [-73.8691261890901, 40.8749863385509], [-73.8691285938631, 40.8749186909135], [-73.8686899510442, 40.8749080598434]]]}}, {"type": "Feature", "properties": {"zone_id": "0204UJ1R4Q1WHHTHJ8KQME", "tract_id": "36005037600", "city": "BRONX, NY", "zone_code": "R5A", "zone_category": "Other", "ev_permitted": false}, "geometry": {"type": "Polygon", "coordinates": [[[-73.868697563714, 40.8746939039416], [-73.8686950232271, 40.8747653695752], [-73.8691336651069, 40.8747759999237], [-73.869136206047, 40.8747045349842], [-73.868697563714, 40.8746939039416]]]}}, {"type": "Feature", "properties": {"zone_id": "0200J2YB0WM7A1603VTXYN", "tract_id": "36005037600", "city": "BRONX, NY", "zone_code": "R5A", "zone_category": "Other", "ev_permitted": false}, "geometry": {"type": "Polygon", "coordinates": [[[-73.8686950232271, 40.8747653695752], [-73.8686925071909, 40.8748361698338], [-73.8691311495359, 40.8748468008943], [-73.8691336651069, 40.8747759999237], [-73.8686950232271, 40.8747653695752]]]}}, {"type": "Feature", "properties": {"zone_id": "02059X3FVIJ30JOU7IRL4E", "tract_id": "36005037600", "city": "BRONX, NY", "zone_code": "R5A", "zone_category": "Other", "ev_permitted": false}, "geometry": {"type": "Polygon", "coordinates": [[[-73.8687024407856, 40.8745567179428], [-73.868697563714, 40.8746939039416], [-73.869136206047, 40.8747045349842], [-73.8691410822158, 40.8745673482646], [-73.8687024407856, 40.8745567179428]]]}}, {"type": "Feature", "properties": {"zone_id": "0203XLRNXTIFPSLIXJG00U", "tract_id": "36005037600", "city": "BRONX, NY", "zone_code": "R5A", "zone_category": "Other", "ev_permitted": false}, "geometry": {"type": "Polygon", "coordinates": [[[-73.868257122297, 40.8748256167098], [-73.8682519128731, 40.8749651484261], [-73.8686875458239, 40.8749757081744], [-73.8686925071909, 40.8748361698338], [-73.868257122297, 40.8748256167098]]]}}, {"type": "Feature", "properties": {"zone_id": "0206IZD9O43XUKQE2SQRVN", "tract_id": "36005037600", "city": "BRONX, NY", "zone_code": "R5A", "zone_category": "Other", "ev_permitted": false}, "geometry": {"type": "Polygon", "coordinates": [[[-73.8682519128731, 40.8749651484261], [-73.8682467904717, 40.8751023291982], [-73.8685946431124, 40.8751107612214], [-73.8685995204283, 40.8749735745347], [-73.8682519128731, 40.8749651484261]]]}}, {"type": "Feature", "properties": {"zone_id": "020611VLQ69AXO7J3C8LW8", "tract_id": "36005037600", "city": "BRONX, NY", "zone_code": "R5A", "zone_category": "Other", "ev_permitted": false}, "geometry": {"type": "Polygon", "coordinates": [[[-73.8682675557105, 40.8745461766665], [-73.8682649954704, 40.8746147670596], [-73.8687000022516, 40.8746253112939], [-73.8687024407856, 40.8745567179428], [-73.8682675557105, 40.8745461766665]]]}}, {"type": "Feature", "properties": {"zone_id": "0200TP70M40P82WZ0GW96A", "tract_id": "36005037600", "city": "BRONX, NY", "zone_code": "R5A", "zone_category": "Other", "ev_permitted": false}, "geometry": {"type": "Polygon", "coordinates": [[[-73.8682649954704, 40.8746147670596], [-73.8682624343007, 40.8746833567481], [-73.868697563714, 40.8746939039416], [-73.8687000022516, 40.8746253112939], [-73.8682649954704, 40.8746147670596]]]}}, {"type": "Feature", "properties": {"zone_id": "02023FFI1BW7BS4J2SJEQ7", "tract_id": "36005037600", "city": "BRONX, NY", "zone_code": "R5A", "zone_category": "Other", "ev_permitted": false}, "geometry": {"type": "Polygon", "coordinates": [[[-73.8682624343007, 40.8746833567481], [-73.8682597656101, 40.8747548187133], [-73.8686950232271, 40.8747653695752], [-73.868697563714, 40.8746939039416], [-73.8682624343007, 40.8746833567481]]]}}, {"type": "Feature", "properties": {"zone_id": "0205QK9X7JCBFPWW2R0850", "tract_id": "36005037600", "city": "BRONX, NY", "zone_code": "R5A", "zone_category": "Other", "ev_permitted": false}, "geometry": {"type": "Polygon", "coordinates": [[[-73.8682597656101, 40.8747548187133], [-73.868257122297, 40.8748256167098], [-73.8686925071909, 40.8748361698338], [-73.8686950232271, 40.8747653695752], [-73.8682597656101, 40.8747548187133]]]}}, {"type": "Feature", "properties": {"zone_id": "020285CKERMSOX83WX4S1Y", "tract_id": "36005037600", "city": "BRONX, NY", "zone_code": "R5A", "zone_category": "Other", "ev_permitted": false}, "geometry": {"type": "Polygon", "coordinates": [[[-73.8687106732401, 40.8743251519654], [-73.8687073638841, 40.8744182454554], [-73.8691460034745, 40.8744288764602], [-73.869149385692, 40.8743337251784], [-73.8687106732401, 40.8743251519654]]]}}, {"type": "Feature", "properties": {"zone_id": "0202AFF57JL0SOXYPSEWP9", "tract_id": "36005037600", "city": "BRONX, NY", "zone_code": "R5A", "zone_category": "Other", "ev_permitted": false}, "geometry": {"type": "Polygon", "coordinates": [[[-73.8687073638841, 40.8744182454554], [-73.8687048802402, 40.8744881245918], [-73.8691435193656, 40.874498755605], [-73.8691460034745, 40.8744288764602], [-73.8687073638841, 40.8744182454554]]]}}, {"type": "Feature", "properties": {"zone_id": "0204ZS1TI3F4IMAR69GE3I", "tract_id": "36005037600", "city": "BRONX, NY", "zone_code": "R5A", "zone_category": "Other", "ev_permitted": false}, "geometry": {"type": "Polygon", "coordinates": [[[-73.8687048802402, 40.8744881245918], [-73.8687024407856, 40.8745567179428], [-73.8691410822158, 40.8745673482646], [-73.8691435193656, 40.874498755605], [-73.8687048802402, 40.8744881245918]]]}}, {"type": "Feature", "properties": {"zone_id": "0200YJXWS5LHTSDEY92UNW", "tract_id": "36005037600", "city": "BRONX, NY", "zone_code": "R5A", "zone_category": "Other", "ev_permitted": false}, "geometry": {"type": "Polygon", "coordinates": [[[-73.8687171630375, 40.874142591872], [-73.8687139445906, 40.8742331354051], [-73.8691526040105, 40.8742431832163], [-73.8691558017368, 40.8741532228412], [-73.8687171630375, 40.874142591872]]]}}, {"type": "Feature", "properties": {"zone_id": "0201HOQC57ZCGTU9JWNZL6", "tract_id": "36005037600", "city": "BRONX, NY", "zone_code": "R5A", "zone_category": "Other", "ev_permitted": false}, "geometry": {"type": "Polygon", "coordinates": [[[-73.8687139445906, 40.8742331354051], [-73.8687106732401, 40.8743251519654], [-73.869149385692, 40.8743337251784], [-73.8691526040105, 40.8742431832163], [-73.8687139445906, 40.8742331354051]]]}}, {"type": "Feature", "properties": {"zone_id": "0205EZXZFXIZ6K8C6H8O2R", "tract_id": "36005037600", "city": "BRONX, NY", "zone_code": "R5A", "zone_category": "Other", "ev_permitted": false}, "geometry": {"type": "Polygon", "coordinates": [[[-73.8687204552124, 40.8740499817753], [-73.8687171630375, 40.874142591872], [-73.8691558017368, 40.8741532228412], [-73.8691590933013, 40.8740606127322], [-73.8687204552124, 40.8740499817753]]]}}, {"type": "Feature", "properties": {"zone_id": "020076BZZZR85O3PDJ8OS1", "tract_id": "36005037600", "city": "BRONX, NY", "zone_code": "R5A", "zone_category": "Other", "ev_permitted": false}, "geometry": {"type": "Polygon", "coordinates": [[[-73.8682762558775, 40.8743131469459], [-73.8682727259316, 40.8744077100996], [-73.8687073638841, 40.8744182454554], [-73.8687107256742, 40.8743236778821], [-73.8682762558775, 40.8743131469459]]]}}, {"type": "Feature", "properties": {"zone_id": "02050206EQM9VOYU0O3AJN", "tract_id": "36005037600", "city": "BRONX, NY", "zone_code": "R5A", "zone_category": "Other", "ev_permitted": false}, "geometry": {"type": "Polygon", "coordinates": [[[-73.8682727259316, 40.8744077100996], [-73.8682675557105, 40.8745461766665], [-73.8687024407856, 40.8745567179428], [-73.8687073638841, 40.8744182454554], [-73.8682727259316, 40.8744077100996]]]}}, {"type": "Feature", "properties": {"zone_id": "0206PH1TLWV4L6VDUQP6MZ", "tract_id": "36005037600", "city": "BRONX, NY", "zone_code": "R5A", "zone_category": "Other", "ev_permitted": false}, "geometry": {"type": "Polygon", "coordinates": [[[-73.8682881143117, 40.8739955641723], [-73.8682830183931, 40.8741320683558], [-73.8687171630375, 40.874142591872], [-73.8687220164764, 40.8740060824762], [-73.8682881143117, 40.8739955641723]]]}}, {"type": "Feature", "properties": {"zone_id": "0207004EA0XMYYR8TTVGZI", "tract_id": "36005037600", "city": "BRONX, NY", "zone_code": "R5A", "zone_category": "Other", "ev_permitted": false}, "geometry": {"type": "Polygon", "coordinates": [[[-73.8682830183931, 40.8741320683558], [-73.8682796371399, 40.8742226076517], [-73.8687139443602, 40.8742331348778], [-73.8687171630375, 40.874142591872], [-73.8682830183931, 40.8741320683558]]]}}, {"type": "Feature", "properties": {"zone_id": "0200VDBD4K4RTV5LWOUXPR", "tract_id": "36005037600", "city": "BRONX, NY", "zone_code": "R5A", "zone_category": "Other", "ev_permitted": false}, "geometry": {"type": "Polygon", "coordinates": [[[-73.8682796371399, 40.8742226076517], [-73.8682762558775, 40.8743131469459], [-73.8687107256742, 40.8743236778821], [-73.8687139443602, 40.8742331348778], [-73.8682796371399, 40.8742226076517]]]}}, {"type": "Feature", "properties": {"zone_id": "0200HARZWYXWGM9K8OU1HL", "tract_id": "36005037600", "city": "BRONX, NY", "zone_code": "R5A", "zone_category": "Other", "ev_permitted": false}, "geometry": {"type": "Polygon", "coordinates": [[[-73.8698278722442, 40.8735030096114], [-73.8698253412107, 40.8735825837844], [-73.8701976099423, 40.8735899487284], [-73.8702001405307, 40.8735103745473], [-73.8698278722442, 40.8735030096114]]]}}, {"type": "Feature", "properties": {"zone_id": "02008UVDXS60GW3TQ40ZAY", "tract_id": "36005037600", "city": "BRONX, NY", "zone_code": "R5A", "zone_category": "Other", "ev_permitted": false}, "geometry": {"type": "Polygon", "coordinates": [[[-73.8698179700428, 40.8738143117446], [-73.8698156816392, 40.8738862554939], [-73.8701879511429, 40.8738936211702], [-73.870190239144, 40.8738216774137], [-73.8698179700428, 40.8738143117446]]]}}, {"type": "Feature", "properties": {"zone_id": "0201TLOCIEB56KACJCEPZ5", "tract_id": "36005037600", "city": "BRONX, NY", "zone_code": "R5A", "zone_category": "Other", "ev_permitted": false}, "geometry": {"type": "Polygon", "coordinates": [[[-73.8698156816392, 40.8738862554939], [-73.8698131496522, 40.8739658289573], [-73.8701854205268, 40.8739731946428], [-73.8701879511429, 40.8738936211702], [-73.8698156816392, 40.8738862554939]]]}}, {"type": "Feature", "properties": {"zone_id": "02064BT8QPLB8F494OHZKT", "tract_id": "36005037600", "city": "BRONX, NY", "zone_code": "R5A", "zone_category": "Other", "ev_permitted": false}, "geometry": {"type": "Polygon", "coordinates": [[[-73.8698131496522, 40.8739658289573], [-73.8698106797361, 40.8740434821689], [-73.8701829501195, 40.8740508478612], [-73.8701854205268, 40.8739731946428], [-73.8698131496522, 40.8739658289573]]]}}, {"type": "Feature", "properties": {"zone_id": "0204P1O68NAHR903K8A66Q", "tract_id": "36005037600", "city": "BRONX, NY", "zone_code": "R5A", "zone_category": "Other", "ev_permitted": false}, "geometry": {"type": "Polygon", "coordinates": [[[-73.8693818815131, 40.8737468283792], [-73.8693769218657, 40.8738829709082], [-73.8698155100095, 40.8738916508886], [-73.8698198411847, 40.8737554949854], [-73.8693818815131, 40.8737468283792]]]}}, {"type": "Feature", "properties": {"zone_id": "0202J6PVG9QIE0HVH6YICX", "tract_id": "36005037600", "city": "BRONX, NY", "zone_code": "R5A", "zone_category": "Other", "ev_permitted": false}, "geometry": {"type": "Polygon", "coordinates": [[[-73.8693769218657, 40.8738829709082], [-73.8693744542567, 40.8739507105381], [-73.8698133547869, 40.8739593957982], [-73.8698155100095, 40.8738916508886], [-73.8693769218657, 40.8738829709082]]]}}, {"type": "Feature", "properties": {"zone_id": "020382V4Z7F6APZD97XLQW", "tract_id": "36005037600", "city": "BRONX, NY", "zone_code": "R5A", "zone_category": "Other", "ev_permitted": false}, "geometry": {"type": "Polygon", "coordinates": [[[-73.8693744542567, 40.8739507105381], [-73.8693719553483, 40.8740193017339], [-73.869811171971, 40.8740279936833], [-73.8698133547869, 40.8739593957982], [-73.8693744542567, 40.8739507105381]]]}}, {"type": "Feature", "properties": {"zone_id": "020098B9XXP3NX79EGAUS1", "tract_id": "36005037600", "city": "BRONX, NY", "zone_code": "R5A", "zone_category": "Other", "ev_permitted": false}, "geometry": {"type": "Polygon", "coordinates": [[[-73.8698253412107, 40.8735825837844], [-73.8698228841654, 40.8736598238626], [-73.8701951524022, 40.873667189516], [-73.8701976099423, 40.8735899487284], [-73.8698253412107, 40.8735825837844]]]}}, {"type": "Feature", "properties": {"zone_id": "0204GR7YJ2RKL8RP3TP2QK", "tract_id": "36005037600", "city": "BRONX, NY", "zone_code": "R5A", "zone_category": "Other", "ev_permitted": false}, "geometry": {"type": "Polygon", "coordinates": [[[-73.8698228841654, 40.8736598238626], [-73.8698204478273, 40.8737364133164], [-73.8701927174183, 40.8737437789787], [-73.8701951524022, 40.873667189516], [-73.8698228841654, 40.8736598238626]]]}}, {"type": "Feature", "properties": {"zone_id": "020732EVJU7WHS4HPRC2LE", "tract_id": "36005037600", "city": "BRONX, NY", "zone_code": "R5A", "zone_category": "Other", "ev_permitted": false}, "geometry": {"type": "Polygon", "coordinates": [[[-73.8698204478273, 40.8737364133164], [-73.8698179700428, 40.8738143117446], [-73.870190239144, 40.8738216774137], [-73.8701927174183, 40.8737437789787], [-73.8698204478273, 40.8737364133164]]]}}, {"type": "Feature", "properties": {"zone_id": "0203IBIC01B3YF6XCCAEXL", "tract_id": "36005037600", "city": "BRONX, NY", "zone_code": "R5A", "zone_category": "Other", "ev_permitted": false}, "geometry": {"type": "Polygon", "coordinates": [[[-73.8693868792838, 40.8736096459795], [-73.8693818815131, 40.8737468283792], [-73.8698198411847, 40.8737554949854], [-73.8698242049221, 40.8736183006105], [-73.8693868792838, 40.8736096459795]]]}}, {"type": "Feature", "properties": {"zone_id": "02006F9ETHEIFBCHTANESR", "tract_id": "36005037600", "city": "BRONX, NY", "zone_code": "R5A", "zone_category": "Other", "ev_permitted": false}, "geometry": {"type": "Polygon", "coordinates": [[[-73.8698324992146, 40.8733575833718], [-73.8698278722442, 40.8735030096114], [-73.8702001405307, 40.8735103745473], [-73.8702047657602, 40.8733649489946], [-73.8698324992146, 40.8733575833718]]]}}, {"type": "Feature", "properties": {"zone_id": "0201AFD9Y06HNLLL7WVRIX", "tract_id": "36005037600", "city": "BRONX, NY", "zone_code": "R5A", "zone_category": "Other", "ev_permitted": false}, "geometry": {"type": "Polygon", "coordinates": [[[-73.8697421324048, 40.8733557950648], [-73.8697338386838, 40.8736165122982], [-73.8698242049221, 40.8736183006105], [-73.8698324992146, 40.8733575833718], [-73.8697421324048, 40.8733557950648]]]}}, {"type": "Feature", "properties": {"zone_id": "0201KUBUXZXHL5ZUTURNI1", "tract_id": "36005037600", "city": "BRONX, NY", "zone_code": "R5A", "zone_category": "Other", "ev_permitted": false}, "geometry": {"type": "Polygon", "coordinates": [[[-73.8693918770338, 40.8734724635762], [-73.8693868792838, 40.8736096459795], [-73.8697338386838, 40.8736165122982], [-73.8697382035166, 40.8734793172215], [-73.8693918770338, 40.8734724635762]]]}}, {"type": "Feature", "properties": {"zone_id": "02035NTJ3X4XDH1AUW06XZ", "tract_id": "36005037600", "city": "BRONX, NY", "zone_code": "R5A", "zone_category": "Other", "ev_permitted": false}, "geometry": {"type": "Polygon", "coordinates": [[[-73.8693963767494, 40.8733489526161], [-73.8693943759011, 40.8734038723731], [-73.8697403854627, 40.8734107200326], [-73.8697421324048, 40.8733557950648], [-73.8693963767494, 40.8733489526161]]]}}, {"type": "Feature", "properties": {"zone_id": "02003XK5HL2HP56BK76CKN", "tract_id": "36005037600", "city": "BRONX, NY", "zone_code": "R5A", "zone_category": "Other", "ev_permitted": false}, "geometry": {"type": "Polygon", "coordinates": [[[-73.8693943759011, 40.8734038723731], [-73.8693918770338, 40.8734724635762], [-73.8697382035166, 40.8734793172215], [-73.8697403854627, 40.8734107200326], [-73.8693943759011, 40.8734038723731]]]}}, {"type": "Feature", "properties": {"zone_id": "0201SJML7UXTWCXRSHN1HV", "tract_id": "36005037600", "city": "BRONX, NY", "zone_code": "R5", "zone_category": "Residential", "ev_permitted": false}, "geometry": {"type": "Polygon", "coordinates": [[[-73.8698610064539, 40.8725173039671], [-73.8698587830088, 40.8725859004198], [-73.8702333170397, 40.8725931329035], [-73.8702355400987, 40.8725245364438], [-73.8698610064539, 40.8725173039671]]]}}, {"type": "Feature", "properties": {"zone_id": "02024K36CP4W2RWMUYH1DJ", "tract_id": "36005037600", "city": "BRONX, NY", "zone_code": "R5", "zone_category": "Residential", "ev_permitted": false}, "geometry": {"type": "Polygon", "coordinates": [[[-73.8698587830088, 40.8725859004198], [-73.8698565486742, 40.8726548559094], [-73.8702310821677, 40.8726620883993], [-73.8702333170397, 40.8725931329035], [-73.8698587830088, 40.8725859004198]]]}}, {"type": "Feature", "properties": {"zone_id": "02035L4FBACD1FUNP2UJIH", "tract_id": "36005037600", "city": "BRONX, NY", "zone_code": "R5", "zone_category": "Residential", "ev_permitted": false}, "geometry": {"type": "Polygon", "coordinates": [[[-73.8698565486742, 40.8726548559094], [-73.8698521776185, 40.872789707692], [-73.8694111527001, 40.8727811895018], [-73.8694022783546, 40.8731856188882], [-73.8702136105362, 40.8732012882964], [-73.8702310821677, 40.8726620883993], [-73.8698565486742, 40.8726548559094]]]}}, {"type": "Feature", "properties": {"zone_id": "0203HIOKSE3V7RNGX088QN", "tract_id": "36005037600", "city": "BRONX, NY", "zone_code": "R5", "zone_category": "Residential", "ev_permitted": false}, "geometry": {"type": "Polygon", "coordinates": [[[-73.8694141121608, 40.8726463108422], [-73.8694126583349, 40.8727125795998], [-73.8698544010773, 40.872721111242], [-73.8698565486742, 40.8726548559094], [-73.8694141121608, 40.8726463108422]]]}}, {"type": "Feature", "properties": {"zone_id": "020338PB4CQP9KM8A1TQ17", "tract_id": "36005037600", "city": "BRONX, NY", "zone_code": "R5", "zone_category": "Residential", "ev_permitted": false}, "geometry": {"type": "Polygon", "coordinates": [[[-73.8694126583349, 40.8727125795998], [-73.8694111527001, 40.8727811895018], [-73.8698521776185, 40.872789707692], [-73.8698544010773, 40.872721111242], [-73.8694126583349, 40.8727125795998]]]}}, {"type": "Feature", "properties": {"zone_id": "0202B2KZ6BOSVCD4BPJGK6", "tract_id": "36005037600", "city": "BRONX, NY", "zone_code": "R5", "zone_category": "Residential", "ev_permitted": false}, "geometry": {"type": "Polygon", "coordinates": [[[-73.8698698805878, 40.8722434739155], [-73.8698653775479, 40.8723824142349], [-73.8702399104334, 40.8723896466976], [-73.8702444126898, 40.8722507070664], [-73.8698698805878, 40.8722434739155]]]}}, {"type": "Feature", "properties": {"zone_id": "0206NHP71IA3GB9IC0ZYTU", "tract_id": "36005037600", "city": "BRONX, NY", "zone_code": "R5", "zone_category": "Residential", "ev_permitted": false}, "geometry": {"type": "Polygon", "coordinates": [[[-73.8698653775479, 40.8723824142349], [-73.8698632851106, 40.8724469804812], [-73.8702378183596, 40.8724542129506], [-73.8702399104334, 40.8723896466976], [-73.8698653775479, 40.8723824142349]]]}}, {"type": "Feature", "properties": {"zone_id": "0206TEL5INN6NAELXXBN2T", "tract_id": "36005037600", "city": "BRONX, NY", "zone_code": "R5", "zone_category": "Residential", "ev_permitted": false}, "geometry": {"type": "Polygon", "coordinates": [[[-73.8698632851106, 40.8724469804812], [-73.8698610064539, 40.8725173039671], [-73.8702355400987, 40.8725245364438], [-73.8702378183596, 40.8724542129506], [-73.8698632851106, 40.8724469804812]]]}}, {"type": "Feature", "properties": {"zone_id": "0204P8QRH89RVDEU3THF4C", "tract_id": "36005037600", "city": "BRONX, NY", "zone_code": "R5", "zone_category": "Residential", "ev_permitted": false}, "geometry": {"type": "Polygon", "coordinates": [[[-73.8698787812248, 40.8719688344357], [-73.8698766051099, 40.8720359680476], [-73.8702511369709, 40.8720432004753], [-73.8702533117823, 40.8719760668554], [-73.8698787812248, 40.8719688344357]]]}}, {"type": "Feature", "properties": {"zone_id": "0201F9SOKNQHXG9V79PIVB", "tract_id": "36005037600", "city": "BRONX, NY", "zone_code": "R5", "zone_category": "Residential", "ev_permitted": false}, "geometry": {"type": "Polygon", "coordinates": [[[-73.8698766051099, 40.8720359680476], [-73.8698744890366, 40.8721012713432], [-73.8702490203395, 40.8721085037766], [-73.8702511369709, 40.8720432004753], [-73.8698766051099, 40.8720359680476]]]}}, {"type": "Feature", "properties": {"zone_id": "0204UG2MC2A9V6G4SWY40V", "tract_id": "36005037600", "city": "BRONX, NY", "zone_code": "R5", "zone_category": "Residential", "ev_permitted": false}, "geometry": {"type": "Polygon", "coordinates": [[[-73.8698721335957, 40.8721739493013], [-73.8698698805878, 40.8722434739155], [-73.8702444126898, 40.8722507070664], [-73.8702466653077, 40.8721811817423], [-73.8698721335957, 40.8721739493013]]]}}, {"type": "Feature", "properties": {"zone_id": "0206WZ45AO21UXCY5RDFCB", "tract_id": "36005037600", "city": "BRONX, NY", "zone_code": "R5", "zone_category": "Residential", "ev_permitted": false}, "geometry": {"type": "Polygon", "coordinates": [[[-73.8698744890366, 40.8721012713432], [-73.8698721335957, 40.8721739493013], [-73.8702466653077, 40.8721811817423], [-73.8702490203395, 40.8721085037766], [-73.8698744890366, 40.8721012713432]]]}}, {"type": "Feature", "properties": {"zone_id": "02038NSE8GXH7O9IE8GRH8", "tract_id": "36005037600", "city": "BRONX, NY", "zone_code": "R5", "zone_category": "Residential", "ev_permitted": false}, "geometry": {"type": "Polygon", "coordinates": [[[-73.8694231408773, 40.8722348453307], [-73.8694141121608, 40.8726463108422], [-73.8698565486742, 40.8726548559094], [-73.8698698805878, 40.8722434739155], [-73.8694231408773, 40.8722348453307]]]}}, {"type": "Feature", "properties": {"zone_id": "0207CQ4N4OOQO6MQ2XHDRP", "tract_id": "36005037600", "city": "BRONX, NY", "zone_code": "R5", "zone_category": "Residential", "ev_permitted": false}, "geometry": {"type": "Polygon", "coordinates": [[[-73.8694262619055, 40.8720926136888], [-73.8694246668243, 40.8721653065517], [-73.8698721335957, 40.8721739493013], [-73.8698744890366, 40.8721012713432], [-73.8694262619055, 40.8720926136888]]]}}, {"type": "Feature", "properties": {"zone_id": "02050TOBC7K9SLHN70ATBW", "tract_id": "36005037600", "city": "BRONX, NY", "zone_code": "R5", "zone_category": "Residential", "ev_permitted": false}, "geometry": {"type": "Polygon", "coordinates": [[[-73.8694246668243, 40.8721653065517], [-73.8694231408773, 40.8722348453307], [-73.8698698805878, 40.8722434739155], [-73.8698721335957, 40.8721739493013], [-73.8694246668243, 40.8721653065517]]]}}, {"type": "Feature", "properties": {"zone_id": "0202IY4RRN997A2J1XQQF5", "tract_id": "36005037600", "city": "BRONX, NY", "zone_code": "R5", "zone_category": "Residential", "ev_permitted": false}, "geometry": {"type": "Polygon", "coordinates": [[[-73.8694276953204, 40.8720272976836], [-73.8694262619055, 40.8720926136888], [-73.8698744890366, 40.8721012713432], [-73.8698766051099, 40.8720359680476], [-73.8694276953204, 40.8720272976836]]]}}, {"type": "Feature", "properties": {"zone_id": "0201YF1HB5ZG0O8ODZU8QI", "tract_id": "36005037600", "city": "BRONX, NY", "zone_code": "R5", "zone_category": "Residential", "ev_permitted": false}, "geometry": {"type": "Polygon", "coordinates": [[[-73.8694291684294, 40.8719601499339], [-73.8694276953204, 40.8720272976836], [-73.8698766051099, 40.8720359680476], [-73.8698787812248, 40.8719688344357], [-73.8694291684294, 40.8719601499339]]]}}, {"type": "Feature", "properties": {"zone_id": "02030A6FZ312UGF4RPT4J9", "tract_id": "36005037600", "city": "BRONX, NY", "zone_code": "R5A", "zone_category": "Other", "ev_permitted": false}, "geometry": {"type": "Polygon", "coordinates": [[[-73.8687268934485, 40.8738688957567], [-73.8687236757233, 40.8739594387684], [-73.8691623122897, 40.8739700697122], [-73.869165529418, 40.8738795266884], [-73.8687268934485, 40.8738688957567]]]}}, {"type": "Feature", "properties": {"zone_id": "0204MPN2AE9TYPS64M572G", "tract_id": "36005037600", "city": "BRONX, NY", "zone_code": "R5A", "zone_category": "Other", "ev_permitted": false}, "geometry": {"type": "Polygon", "coordinates": [[[-73.8687236757233, 40.8739594387684], [-73.8687204552124, 40.8740499817753], [-73.8691590933013, 40.8740606127322], [-73.8691623122897, 40.8739700697122], [-73.8687236757233, 40.8739594387684]]]}}, {"type": "Feature", "properties": {"zone_id": "0206L0LRPVSQGRN7BIC9V3", "tract_id": "36005037600", "city": "BRONX, NY", "zone_code": "R5A", "zone_category": "Other", "ev_permitted": false}, "geometry": {"type": "Polygon", "coordinates": [[[-73.868736813014, 40.8735898393857], [-73.8687318282522, 40.8737300691327], [-73.8691704633054, 40.8737407007486], [-73.8691754480699, 40.8736004702812], [-73.868736813014, 40.8735898393857]]]}}, {"type": "Feature", "properties": {"zone_id": "0204N7KD0HATR4PKJEB7RT", "tract_id": "36005037600", "city": "BRONX, NY", "zone_code": "R5A", "zone_category": "Other", "ev_permitted": false}, "geometry": {"type": "Polygon", "coordinates": [[[-73.8687318282522, 40.8737300691327], [-73.8687268934485, 40.8738688957567], [-73.869165529418, 40.8738795266884], [-73.8691704633054, 40.8737407007486], [-73.8687318282522, 40.8737300691327]]]}}, {"type": "Feature", "properties": {"zone_id": "0204XXCJ67MRXY9N6FS9M0", "tract_id": "36005037600", "city": "BRONX, NY", "zone_code": "R5A", "zone_category": "Other", "ev_permitted": false}, "geometry": {"type": "Polygon", "coordinates": [[[-73.8682932365412, 40.8738583840735], [-73.8682881143117, 40.8739955641723], [-73.8687220164764, 40.8740060824762], [-73.8687268934485, 40.8738688957567], [-73.8682932365412, 40.8738583840735]]]}}, {"type": "Feature", "properties": {"zone_id": "0207HDH19CW9O41WFVOU6O", "tract_id": "36005037600", "city": "BRONX, NY", "zone_code": "R5A", "zone_category": "Other", "ev_permitted": false}, "geometry": {"type": "Polygon", "coordinates": [[[-73.8682966617838, 40.8737666475195], [-73.8682932365412, 40.8738583840735], [-73.8687268934485, 40.8738688957567], [-73.8687301533349, 40.8737771540841], [-73.8682966617838, 40.8737666475195]]]}}, {"type": "Feature", "properties": {"zone_id": "020234L63YZ8QXCE5D69BM", "tract_id": "36005037600", "city": "BRONX, NY", "zone_code": "R5A", "zone_category": "Other", "ev_permitted": false}, "geometry": {"type": "Polygon", "coordinates": [[[-73.868300134917, 40.8736736272913], [-73.8682966617838, 40.8737666475195], [-73.8687301533349, 40.8737771540841], [-73.8687334610984, 40.8736841315477], [-73.868300134917, 40.8736736272913]]]}}, {"type": "Feature", "properties": {"zone_id": "02056CCDOM18TXXHPL51R4", "tract_id": "36005037600", "city": "BRONX, NY", "zone_code": "R5A", "zone_category": "Other", "ev_permitted": false}, "geometry": {"type": "Polygon", "coordinates": [[[-73.8683061134387, 40.873513493546], [-73.868300134917, 40.8736736272913], [-73.8687334610984, 40.8736841315477], [-73.8687391544138, 40.8735239904306], [-73.8683061134387, 40.873513493546]]]}}, {"type": "Feature", "properties": {"zone_id": "02019DW4LQ7639ITL84X12", "tract_id": "36005037600", "city": "BRONX, NY", "zone_code": "R5A", "zone_category": "Other", "ev_permitted": false}, "geometry": {"type": "Polygon", "coordinates": [[[-73.8689851336899, 40.873334979572], [-73.8689758698095, 40.8735956338212], [-73.8690412046212, 40.873597217258], [-73.8690504691715, 40.8733365630046], [-73.8689851336899, 40.873334979572]]]}}, {"type": "Feature", "properties": {"zone_id": "0206CKOGAOWZ2N25G0HFIO", "tract_id": "36005037600", "city": "BRONX, NY", "zone_code": "R5A", "zone_category": "Other", "ev_permitted": false}, "geometry": {"type": "Polygon", "coordinates": [[[-73.8690504691715, 40.8733365630046], [-73.8690412046212, 40.873597217258], [-73.8691031664793, 40.8735987195414], [-73.8691124307883, 40.8733380645804], [-73.8690504691715, 40.8733365630046]]]}}, {"type": "Feature", "properties": {"zone_id": "0206PVY3X5F0AZ18115YTD", "tract_id": "36005037600", "city": "BRONX, NY", "zone_code": "R5A", "zone_category": "Other", "ev_permitted": false}, "geometry": {"type": "Polygon", "coordinates": [[[-73.8691124307883, 40.8733380645804], [-73.8691031664793, 40.8735987195414], [-73.8691754480699, 40.8736004702812], [-73.8691847120944, 40.8733398160172], [-73.8691124307883, 40.8733380645804]]]}}, {"type": "Feature", "properties": {"zone_id": "0206H0JEY5JXPYRVJCK3GO", "tract_id": "36005037600", "city": "BRONX, NY", "zone_code": "R5A", "zone_category": "Other", "ev_permitted": false}, "geometry": {"type": "Polygon", "coordinates": [[[-73.868711513511, 40.8733283476359], [-73.8687070266304, 40.8734545595421], [-73.868741592867, 40.8734553970649], [-73.868736813014, 40.8735898393857], [-73.868845235369, 40.8735924675793], [-73.8688545006867, 40.8733318133414], [-73.868711513511, 40.8733283476359]]]}}, {"type": "Feature", "properties": {"zone_id": "0206KD57BZJDGA01AETYG8", "tract_id": "36005037600", "city": "BRONX, NY", "zone_code": "R5A", "zone_category": "Other", "ev_permitted": false}, "geometry": {"type": "Polygon", "coordinates": [[[-73.8689259128272, 40.873333543576], [-73.8689166477877, 40.8735941985222], [-73.8689758698095, 40.8735956338212], [-73.8689851336899, 40.873334979572], [-73.8689259128272, 40.873333543576]]]}}, {"type": "Feature", "properties": {"zone_id": "02054KWKCUEXXGMQL105AT", "tract_id": "36005037600", "city": "BRONX, NY", "zone_code": "R5A", "zone_category": "Other", "ev_permitted": false}, "geometry": {"type": "Polygon", "coordinates": [[[-73.8688545006867, 40.8733318133414], [-73.868845235369, 40.8735924675793], [-73.8689166477877, 40.8735941985222], [-73.8689259128272, 40.873333543576], [-73.8688545006867, 40.8733318133414]]]}}, {"type": "Feature", "properties": {"zone_id": "02030HZBASDSSS99J7K01T", "tract_id": "36005037600", "city": "BRONX, NY", "zone_code": "R5", "zone_category": "Residential", "ev_permitted": false}, "geometry": {"type": "Polygon", "coordinates": [[[-73.8688482167143, 40.8730416192065], [-73.8688441532161, 40.8731715457718], [-73.8691964334613, 40.8731804321238], [-73.8692004953433, 40.8730505069505], [-73.8688482167143, 40.8730416192065]]]}}, {"type": "Feature", "properties": {"zone_id": "0200Z27OGPNZEG0IQ2HLHB", "tract_id": "36005037600", "city": "BRONX, NY", "zone_code": "R5", "zone_category": "Residential", "ev_permitted": false}, "geometry": {"type": "Polygon", "coordinates": [[[-73.8687611315698, 40.8728983168063], [-73.8687521789428, 40.8731692250701], [-73.8688441532161, 40.8731715457718], [-73.868852625079, 40.8729006250101], [-73.8687611315698, 40.8728983168063]]]}}, {"type": "Feature", "properties": {"zone_id": "0204RIZOX611WSGG4XQ8OS", "tract_id": "36005037600", "city": "BRONX, NY", "zone_code": "R5A", "zone_category": "Other", "ev_permitted": false}, "geometry": {"type": "Polygon", "coordinates": [[[-73.8683133861551, 40.8733186964225], [-73.8683061134387, 40.873513493546], [-73.8687391544138, 40.8735239904306], [-73.868741592867, 40.8734553970649], [-73.8687070266304, 40.8734545595421], [-73.868711513511, 40.8733283476359], [-73.8683133861551, 40.8733186964225]]]}}, {"type": "Feature", "properties": {"zone_id": "0203JHOAVZ3L56P54NDK1H", "tract_id": "36005037600", "city": "BRONX, NY", "zone_code": "R5", "zone_category": "Residential", "ev_permitted": false}, "geometry": {"type": "Polygon", "coordinates": [[[-73.8683165952461, 40.8731061128895], [-73.8683148740589, 40.8731581921681], [-73.8686680575588, 40.8731671029458], [-73.8686697784697, 40.873115023662], [-73.8683165952461, 40.8731061128895]]]}}, {"type": "Feature", "properties": {"zone_id": "02034LUEQYOF9B2KYTHBHO", "tract_id": "36005037600", "city": "BRONX, NY", "zone_code": "R5", "zone_category": "Residential", "ev_permitted": false}, "geometry": {"type": "Polygon", "coordinates": [[[-73.8683182928025, 40.8730547467653], [-73.8683165952461, 40.8731061128895], [-73.8686697784697, 40.873115023662], [-73.8686714757535, 40.8730636575327], [-73.8683182928025, 40.8730547467653]]]}}, {"type": "Feature", "properties": {"zone_id": "02017FCIT44WFIWMG5GCD1", "tract_id": "36005037600", "city": "BRONX, NY", "zone_code": "R5", "zone_category": "Residential", "ev_permitted": false}, "geometry": {"type": "Polygon", "coordinates": [[[-73.8683198702245, 40.8730070173793], [-73.8683182928025, 40.8730547467653], [-73.8686714757535, 40.8730636575327], [-73.8686730953217, 40.8730146135467], [-73.8683198702245, 40.8730070173793]]]}}, {"type": "Feature", "properties": {"zone_id": "02073EJ6B8RK8KKGS8YKF0", "tract_id": "36005037600", "city": "BRONX, NY", "zone_code": "R5", "zone_category": "Residential", "ev_permitted": false}, "geometry": {"type": "Polygon", "coordinates": [[[-73.8687654858176, 40.8727665398084], [-73.8687611315698, 40.8728983168063], [-73.86920490389, 40.8729095113367], [-73.8692090753868, 40.8727760779884], [-73.8687654858176, 40.8727665398084]]]}}, {"type": "Feature", "properties": {"zone_id": "02065YB0QCV6QSSA6IJM2Q", "tract_id": "36005037600", "city": "BRONX, NY", "zone_code": "R5", "zone_category": "Residential", "ev_permitted": false}, "geometry": {"type": "Polygon", "coordinates": [[[-73.868852625079, 40.8729006250101], [-73.868850384341, 40.8729722926691], [-73.8692026635314, 40.8729811790023], [-73.86920490389, 40.8729095113367], [-73.868852625079, 40.8729006250101]]]}}, {"type": "Feature", "properties": {"zone_id": "0202G5AU8BNPJZ4R6O8KAC", "tract_id": "36005037600", "city": "BRONX, NY", "zone_code": "R5", "zone_category": "Residential", "ev_permitted": false}, "geometry": {"type": "Polygon", "coordinates": [[[-73.868850384341, 40.8729722926691], [-73.8688482167143, 40.8730416192065], [-73.8692004953433, 40.8730505069505], [-73.8692026635314, 40.8729811790023], [-73.868850384341, 40.8729722926691]]]}}, {"type": "Feature", "properties": {"zone_id": "0205KV63S4OQH85OZSYYLA", "tract_id": "36005037600", "city": "BRONX, NY", "zone_code": "R5", "zone_category": "Residential", "ev_permitted": false}, "geometry": {"type": "Polygon", "coordinates": [[[-73.8686780423147, 40.8728649528774], [-73.8686680575588, 40.8731671029458], [-73.8687521789428, 40.8731692250701], [-73.8687621741174, 40.8728667616284], [-73.8686780423147, 40.8728649528774]]]}}, {"type": "Feature", "properties": {"zone_id": "02078H0HESHS23URXGDDS0", "tract_id": "36005037600", "city": "BRONX, NY", "zone_code": "R5", "zone_category": "Residential", "ev_permitted": false}, "geometry": {"type": "Polygon", "coordinates": [[[-73.8687746155715, 40.872490250891], [-73.8687722076227, 40.8725631219899], [-73.8692154357744, 40.8725726520073], [-73.8692177145786, 40.872499777943], [-73.8687746155715, 40.872490250891]]]}}, {"type": "Feature", "properties": {"zone_id": "0206T7H3BWPJ2BFBIHH48B", "tract_id": "36005037600", "city": "BRONX, NY", "zone_code": "R5", "zone_category": "Residential", "ev_permitted": false}, "geometry": {"type": "Polygon", "coordinates": [[[-73.8687722076227, 40.8725631219899], [-73.8687700221788, 40.8726292472728], [-73.8692133683241, 40.8726387795396], [-73.8692154357744, 40.8725726520073], [-73.8687722076227, 40.8725631219899]]]}}, {"type": "Feature", "properties": {"zone_id": "020618NR0R5VP66NZIEI27", "tract_id": "36005037600", "city": "BRONX, NY", "zone_code": "R5", "zone_category": "Residential", "ev_permitted": false}, "geometry": {"type": "Polygon", "coordinates": [[[-73.8687700221788, 40.8726292472728], [-73.8687677097033, 40.8726992327267], [-73.8692111803463, 40.8727087679535], [-73.8692133683241, 40.8726387795396], [-73.8687700221788, 40.8726292472728]]]}}, {"type": "Feature", "properties": {"zone_id": "0203UYH9QKGJS7PI0EBUSS", "tract_id": "36005037600", "city": "BRONX, NY", "zone_code": "R5", "zone_category": "Residential", "ev_permitted": false}, "geometry": {"type": "Polygon", "coordinates": [[[-73.8687677097033, 40.8726992327267], [-73.8687654858176, 40.8727665398084], [-73.8692090753868, 40.8727760779884], [-73.8692111803463, 40.8727087679535], [-73.8687677097033, 40.8726992327267]]]}}, {"type": "Feature", "properties": {"zone_id": "0202VRZ6RH4R8EM91NTDWI", "tract_id": "36005037600", "city": "BRONX, NY", "zone_code": "R5", "zone_category": "Residential", "ev_permitted": false}, "geometry": {"type": "Polygon", "coordinates": [[[-73.8683216396453, 40.872953481577], [-73.8683198702245, 40.8730070173793], [-73.8686730953217, 40.8730146135467], [-73.868674865384, 40.8729610777401], [-73.8683216396453, 40.872953481577]]]}}, {"type": "Feature", "properties": {"zone_id": "02065GKCNLICYEUNU4YQUF", "tract_id": "36005037600", "city": "BRONX, NY", "zone_code": "R5", "zone_category": "Residential", "ev_permitted": false}, "geometry": {"type": "Polygon", "coordinates": [[[-73.8683248170863, 40.8728573567239], [-73.8683231372633, 40.8729081867543], [-73.8686763627615, 40.8729157829129], [-73.8686780423147, 40.8728649528774], [-73.8683248170863, 40.8728573567239]]]}}, {"type": "Feature", "properties": {"zone_id": "02006SE513RSG1OH85ZNE5", "tract_id": "36005037600", "city": "BRONX, NY", "zone_code": "R5", "zone_category": "Residential", "ev_permitted": false}, "geometry": {"type": "Polygon", "coordinates": [[[-73.8683281294452, 40.8727571349163], [-73.8683264516386, 40.8728078841461], [-73.8687638083446, 40.8728172890445], [-73.8687654858176, 40.8727665398084], [-73.8683281294452, 40.8727571349163]]]}}, {"type": "Feature", "properties": {"zone_id": "0204ZBZPIFS72S1RWG3Q0O", "tract_id": "36005037600", "city": "BRONX, NY", "zone_code": "R5", "zone_category": "Residential", "ev_permitted": false}, "geometry": {"type": "Polygon", "coordinates": [[[-73.8683231372633, 40.8729081867543], [-73.8683216396453, 40.872953481577], [-73.868674865384, 40.8729610777401], [-73.8686763627615, 40.8729157829129], [-73.8683231372633, 40.8729081867543]]]}}, {"type": "Feature", "properties": {"zone_id": "0204J2D5LQ6K7QU2TXTGMG", "tract_id": "36005037600", "city": "BRONX, NY", "zone_code": "R5", "zone_category": "Residential", "ev_permitted": false}, "geometry": {"type": "Polygon", "coordinates": [[[-73.8683264516386, 40.8728078841461], [-73.8683248170863, 40.8728573567239], [-73.8687621741174, 40.8728667616284], [-73.8687638083446, 40.8728172890445], [-73.8683264516386, 40.8728078841461]]]}}, {"type": "Feature", "properties": {"zone_id": "02033RLE8TV7GR79DDC4RB", "tract_id": "36005037600", "city": "BRONX, NY", "zone_code": "R5", "zone_category": "Residential", "ev_permitted": false}, "geometry": {"type": "Polygon", "coordinates": [[[-73.8683352188896, 40.8725426263331], [-73.8683327582286, 40.8726170979815], [-73.8687701127522, 40.8726265042605], [-73.8687725738507, 40.8725520319014], [-73.8683352188896, 40.8725426263331]]]}}, {"type": "Feature", "properties": {"zone_id": "0201WOKUW3CXREQZF0X1MN", "tract_id": "36005037600", "city": "BRONX, NY", "zone_code": "R5", "zone_category": "Residential", "ev_permitted": false}, "geometry": {"type": "Polygon", "coordinates": [[[-73.868337261015, 40.872480846033], [-73.8683352188896, 40.8725426263331], [-73.8687725738507, 40.8725520319014], [-73.8687746155715, 40.872490250891], [-73.868337261015, 40.872480846033]]]}}, {"type": "Feature", "properties": {"zone_id": "02071ITR8S425WRTWWTYW8", "tract_id": "36005037600", "city": "BRONX, NY", "zone_code": "R5", "zone_category": "Residential", "ev_permitted": false}, "geometry": {"type": "Polygon", "coordinates": [[[-73.868330805687, 40.8726761725069], [-73.8683281294452, 40.8727571349163], [-73.8687654858176, 40.8727665398084], [-73.8687681615259, 40.8726855780917], [-73.868330805687, 40.8726761725069]]]}}, {"type": "Feature", "properties": {"zone_id": "0202I0HMX6ICX4KYIVSSRP", "tract_id": "36005037600", "city": "BRONX, NY", "zone_code": "R5", "zone_category": "Residential", "ev_permitted": false}, "geometry": {"type": "Polygon", "coordinates": [[[-73.8683327582286, 40.8726170979815], [-73.868330805687, 40.8726761725069], [-73.8687681615259, 40.8726855780917], [-73.8687701127522, 40.8726265042605], [-73.8683327582286, 40.8726170979815]]]}}, {"type": "Feature", "properties": {"zone_id": "0206H4YTNZQ31FZD07EQI5", "tract_id": "36005037600", "city": "BRONX, NY", "zone_code": "R5", "zone_category": "Residential", "ev_permitted": false}, "geometry": {"type": "Polygon", "coordinates": [[[-73.8687762349664, 40.872441249057], [-73.8687746155715, 40.872490250891], [-73.8692177145786, 40.872499777943], [-73.8692192466393, 40.872450774599], [-73.8687762349664, 40.872441249057]]]}}, {"type": "Feature", "properties": {"zone_id": "02068Y0GEXLGJASY0KGYQH", "tract_id": "36005037600", "city": "BRONX, NY", "zone_code": "R5", "zone_category": "Residential", "ev_permitted": false}, "geometry": {"type": "Polygon", "coordinates": [[[-73.8687827716214, 40.8722434373982], [-73.8687811915885, 40.8722912602451], [-73.8692239356887, 40.872300779845], [-73.8692254311741, 40.8722529547887], [-73.8687827716214, 40.8722434373982]]]}}, {"type": "Feature", "properties": {"zone_id": "02079Q11DL1KHO2CL3P4J2", "tract_id": "36005037600", "city": "BRONX, NY", "zone_code": "R5", "zone_category": "Residential", "ev_permitted": false}, "geometry": {"type": "Polygon", "coordinates": [[[-73.8687795151497, 40.8723419666258], [-73.8687778661156, 40.8723919183994], [-73.8692207886023, 40.8724014417264], [-73.8692223502976, 40.8723514877401], [-73.8687795151497, 40.8723419666258]]]}}, {"type": "Feature", "properties": {"zone_id": "020727VJ9G47O4J40JO1BY", "tract_id": "36005037600", "city": "BRONX, NY", "zone_code": "R5", "zone_category": "Residential", "ev_permitted": false}, "geometry": {"type": "Polygon", "coordinates": [[[-73.8687811915885, 40.8722912602451], [-73.8687795151497, 40.8723419666258], [-73.8692223502976, 40.8723514877401], [-73.8692239356887, 40.872300779845], [-73.8687811915885, 40.8722912602451]]]}}, {"type": "Feature", "properties": {"zone_id": "0203MU6QUTUGO5865E2X5G", "tract_id": "36005037600", "city": "BRONX, NY", "zone_code": "R5", "zone_category": "Residential", "ev_permitted": false}, "geometry": {"type": "Polygon", "coordinates": [[[-73.8687778661156, 40.8723919183994], [-73.8687762349664, 40.872441249057], [-73.8692192466393, 40.872450774599], [-73.8692207886023, 40.8724014417264], [-73.8687778661156, 40.8723919183994]]]}}, {"type": "Feature", "properties": {"zone_id": "02042BN1L06N6B22OLRCAD", "tract_id": "36005037600", "city": "BRONX, NY", "zone_code": "R5", "zone_category": "Residential", "ev_permitted": false}, "geometry": {"type": "Polygon", "coordinates": [[[-73.8687860094578, 40.8721454344267], [-73.8687844481399, 40.8721926881555], [-73.8692270175705, 40.8722022040327], [-73.8692284952705, 40.8721549480956], [-73.8687860094578, 40.8721454344267]]]}}, {"type": "Feature", "properties": {"zone_id": "0201MN90J2PO2QDVW7PMCP", "tract_id": "36005037600", "city": "BRONX, NY", "zone_code": "R5", "zone_category": "Residential", "ev_permitted": false}, "geometry": {"type": "Polygon", "coordinates": [[[-73.8687844481399, 40.8721926881555], [-73.8687827716214, 40.8722434373982], [-73.8692254311741, 40.8722529547887], [-73.8692270175705, 40.8722022040327], [-73.8687844481399, 40.8721926881555]]]}}, {"type": "Feature", "properties": {"zone_id": "0202O1F91FCSIBPPCRTZZ7", "tract_id": "36005037600", "city": "BRONX, NY", "zone_code": "R5", "zone_category": "Residential", "ev_permitted": false}, "geometry": {"type": "Polygon", "coordinates": [[[-73.8687919396233, 40.8719659870293], [-73.8687881013505, 40.8720821385719], [-73.8692304747426, 40.8720916507007], [-73.8692341058356, 40.8719754939912], [-73.8687919396233, 40.8719659870293]]]}}, {"type": "Feature", "properties": {"zone_id": "02007ENW5EJ4NVF68KAM4M", "tract_id": "36005037600", "city": "BRONX, NY", "zone_code": "R5", "zone_category": "Residential", "ev_permitted": false}, "geometry": {"type": "Polygon", "coordinates": [[[-73.8687881013505, 40.8720821385719], [-73.8687860094578, 40.8721454344267], [-73.8692284952705, 40.8721549480956], [-73.8692304747426, 40.8720916507007], [-73.8687881013505, 40.8720821385719]]]}}, {"type": "Feature", "properties": {"zone_id": "0202RC24QDCDJLGFJQXPS8", "tract_id": "36005037600", "city": "BRONX, NY", "zone_code": "R5", "zone_category": "Residential", "ev_permitted": false}, "geometry": {"type": "Polygon", "coordinates": [[[-73.8683394242408, 40.8724154044017], [-73.868337261015, 40.872480846033], [-73.8687746155715, 40.872490250891], [-73.8687767783657, 40.8724248099542], [-73.8683394242408, 40.8724154044017]]]}}, {"type": "Feature", "properties": {"zone_id": "0201SGV28RRA82EKOAUN0Z", "tract_id": "36005037600", "city": "BRONX, NY", "zone_code": "R5", "zone_category": "Residential", "ev_permitted": false}, "geometry": {"type": "Polygon", "coordinates": [[[-73.8683417145235, 40.8723460976793], [-73.8683394242408, 40.8724154044017], [-73.8687767783657, 40.8724248099542], [-73.8687790681915, 40.872355503926], [-73.8683417145235, 40.8723460976793]]]}}, {"type": "Feature", "properties": {"zone_id": "0202W9IIIGEFTHW7X9UEM0", "tract_id": "36005037600", "city": "BRONX, NY", "zone_code": "R5", "zone_category": "Residential", "ev_permitted": false}, "geometry": {"type": "Polygon", "coordinates": [[[-73.8683508446959, 40.8720699900548], [-73.8683417145235, 40.8723460976793], [-73.8687790681915, 40.872355503926], [-73.8687881919237, 40.8720793948567], [-73.8683508446959, 40.8720699900548]]]}}, {"type": "Feature", "properties": {"zone_id": "0206E2P7Z3VVV9X82221KC", "tract_id": "36005037600", "city": "BRONX, NY", "zone_code": "R5", "zone_category": "Residential", "ev_permitted": false}, "geometry": {"type": "Polygon", "coordinates": [[[-73.8698901258698, 40.8716187739611], [-73.8698810459928, 40.8718989669417], [-73.8702555770826, 40.8719061993552], [-73.870264613092, 40.8716272815938], [-73.8698901258698, 40.8716187739611]]]}}, {"type": "Feature", "properties": {"zone_id": "02028556FVQKE8DXRCQLUV", "tract_id": "36005037600", "city": "BRONX, NY", "zone_code": "R5", "zone_category": "Residential", "ev_permitted": false}, "geometry": {"type": "Polygon", "coordinates": [[[-73.8698810459928, 40.8718989669417], [-73.8698787812248, 40.8719688344357], [-73.8702533117823, 40.8719760668554], [-73.8702555770826, 40.8719061993552], [-73.8698810459928, 40.8718989669417]]]}}, {"type": "Feature", "properties": {"zone_id": "0206GWK1OEACH4K8Q363SY", "tract_id": "36005037600", "city": "BRONX, NY", "zone_code": "R5", "zone_category": "Residential", "ev_permitted": false}, "geometry": {"type": "Polygon", "coordinates": [[[-73.869432256914, 40.8718193937969], [-73.8694291684294, 40.8719601499339], [-73.8698787812248, 40.8719688344357], [-73.8698833423204, 40.8718281059462], [-73.869432256914, 40.8718193937969]]]}}, {"type": "Feature", "properties": {"zone_id": "0205C58IFDSY1K5YGABVL0", "tract_id": "36005037600", "city": "BRONX, NY", "zone_code": "R5", "zone_category": "Residential", "ev_permitted": false}, "geometry": {"type": "Polygon", "coordinates": [[[-73.8694338814585, 40.8717453582132], [-73.869432256914, 40.8718193937969], [-73.8697906838581, 40.8718263164957], [-73.8697930433121, 40.87175351909], [-73.8694338814585, 40.8717453582132]]]}}, {"type": "Feature", "properties": {"zone_id": "0201V13MKK0PMUQOD5N8IL", "tract_id": "36005037600", "city": "BRONX, NY", "zone_code": "R5", "zone_category": "Residential", "ev_permitted": false}, "geometry": {"type": "Polygon", "coordinates": [[[-73.8697974785001, 40.8716166683392], [-73.8697906838581, 40.8718263164957], [-73.8698833423204, 40.8718281059462], [-73.8698901258698, 40.8716187739611], [-73.8697974785001, 40.8716166683392]]]}}, {"type": "Feature", "properties": {"zone_id": "02000L40IE83CK5NMZ8OQ8", "tract_id": "36005037600", "city": "BRONX, NY", "zone_code": "R5", "zone_category": "Residential", "ev_permitted": false}, "geometry": {"type": "Polygon", "coordinates": [[[-73.8694368845654, 40.8716084749387], [-73.8694338814585, 40.8717453582132], [-73.8697930433121, 40.87175351909], [-73.8697974785001, 40.8716166683392], [-73.8694368845654, 40.8716084749387]]]}}, {"type": "Feature", "properties": {"zone_id": "020712P5ZRPFA0Z00T91PH", "tract_id": "36005037600", "city": "BRONX, NY", "zone_code": "R5", "zone_category": "Residential", "ev_permitted": false}, "geometry": {"type": "Polygon", "coordinates": [[[-73.8687956410517, 40.8718539745945], [-73.8687919396233, 40.8719659870293], [-73.8692341058356, 40.8719754939912], [-73.8692376084403, 40.8718634778048], [-73.8687956410517, 40.8718539745945]]]}}, {"type": "Feature", "properties": {"zone_id": "0200RU57JELP6N1FDZBNCY", "tract_id": "36005037600", "city": "BRONX, NY", "zone_code": "R5", "zone_category": "Residential", "ev_permitted": false}, "geometry": {"type": "Polygon", "coordinates": [[[-73.8688033432651, 40.871593616422], [-73.8687956410517, 40.8718539745945], [-73.8692376084403, 40.8718634778048], [-73.8692457575539, 40.8716028032198], [-73.8688033432651, 40.871593616422]]]}}, {"type": "Feature", "properties": {"zone_id": "02029HFMDCOPOMWVQIL6Z1", "tract_id": "36005037600", "city": "BRONX, NY", "zone_code": "R5", "zone_category": "Residential", "ev_permitted": false}, "geometry": {"type": "Polygon", "coordinates": [[[-73.8683582906773, 40.8718445698151], [-73.8683508446959, 40.8720699900548], [-73.8687881919237, 40.8720793948567], [-73.8687956410517, 40.8718539745945], [-73.8683582906773, 40.8718445698151]]]}}, {"type": "Feature", "properties": {"zone_id": "0201QG5TSMVWPREBUJ8QVO", "tract_id": "36005037600", "city": "BRONX, NY", "zone_code": "R5", "zone_category": "Residential", "ev_permitted": false}, "geometry": {"type": "Polygon", "coordinates": [[[-73.86836690511, 40.87158390425], [-73.8683582906773, 40.8718445698151], [-73.8687956410517, 40.8718539745945], [-73.8688033432651, 40.871593616422], [-73.86836690511, 40.87158390425]]]}}]}