{"type": "FeatureCollection", "features": [{"type": "Feature", "properties": {"zone_id": "020528UX128M7NRRZQEVFR", "tract_id": "36005004100", "city": "BRONX, NY", "zone_code": "C2-4", "zone_category": "Commercial", "ev_permitted": true}, "geometry": {"type": "Polygon", "coordinates": [[[-73.924166448609, 40.8122469551897], [-73.9241189371429, 40.8123105052302], [-73.9243720275612, 40.812420811048], [-73.9244612007224, 40.8123751326814], [-73.924166448609, 40.8122469551897]]]}}, {"type": "Feature", "properties": {"zone_id": "0206MR4TMDQ9I2PTUT4C4I", "tract_id": "36005004100", "city": "BRONX, NY", "zone_code": "R6", "zone_category": "Residential", "ev_permitted": false}, "geometry": {"type": "Polygon", "coordinates": [[[-73.9215584480709, 40.8111584974723], [-73.9207756759774, 40.8122248434998], [-73.9227638138137, 40.8130660554496], [-73.9235441301535, 40.8119938034465], [-73.9215584480709, 40.8111584974723]]]}}, {"type": "Feature", "properties": {"zone_id": "020378K1PQWQK62Z82631S", "tract_id": "36005004100", "city": "BRONX, NY", "zone_code": "R6", "zone_category": "Residential", "ev_permitted": false}, "geometry": {"type": "Polygon", "coordinates": [[[-73.9233769726988, 40.8127374358729], [-73.9232048535764, 40.8129768810727], [-73.9232464593232, 40.8129929404152], [-73.9235848189805, 40.8128176652551], [-73.9233769726988, 40.8127374358729]]]}}, {"type": "Feature", "properties": {"zone_id": "0203ULXQ9Q9E8JSDPIB6JA", "tract_id": "36005004100", "city": "BRONX, NY", "zone_code": "C2-4", "zone_category": "Commercial", "ev_permitted": true}, "geometry": {"type": "Polygon", "coordinates": [[[-73.9221524445429, 40.8132660875144], [-73.9221076993486, 40.813327267145], [-73.9220254370017, 40.813292672132], [-73.9219830778458, 40.8133505888211], [-73.9223063689048, 40.8134867169852], [-73.9224735764034, 40.8134011358902], [-73.9221524445429, 40.8132660875144]]]}}, {"type": "Feature", "properties": {"zone_id": "0201YI889Z9XM2M95YET16", "tract_id": "36005004100", "city": "BRONX, NY", "zone_code": "R6", "zone_category": "Residential", "ev_permitted": false}, "geometry": {"type": "Polygon", "coordinates": [[[-73.9221968395105, 40.8132053882413], [-73.9221524445429, 40.8132660875144], [-73.9224735764034, 40.8134011358902], [-73.9225149620237, 40.8133799528499], [-73.9225367405401, 40.8133483293139], [-73.9221968395105, 40.8132053882413]]]}}, {"type": "Feature", "properties": {"zone_id": "02063ZM9SIP7IACMN3L39W", "tract_id": "36005004100", "city": "BRONX, NY", "zone_code": "C2-4", "zone_category": "Commercial", "ev_permitted": true}, "geometry": {"type": "Polygon", "coordinates": [[[-73.9219830778458, 40.8133505888211], [-73.9219381388416, 40.8134120317474], [-73.9222203826018, 40.8135307270378], [-73.9223063689048, 40.8134867169852], [-73.9219830778458, 40.8133505888211]]]}}, {"type": "Feature", "properties": {"zone_id": "0202H75IUD288C7B56WCXV", "tract_id": "36005004100", "city": "BRONX, NY", "zone_code": "C2-4", "zone_category": "Commercial", "ev_permitted": true}, "geometry": {"type": "Polygon", "coordinates": [[[-73.9219381388416, 40.8134120317474], [-73.9218936212246, 40.8134729001744], [-73.9221352040431, 40.8135743237114], [-73.9222203826018, 40.8135307270378], [-73.9219381388416, 40.8134120317474]]]}}, {"type": "Feature", "properties": {"zone_id": "02074KRFSCSPN7YT2Q6TZN", "tract_id": "36005004100", "city": "BRONX, NY", "zone_code": "R6", "zone_category": "Residential", "ev_permitted": false}, "geometry": {"type": "Polygon", "coordinates": [[[-73.9218936212246, 40.8134729001744], [-73.9218500215043, 40.8135325128696], [-73.9220504825125, 40.8136176859461], [-73.9221352040431, 40.8135743237114], [-73.9218936212246, 40.8134729001744]]]}}, {"type": "Feature", "properties": {"zone_id": "0203XQULS3LVD9323MYE01", "tract_id": "36005004100", "city": "BRONX, NY", "zone_code": "C2-4", "zone_category": "Commercial", "ev_permitted": true}, "geometry": {"type": "Polygon", "coordinates": [[[-73.9222398292008, 40.8131466076396], [-73.9221968395105, 40.8132053882413], [-73.9225367405401, 40.8133483293139], [-73.9225777842218, 40.813288729397], [-73.9222398292008, 40.8131466076396]]]}}, {"type": "Feature", "properties": {"zone_id": "0205PDVJEB5R1FX2URYGDC", "tract_id": "36005004100", "city": "BRONX, NY", "zone_code": "C2-4", "zone_category": "Commercial", "ev_permitted": true}, "geometry": {"type": "Polygon", "coordinates": [[[-73.9222863822882, 40.8130829565532], [-73.9222398292008, 40.8131466076396], [-73.9225777842218, 40.813288729397], [-73.9226222258212, 40.813224191421], [-73.9222863822882, 40.8130829565532]]]}}, {"type": "Feature", "properties": {"zone_id": "02060UDRNIANBKMRB5PDLP", "tract_id": "36005004100", "city": "BRONX, NY", "zone_code": "C2-4", "zone_category": "Commercial", "ev_permitted": true}, "geometry": {"type": "Polygon", "coordinates": [[[-73.9221247125361, 40.8130149680701], [-73.9219466952026, 40.8132583668268], [-73.9221076993486, 40.813327267145], [-73.9222863822882, 40.8130829565532], [-73.9221247125361, 40.8130149680701]]]}}, {"type": "Feature", "properties": {"zone_id": "0202IUCR8HJ795I0H64AIV", "tract_id": "36005004100", "city": "BRONX, NY", "zone_code": "C2-4", "zone_category": "Commercial", "ev_permitted": true}, "geometry": {"type": "Polygon", "coordinates": [[[-73.9239085179987, 40.812454392724], [-73.9237276035514, 40.8126964348175], [-73.9237850623233, 40.8127214779823], [-73.9241235289166, 40.812548102674], [-73.9239085179987, 40.812454392724]]]}}, {"type": "Feature", "properties": {"zone_id": "02061T1WBU15ZTFSBRBMK2", "tract_id": "36005004100", "city": "BRONX, NY", "zone_code": "C2-4", "zone_category": "Commercial", "ev_permitted": true}, "geometry": {"type": "Polygon", "coordinates": [[[-73.9236518509923, 40.8123425271529], [-73.9234709044874, 40.8125845554768], [-73.9237276035514, 40.8126964348175], [-73.9239085179987, 40.812454392724], [-73.9236518509923, 40.8123425271529]]]}}, {"type": "Feature", "properties": {"zone_id": "0205HU2ETV2PZGG90DSZMR", "tract_id": "36005004100", "city": "BRONX, NY", "zone_code": "C2-4", "zone_category": "Commercial", "ev_permitted": true}, "geometry": {"type": "Polygon", "coordinates": [[[-73.9241189371429, 40.8123105052302], [-73.924074782222, 40.8123695661286], [-73.9242894307497, 40.8124631209492], [-73.9243720275612, 40.812420811048], [-73.9241189371429, 40.8123105052302]]]}}, {"type": "Feature", "properties": {"zone_id": "0204DAO2I39K853AGIBJOF", "tract_id": "36005004100", "city": "BRONX, NY", "zone_code": "C2-4", "zone_category": "Commercial", "ev_permitted": true}, "geometry": {"type": "Polygon", "coordinates": [[[-73.9240127240776, 40.8123425175258], [-73.9239807739272, 40.8123852526535], [-73.9239831227019, 40.8123862772591], [-73.9239531611188, 40.8124263548662], [-73.9239352998802, 40.8124185703809], [-73.9239085179987, 40.812454392724], [-73.9241235289166, 40.812548102674], [-73.9242894307497, 40.8124631209492], [-73.9240127240776, 40.8123425175258]]]}}, {"type": "Feature", "properties": {"zone_id": "0205F6G88RWJ4KEMWBWV83", "tract_id": "36005004100", "city": "BRONX, NY", "zone_code": "C2-4", "zone_category": "Commercial", "ev_permitted": true}, "geometry": {"type": "Polygon", "coordinates": [[[-73.9240872974667, 40.8122124641667], [-73.9239956365358, 40.8123350701285], [-73.924074782222, 40.8123695661286], [-73.924166448609, 40.8122469551897], [-73.9240872974667, 40.8122124641667]]]}}, {"type": "Feature", "properties": {"zone_id": "0202PL5IRT61YTHVLEMISV", "tract_id": "36005004100", "city": "BRONX, NY", "zone_code": "C2-4", "zone_category": "Commercial", "ev_permitted": true}, "geometry": {"type": "Polygon", "coordinates": [[[-73.9237393519435, 40.8122254914217], [-73.9236518509923, 40.8123425271529], [-73.9239085179987, 40.812454392724], [-73.9239352998802, 40.8124185703809], [-73.9239531611188, 40.8124263548662], [-73.9239831227019, 40.8123862772591], [-73.9239807739272, 40.8123852526535], [-73.9240127240776, 40.8123425175258], [-73.9239956365358, 40.8123350701285], [-73.9239944417042, 40.8123366692726], [-73.9237393519435, 40.8122254914217]]]}}, {"type": "Feature", "properties": {"zone_id": "0201BZWKCE108CIUQRKST8", "tract_id": "36005004100", "city": "BRONX, NY", "zone_code": "R6", "zone_category": "Residential", "ev_permitted": false}, "geometry": {"type": "Polygon", "coordinates": [[[-73.9238322117326, 40.8121012809004], [-73.9237852354091, 40.8121641158618], [-73.9240403250103, 40.8122752943149], [-73.9240872974667, 40.8122124641667], [-73.9238322117326, 40.8121012809004]]]}}, {"type": "Feature", "properties": {"zone_id": "0203P44L76N2B0ZE5RHUB9", "tract_id": "36005004100", "city": "BRONX, NY", "zone_code": "R6", "zone_category": "Residential", "ev_permitted": false}, "geometry": {"type": "Polygon", "coordinates": [[[-73.9237852354091, 40.8121641158618], [-73.9237393519435, 40.8122254914217], [-73.9239944417042, 40.8123366692726], [-73.9240403250103, 40.8122752943149], [-73.9237852354091, 40.8121641158618]]]}}, {"type": "Feature", "properties": {"zone_id": "0204WSKAN0T37HRJCX12W5", "tract_id": "36005004100", "city": "BRONX, NY", "zone_code": "C2-4", "zone_category": "Commercial", "ev_permitted": true}, "geometry": {"type": "Polygon", "coordinates": [[[-73.9206785779944, 40.812406794447], [-73.9203281714451, 40.8128858809866], [-73.9218500215043, 40.8135325128696], [-73.922026103018, 40.8132917605442], [-73.9219466952026, 40.8132583668268], [-73.9221247125361, 40.8130149680701], [-73.9206785779944, 40.812406794447]]]}}, {"type": "Feature", "properties": {"zone_id": "02028LVQXYS1CU0DA0TGS4", "tract_id": "36005004100", "city": "BRONX, NY", "zone_code": "C1-4", "zone_category": "Commercial", "ev_permitted": true}, "geometry": {"type": "Polygon", "coordinates": [[[-73.9200810434062, 40.812153465396], [-73.9198988657196, 40.8123999399629], [-73.9201958978906, 40.8125253671291], [-73.9203780368395, 40.812278945473], [-73.9200810434062, 40.812153465396]]]}}, {"type": "Feature", "properties": {"zone_id": "0205BJRIS4RKZ90TY4VB3C", "tract_id": "36005004100", "city": "BRONX, NY", "zone_code": "C1-4", "zone_category": "Commercial", "ev_permitted": true}, "geometry": {"type": "Polygon", "coordinates": [[[-73.9201936663982, 40.8119422392791], [-73.9201489224752, 40.8120039121266], [-73.9204747844129, 40.8121407913491], [-73.920519528126, 40.8120791183766], [-73.9201936663982, 40.8119422392791]]]}}, {"type": "Feature", "properties": {"zone_id": "0202KHCKZG0VY7UF8PZ0AU", "tract_id": "36005004100", "city": "BRONX, NY", "zone_code": "C1-4", "zone_category": "Commercial", "ev_permitted": true}, "geometry": {"type": "Polygon", "coordinates": [[[-73.9203757240839, 40.811691298812], [-73.9203424336416, 40.8117371911218], [-73.9206682955961, 40.811874069804], [-73.9207015849575, 40.8118281774005], [-73.9203757240839, 40.811691298812]]]}}, {"type": "Feature", "properties": {"zone_id": "0200Q2EUYENHFPWWH82RYJ", "tract_id": "36005004100", "city": "BRONX, NY", "zone_code": "R6", "zone_category": "Residential", "ev_permitted": false}, "geometry": {"type": "Polygon", "coordinates": [[[-73.9203424336416, 40.8117371911218], [-73.9203065883469, 40.8117865913878], [-73.9206324495448, 40.8119234701696], [-73.9206682955961, 40.811874069804], [-73.9203424336416, 40.8117371911218]]]}}, {"type": "Feature", "properties": {"zone_id": "020587ME7Z7WEIB5BU85Z6", "tract_id": "36005004100", "city": "BRONX, NY", "zone_code": "R6", "zone_category": "Residential", "ev_permitted": false}, "geometry": {"type": "Polygon", "coordinates": [[[-73.9204139184456, 40.8116386581225], [-73.9203757240839, 40.811691298812], [-73.9207015849575, 40.8118281774005], [-73.92073977914, 40.8117755366042], [-73.9204139184456, 40.8116386581225]]]}}, {"type": "Feature", "properties": {"zone_id": "0206PXZTA59XYP0VRPGMC4", "tract_id": "36005004100", "city": "BRONX, NY", "zone_code": "C1-4", "zone_category": "Commercial", "ev_permitted": true}, "geometry": {"type": "Polygon", "coordinates": [[[-73.9203065883469, 40.8117865913878], [-73.9202710375602, 40.8118355962546], [-73.9205968989249, 40.8119724751357], [-73.9206324495448, 40.8119234701696], [-73.9203065883469, 40.8117865913878]]]}}, {"type": "Feature", "properties": {"zone_id": "0206326UGWA3AJA1HIXVVD", "tract_id": "36005004100", "city": "BRONX, NY", "zone_code": "C1-4", "zone_category": "Commercial", "ev_permitted": true}, "geometry": {"type": "Polygon", "coordinates": [[[-73.9202710375602, 40.8118355962546], [-73.9202393569511, 40.8118792622494], [-73.9205652193892, 40.8120161412198], [-73.9205968989249, 40.8119724751357], [-73.9202710375602, 40.8118355962546]]]}}, {"type": "Feature", "properties": {"zone_id": "02014HXF8VF6DVRIH4BKZK", "tract_id": "36005004100", "city": "BRONX, NY", "zone_code": "C1-4", "zone_category": "Commercial", "ev_permitted": true}, "geometry": {"type": "Polygon", "coordinates": [[[-73.9202393569511, 40.8118792622494], [-73.9201936663982, 40.8119422392791], [-73.920519528126, 40.8120791183766], [-73.9205652193892, 40.8120161412198], [-73.9202393569511, 40.8118792622494]]]}}, {"type": "Feature", "properties": {"zone_id": "02071IJBURBSKBOU9TZ2S6", "tract_id": "36005004100", "city": "BRONX, NY", "zone_code": "R6", "zone_category": "Residential", "ev_permitted": false}, "geometry": {"type": "Polygon", "coordinates": [[[-73.9202577526012, 40.8117276664948], [-73.9200787262807, 40.8119744253036], [-73.9201489224752, 40.8120039121266], [-73.9203279495394, 40.8117571532106], [-73.9202577526012, 40.8117276664948]]]}}, {"type": "Feature", "properties": {"zone_id": "0205F3Z2269FXV99NXP7RJ", "tract_id": "36005004100", "city": "BRONX, NY", "zone_code": "R6", "zone_category": "Residential", "ev_permitted": false}, "geometry": {"type": "Polygon", "coordinates": [[[-73.9198564893378, 40.8124572719667], [-73.9198122268907, 40.8125171546638], [-73.9201092205161, 40.8126426347226], [-73.9201534818546, 40.8125827519121], [-73.9198564893378, 40.8124572719667]]]}}, {"type": "Feature", "properties": {"zone_id": "0207E2YCCJHFVMAEIBPBEU", "tract_id": "36005004100", "city": "BRONX, NY", "zone_code": "C1-4", "zone_category": "Commercial", "ev_permitted": true}, "geometry": {"type": "Polygon", "coordinates": [[[-73.9198122268907, 40.8125171546638], [-73.9197207347316, 40.8126409363888], [-73.9200182567397, 40.8127657031557], [-73.9201092205161, 40.8126426347226], [-73.9198122268907, 40.8125171546638]]]}}, {"type": "Feature", "properties": {"zone_id": "02027LPKOUH4GK0RD6TQP5", "tract_id": "36005004100", "city": "BRONX, NY", "zone_code": "C1-4", "zone_category": "Commercial", "ev_permitted": true}, "geometry": {"type": "Polygon", "coordinates": [[[-73.9198988657196, 40.8123999399629], [-73.9198564893378, 40.8124572719667], [-73.9201534818546, 40.8125827519121], [-73.9201958978906, 40.8125253671291], [-73.9198988657196, 40.8123999399629]]]}}, {"type": "Feature", "properties": {"zone_id": "0207K32OFJHCIHNBKLWNSQ", "tract_id": "36005004100", "city": "BRONX, NY", "zone_code": "C1-4", "zone_category": "Commercial", "ev_permitted": true}, "geometry": {"type": "Polygon", "coordinates": [[[-73.9198410611188, 40.812375529813], [-73.9196628345758, 40.812616654669], [-73.9197207347316, 40.8126409363888], [-73.9198988657196, 40.8123999399629], [-73.9198410611188, 40.812375529813]]]}}, {"type": "Feature", "properties": {"zone_id": "02062XAFY8I55APL5ZIXZZ", "tract_id": "36005004100", "city": "BRONX, NY", "zone_code": "R6", "zone_category": "Residential", "ev_permitted": false}, "geometry": {"type": "Polygon", "coordinates": [[[-73.9197895845933, 40.8123537919951], [-73.9196112736231, 40.8125950333532], [-73.9196628345758, 40.812616654669], [-73.9198410611188, 40.812375529813], [-73.9197895845933, 40.8123537919951]]]}}, {"type": "Feature", "properties": {"zone_id": "0203BR3J24XBRRMM822N19", "tract_id": "36005004100", "city": "BRONX, NY", "zone_code": "R6", "zone_category": "Residential", "ev_permitted": false}, "geometry": {"type": "Polygon", "coordinates": [[[-73.9197365552094, 40.8123313996094], [-73.919558156108, 40.8125727581673], [-73.9196112736231, 40.8125950333532], [-73.9197895845933, 40.8123537919951], [-73.9197365552094, 40.8123313996094]]]}}, {"type": "Feature", "properties": {"zone_id": "0205QVQNJLG444X3ZEX6AW", "tract_id": "36005004100", "city": "BRONX, NY", "zone_code": "R6", "zone_category": "Residential", "ev_permitted": false}, "geometry": {"type": "Polygon", "coordinates": [[[-73.91968384938, 40.8123091437385], [-73.9195053639976, 40.812550619498], [-73.919558156108, 40.8125727581673], [-73.9197365552094, 40.8123313996094], [-73.91968384938, 40.8123091437385]]]}}, {"type": "Feature", "properties": {"zone_id": "0204JKY5SOU8ZXJQNASQ7M", "tract_id": "36005004100", "city": "BRONX, NY", "zone_code": "R6", "zone_category": "Residential", "ev_permitted": false}, "geometry": {"type": "Polygon", "coordinates": [[[-73.919628765264, 40.8122858828027], [-73.9194501889637, 40.812527481378], [-73.9195053639976, 40.812550619498], [-73.91968384938, 40.8123091437385], [-73.919628765264, 40.8122858828027]]]}}, {"type": "Feature", "properties": {"zone_id": "0204ZXQYZCPOIIAT1DA9KR", "tract_id": "36005004100", "city": "BRONX, NY", "zone_code": "R6", "zone_category": "Residential", "ev_permitted": false}, "geometry": {"type": "Polygon", "coordinates": [[[-73.9195779423832, 40.8122644214865], [-73.9193992825859, 40.8125061330522], [-73.9194501889637, 40.812527481378], [-73.919628765264, 40.8122858828027], [-73.9195779423832, 40.8122644214865]]]}}, {"type": "Feature", "properties": {"zone_id": "02031P8V6R9JEDY5M6ZL0Z", "tract_id": "36005004100", "city": "BRONX, NY", "zone_code": "R6", "zone_category": "Residential", "ev_permitted": false}, "geometry": {"type": "Polygon", "coordinates": [[[-73.9195260510023, 40.8122425083014], [-73.9193485703525, 40.8124848663468], [-73.9193992825859, 40.8125061330522], [-73.9195779423832, 40.8122644214865], [-73.9195260510023, 40.8122425083014]]]}}, {"type": "Feature", "properties": {"zone_id": "0203LAVGPU2QX7VEH3Q4BM", "tract_id": "36005004100", "city": "BRONX, NY", "zone_code": "R6", "zone_category": "Residential", "ev_permitted": false}, "geometry": {"type": "Polygon", "coordinates": [[[-73.9194764788146, 40.8122215755026], [-73.9192976520234, 40.812463513049], [-73.9193485703525, 40.8124848663468], [-73.9195260510023, 40.8122425083014], [-73.9194764788146, 40.8122215755026]]]}}, {"type": "Feature", "properties": {"zone_id": "02028BA29CSGEKAUB3V7LU", "tract_id": "36005004100", "city": "BRONX, NY", "zone_code": "R6", "zone_category": "Residential", "ev_permitted": false}, "geometry": {"type": "Polygon", "coordinates": [[[-73.9193676290131, 40.8121756101231], [-73.9191886213163, 40.8124177904923], [-73.9192404408093, 40.8124395210897], [-73.9194193631532, 40.8121974565183], [-73.9193676290131, 40.8121756101231]]]}}, {"type": "Feature", "properties": {"zone_id": "0200MP6HR47EKD4RURQ543", "tract_id": "36005004100", "city": "BRONX, NY", "zone_code": "R6", "zone_category": "Residential", "ev_permitted": false}, "geometry": {"type": "Polygon", "coordinates": [[[-73.9193149178849, 40.8121533512685], [-73.9191358239063, 40.8123956488388], [-73.9191886213163, 40.8124177904923], [-73.9193676290131, 40.8121756101231], [-73.9193149178849, 40.8121533512685]]]}}, {"type": "Feature", "properties": {"zone_id": "0200FP7YN10GGCTQYRUK9H", "tract_id": "36005004100", "city": "BRONX, NY", "zone_code": "R6", "zone_category": "Residential", "ev_permitted": false}, "geometry": {"type": "Polygon", "coordinates": [[[-73.9192663136085, 40.8121328265928], [-73.9190871379942, 40.8123752315365], [-73.9191358239063, 40.8123956488388], [-73.9193149178849, 40.8121533512685], [-73.9192663136085, 40.8121328265928]]]}}, {"type": "Feature", "properties": {"zone_id": "0200NCJTPCXFSKNBUWLQ6P", "tract_id": "36005004100", "city": "BRONX, NY", "zone_code": "R6", "zone_category": "Residential", "ev_permitted": false}, "geometry": {"type": "Polygon", "coordinates": [[[-73.9194193631532, 40.8121974565183], [-73.9192404408093, 40.8124395210897], [-73.9192976520234, 40.812463513049], [-73.9194764788146, 40.8122215755026], [-73.9194193631532, 40.8121974565183]]]}}, {"type": "Feature", "properties": {"zone_id": "020315ICF3ZQHNCSQTNCIE", "tract_id": "36005004100", "city": "BRONX, NY", "zone_code": "R6", "zone_category": "Residential", "ev_permitted": false}, "geometry": {"type": "Polygon", "coordinates": [[[-73.9198591154341, 40.8120597430885], [-73.9196769334762, 40.8123062229271], [-73.9198988657196, 40.8123999399629], [-73.9200810434062, 40.812153465396], [-73.9198591154341, 40.8120597430885]]]}}, {"type": "Feature", "properties": {"zone_id": "0206G0GFJH5DHZXVKA51EP", "tract_id": "36005004100", "city": "BRONX, NY", "zone_code": "R6", "zone_category": "Residential", "ev_permitted": false}, "geometry": {"type": "Polygon", "coordinates": [[[-73.9197049427387, 40.8119946175956], [-73.9195227474204, 40.8122411140477], [-73.9196769334762, 40.8123062229271], [-73.9198591154341, 40.8120597430885], [-73.9197049427387, 40.8119946175956]]]}}, {"type": "Feature", "properties": {"zone_id": "0204QRWI9JR6B7WXKT9OR4", "tract_id": "36005004100", "city": "BRONX, NY", "zone_code": "R6", "zone_category": "Residential", "ev_permitted": false}, "geometry": {"type": "Polygon", "coordinates": [[[-73.9195629197773, 40.8119346233871], [-73.9193807120559, 40.8121811350671], [-73.9194278365401, 40.8122010354105], [-73.9196100404371, 40.8119545278702], [-73.9195629197773, 40.8119346233871]]]}}, {"type": "Feature", "properties": {"zone_id": "0206N6ICZSA1FHHFVI39E8", "tract_id": "36005004100", "city": "BRONX, NY", "zone_code": "R6", "zone_category": "Residential", "ev_permitted": false}, "geometry": {"type": "Polygon", "coordinates": [[[-73.9196100404371, 40.8119545278702], [-73.9194278365401, 40.8122010354105], [-73.9194764788146, 40.8122215755026], [-73.9196597973253, 40.8119755464644], [-73.9196100404371, 40.8119545278702]]]}}, {"type": "Feature", "properties": {"zone_id": "0206PYPWMRZ310C969QDM0", "tract_id": "36005004100", "city": "BRONX, NY", "zone_code": "R6", "zone_category": "Residential", "ev_permitted": false}, "geometry": {"type": "Polygon", "coordinates": [[[-73.9196597973253, 40.8119755464644], [-73.9194764788146, 40.8122215755026], [-73.9195227474204, 40.8122411140477], [-73.9197049427387, 40.8119946175956], [-73.9196597973253, 40.8119755464644]]]}}, {"type": "Feature", "properties": {"zone_id": "0202XW4D9DN2WS35I0ZOJ0", "tract_id": "36005004100", "city": "BRONX, NY", "zone_code": "R6", "zone_category": "Residential", "ev_permitted": false}, "geometry": {"type": "Polygon", "coordinates": [[[-73.920035314043, 40.8116342294416], [-73.9198562862244, 40.8118809879081], [-73.9199145804551, 40.8119054749814], [-73.9200936071986, 40.8116587164248], [-73.920035314043, 40.8116342294416]]]}}, {"type": "Feature", "properties": {"zone_id": "0205CFGQYA5TJVK0B7UGDT", "tract_id": "36005004100", "city": "BRONX, NY", "zone_code": "R6", "zone_category": "Residential", "ev_permitted": false}, "geometry": {"type": "Polygon", "coordinates": [[[-73.9200936071986, 40.8116587164248], [-73.9199145804551, 40.8119054749814], [-73.9200107531813, 40.8119458730981], [-73.9201897806017, 40.8116991143944], [-73.9200936071986, 40.8116587164248]]]}}, {"type": "Feature", "properties": {"zone_id": "02067WQH6JTF2N6XRUH50S", "tract_id": "36005004100", "city": "BRONX, NY", "zone_code": "R6", "zone_category": "Residential", "ev_permitted": false}, "geometry": {"type": "Polygon", "coordinates": [[[-73.9199757194673, 40.8116091969726], [-73.9197966924207, 40.8118559546455], [-73.9198562862244, 40.8118809879081], [-73.920035314043, 40.8116342294416], [-73.9199757194673, 40.8116091969726]]]}}, {"type": "Feature", "properties": {"zone_id": "0204VHGTSE0U6WE2XUSD7O", "tract_id": "36005004100", "city": "BRONX, NY", "zone_code": "R6", "zone_category": "Residential", "ev_permitted": false}, "geometry": {"type": "Polygon", "coordinates": [[[-73.9201897806017, 40.8116991143944], [-73.9200107531813, 40.8119458730981], [-73.9200787262807, 40.8119744253036], [-73.9202577526012, 40.8117276664948], [-73.9201897806017, 40.8116991143944]]]}}, {"type": "Feature", "properties": {"zone_id": "0202YIB9SGHOQTLSP3XQJ8", "tract_id": "36005004100", "city": "BRONX, NY", "zone_code": "R6", "zone_category": "Residential", "ev_permitted": false}, "geometry": {"type": "Polygon", "coordinates": [[[-73.919210737114, 40.8121093578302], [-73.9190314705779, 40.8123518869936], [-73.9190871379942, 40.8123752315365], [-73.9192663136085, 40.8121328265928], [-73.919210737114, 40.8121093578302]]]}}, {"type": "Feature", "properties": {"zone_id": "02079OFI0G6QHZEC3F8VQW", "tract_id": "36005004100", "city": "BRONX, NY", "zone_code": "R6", "zone_category": "Residential", "ev_permitted": false}, "geometry": {"type": "Polygon", "coordinates": [[[-73.9194199237509, 40.8118742179757], [-73.9192377036231, 40.8121207455846], [-73.9192870686095, 40.8121415912129], [-73.9194692849054, 40.8118950691455], [-73.9194199237509, 40.8118742179757]]]}}, {"type": "Feature", "properties": {"zone_id": "0205KYICZ2Z0A6GXT50PTN", "tract_id": "36005004100", "city": "BRONX, NY", "zone_code": "R6", "zone_category": "Residential", "ev_permitted": false}, "geometry": {"type": "Polygon", "coordinates": [[[-73.9194692849054, 40.8118950691455], [-73.9192870686095, 40.8121415912129], [-73.9193340026254, 40.8121614106569], [-73.9195162141718, 40.8119148934314], [-73.9194692849054, 40.8118950691455]]]}}, {"type": "Feature", "properties": {"zone_id": "02042YQIB0J12VO5W0OVNQ", "tract_id": "36005004100", "city": "BRONX, NY", "zone_code": "R6", "zone_category": "Residential", "ev_permitted": false}, "geometry": {"type": "Polygon", "coordinates": [[[-73.9195162141718, 40.8119148934314], [-73.9193340026254, 40.8121614106569], [-73.9193807120559, 40.8121811350671], [-73.9195629197773, 40.8119346233871], [-73.9195162141718, 40.8119148934314]]]}}, {"type": "Feature", "properties": {"zone_id": "0204NQ56PT9MPHQ6OSXZUT", "tract_id": "36005004100", "city": "BRONX, NY", "zone_code": "R6", "zone_category": "Residential", "ev_permitted": false}, "geometry": {"type": "Polygon", "coordinates": [[[-73.9191592609995, 40.8120876204325], [-73.9189799100372, 40.8123302639892], [-73.9190314705779, 40.8123518869936], [-73.919210737114, 40.8121093578302], [-73.9191592609995, 40.8120876204325]]]}}, {"type": "Feature", "properties": {"zone_id": "0200QTK4A90IIUFN7IFC78", "tract_id": "36005004100", "city": "BRONX, NY", "zone_code": "R6", "zone_category": "Residential", "ev_permitted": false}, "geometry": {"type": "Polygon", "coordinates": [[[-73.9190519025826, 40.8120422846702], [-73.9188723744204, 40.8122851675405], [-73.9189245643662, 40.8123070538265], [-73.9191040053243, 40.8120642867518], [-73.9190519025826, 40.8120422846702]]]}}, {"type": "Feature", "properties": {"zone_id": "0202SFBYICK5DCYCAK1ZU2", "tract_id": "36005004100", "city": "BRONX, NY", "zone_code": "R6", "zone_category": "Residential", "ev_permitted": false}, "geometry": {"type": "Polygon", "coordinates": [[[-73.9190000938138, 40.8120204057351], [-73.918820479373, 40.812263404402], [-73.9188723744204, 40.8122851675405], [-73.9190519025826, 40.8120422846702], [-73.9190000938138, 40.8120204057351]]]}}, {"type": "Feature", "properties": {"zone_id": "0205SW4ZRTVPZ3E5XI4PCY", "tract_id": "36005004100", "city": "BRONX, NY", "zone_code": "R6", "zone_category": "Residential", "ev_permitted": false}, "geometry": {"type": "Polygon", "coordinates": [[[-73.9189475169589, 40.8119982037207], [-73.9187678162356, 40.8122413195883], [-73.918820479373, 40.812263404402], [-73.9190000938138, 40.8120204057351], [-73.9189475169589, 40.8119982037207]]]}}, {"type": "Feature", "properties": {"zone_id": "0202GASFO5XP979US3B83G", "tract_id": "36005004100", "city": "BRONX, NY", "zone_code": "R6", "zone_category": "Residential", "ev_permitted": false}, "geometry": {"type": "Polygon", "coordinates": [[[-73.9188935397801, 40.8119754097693], [-73.9187137499929, 40.8122186456439], [-73.9187678162356, 40.8122413195883], [-73.9189475169589, 40.8119982037207], [-73.9188935397801, 40.8119754097693]]]}}, {"type": "Feature", "properties": {"zone_id": "0200MVI85SBGAFC94LD5NI", "tract_id": "36005004100", "city": "BRONX, NY", "zone_code": "R6", "zone_category": "Residential", "ev_permitted": false}, "geometry": {"type": "Polygon", "coordinates": [[[-73.9188406450273, 40.8119530732763], [-73.918662663842, 40.8121972216812], [-73.9187137499929, 40.8122186456439], [-73.9188935397801, 40.8119754097693], [-73.9188406450273, 40.8119530732763]]]}}, {"type": "Feature", "properties": {"zone_id": "02047CMR9UIC81BJJV0ZXH", "tract_id": "36005004100", "city": "BRONX, NY", "zone_code": "R6", "zone_category": "Residential", "ev_permitted": false}, "geometry": {"type": "Polygon", "coordinates": [[[-73.9191040053243, 40.8120642867518], [-73.9189245643662, 40.8123070538265], [-73.9189799100372, 40.8123302639892], [-73.9191592609995, 40.8120876204325], [-73.9191040053243, 40.8120642867518]]]}}, {"type": "Feature", "properties": {"zone_id": "0203QGIJFQSC0LHM2VFASO", "tract_id": "36005004100", "city": "BRONX, NY", "zone_code": "R6", "zone_category": "Residential", "ev_permitted": false}, "geometry": {"type": "Polygon", "coordinates": [[[-73.9191805426506, 40.8117730959099], [-73.9190000938138, 40.8120204057351], [-73.9190615997463, 40.8120463794904], [-73.9192438351434, 40.811799832493], [-73.9191805426506, 40.8117730959099]]]}}, {"type": "Feature", "properties": {"zone_id": "0207DHPXB2DL8NODT21JSH", "tract_id": "36005004100", "city": "BRONX, NY", "zone_code": "R6", "zone_category": "Residential", "ev_permitted": false}, "geometry": {"type": "Polygon", "coordinates": [[[-73.9192438351434, 40.811799832493], [-73.9190615997463, 40.8120463794904], [-73.919119625616, 40.8120708829376], [-73.9193018553089, 40.8118243421695], [-73.9192438351434, 40.811799832493]]]}}, {"type": "Feature", "properties": {"zone_id": "0206OM344Q549VOCR6MVLZ", "tract_id": "36005004100", "city": "BRONX, NY", "zone_code": "R6", "zone_category": "Residential", "ev_permitted": false}, "geometry": {"type": "Polygon", "coordinates": [[[-73.9193018553089, 40.8118243421695], [-73.919119625616, 40.8120708829376], [-73.9191794114587, 40.8120961295866], [-73.9193616363667, 40.8118495957482], [-73.9193018553089, 40.8118243421695]]]}}, {"type": "Feature", "properties": {"zone_id": "0204T7TTMGEIF6O9C3RE25", "tract_id": "36005004100", "city": "BRONX, NY", "zone_code": "R6", "zone_category": "Residential", "ev_permitted": false}, "geometry": {"type": "Polygon", "coordinates": [[[-73.9193616363667, 40.8118495957482], [-73.9191794114587, 40.8120961295866], [-73.9192377036231, 40.8121207455846], [-73.9194199237509, 40.8118742179757], [-73.9193616363667, 40.8118495957482]]]}}, {"type": "Feature", "properties": {"zone_id": "0204CNOOJCQQKDJWAJK6LH", "tract_id": "36005004100", "city": "BRONX, NY", "zone_code": "R6", "zone_category": "Residential", "ev_permitted": false}, "geometry": {"type": "Polygon", "coordinates": [[[-73.9189147043845, 40.811660796673], [-73.9187340403717, 40.8119080553448], [-73.9187879786199, 40.8119308324802], [-73.9189702369455, 40.8116842564151], [-73.9189147043845, 40.811660796673]]]}}, {"type": "Feature", "properties": {"zone_id": "0203IF6Z16NY2CNTXK3OJE", "tract_id": "36005004100", "city": "BRONX, NY", "zone_code": "R6", "zone_category": "Residential", "ev_permitted": false}, "geometry": {"type": "Polygon", "coordinates": [[[-73.9189702369455, 40.8116842564151], [-73.9187879786199, 40.8119308324802], [-73.9188406450273, 40.8119530732763], [-73.9190209815347, 40.8117056926513], [-73.9189702369455, 40.8116842564151]]]}}, {"type": "Feature", "properties": {"zone_id": "0202KWMGDSQOGJVYAANRYH", "tract_id": "36005004100", "city": "BRONX, NY", "zone_code": "R6", "zone_category": "Residential", "ev_permitted": false}, "geometry": {"type": "Polygon", "coordinates": [[[-73.9190209815347, 40.8117056926513], [-73.9188406450273, 40.8119530732763], [-73.918920559792, 40.8119868201206], [-73.9191028066649, 40.8117402578934], [-73.9190209815347, 40.8117056926513]]]}}, {"type": "Feature", "properties": {"zone_id": "0207OCJC9Z9SI4V16IB8I9", "tract_id": "36005004100", "city": "BRONX, NY", "zone_code": "R6", "zone_category": "Residential", "ev_permitted": false}, "geometry": {"type": "Polygon", "coordinates": [[[-73.9191028066649, 40.8117402578934], [-73.918920559792, 40.8119868201206], [-73.9190000938138, 40.8120204057351], [-73.9191805426506, 40.8117730959099], [-73.9191028066649, 40.8117402578934]]]}}, {"type": "Feature", "properties": {"zone_id": "0202ZWBWDADVGBRP3F51JB", "tract_id": "36005004100", "city": "BRONX, NY", "zone_code": "R6", "zone_category": "Residential", "ev_permitted": false}, "geometry": {"type": "Polygon", "coordinates": [[[-73.9188661320267, 40.8116402781729], [-73.9186838650981, 40.8118868660143], [-73.9187340403717, 40.8119080553448], [-73.9189147043845, 40.811660796673], [-73.9188661320267, 40.8116402781729]]]}}, {"type": "Feature", "properties": {"zone_id": "0206ZL6Z7ZNTQ997CHUDFB", "tract_id": "36005004100", "city": "BRONX, NY", "zone_code": "R6", "zone_category": "Residential", "ev_permitted": false}, "geometry": {"type": "Polygon", "coordinates": [[[-73.9187879786199, 40.8119308324802], [-73.9186080153405, 40.812174303457], [-73.918662663842, 40.8121972216812], [-73.9188406450273, 40.8119530732763], [-73.9187879786199, 40.8119308324802]]]}}, {"type": "Feature", "properties": {"zone_id": "0206QWSNQYFGZ3H7H3JCJU", "tract_id": "36005004100", "city": "BRONX, NY", "zone_code": "R6", "zone_category": "Residential", "ev_permitted": false}, "geometry": {"type": "Polygon", "coordinates": [[[-73.9186033395932, 40.8118528614046], [-73.9184215190611, 40.8120999213192], [-73.9184658907746, 40.8121147006076], [-73.9186080153405, 40.812174303457], [-73.9187879786199, 40.8119308324802], [-73.9186033395932, 40.8118528614046]]]}}, {"type": "Feature", "properties": {"zone_id": "0203GVUZMD4NH3F74HSKXS", "tract_id": "36005004100", "city": "BRONX, NY", "zone_code": "R6", "zone_category": "Residential", "ev_permitted": false}, "geometry": {"type": "Polygon", "coordinates": [[[-73.9185217773493, 40.8118197076164], [-73.9183406166998, 40.8120729743701], [-73.9184215190611, 40.8120999213192], [-73.9186033395932, 40.8118528614046], [-73.9185217773493, 40.8118197076164]]]}}, {"type": "Feature", "properties": {"zone_id": "020333845ZSPWA8ODAAUH5", "tract_id": "36005004100", "city": "BRONX, NY", "zone_code": "R6", "zone_category": "Residential", "ev_permitted": false}, "geometry": {"type": "Polygon", "coordinates": [[[-73.918811226189, 40.8116171174478], [-73.9186289748644, 40.8118636869456], [-73.9186838650981, 40.8118868660143], [-73.9188661320267, 40.8116402781729], [-73.918811226189, 40.8116171174478]]]}}, {"type": "Feature", "properties": {"zone_id": "0207CEASAPEZYT1WZA45PD", "tract_id": "36005004100", "city": "BRONX, NY", "zone_code": "R6", "zone_category": "Residential", "ev_permitted": false}, "geometry": {"type": "Polygon", "coordinates": [[[-73.9184408316929, 40.8117868289422], [-73.9182567553085, 40.8120450422602], [-73.9183406166998, 40.8120729743701], [-73.9185217773493, 40.8118197076164], [-73.9184408316929, 40.8117868289422]]]}}, {"type": "Feature", "properties": {"zone_id": "0204BO89GBFUNMSQN7NJX8", "tract_id": "36005004100", "city": "BRONX, NY", "zone_code": "C2-4", "zone_category": "Commercial", "ev_permitted": true}, "geometry": {"type": "Polygon", "coordinates": [[[-73.9208330858908, 40.8110752745727], [-73.9207714130402, 40.8111601726504], [-73.9208551397964, 40.811195505954], [-73.9207596425094, 40.8113269657327], [-73.920992751987, 40.8114253377896], [-73.9211499215243, 40.8112089802771], [-73.9208330858908, 40.8110752745727]]]}}, {"type": "Feature", "properties": {"zone_id": "02021XP5CMA0KAGKGQD1PA", "tract_id": "36005004100", "city": "BRONX, NY", "zone_code": "C2-4", "zone_category": "Commercial", "ev_permitted": true}, "geometry": {"type": "Polygon", "coordinates": [[[-73.9207596425094, 40.8113269657327], [-73.9207258208867, 40.8113735246046], [-73.920958929551, 40.8114718981337], [-73.920992751987, 40.8114253377896], [-73.9207596425094, 40.8113269657327]]]}}, {"type": "Feature", "properties": {"zone_id": "0206OS436LC89YXTGU4DY5", "tract_id": "36005004100", "city": "BRONX, NY", "zone_code": "C2-4", "zone_category": "Commercial", "ev_permitted": true}, "geometry": {"type": "Polygon", "coordinates": [[[-73.9207258208867, 40.8113735246046], [-73.9206926531984, 40.8114191817146], [-73.9209257628983, 40.8115175553107], [-73.920958929551, 40.8114718981337], [-73.9207258208867, 40.8113735246046]]]}}, {"type": "Feature", "properties": {"zone_id": "0207NRWWWW6NZLH0QNLR5H", "tract_id": "36005004100", "city": "BRONX, NY", "zone_code": "C1-4", "zone_category": "Commercial", "ev_permitted": true}, "geometry": {"type": "Polygon", "coordinates": [[[-73.9204562413868, 40.8115803224871], [-73.9204139184456, 40.8116386581225], [-73.92073977914, 40.8117755366042], [-73.9207809356445, 40.8117188077103], [-73.9204562413868, 40.8115803224871]]]}}, {"type": "Feature", "properties": {"zone_id": "0206OOFC8GIN0B3RN946HF", "tract_id": "36005004100", "city": "BRONX, NY", "zone_code": "R6", "zone_category": "Residential", "ev_permitted": false}, "geometry": {"type": "Polygon", "coordinates": [[[-73.92050416481, 40.8115142671787], [-73.9204562413868, 40.8115803224871], [-73.9207809356445, 40.8117188077103], [-73.9208288588451, 40.8116527522683], [-73.92050416481, 40.8115142671787]]]}}, {"type": "Feature", "properties": {"zone_id": "0200ZJ03ZVKCO44M4ODRPL", "tract_id": "36005004100", "city": "BRONX, NY", "zone_code": "R6", "zone_category": "Residential", "ev_permitted": false}, "geometry": {"type": "Polygon", "coordinates": [[[-73.9201919070614, 40.8113810849436], [-73.9200145701376, 40.8116255162566], [-73.9201244319235, 40.8116716644195], [-73.9203013758033, 40.8114277751131], [-73.9201919070614, 40.8113810849436]]]}}, {"type": "Feature", "properties": {"zone_id": "0204A4TJ0WTFPFAAGRKWHI", "tract_id": "36005004100", "city": "BRONX, NY", "zone_code": "R6", "zone_category": "Residential", "ev_permitted": false}, "geometry": {"type": "Polygon", "coordinates": [[[-73.9203013758033, 40.8114277751131], [-73.9201244319235, 40.8116716644195], [-73.9201924047918, 40.8117002165594], [-73.9203691048747, 40.8114566628477], [-73.9203013758033, 40.8114277751131]]]}}, {"type": "Feature", "properties": {"zone_id": "0203OU6WO1M2JMPGG1ADON", "tract_id": "36005004100", "city": "BRONX, NY", "zone_code": "R6", "zone_category": "Residential", "ev_permitted": false}, "geometry": {"type": "Polygon", "coordinates": [[[-73.9203691048747, 40.8114566628477], [-73.9201924047918, 40.8117002165594], [-73.9202603767935, 40.8117287686583], [-73.9204368340059, 40.8114855498397], [-73.9203691048747, 40.8114566628477]]]}}, {"type": "Feature", "properties": {"zone_id": "02027EVJQFK6HPULLWV839", "tract_id": "36005004100", "city": "BRONX, NY", "zone_code": "R6", "zone_category": "Residential", "ev_permitted": false}, "geometry": {"type": "Polygon", "coordinates": [[[-73.9204368340059, 40.8114855498397], [-73.9202603767935, 40.8117287686583], [-73.9203279495394, 40.8117571532106], [-73.92050416481, 40.8115142671787], [-73.9204368340059, 40.8114855498397]]]}}, {"type": "Feature", "properties": {"zone_id": "0207IO7DHTOGZV497BMVAQ", "tract_id": "36005004100", "city": "BRONX, NY", "zone_code": "R6", "zone_category": "Residential", "ev_permitted": false}, "geometry": {"type": "Polygon", "coordinates": [[[-73.9207127715304, 40.8111029929095], [-73.9205322529545, 40.8113514911781], [-73.9205825254838, 40.8113727071761], [-73.9207630430056, 40.8111242081263], [-73.9207127715304, 40.8111029929095]]]}}, {"type": "Feature", "properties": {"zone_id": "0201VNCZAG6Q8LJV3CNAWX", "tract_id": "36005004100", "city": "BRONX, NY", "zone_code": "R6", "zone_category": "Residential", "ev_permitted": false}, "geometry": {"type": "Polygon", "coordinates": [[[-73.9206587057208, 40.8110801765327], [-73.9204781879296, 40.8113286747182], [-73.9205322529545, 40.8113514911781], [-73.9207127715304, 40.8111029929095], [-73.9206587057208, 40.8110801765327]]]}}, {"type": "Feature", "properties": {"zone_id": "0201MCJH9N56YIUNX9L4BY", "tract_id": "36005004100", "city": "BRONX, NY", "zone_code": "R6", "zone_category": "Residential", "ev_permitted": false}, "geometry": {"type": "Polygon", "coordinates": [[[-73.9207990458818, 40.8111718345325], [-73.9206365600787, 40.8113955095129], [-73.9206926531984, 40.8114191817146], [-73.9208551397964, 40.811195505954], [-73.9207990458818, 40.8111718345325]]]}}, {"type": "Feature", "properties": {"zone_id": "0200TDFE7KU88MY7TKJKSB", "tract_id": "36005004100", "city": "BRONX, NY", "zone_code": "C2-4", "zone_category": "Commercial", "ev_permitted": true}, "geometry": {"type": "Polygon", "coordinates": [[[-73.9207630430056, 40.8111242081263], [-73.9205825254838, 40.8113727071761], [-73.9206365600787, 40.8113955095129], [-73.9207990458818, 40.8111718345325], [-73.9207714130402, 40.8111601726504], [-73.9207894446237, 40.8111353506096], [-73.9207630430056, 40.8111242081263]]]}}, {"type": "Feature", "properties": {"zone_id": "0207142Y9RYO198VFS2S5H", "tract_id": "36005004100", "city": "BRONX, NY", "zone_code": "C2-4", "zone_category": "Commercial", "ev_permitted": true}, "geometry": {"type": "Polygon", "coordinates": [[[-73.9210222575604, 40.8109196333243], [-73.9208913361939, 40.8110998587936], [-73.9211499215243, 40.8112089802771], [-73.9212808414804, 40.8110287545167], [-73.9210222575604, 40.8109196333243]]]}}, {"type": "Feature", "properties": {"zone_id": "0204QGPUK7DHKOZOUFSLP6", "tract_id": "36005004100", "city": "BRONX, NY", "zone_code": "R6", "zone_category": "Residential", "ev_permitted": false}, "geometry": {"type": "Polygon", "coordinates": [[[-73.9209245312116, 40.8108783896915], [-73.9207499692953, 40.8111186903711], [-73.9207894446237, 40.8111353506096], [-73.9209640073684, 40.8108950477635], [-73.9209245312116, 40.8108783896915]]]}}, {"type": "Feature", "properties": {"zone_id": "0203PW4F04PU2O2AC3I9FY", "tract_id": "36005004100", "city": "BRONX, NY", "zone_code": "C2-4", "zone_category": "Commercial", "ev_permitted": true}, "geometry": {"type": "Polygon", "coordinates": [[[-73.9209640073684, 40.8108950477635], [-73.9208330858908, 40.8110752745727], [-73.9208913361939, 40.8110998587936], [-73.9210222575604, 40.8109196333243], [-73.9209640073684, 40.8108950477635]]]}}, {"type": "Feature", "properties": {"zone_id": "0205AJIJJ1EOXCRP9YFBZI", "tract_id": "36005004100", "city": "BRONX, NY", "zone_code": "R6", "zone_category": "Residential", "ev_permitted": false}, "geometry": {"type": "Polygon", "coordinates": [[[-73.9206029031367, 40.8110566274767], [-73.9204223842764, 40.8113051255752], [-73.9204781879296, 40.8113286747182], [-73.9206587057208, 40.8110801765327], [-73.9206029031367, 40.8110566274767]]]}}, {"type": "Feature", "properties": {"zone_id": "02077IM1F9O8LEX4LDBF1G", "tract_id": "36005004100", "city": "BRONX, NY", "zone_code": "R6", "zone_category": "Residential", "ev_permitted": false}, "geometry": {"type": "Polygon", "coordinates": [[[-73.9208010708359, 40.8108262892344], [-73.9206265086097, 40.8110665904318], [-73.9207104939851, 40.8111020315244], [-73.9208850560002, 40.8108617309039], [-73.9208010708359, 40.8108262892344]]]}}, {"type": "Feature", "properties": {"zone_id": "0206MP4VVF2KO96H9C3T94", "tract_id": "36005004100", "city": "NY", "zone_code": "R6", "zone_category": "Residential", "ev_permitted": false}, "geometry": {"type": "Polygon", "coordinates": [[[-73.9208850560002, 40.8108617309039], [-73.9207104939851, 40.8111020315244], [-73.9207499692953, 40.8111186903711], [-73.9209245312116, 40.8108783896915], [-73.9208850560002, 40.8108617309039]]]}}, {"type": "Feature", "properties": {"zone_id": "0200H8PDQXZ7SEF3QZ9B8P", "tract_id": "36005004100", "city": "BRONX, NY", "zone_code": "R6", "zone_category": "Residential", "ev_permitted": false}, "geometry": {"type": "Polygon", "coordinates": [[[-73.9205502580924, 40.8110344106843], [-73.9203697390958, 40.8112829087013], [-73.9204223842764, 40.8113051255752], [-73.9206029031367, 40.8110566274767], [-73.9205502580924, 40.8110344106843]]]}}, {"type": "Feature", "properties": {"zone_id": "0203X9ZXRJ70R75267ZJPW", "tract_id": "36005004100", "city": "BRONX, NY", "zone_code": "R6", "zone_category": "Residential", "ev_permitted": false}, "geometry": {"type": "Polygon", "coordinates": [[[-73.9204984033819, 40.8110125274685], [-73.920317884251, 40.8112610254052], [-73.9203697390958, 40.8112829087013], [-73.9205502580924, 40.8110344106843], [-73.9204984033819, 40.8110125274685]]]}}, {"type": "Feature", "properties": {"zone_id": "0205F3OZKXMUZV13EH8WL3", "tract_id": "36005004100", "city": "BRONX, NY", "zone_code": "R6", "zone_category": "Residential", "ev_permitted": false}, "geometry": {"type": "Polygon", "coordinates": [[[-73.9204459164668, 40.810990377489], [-73.9202653972, 40.8112388753444], [-73.920317884251, 40.8112610254052], [-73.9204984033819, 40.8110125274685], [-73.9204459164668, 40.810990377489]]]}}, {"type": "Feature", "properties": {"zone_id": "0200A91VXY97XALXAA5JGT", "tract_id": "36005004100", "city": "BRONX, NY", "zone_code": "R6", "zone_category": "Residential", "ev_permitted": false}, "geometry": {"type": "Polygon", "coordinates": [[[-73.9203932715273, 40.8109681606248], [-73.9202127521233, 40.8112166591012], [-73.9202653972, 40.8112388753444], [-73.9204459164668, 40.810990377489], [-73.9203932715273, 40.8109681606248]]]}}, {"type": "Feature", "properties": {"zone_id": "0204SQ0C8P8X0KEV1XA5B6", "tract_id": "36005004100", "city": "BRONX, NY", "zone_code": "R6", "zone_category": "Residential", "ev_permitted": false}, "geometry": {"type": "Polygon", "coordinates": [[[-73.9203406275477, 40.810945943737], [-73.9201601080074, 40.8111944421319], [-73.9202127521233, 40.8112166591012], [-73.9203932715273, 40.8109681606248], [-73.9203406275477, 40.810945943737]]]}}, {"type": "Feature", "properties": {"zone_id": "0202L5MDWB069Y0C6IW0TC", "tract_id": "36005004100", "city": "BRONX, NY", "zone_code": "R6", "zone_category": "Residential", "ev_permitted": false}, "geometry": {"type": "Polygon", "coordinates": [[[-73.9202879836024, 40.8109237275278], [-73.9201074630019, 40.8111722251379], [-73.9201601080074, 40.8111944421319], [-73.9203406275477, 40.810945943737], [-73.9202879836024, 40.8109237275278]]]}}, {"type": "Feature", "properties": {"zone_id": "0203L2R5DDGA2YCJBY55GI", "tract_id": "36005004100", "city": "BRONX, NY", "zone_code": "R6", "zone_category": "Residential", "ev_permitted": false}, "geometry": {"type": "Polygon", "coordinates": [[[-73.9202351067631, 40.8109014127624], [-73.9200545869505, 40.8111499102912], [-73.9201074630019, 40.8111722251379], [-73.9202879836024, 40.8109237275278], [-73.9202351067631, 40.8109014127624]]]}}, {"type": "Feature", "properties": {"zone_id": "020635YIZX1JB1XKDVFP7Y", "tract_id": "36005004100", "city": "BRONX, NY", "zone_code": "R6", "zone_category": "Residential", "ev_permitted": false}, "geometry": {"type": "Polygon", "coordinates": [[[-73.92059356933, 40.810738720084], [-73.9204190047346, 40.8109790209694], [-73.9204716191901, 40.8110012237478], [-73.9206461818032, 40.810760923485], [-73.92059356933, 40.810738720084]]]}}, {"type": "Feature", "properties": {"zone_id": "0204YIW3T3U0KRRODRPPAO", "tract_id": "36005004100", "city": "BRONX, NY", "zone_code": "R6", "zone_category": "Residential", "ev_permitted": false}, "geometry": {"type": "Polygon", "coordinates": [[[-73.9206461818032, 40.810760923485], [-73.9204716191901, 40.8110012237478], [-73.9205242318301, 40.8110234272036], [-73.9206987943116, 40.810783126862], [-73.9206461818032, 40.810760923485]]]}}, {"type": "Feature", "properties": {"zone_id": "02066DIL1NICQ8M6H4TNYD", "tract_id": "36005004100", "city": "BRONX, NY", "zone_code": "R6", "zone_category": "Residential", "ev_permitted": false}, "geometry": {"type": "Polygon", "coordinates": [[[-73.9206987943116, 40.810783126862], [-73.9205242318301, 40.8110234272036], [-73.9205751853385, 40.8110449303563], [-73.9207497476932, 40.8108046292358], [-73.9206987943116, 40.810783126862]]]}}, {"type": "Feature", "properties": {"zone_id": "0206P5LVO0K2Q1MQQ1CMJE", "tract_id": "36005004100", "city": "BRONX, NY", "zone_code": "R6", "zone_category": "Residential", "ev_permitted": false}, "geometry": {"type": "Polygon", "coordinates": [[[-73.9207497476932, 40.8108046292358], [-73.9205751853385, 40.8110449303563], [-73.9206265086097, 40.8110665904318], [-73.9208010708359, 40.8108262892344], [-73.9207497476932, 40.8108046292358]]]}}, {"type": "Feature", "properties": {"zone_id": "0206WSNLXJBQXUWZLDQN4O", "tract_id": "36005004100", "city": "BRONX, NY", "zone_code": "R6", "zone_category": "Residential", "ev_permitted": false}, "geometry": {"type": "Polygon", "coordinates": [[[-73.9202488253935, 40.8105932332966], [-73.9200742617847, 40.8108335336669], [-73.9201352004508, 40.8108592506973], [-73.9203097639079, 40.8106189495331], [-73.9202488253935, 40.8105932332966]]]}}, {"type": "Feature", "properties": {"zone_id": "0204YBBJ2GHRQUFHBLP773", "tract_id": "36005004100", "city": "BRONX, NY", "zone_code": "R6", "zone_category": "Residential", "ev_permitted": false}, "geometry": {"type": "Polygon", "coordinates": [[[-73.9203097639079, 40.8106189495331], [-73.9201352004508, 40.8108592506973], [-73.9201937118926, 40.8108839436607], [-73.9203682752024, 40.8106436431115], [-73.9203097639079, 40.8106189495331]]]}}, {"type": "Feature", "properties": {"zone_id": "0203HY3OCJZ4I0GAL7JO9V", "tract_id": "36005004100", "city": "BRONX, NY", "zone_code": "R6", "zone_category": "Residential", "ev_permitted": false}, "geometry": {"type": "Polygon", "coordinates": [[[-73.9203682752024, 40.8106436431115], [-73.9201937118926, 40.8108839436607], [-73.9202520163302, 40.8109085486201], [-73.9204265794931, 40.8106682486862], [-73.9203682752024, 40.8106436431115]]]}}, {"type": "Feature", "properties": {"zone_id": "02007UVRK4WYRTKMHHJAYC", "tract_id": "36005004100", "city": "BRONX, NY", "zone_code": "R6", "zone_category": "Residential", "ev_permitted": false}, "geometry": {"type": "Polygon", "coordinates": [[[-73.9204265794931, 40.8106682486862], [-73.9202520163302, 40.8109085486201], [-73.920311344961, 40.8109335863868], [-73.920485908901, 40.8106932856621], [-73.9204265794931, 40.8106682486862]]]}}, {"type": "Feature", "properties": {"zone_id": "020598T14Q2SG3S37OR1RL", "tract_id": "36005004100", "city": "BRONX, NY", "zone_code": "R6", "zone_category": "Residential", "ev_permitted": false}, "geometry": {"type": "Polygon", "coordinates": [[[-73.920485908901, 40.8106932856621], [-73.920311344961, 40.8109335863868], [-73.9203630017433, 40.8109553859352], [-73.9205375646293, 40.8107150851324], [-73.920485908901, 40.8106932856621]]]}}, {"type": "Feature", "properties": {"zone_id": "0202XNAFP4DD1Y1KQMR3VC", "tract_id": "36005004100", "city": "BRONX, NY", "zone_code": "R6", "zone_category": "Residential", "ev_permitted": false}, "geometry": {"type": "Polygon", "coordinates": [[[-73.9205375646293, 40.8107150851324], [-73.9203630017433, 40.8109553859352], [-73.9204190047346, 40.8109790209694], [-73.92059356933, 40.810738720084], [-73.9205375646293, 40.8107150851324]]]}}, {"type": "Feature", "properties": {"zone_id": "02050H1NQIU0D8XZG5ENZV", "tract_id": "36005004100", "city": "BRONX, NY", "zone_code": "R6", "zone_category": "Residential", "ev_permitted": false}, "geometry": {"type": "Polygon", "coordinates": [[[-73.9199181085562, 40.8115849963817], [-73.9197390804353, 40.8118317546681], [-73.9197966924207, 40.8118559546455], [-73.9199757194673, 40.8116091969726], [-73.9199181085562, 40.8115849963817]]]}}, {"type": "Feature", "properties": {"zone_id": "020068NEYZLCII3FZYSLPF", "tract_id": "36005004100", "city": "BRONX, NY", "zone_code": "R6", "zone_category": "Residential", "ev_permitted": false}, "geometry": {"type": "Polygon", "coordinates": [[[-73.920110316987, 40.8113462859506], [-73.9199326871345, 40.8115911202567], [-73.9200145701376, 40.8116255162566], [-73.9201919070614, 40.8113810849436], [-73.920110316987, 40.8113462859506]]]}}, {"type": "Feature", "properties": {"zone_id": "0204D3OOF2N747I1LYL0GA", "tract_id": "36005004100", "city": "BRONX, NY", "zone_code": "R6", "zone_category": "Residential", "ev_permitted": false}, "geometry": {"type": "Polygon", "coordinates": [[[-73.9198563964246, 40.8115590735287], [-73.9196773681448, 40.8118058317204], [-73.9197390804353, 40.8118317546681], [-73.9199181085562, 40.8115849963817], [-73.9198563964246, 40.8115590735287]]]}}, {"type": "Feature", "properties": {"zone_id": "0204Z7IGDKS5EODRYZ2M8T", "tract_id": "36005004100", "city": "BRONX, NY", "zone_code": "R6", "zone_category": "Residential", "ev_permitted": false}, "geometry": {"type": "Polygon", "coordinates": [[[-73.9197734524526, 40.811524231901], [-73.9195944248838, 40.8117709899659], [-73.9196773681448, 40.8118058317204], [-73.9198563964246, 40.8115590735287], [-73.9197734524526, 40.811524231901]]]}}, {"type": "Feature", "properties": {"zone_id": "0202UBGYDUDUJEX0DBYAR3", "tract_id": "36005004100", "city": "BRONX, NY", "zone_code": "R6", "zone_category": "Residential", "ev_permitted": false}, "geometry": {"type": "Polygon", "coordinates": [[[-73.919695996316, 40.8114916952116], [-73.9195169676227, 40.8117384531569], [-73.9195944248838, 40.8117709899659], [-73.9197734524526, 40.811524231901], [-73.919695996316, 40.8114916952116]]]}}, {"type": "Feature", "properties": {"zone_id": "0203XN8R5YGP0S1HGQECVJ", "tract_id": "36005004100", "city": "BRONX, NY", "zone_code": "R6", "zone_category": "Residential", "ev_permitted": false}, "geometry": {"type": "Polygon", "coordinates": [[[-73.919630058323, 40.8114639972124], [-73.9194510303846, 40.8117107550571], [-73.9195169676227, 40.8117384531569], [-73.919695996316, 40.8114916952116], [-73.919630058323, 40.8114639972124]]]}}, {"type": "Feature", "properties": {"zone_id": "0206RFIIHEWW8WAOQ2OC5H", "tract_id": "36005004100", "city": "BRONX, NY", "zone_code": "R6", "zone_category": "Residential", "ev_permitted": false}, "geometry": {"type": "Polygon", "coordinates": [[[-73.9195397467657, 40.8114260607315], [-73.9193607176705, 40.8116728177341], [-73.919405325886, 40.811691556255], [-73.9195843539423, 40.8114447984806], [-73.9195397467657, 40.8114260607315]]]}}, {"type": "Feature", "properties": {"zone_id": "02002K8VL05QNY1RFVR931", "tract_id": "36005004100", "city": "BRONX, NY", "zone_code": "R6", "zone_category": "Residential", "ev_permitted": false}, "geometry": {"type": "Polygon", "coordinates": [[[-73.9195843539423, 40.8114447984806], [-73.919405325886, 40.811691556255], [-73.9194510303846, 40.8117107550571], [-73.919630058323, 40.8114639972124], [-73.9195843539423, 40.8114447984806]]]}}, {"type": "Feature", "properties": {"zone_id": "0200G3OSNO4NZ0G8S5SKR5", "tract_id": "36005004100", "city": "BRONX, NY", "zone_code": "R6", "zone_category": "Residential", "ev_permitted": false}, "geometry": {"type": "Polygon", "coordinates": [[[-73.919902828832, 40.8112577880774], [-73.9197244527501, 40.8115036495237], [-73.9197904065357, 40.8115313538035], [-73.9199685462334, 40.8112858181214], [-73.919902828832, 40.8112577880774]]]}}, {"type": "Feature", "properties": {"zone_id": "0205BTHWS65FWDY21GCSQU", "tract_id": "36005004100", "city": "BRONX, NY", "zone_code": "R6", "zone_category": "Residential", "ev_permitted": false}, "geometry": {"type": "Polygon", "coordinates": [[[-73.9199685462334, 40.8112858181214], [-73.9197904065357, 40.8115313538035], [-73.9198604838208, 40.8115607908338], [-73.9200383723039, 40.8113156005738], [-73.9199685462334, 40.8112858181214]]]}}, {"type": "Feature", "properties": {"zone_id": "02069JWQFG8ESYSBWZES7R", "tract_id": "36005004100", "city": "BRONX, NY", "zone_code": "R6", "zone_category": "Residential", "ev_permitted": false}, "geometry": {"type": "Polygon", "coordinates": [[[-73.9200383723039, 40.8113156005738], [-73.9198604838208, 40.8115607908338], [-73.9199326871345, 40.8115911202567], [-73.920110316987, 40.8113462859506], [-73.9200383723039, 40.8113156005738]]]}}, {"type": "Feature", "properties": {"zone_id": "0202LRGYK5L2XW7BQ83096", "tract_id": "36005004100", "city": "BRONX, NY", "zone_code": "R6", "zone_category": "Residential", "ev_permitted": false}, "geometry": {"type": "Polygon", "coordinates": [[[-73.919718783799, 40.8111792886918], [-73.9195397467657, 40.8114260607315], [-73.919621944559, 40.8114605893291], [-73.9198006877314, 40.8112142230901], [-73.919718783799, 40.8111792886918]]]}}, {"type": "Feature", "properties": {"zone_id": "0206OHM5DXSWLRTZ8PMO4M", "tract_id": "36005004100", "city": "BRONX, NY", "zone_code": "R6", "zone_category": "Residential", "ev_permitted": false}, "geometry": {"type": "Polygon", "coordinates": [[[-73.9198006877314, 40.8112142230901], [-73.919621944559, 40.8114605893291], [-73.9197244527501, 40.8115036495237], [-73.919902828832, 40.8112577880774], [-73.9198006877314, 40.8112142230901]]]}}, {"type": "Feature", "properties": {"zone_id": "0207ATFQZHMOP9134D18LR", "tract_id": "36005004100", "city": "BRONX, NY", "zone_code": "R6", "zone_category": "Residential", "ev_permitted": false}, "geometry": {"type": "Polygon", "coordinates": [[[-73.919549463565, 40.8111070697281], [-73.9193698165677, 40.8113546786392], [-73.9194377887884, 40.8113832312254], [-73.919617191059, 40.8111359579053], [-73.919549463565, 40.8111070697281]]]}}, {"type": "Feature", "properties": {"zone_id": "02014GQYXDRAUGYWVWX7DD", "tract_id": "36005004100", "city": "BRONX, NY", "zone_code": "R6", "zone_category": "Residential", "ev_permitted": false}, "geometry": {"type": "Polygon", "coordinates": [[[-73.919617191059, 40.8111359579053], [-73.9194377887884, 40.8113832312254], [-73.9195397467657, 40.8114260607315], [-73.919718783799, 40.8111792886918], [-73.919617191059, 40.8111359579053]]]}}, {"type": "Feature", "properties": {"zone_id": "0206R2F6UAD9PR5N4PKBCZ", "tract_id": "36005004100", "city": "BRONX, NY", "zone_code": "R6", "zone_category": "Residential", "ev_permitted": false}, "geometry": {"type": "Polygon", "coordinates": [[[-73.9192483078647, 40.8109786193934], [-73.9190675808944, 40.8112277188069], [-73.9189099183731, 40.8111614887392], [-73.9187220168589, 40.81142047375], [-73.9189048371963, 40.811481315588], [-73.9191212350204, 40.8115722189438], [-73.9194801592454, 40.8110775100825], [-73.9192483078647, 40.8109786193934]]]}}, {"type": "Feature", "properties": {"zone_id": "0204ZEWUV6NKPNITFJ9413", "tract_id": "36005004100", "city": "BRONX, NY", "zone_code": "R6", "zone_category": "Residential", "ev_permitted": false}, "geometry": {"type": "Polygon", "coordinates": [[[-73.9194607093333, 40.8113928594791], [-73.9192816809583, 40.8116396170636], [-73.9193607176705, 40.8116728177341], [-73.9195397467657, 40.8114260607315], [-73.9194607093333, 40.8113928594791]]]}}, {"type": "Feature", "properties": {"zone_id": "0204C195Q2W1MGECJKNFI0", "tract_id": "36005004100", "city": "BRONX, NY", "zone_code": "R6", "zone_category": "Residential", "ev_permitted": false}, "geometry": {"type": "Polygon", "coordinates": [[[-73.9193879962219, 40.8113623150948], [-73.9192089667347, 40.8116090725669], [-73.9192816809583, 40.8116396170636], [-73.9194607093333, 40.8113928594791], [-73.9193879962219, 40.8113623150948]]]}}, {"type": "Feature", "properties": {"zone_id": "0204S34L6837ALQDI3VSXJ", "tract_id": "36005004100", "city": "BRONX, NY", "zone_code": "R6", "zone_category": "Residential", "ev_permitted": false}, "geometry": {"type": "Polygon", "coordinates": [[[-73.9193002647329, 40.8113254623091], [-73.9191212350204, 40.8115722189438], [-73.9192089667347, 40.8116090725669], [-73.9193879962219, 40.8113623150948], [-73.9193002647329, 40.8113254623091]]]}}, {"type": "Feature", "properties": {"zone_id": "0205AYUAVMVYJY4O0NKZXC", "tract_id": "36005004100", "city": "BRONX, NY", "zone_code": "R6", "zone_category": "Residential", "ev_permitted": false}, "geometry": {"type": "Polygon", "coordinates": [[[-73.9194801592454, 40.8110775100825], [-73.9193002647329, 40.8113254623091], [-73.9193698165677, 40.8113546786392], [-73.919549463565, 40.8111070697281], [-73.9194801592454, 40.8110775100825]]]}}, {"type": "Feature", "properties": {"zone_id": "0206ZT4OYG5YXER9AFZTYG", "tract_id": "36005004100", "city": "BRONX, NY", "zone_code": "R6", "zone_category": "Residential", "ev_permitted": false}, "geometry": {"type": "Polygon", "coordinates": [[[-73.9201843364902, 40.810879986877], [-73.9200038156213, 40.8111284843265], [-73.9200545869505, 40.8111499102912], [-73.9202351067631, 40.8109014127624], [-73.9201843364902, 40.810879986877]]]}}, {"type": "Feature", "properties": {"zone_id": "0206IHS387BT5ES0UU4OT9", "tract_id": "36005004100", "city": "BRONX, NY", "zone_code": "R6", "zone_category": "Residential", "ev_permitted": false}, "geometry": {"type": "Polygon", "coordinates": [[[-73.9201390631927, 40.8108608800059], [-73.9199585431298, 40.8111093787913], [-73.9200038156213, 40.8111284843265], [-73.9201843364902, 40.810879986877], [-73.9201390631927, 40.8108608800059]]]}}, {"type": "Feature", "properties": {"zone_id": "02017520X160U9E0ZJN2HW", "tract_id": "36005004100", "city": "BRONX, NY", "zone_code": "R6", "zone_category": "Residential", "ev_permitted": false}, "geometry": {"type": "Polygon", "coordinates": [[[-73.9200886035529, 40.8108395856886], [-73.9199080824362, 40.8110880829899], [-73.9199585431298, 40.8111093787913], [-73.9201390631927, 40.8108608800059], [-73.9200886035529, 40.8108395856886]]]}}, {"type": "Feature", "properties": {"zone_id": "0200H55QFMG6QABSMPPJ09", "tract_id": "36005004100", "city": "BRONX, NY", "zone_code": "R6", "zone_category": "Residential", "ev_permitted": false}, "geometry": {"type": "Polygon", "coordinates": [[[-73.9200395405944, 40.8108188804353], [-73.9198590202746, 40.8110673783639], [-73.9199080824362, 40.8110880829899], [-73.9200886035529, 40.8108395856886], [-73.9200395405944, 40.8108188804353]]]}}, {"type": "Feature", "properties": {"zone_id": "0204M2GWFIDPLX8JGYNATI", "tract_id": "36005004100", "city": "BRONX, NY", "zone_code": "R6", "zone_category": "Residential", "ev_permitted": false}, "geometry": {"type": "Polygon", "coordinates": [[[-73.9199449068751, 40.8107789211533], [-73.9197643742678, 40.8110274357905], [-73.9198132293222, 40.8110480531844], [-73.9199937497597, 40.8107995560294], [-73.9199449068751, 40.8107789211533]]]}}, {"type": "Feature", "properties": {"zone_id": "0202AW006VT64ZA9401U37", "tract_id": "36005004100", "city": "BRONX, NY", "zone_code": "R6", "zone_category": "Residential", "ev_permitted": false}, "geometry": {"type": "Polygon", "coordinates": [[[-73.919893829888, 40.8107573881237], [-73.9197133091918, 40.8110058851239], [-73.9197643742678, 40.8110274357905], [-73.9199449068751, 40.8107789211533], [-73.919893829888, 40.8107573881237]]]}}, {"type": "Feature", "properties": {"zone_id": "020409DY8JXMOID2B6WWZC", "tract_id": "36005004100", "city": "BRONX, NY", "zone_code": "R6", "zone_category": "Residential", "ev_permitted": false}, "geometry": {"type": "Polygon", "coordinates": [[[-73.920189353823, 40.8105681328613], [-73.9200147900652, 40.8108084331425], [-73.9200742617847, 40.8108335336669], [-73.9202488253935, 40.8105932332966], [-73.920189353823, 40.8105681328613]]]}}, {"type": "Feature", "properties": {"zone_id": "0200LX47HTK2WGOG6CD02B", "tract_id": "36005004100", "city": "BRONX, NY", "zone_code": "R6", "zone_category": "Residential", "ev_permitted": false}, "geometry": {"type": "Polygon", "coordinates": [[[-73.9199937497597, 40.8107995560294], [-73.9198132293222, 40.8110480531844], [-73.9198590202746, 40.8110673783639], [-73.9200395405944, 40.8108188804353], [-73.9199937497597, 40.8107995560294]]]}}, {"type": "Feature", "properties": {"zone_id": "0201II7LXHZUTIQNVAZKS6", "tract_id": "36005004100", "city": "BRONX, NY", "zone_code": "R6", "zone_category": "Residential", "ev_permitted": false}, "geometry": {"type": "Polygon", "coordinates": [[[-73.9198401094027, 40.8107347233735], [-73.9196603936557, 40.8109835560152], [-73.9197133091918, 40.8110058851239], [-73.919893829888, 40.8107573881237], [-73.9198401094027, 40.8107347233735]]]}}, {"type": "Feature", "properties": {"zone_id": "0206H6FEH9EKKH19FRYSCA", "tract_id": "36005004100", "city": "BRONX, NY", "zone_code": "R6", "zone_category": "Residential", "ev_permitted": false}, "geometry": {"type": "Polygon", "coordinates": [[[-73.9197887626175, 40.8107130474718], [-73.919608242575, 40.8109615436073], [-73.9196603936557, 40.8109835560152], [-73.9198401094027, 40.8107347233735], [-73.9197887626175, 40.8107130474718]]]}}, {"type": "Feature", "properties": {"zone_id": "0200T8PK8PINS2UTJ93HR7", "tract_id": "36005004100", "city": "BRONX, NY", "zone_code": "R6", "zone_category": "Residential", "ev_permitted": false}, "geometry": {"type": "Polygon", "coordinates": [[[-73.9197334338943, 40.8106897020911], [-73.919552912782, 40.8109381995455], [-73.919608242575, 40.8109615436073], [-73.9197887626175, 40.8107130474718], [-73.9197334338943, 40.8106897020911]]]}}, {"type": "Feature", "properties": {"zone_id": "0204M05YNT9H994JS9ES8D", "tract_id": "36005004100", "city": "BRONX, NY", "zone_code": "R6", "zone_category": "Residential", "ev_permitted": false}, "geometry": {"type": "Polygon", "coordinates": [[[-73.9196838581664, 40.8106687756968], [-73.9195033369257, 40.8109172730745], [-73.919552912782, 40.8109381995455], [-73.9197334338943, 40.8106897020911], [-73.9196838581664, 40.8106687756968]]]}}, {"type": "Feature", "properties": {"zone_id": "0202DD7LEDUS7R0QJK13PA", "tract_id": "36005004100", "city": "BRONX, NY", "zone_code": "R6", "zone_category": "Residential", "ev_permitted": false}, "geometry": {"type": "Polygon", "coordinates": [[[-73.9196267271069, 40.8106446645267], [-73.9194462057183, 40.810893161816], [-73.9195033369257, 40.8109172730745], [-73.9196838581664, 40.8106687756968], [-73.9196267271069, 40.8106446645267]]]}}, {"type": "Feature", "properties": {"zone_id": "02054I0F4MX17TDSC2F2UE", "tract_id": "36005004100", "city": "NY", "zone_code": "R6", "zone_category": "Residential", "ev_permitted": false}, "geometry": {"type": "Polygon", "coordinates": [[[-73.9188265374909, 40.8108411731156], [-73.9186679009914, 40.8110598227008], [-73.9187449974869, 40.8110922094634], [-73.9189078968505, 40.8108676865168], [-73.9188265374909, 40.8108411731156]]]}}, {"type": "Feature", "properties": {"zone_id": "0206TXEJU0NSILQSG82VE9", "tract_id": "36005004100", "city": "BRONX, NY", "zone_code": "R6", "zone_category": "Residential", "ev_permitted": false}, "geometry": {"type": "Polygon", "coordinates": [[[-73.9189078968505, 40.8108676865168], [-73.9187449974869, 40.8110922094634], [-73.9190675808944, 40.8112277188069], [-73.9192483078647, 40.8109786193934], [-73.9189078968505, 40.8108676865168]]]}}, {"type": "Feature", "properties": {"zone_id": "0201VDYV5DO5BWILQXDLP7", "tract_id": "36005004100", "city": "BRONX, NY", "zone_code": "R6", "zone_category": "Residential", "ev_permitted": false}, "geometry": {"type": "Polygon", "coordinates": [[[-73.9181328477297, 40.8097002231625], [-73.9177684503432, 40.8103248199946], [-73.919321084553, 40.8108403566664], [-73.9194462057183, 40.810893161816], [-73.9196267271069, 40.8106446645267], [-73.9196023455068, 40.8106343747956], [-73.9197769112211, 40.8103940758354], [-73.9181328477297, 40.8097002231625]]]}}, {"type": "Feature", "properties": {"zone_id": "02007RYHN4FA5WSSL4H4W4", "tract_id": "36005004100", "city": "BRONX, NY", "zone_code": "R6", "zone_category": "Residential", "ev_permitted": false}, "geometry": {"type": "Polygon", "coordinates": [[[-73.9198925798684, 40.8104428906084], [-73.9197180144436, 40.8106831897419], [-73.9197796811956, 40.8107092152284], [-73.9199542464668, 40.8104689152999], [-73.9198925798684, 40.8104428906084]]]}}, {"type": "Feature", "properties": {"zone_id": "0202M9IY4RT9MBXWL41LQ2", "tract_id": "36005004100", "city": "BRONX, NY", "zone_code": "R6", "zone_category": "Residential", "ev_permitted": false}, "geometry": {"type": "Polygon", "coordinates": [[[-73.9199542464668, 40.8104689152999], [-73.9197796811956, 40.8107092152284], [-73.9198401094027, 40.8107347233735], [-73.9200138999497, 40.8104940932747], [-73.9199542464668, 40.8104689152999]]]}}, {"type": "Feature", "properties": {"zone_id": "0206S52XT077ADLZ2U9R8Y", "tract_id": "36005004100", "city": "BRONX, NY", "zone_code": "R6", "zone_category": "Residential", "ev_permitted": false}, "geometry": {"type": "Polygon", "coordinates": [[[-73.9200138999497, 40.8104940932747], [-73.9198401094027, 40.8107347233735], [-73.9198978044609, 40.8107590645956], [-73.9200723685107, 40.8105187651922], [-73.9200138999497, 40.8104940932747]]]}}, {"type": "Feature", "properties": {"zone_id": "02040K3HWJGOW9J5MRZM8N", "tract_id": "36005004100", "city": "BRONX, NY", "zone_code": "R6", "zone_category": "Residential", "ev_permitted": false}, "geometry": {"type": "Polygon", "coordinates": [[[-73.9200723685107, 40.8105187651922], [-73.9198978044609, 40.8107590645956], [-73.9199551695665, 40.8107832769747], [-73.9201297334735, 40.8105429767828], [-73.9200723685107, 40.8105187651922]]]}}, {"type": "Feature", "properties": {"zone_id": "020735QJFX94GJL9XMPC9S", "tract_id": "36005004100", "city": "BRONX, NY", "zone_code": "R6", "zone_category": "Residential", "ev_permitted": false}, "geometry": {"type": "Polygon", "coordinates": [[[-73.9201297334735, 40.8105429767828], [-73.9199551695665, 40.8107832769747], [-73.9200147900652, 40.8108084331425], [-73.920189353823, 40.8105681328613], [-73.9201297334735, 40.8105429767828]]]}}, {"type": "Feature", "properties": {"zone_id": "0200NXPLNATDPE6MY9D3ZY", "tract_id": "36005004100", "city": "BRONX, NY", "zone_code": "R6", "zone_category": "Residential", "ev_permitted": false}, "geometry": {"type": "Polygon", "coordinates": [[[-73.9197769112211, 40.8103940758354], [-73.9196023455068, 40.8106343747956], [-73.9196591216097, 40.8106583374715], [-73.9198336862579, 40.810418037723], [-73.9197769112211, 40.8103940758354]]]}}, {"type": "Feature", "properties": {"zone_id": "0205BHU8A990H72F660FO2", "tract_id": "36005004100", "city": "BRONX, NY", "zone_code": "R6", "zone_category": "Residential", "ev_permitted": false}, "geometry": {"type": "Polygon", "coordinates": [[[-73.9198336862579, 40.810418037723], [-73.9196591216097, 40.8106583374715], [-73.9197180144436, 40.8106831897419], [-73.9198925798684, 40.8104428906084], [-73.9198336862579, 40.810418037723]]]}}, {"type": "Feature", "properties": {"zone_id": "0203V7PQ7TI77DU5ZLLEMJ", "tract_id": "36005004100", "city": "BRONX, NY", "zone_code": "R7-2", "zone_category": "Residential", "ev_permitted": false}, "geometry": {"type": "Polygon", "coordinates": [[[-73.9154099679818, 40.8103133777541], [-73.9150200859768, 40.8109610727476], [-73.9167504067582, 40.8115362294788], [-73.9171284669413, 40.8108838349422], [-73.9154099679818, 40.8103133777541]]]}}, {"type": "Feature", "properties": {"zone_id": "0207HM4102GK4QFBG6K3FP", "tract_id": "36005004100", "city": "BRONX, NY", "zone_code": "R6", "zone_category": "Residential", "ev_permitted": false}, "geometry": {"type": "Polygon", "coordinates": [[[-73.9176543257745, 40.8105355501716], [-73.9173968345103, 40.8109785443879], [-73.9176942044474, 40.8110784081725], [-73.9178459810389, 40.8108172862179], [-73.9185414056977, 40.8110487313149], [-73.9185508990289, 40.8110106727064], [-73.9185549540072, 40.811012375982], [-73.9186148625772, 40.810772192372], [-73.9179871451953, 40.8105676265503], [-73.9179498165717, 40.8106318488289], [-73.9176543257745, 40.8105355501716]]]}}, {"type": "Feature", "properties": {"zone_id": "0201AW0X9LDC08AAAVFZKZ", "tract_id": "36005004100", "city": "BRONX, NY", "zone_code": "R6", "zone_category": "Residential", "ev_permitted": false}, "geometry": {"type": "Polygon", "coordinates": [[[-73.9178459810389, 40.8108172862179], [-73.9176942044474, 40.8110784081725], [-73.9185486832591, 40.8113627875973], [-73.9187449974869, 40.8110922094634], [-73.9185508990289, 40.8110106727064], [-73.9185414056977, 40.8110487313149], [-73.9178459810389, 40.8108172862179]]]}}, {"type": "Feature", "properties": {"zone_id": "02008ZWJ0056U51D2C3SFY", "tract_id": "36005004100", "city": "BRONX, NY", "zone_code": "R6", "zone_category": "Residential", "ev_permitted": false}, "geometry": {"type": "Polygon", "coordinates": [[[-73.9173118200853, 40.8111149105107], [-73.9170094431779, 40.8116295797743], [-73.9178060587375, 40.811894923378], [-73.9181083704514, 40.8113803552938], [-73.9176981357869, 40.8112436487639], [-73.9175508827209, 40.8114942895146], [-73.9174681742297, 40.8114667272456], [-73.9176154275462, 40.8112160865995], [-73.9173118200853, 40.8111149105107]]]}}, {"type": "Feature", "properties": {"zone_id": "0200KJ0I24C09A9IWZSLMC", "tract_id": "36005004100", "city": "BRONX, NY", "zone_code": "R6", "zone_category": "Residential", "ev_permitted": false}, "geometry": {"type": "Polygon", "coordinates": [[[-73.9181083704514, 40.8113803552938], [-73.9178060587375, 40.811894923378], [-73.9182567553085, 40.8120450422602], [-73.9184408316929, 40.8117868289422], [-73.9181879411584, 40.8116841086735], [-73.9181807794635, 40.8117104648771], [-73.9180422113161, 40.8116642895399], [-73.9181925443047, 40.8114084050794], [-73.9181083704514, 40.8113803552938]]]}}, {"type": "Feature", "properties": {"zone_id": "0202JCZI5RXGFQMRW67RJQ", "tract_id": "36005004100", "city": "BRONX, NY", "zone_code": "R6", "zone_category": "Residential", "ev_permitted": false}, "geometry": {"type": "Polygon", "coordinates": [[[-73.9184781485584, 40.8115035788407], [-73.9183428033574, 40.8117470113985], [-73.9183958920107, 40.8117685753441], [-73.9185345299689, 40.8115223674797], [-73.9184781485584, 40.8115035788407]]]}}, {"type": "Feature", "properties": {"zone_id": "0200BJFK5CI2Q9NE82WDWV", "tract_id": "36005004100", "city": "BRONX, NY", "zone_code": "R6", "zone_category": "Residential", "ev_permitted": false}, "geometry": {"type": "Polygon", "coordinates": [[[-73.9185345299689, 40.8115223674797], [-73.9183958920107, 40.8117685753441], [-73.9184462834673, 40.81178904263], [-73.9185899657283, 40.8115408399339], [-73.9185345299689, 40.8115223674797]]]}}, {"type": "Feature", "properties": {"zone_id": "02043CTIKY3IABSQSUHUXV", "tract_id": "36005004100", "city": "BRONX, NY", "zone_code": "R6", "zone_category": "Residential", "ev_permitted": false}, "geometry": {"type": "Polygon", "coordinates": [[[-73.9185899657283, 40.8115408399339], [-73.9184462834673, 40.81178904263], [-73.9185027848629, 40.8118119931588], [-73.918646208538, 40.8115595827481], [-73.9185899657283, 40.8115408399339]]]}}, {"type": "Feature", "properties": {"zone_id": "02059DE6VVKVCYENODEDZ3", "tract_id": "36005004100", "city": "BRONX, NY", "zone_code": "R6", "zone_category": "Residential", "ev_permitted": false}, "geometry": {"type": "Polygon", "coordinates": [[[-73.918646208538, 40.8115595827481], [-73.9185027848629, 40.8118119931588], [-73.9185537568725, 40.811832696898], [-73.918703137304, 40.8115785522715], [-73.918646208538, 40.8115595827481]]]}}, {"type": "Feature", "properties": {"zone_id": "0204PHNH95OSXO9GZP4ZIR", "tract_id": "36005004100", "city": "BRONX, NY", "zone_code": "R6", "zone_category": "Residential", "ev_permitted": false}, "geometry": {"type": "Polygon", "coordinates": [[[-73.9187541302875, 40.8115956155128], [-73.9186033395932, 40.8118528614046], [-73.9186289748644, 40.8118636869456], [-73.918811226189, 40.8116171174478], [-73.9187541302875, 40.8115956155128]]]}}, {"type": "Feature", "properties": {"zone_id": "0203VKGF23SWYGF4D9MWBK", "tract_id": "36005004100", "city": "BRONX, NY", "zone_code": "R6", "zone_category": "Residential", "ev_permitted": false}, "geometry": {"type": "Polygon", "coordinates": [[[-73.918703137304, 40.8115785522715], [-73.9185537568725, 40.811832696898], [-73.9186033395932, 40.8118528614046], [-73.9187541302875, 40.8115956155128], [-73.918703137304, 40.8115785522715]]]}}, {"type": "Feature", "properties": {"zone_id": "0205AG3IU561BJVW76DTTL", "tract_id": "36005004100", "city": "BRONX, NY", "zone_code": "R6", "zone_category": "Residential", "ev_permitted": false}, "geometry": {"type": "Polygon", "coordinates": [[[-73.9181925443047, 40.8114084050794], [-73.9180422113161, 40.8116642895399], [-73.918103066945, 40.8116845683753], [-73.918253403442, 40.811428685947], [-73.9181925443047, 40.8114084050794]]]}}, {"type": "Feature", "properties": {"zone_id": "0204C5B54QE679I18Q8SGG", "tract_id": "36005004100", "city": "BRONX, NY", "zone_code": "R6", "zone_category": "Residential", "ev_permitted": false}, "geometry": {"type": "Polygon", "coordinates": [[[-73.918253403442, 40.811428685947], [-73.918103066945, 40.8116845683753], [-73.9181807794635, 40.8117104648771], [-73.9181879411584, 40.8116841086735], [-73.9183047327715, 40.8114457903798], [-73.918253403442, 40.811428685947]]]}}, {"type": "Feature", "properties": {"zone_id": "02039FT1NPUYIGOINWT1GH", "tract_id": "36005004100", "city": "BRONX, NY", "zone_code": "R6", "zone_category": "Residential", "ev_permitted": false}, "geometry": {"type": "Polygon", "coordinates": [[[-73.9183047327715, 40.8114457903798], [-73.9181879411584, 40.8116841086735], [-73.9182360918851, 40.8117036666389], [-73.9183644253585, 40.8114656824997], [-73.9183047327715, 40.8114457903798]]]}}, {"type": "Feature", "properties": {"zone_id": "0200SGYCU5YZPEFBV83TIT", "tract_id": "36005004100", "city": "BRONX, NY", "zone_code": "R6", "zone_category": "Residential", "ev_permitted": false}, "geometry": {"type": "Polygon", "coordinates": [[[-73.9183644253585, 40.8114656824997], [-73.9182360918851, 40.8117036666389], [-73.9182887312393, 40.8117250483293], [-73.9184222756108, 40.8114849598722], [-73.9183644253585, 40.8114656824997]]]}}, {"type": "Feature", "properties": {"zone_id": "0201BIYEPLDR8MYC7QGBDU", "tract_id": "36005004100", "city": "BRONX, NY", "zone_code": "R6", "zone_category": "Residential", "ev_permitted": false}, "geometry": {"type": "Polygon", "coordinates": [[[-73.9184222756108, 40.8114849598722], [-73.9182887312393, 40.8117250483293], [-73.9183428033574, 40.8117470113985], [-73.9184781485584, 40.8115035788407], [-73.9184222756108, 40.8114849598722]]]}}, {"type": "Feature", "properties": {"zone_id": "0201VHHN4CKM77CP1F3XSX", "tract_id": "36005004100", "city": "BRONX, NY", "zone_code": "R6", "zone_category": "Residential", "ev_permitted": false}, "geometry": {"type": "Polygon", "coordinates": [[[-73.9187449974869, 40.8110922094634], [-73.9185486832591, 40.8113627875973], [-73.9187220168589, 40.81142047375], [-73.9189099183731, 40.8111614887392], [-73.9187449974869, 40.8110922094634]]]}}, {"type": "Feature", "properties": {"zone_id": "02065YXXQFKXZJM2YBYXLT", "tract_id": "36005004100", "city": "BRONX, NY", "zone_code": "R6", "zone_category": "Residential", "ev_permitted": false}, "geometry": {"type": "Polygon", "coordinates": [[[-73.9176154275462, 40.8112160865995], [-73.9174681742297, 40.8114667272456], [-73.9175508827209, 40.8114942895146], [-73.9176981357869, 40.8112436487639], [-73.9176154275462, 40.8112160865995]]]}}, {"type": "Feature", "properties": {"zone_id": "0202Q9N7AQDGTIY39I34A6", "tract_id": "36005004100", "city": "NY", "zone_code": "R6", "zone_category": "Residential", "ev_permitted": false}, "geometry": {"type": "Polygon", "coordinates": [[[-73.9186148625772, 40.810772192372], [-73.9185549540072, 40.811012375982], [-73.9186679009914, 40.8110598227008], [-73.9188265374909, 40.8108411731156], [-73.9186148625772, 40.810772192372]]]}}, {"type": "Feature", "properties": {"zone_id": "0207ICIKBS4M7OPWZGR5MJ", "tract_id": "36005004100", "city": "BRONX, NY", "zone_code": "R6", "zone_category": "Residential", "ev_permitted": false}, "geometry": {"type": "Polygon", "coordinates": [[[-73.9176916537043, 40.810471327987], [-73.9176543257745, 40.8105355501716], [-73.9179498165717, 40.8106318488289], [-73.9179871451953, 40.8105676265503], [-73.9176916537043, 40.810471327987]]]}}, {"type": "Feature", "properties": {"zone_id": "0206PRUHZ2OVMULGSMT8S2", "tract_id": "36005004100", "city": "BRONX, NY", "zone_code": "R6", "zone_category": "Residential", "ev_permitted": false}, "geometry": {"type": "Polygon", "coordinates": [[[-73.9173269039243, 40.8098704831675], [-73.9172888454099, 40.8099361901167], [-73.9176260516576, 40.8100481527794], [-73.9176641080528, 40.8099824464213], [-73.9173269039243, 40.8098704831675]]]}}, {"type": "Feature", "properties": {"zone_id": "02047I83VRDHLA3OACQYEQ", "tract_id": "36005004100", "city": "BRONX, NY", "zone_code": "R6", "zone_category": "Residential", "ev_permitted": false}, "geometry": {"type": "Polygon", "coordinates": [[[-73.9172888454099, 40.8099361901167], [-73.9172530481275, 40.8099979968643], [-73.9175902527778, 40.8101099603318], [-73.9176260516576, 40.8100481527794], [-73.9172888454099, 40.8099361901167]]]}}, {"type": "Feature", "properties": {"zone_id": "0201YP8HUW4O9OWEX6Z5E5", "tract_id": "36005004100", "city": "BRONX, NY", "zone_code": "R6", "zone_category": "Residential", "ev_permitted": false}, "geometry": {"type": "Polygon", "coordinates": [[[-73.9172530481275, 40.8099979968643], [-73.9172152415435, 40.8100632725421], [-73.9175524464617, 40.8101752354163], [-73.9175902527778, 40.8101099603318], [-73.9172530481275, 40.8099979968643]]]}}, {"type": "Feature", "properties": {"zone_id": "0203KN0SW3UQQ93T0A4I69", "tract_id": "36005004100", "city": "BRONX, NY", "zone_code": "R6", "zone_category": "Residential", "ev_permitted": false}, "geometry": {"type": "Polygon", "coordinates": [[[-73.9174725674664, 40.8096189877823], [-73.9174375128599, 40.8096795120839], [-73.9177747162077, 40.8097914743151], [-73.9178097714914, 40.8097309499126], [-73.9174725674664, 40.8096189877823]]]}}, {"type": "Feature", "properties": {"zone_id": "0202EGB45R2WN0VG98U0W4", "tract_id": "36005004100", "city": "BRONX, NY", "zone_code": "R6", "zone_category": "Residential", "ev_permitted": false}, "geometry": {"type": "Polygon", "coordinates": [[[-73.9174375128599, 40.8096795120839], [-73.9173989522569, 40.8097460885917], [-73.9177361558772, 40.8098580509344], [-73.9177747162077, 40.8097914743151], [-73.9174375128599, 40.8096795120839]]]}}, {"type": "Feature", "properties": {"zone_id": "02015Y907AXCHKOLR5Z0HE", "tract_id": "36005004100", "city": "BRONX, NY", "zone_code": "R6", "zone_category": "Residential", "ev_permitted": false}, "geometry": {"type": "Polygon", "coordinates": [[[-73.9173989522569, 40.8097460885917], [-73.917362400796, 40.8098091968437], [-73.9176996046746, 40.8099211592922], [-73.9177361558772, 40.8098580509344], [-73.9173989522569, 40.8097460885917]]]}}, {"type": "Feature", "properties": {"zone_id": "0207IYUPX8CWS5C019GISM", "tract_id": "36005004100", "city": "BRONX, NY", "zone_code": "R6", "zone_category": "Residential", "ev_permitted": false}, "geometry": {"type": "Polygon", "coordinates": [[[-73.917362400796, 40.8098091968437], [-73.9173269039243, 40.8098704831675], [-73.9176641080528, 40.8099824464213], [-73.9176996046746, 40.8099211592922], [-73.917362400796, 40.8098091968437]]]}}, {"type": "Feature", "properties": {"zone_id": "020238FF7PO8SHVUOA24Z3", "tract_id": "36005004100", "city": "BRONX, NY", "zone_code": "R7-2", "zone_category": "Residential", "ev_permitted": false}, "geometry": {"type": "Polygon", "coordinates": [[[-73.9163722046904, 40.8100346480762], [-73.9160879464415, 40.8105384377956], [-73.9171284669413, 40.8108838349422], [-73.9174191664965, 40.8103821833579], [-73.9163722046904, 40.8100346480762]]]}}, {"type": "Feature", "properties": {"zone_id": "0207OCST0YZQ5AL7LAWBHC", "tract_id": "36005004100", "city": "BRONX, NY", "zone_code": "R7-2", "zone_category": "Residential", "ev_permitted": false}, "geometry": {"type": "Polygon", "coordinates": [[[-73.9163722046904, 40.8100346480762], [-73.9160721207383, 40.8105331845127], [-73.9160879464415, 40.8105384377956], [-73.9163722046904, 40.8100346480762]]]}}, {"type": "Feature", "properties": {"zone_id": "02000GVW16EOOOAWPPSUQR", "tract_id": "36005004100", "city": "BRONX, NY", "zone_code": "R6", "zone_category": "Residential", "ev_permitted": false}, "geometry": {"type": "Polygon", "coordinates": [[[-73.9172152415435, 40.8100632725421], [-73.9171752560484, 40.8101323086258], [-73.9175124612483, 40.8102442723184], [-73.9175524464617, 40.8101752354163], [-73.9172152415435, 40.8100632725421]]]}}, {"type": "Feature", "properties": {"zone_id": "0206JGX8B8VJJQJBA9LLT6", "tract_id": "36005004100", "city": "BRONX, NY", "zone_code": "R6", "zone_category": "Residential", "ev_permitted": false}, "geometry": {"type": "Polygon", "coordinates": [[[-73.9172426024886, 40.8098442609432], [-73.91709181346, 40.8101046022115], [-73.9171752560484, 40.8101323086258], [-73.9173260448142, 40.8098719665468], [-73.9172426024886, 40.8098442609432]]]}}, {"type": "Feature", "properties": {"zone_id": "0205WFJ3OTAN29FONLBM6A", "tract_id": "36005004100", "city": "BRONX, NY", "zone_code": "R6", "zone_category": "Residential", "ev_permitted": false}, "geometry": {"type": "Polygon", "coordinates": [[[-73.9171574260706, 40.8098159792658], [-73.9170066367721, 40.8100763211267], [-73.91709181346, 40.8101046022115], [-73.9172426024886, 40.8098442609432], [-73.9171574260706, 40.8098159792658]]]}}, {"type": "Feature", "properties": {"zone_id": "0206150CBBH7OVBD07JP9J", "tract_id": "36005004100", "city": "BRONX, NY", "zone_code": "R6", "zone_category": "Residential", "ev_permitted": false}, "geometry": {"type": "Polygon", "coordinates": [[[-73.9169938547903, 40.8097616676772], [-73.916843064975, 40.8100220093263], [-73.9170066367721, 40.8100763211267], [-73.9171574260706, 40.8098159792658], [-73.9169938547903, 40.8097616676772]]]}}, {"type": "Feature", "properties": {"zone_id": "0204SYZ6BN390FDFOHJ0MZ", "tract_id": "36005004100", "city": "BRONX, NY", "zone_code": "R6", "zone_category": "Residential", "ev_permitted": false}, "geometry": {"type": "Polygon", "coordinates": [[[-73.9168275207742, 40.8097064383106], [-73.9166767304343, 40.8099667790419], [-73.916843064975, 40.8100220093263], [-73.9169938547903, 40.8097616676772], [-73.9168275207742, 40.8097064383106]]]}}, {"type": "Feature", "properties": {"zone_id": "02003SJN0YNB4T611IL4MD", "tract_id": "36005004100", "city": "BRONX, NY", "zone_code": "R6", "zone_category": "Residential", "ev_permitted": false}, "geometry": {"type": "Polygon", "coordinates": [[[-73.9165767201162, 40.8096231617938], [-73.9164259289831, 40.8098835029031], [-73.9165166265691, 40.809913618115], [-73.9166674174148, 40.8096532775909], [-73.9165767201162, 40.8096231617938]]]}}, {"type": "Feature", "properties": {"zone_id": "02003VZT4FIN4YC8FZR13B", "tract_id": "36005004100", "city": "BRONX, NY", "zone_code": "R6", "zone_category": "Residential", "ev_permitted": false}, "geometry": {"type": "Polygon", "coordinates": [[[-73.9165020212702, 40.8095983582996], [-73.9163512289763, 40.8098586993117], [-73.9164259289831, 40.8098835029031], [-73.9165767201162, 40.8096231617938], [-73.9165020212702, 40.8095983582996]]]}}, {"type": "Feature", "properties": {"zone_id": "0204HRNE9ANNDE0DLQX5M9", "tract_id": "36005004100", "city": "BRONX, NY", "zone_code": "R6", "zone_category": "Residential", "ev_permitted": false}, "geometry": {"type": "Polygon", "coordinates": [[[-73.9164263158221, 40.8095732209715], [-73.9162755242138, 40.8098335618862], [-73.9163512289763, 40.8098586993117], [-73.9165020212702, 40.8095983582996], [-73.9164263158221, 40.8095732209715]]]}}, {"type": "Feature", "properties": {"zone_id": "0203SFS42IBXSCOGZTSX3E", "tract_id": "36005004100", "city": "BRONX, NY", "zone_code": "R6", "zone_category": "Residential", "ev_permitted": false}, "geometry": {"type": "Polygon", "coordinates": [[[-73.9166674174148, 40.8096532775909], [-73.9165166265691, 40.809913618115], [-73.9166767304343, 40.8099667790419], [-73.9168275207742, 40.8097064383106], [-73.9166674174148, 40.8096532775909]]]}}, {"type": "Feature", "properties": {"zone_id": "0200BFK5F21SH29HK3UFNL", "tract_id": "36005004100", "city": "BRONX, NY", "zone_code": "PARK", "zone_category": "Other", "ev_permitted": false}, "geometry": {"type": "Polygon", "coordinates": [[[-73.9166669900199, 40.8090831946668], [-73.9166378301103, 40.8091468610238], [-73.9164858110606, 40.8090912002435], [-73.9164280489134, 40.8091909268705], [-73.916494085815, 40.8092128545207], [-73.9163080951563, 40.8095339667267], [-73.9173260448142, 40.8098719665468], [-73.9174725674664, 40.8096189877823], [-73.9178097714914, 40.8097309499126], [-73.9178892142098, 40.8095937847296], [-73.9166669900199, 40.8090831946668]]]}}, {"type": "Feature", "properties": {"zone_id": "0206QG6GEA4WA3TYRIDP9V", "tract_id": "36005004100", "city": "", "zone_code": "R7D", "zone_category": "Residential", "ev_permitted": false}, "geometry": {"type": "Polygon", "coordinates": [[[-73.9160899629167, 40.8091634606597], [-73.9157775003937, 40.8096681938898], [-73.9162755242138, 40.8098335618862], [-73.9164263158221, 40.8095732209715], [-73.9163080951563, 40.8095339667267], [-73.9164528943473, 40.8092839714401], [-73.9160899629167, 40.8091634606597]]]}}, {"type": "Feature", "properties": {"zone_id": "0203PIIGJK7X8U09F820C9", "tract_id": "36005004100", "city": "BRONX, NY", "zone_code": "R7D", "zone_category": "Residential", "ev_permitted": false}, "geometry": {"type": "Polygon", "coordinates": [[[-73.9161995755442, 40.8089863961496], [-73.9160899629167, 40.8091634606597], [-73.9164528943473, 40.8092839714401], [-73.916494085815, 40.8092128545207], [-73.9164280489134, 40.8091909268705], [-73.9164858110606, 40.8090912002435], [-73.9161995755442, 40.8089863961496]]]}}, {"type": "Feature", "properties": {"zone_id": "0200TJ3H0H74FX633EQX5P", "tract_id": "36005004100", "city": "BRONX, NY", "zone_code": "R7D", "zone_category": "Residential", "ev_permitted": false}, "geometry": {"type": "Polygon", "coordinates": [[[-73.9162480086291, 40.8089081590106], [-73.9161995755442, 40.8089863961496], [-73.9166378301103, 40.8091468610238], [-73.9166669900199, 40.8090831946668], [-73.9162480086291, 40.8089081590106]]]}}, {"type": "Feature", "properties": {"zone_id": "02002LQAU1AXIPQZBM6P35", "tract_id": "36005004100", "city": "BRONX, NY", "zone_code": "R6", "zone_category": "Residential", "ev_permitted": false}, "geometry": {"type": "Polygon", "coordinates": [[[-73.9157100549771, 40.8098148437253], [-73.9154099679818, 40.8103133777541], [-73.9160721207383, 40.8105331845127], [-73.9163722046904, 40.8100346480762], [-73.9157100549771, 40.8098148437253]]]}}]}