{"type": "FeatureCollection", "features": [{"type": "Feature", "properties": {"zone_id": "0204QM004Z1OYFDIKG7A5B", "tract_id": "36047090600", "city": "BROOKLYN, NY", "zone_code": "R6", "zone_category": "Residential", "ev_permitted": false}, "geometry": {"type": "Polygon", "coordinates": [[[-73.9108159076816, 40.6719067023015], [-73.9106018388654, 40.6719394502988], [-73.9106710349858, 40.672228311179], [-73.9108482828158, 40.6722006927755], [-73.9109851277098, 40.6721444781907], [-73.9108159076816, 40.6719067023015]]]}}, {"type": "Feature", "properties": {"zone_id": "0206EM4ZLLW2K8GLDL830U", "tract_id": "36047090600", "city": "BROOKLYN, NY", "zone_code": "C2-3", "zone_category": "Commercial", "ev_permitted": true}, "geometry": {"type": "Polygon", "coordinates": [[[-73.9111611235062, 40.6717498588633], [-73.9108672521264, 40.6717948156055], [-73.9108942753691, 40.6719004994866], [-73.9110508755222, 40.6721174701935], [-73.9112361425337, 40.6720413645122], [-73.9111611235062, 40.6717498588633]]]}}, {"type": "Feature", "properties": {"zone_id": "0201213P21WKU24QZ7NFRM", "tract_id": "36047090600", "city": "BROOKLYN, NY", "zone_code": "R6", "zone_category": "Residential", "ev_permitted": false}, "geometry": {"type": "Polygon", "coordinates": [[[-73.9108672521264, 40.6717948156055], [-73.910789908789, 40.6718066489324], [-73.9108159076816, 40.6719067023015], [-73.9109851277098, 40.6721444781907], [-73.9110508755222, 40.6721174701935], [-73.9108942753691, 40.6719004994866], [-73.9108672521264, 40.6717948156055]]]}}, {"type": "Feature", "properties": {"zone_id": "02056D4J4J9EX4FPGRHBUP", "tract_id": "36047090600", "city": "BROOKLYN, NY", "zone_code": "C2-3", "zone_category": "Commercial", "ev_permitted": true}, "geometry": {"type": "Polygon", "coordinates": [[[-73.9111470534942, 40.6716951864372], [-73.9107757079968, 40.6717519960341], [-73.910789908789, 40.6718066489324], [-73.9111611235062, 40.6717498588633], [-73.9111470534942, 40.6716951864372]]]}}, {"type": "Feature", "properties": {"zone_id": "0200S6RJGW7TDCLPTM7A73", "tract_id": "36047090600", "city": "BROOKLYN, NY", "zone_code": "R6", "zone_category": "Residential", "ev_permitted": false}, "geometry": {"type": "Polygon", "coordinates": [[[-73.9111334710182, 40.6716424094677], [-73.910761999345, 40.6716992385976], [-73.9107757079968, 40.6717519960341], [-73.9111470534942, 40.6716951864372], [-73.9111334710182, 40.6716424094677]]]}}, {"type": "Feature", "properties": {"zone_id": "0206MVUYA3W8IQRSM7CTQH", "tract_id": "36047090600", "city": "BROOKLYN, NY", "zone_code": "R6", "zone_category": "Residential", "ev_permitted": false}, "geometry": {"type": "Polygon", "coordinates": [[[-73.9110775970945, 40.6714252933107], [-73.9107056041408, 40.6714822005545], [-73.910747808703, 40.6716446208363], [-73.9111194102323, 40.6715877728805], [-73.9110775970945, 40.6714252933107]]]}}, {"type": "Feature", "properties": {"zone_id": "0201PGX22Z1VLTTN0VVFV1", "tract_id": "36047090600", "city": "BROOKLYN, NY", "zone_code": "R6", "zone_category": "Residential", "ev_permitted": false}, "geometry": {"type": "Polygon", "coordinates": [[[-73.9111194102323, 40.6715877728805], [-73.910747808703, 40.6716446208363], [-73.910761999345, 40.6716992385976], [-73.9111334710182, 40.6716424094677], [-73.9111194102323, 40.6715877728805]]]}}, {"type": "Feature", "properties": {"zone_id": "0202CFWXLND41QEA0BAWZH", "tract_id": "36047090600", "city": "BROOKLYN, NY", "zone_code": "R6", "zone_category": "Residential", "ev_permitted": false}, "geometry": {"type": "Polygon", "coordinates": [[[-73.9110568012296, 40.6713444857423], [-73.9106846148707, 40.671401421578], [-73.9107056041408, 40.6714822005545], [-73.9110775970945, 40.6714252933107], [-73.9110568012296, 40.6713444857423]]]}}, {"type": "Feature", "properties": {"zone_id": "0202J3416RGHL5ROSCCI0L", "tract_id": "36047090600", "city": "BROOKLYN, NY", "zone_code": "C2-3", "zone_category": "Commercial", "ev_permitted": true}, "geometry": {"type": "Polygon", "coordinates": [[[-73.9110361109998, 40.6712640857955], [-73.9106637312329, 40.6713210509262], [-73.9106846148707, 40.671401421578], [-73.9110568012296, 40.6713444857423], [-73.9110361109998, 40.6712640857955]]]}}, {"type": "Feature", "properties": {"zone_id": "0200HHNTGQ4A8VOHY8EI5V", "tract_id": "36047090600", "city": "BROOKLYN, NY", "zone_code": "R6", "zone_category": "Residential", "ev_permitted": false}, "geometry": {"type": "Polygon", "coordinates": [[[-73.9109947325241, 40.6711032943218], [-73.9106219668665, 40.6711603173402], [-73.9106637312329, 40.6713210509262], [-73.9110361109998, 40.6712640857955], [-73.9109947325241, 40.6711032943218]]]}}, {"type": "Feature", "properties": {"zone_id": "0204V2HMC2FLEBD4PLMSXM", "tract_id": "36047090600", "city": "BROOKLYN, NY", "zone_code": "R6", "zone_category": "Residential", "ev_permitted": false}, "geometry": {"type": "Polygon", "coordinates": [[[-73.9109798594528, 40.6710455028309], [-73.9106069556496, 40.6711025467738], [-73.9106219668665, 40.6711603173402], [-73.9109947325241, 40.6711032943218], [-73.9109798594528, 40.6710455028309]]]}}, {"type": "Feature", "properties": {"zone_id": "0205KW6B6JKOEP9SOO5PHC", "tract_id": "36047090600", "city": "BROOKLYN, NY", "zone_code": "C4-3", "zone_category": "Commercial", "ev_permitted": true}, "geometry": {"type": "Polygon", "coordinates": [[[-73.9109210651857, 40.6708170356104], [-73.9106436619829, 40.6708594735409], [-73.910662688988, 40.6709334119868], [-73.9109400934081, 40.6708909747141], [-73.9109210651857, 40.6708170356104]]]}}, {"type": "Feature", "properties": {"zone_id": "0205P1TP8WMKD3OAKPNDJO", "tract_id": "36047090600", "city": "BROOKLYN, NY", "zone_code": "C4-3", "zone_category": "Commercial", "ev_permitted": true}, "geometry": {"type": "Polygon", "coordinates": [[[-73.9109020379284, 40.6707430965036], [-73.9105284083979, 40.6708002499488], [-73.9105668184512, 40.6709480744531], [-73.910662688988, 40.6709334119868], [-73.9106436619829, 40.6708594735409], [-73.9109210651857, 40.6708170356104], [-73.9109020379284, 40.6707430965036]]]}}, {"type": "Feature", "properties": {"zone_id": "020047BBNI48Z8ODDHM2R2", "tract_id": "36047090600", "city": "BROOKLYN, NY", "zone_code": "C4-3", "zone_category": "Commercial", "ev_permitted": true}, "geometry": {"type": "Polygon", "coordinates": [[[-73.9108686446175, 40.6706133330312], [-73.9104947028775, 40.6706705332039], [-73.9105284083979, 40.6708002499488], [-73.9109020379284, 40.6707430965036], [-73.9108686446175, 40.6706133330312]]]}}, {"type": "Feature", "properties": {"zone_id": "0203NIGF8AVABR47T357D4", "tract_id": "36047090600", "city": "BROOKLYN, NY", "zone_code": "C4-3", "zone_category": "Commercial", "ev_permitted": true}, "geometry": {"type": "Polygon", "coordinates": [[[-73.9108507770046, 40.670543900991], [-73.9104766685698, 40.6706011262718], [-73.9104947028775, 40.6706705332039], [-73.9108686446175, 40.6706133330312], [-73.9108507770046, 40.670543900991]]]}}, {"type": "Feature", "properties": {"zone_id": "0204A7J3X6UL1DXNYDBS7N", "tract_id": "36047090600", "city": "BROOKLYN, NY", "zone_code": "C4-3", "zone_category": "Commercial", "ev_permitted": true}, "geometry": {"type": "Polygon", "coordinates": [[[-73.9108348594192, 40.6704820458697], [-73.9104606100557, 40.6705393208784], [-73.9104766685698, 40.6706011262718], [-73.9108507770046, 40.670543900991], [-73.9108348594192, 40.6704820458697]]]}}, {"type": "Feature", "properties": {"zone_id": "0207MVBX7B49Q700R9ZZB3", "tract_id": "36047090600", "city": "BROOKLYN, NY", "zone_code": "C4-3", "zone_category": "Commercial", "ev_permitted": true}, "geometry": {"type": "Polygon", "coordinates": [[[-73.9108000057201, 40.6703466058313], [-73.9104254239106, 40.6704039029533], [-73.9104606100557, 40.6705393208784], [-73.9108348594192, 40.6704820458697], [-73.9108000057201, 40.6703466058313]]]}}, {"type": "Feature", "properties": {"zone_id": "0201TO11E47AEP90M4Z0ID", "tract_id": "36047090600", "city": "BROOKLYN, NY", "zone_code": "C4-3", "zone_category": "Commercial", "ev_permitted": true}, "geometry": {"type": "Polygon", "coordinates": [[[-73.9107655827355, 40.6702128391549], [-73.910390819982, 40.6702707234507], [-73.9104090836329, 40.6703410152305], [-73.9107837118157, 40.6702832916809], [-73.9107655827355, 40.6702128391549]]]}}, {"type": "Feature", "properties": {"zone_id": "02030N9ZV364F2EZRI8GAE", "tract_id": "36047090600", "city": "BROOKLYN, NY", "zone_code": "C4-3", "zone_category": "Commercial", "ev_permitted": true}, "geometry": {"type": "Polygon", "coordinates": [[[-73.9107837118157, 40.6702832916809], [-73.9104090836329, 40.6703410152305], [-73.9104254239106, 40.6704039029533], [-73.9108000057201, 40.6703466058313], [-73.9107837118157, 40.6702832916809]]]}}, {"type": "Feature", "properties": {"zone_id": "0206Y7ROQQ61X67JTAU0X2", "tract_id": "36047090600", "city": "BROOKLYN, NY", "zone_code": "C4-3", "zone_category": "Commercial", "ev_permitted": true}, "geometry": {"type": "Polygon", "coordinates": [[[-73.910731526193, 40.670080498454], [-73.9103559839149, 40.6701366499671], [-73.910390819982, 40.6702707234507], [-73.9107655827355, 40.6702128391549], [-73.910731526193, 40.670080498454]]]}}, {"type": "Feature", "properties": {"zone_id": "0205SKUBYB4QMEHM8ZSEW9", "tract_id": "36047090600", "city": "BROOKLYN, NY", "zone_code": "C4-3", "zone_category": "Commercial", "ev_permitted": true}, "geometry": {"type": "Polygon", "coordinates": [[[-73.9106589581949, 40.6697984992326], [-73.9105726300563, 40.6698114075378], [-73.9106458761263, 40.6700933047514], [-73.910731526193, 40.670080498454], [-73.9106589581949, 40.6697984992326]]]}}, {"type": "Feature", "properties": {"zone_id": "0203OTA6HPU42BVHHOE0LU", "tract_id": "36047090600", "city": "BROOKLYN, NY", "zone_code": "C4-3", "zone_category": "Commercial", "ev_permitted": true}, "geometry": {"type": "Polygon", "coordinates": [[[-73.9105726300563, 40.6698114075378], [-73.9104765806416, 40.6698257683481], [-73.9105498263205, 40.6701076663251], [-73.9106458761263, 40.6700933047514], [-73.9105726300563, 40.6698114075378]]]}}, {"type": "Feature", "properties": {"zone_id": "02040GGIVICYTKBL0A6Z15", "tract_id": "36047090600", "city": "BROOKLYN, NY", "zone_code": "C4-3", "zone_category": "Commercial", "ev_permitted": true}, "geometry": {"type": "Polygon", "coordinates": [[[-73.9103559839149, 40.6701366499671], [-73.908180917291, 40.6704618394763], [-73.9083986765947, 40.6712798538903], [-73.9087349062499, 40.6712302699732], [-73.9088800291795, 40.6717973574898], [-73.9076027310207, 40.6719920051144], [-73.9079650039881, 40.6733999851491], [-73.9106406238361, 40.6722330495094], [-73.9106710349858, 40.672228311179], [-73.9106018388654, 40.6719394502988], [-73.9108159076816, 40.6719067023015], [-73.9103559839149, 40.6701366499671]]]}}, {"type": "Feature", "properties": {"zone_id": "0204RPBMZUANK4L94062BN", "tract_id": "36047090600", "city": "BROOKLYN, NY", "zone_code": "R6", "zone_category": "Residential", "ev_permitted": false}, "geometry": {"type": "Polygon", "coordinates": [[[-73.908423552539, 40.6714509580953], [-73.9074997444447, 40.6715917353854], [-73.9076027310207, 40.6719920051144], [-73.9088800291795, 40.6717973574898], [-73.9088463455242, 40.6716664485761], [-73.9084928605302, 40.671720317987], [-73.908423552539, 40.6714509580953]]]}}, {"type": "Feature", "properties": {"zone_id": "0202J45A2WA7EUK90N9CHX", "tract_id": "36047090600", "city": "BROOKLYN, NY", "zone_code": "R6", "zone_category": "Residential", "ev_permitted": false}, "geometry": {"type": "Polygon", "coordinates": [[[-73.9087770352375, 40.6713970895975], [-73.908423552539, 40.6714509580953], [-73.9084928605302, 40.671720317987], [-73.9088463455242, 40.6716664485761], [-73.9087770352375, 40.6713970895975]]]}}, {"type": "Feature", "properties": {"zone_id": "020186TMUWOSYZENV50BDA", "tract_id": "36047090600", "city": "BROOKLYN, NY", "zone_code": "C4-3", "zone_category": "Commercial", "ev_permitted": true}, "geometry": {"type": "Polygon", "coordinates": [[[-73.9085329916217, 40.6701163562601], [-73.9083589075874, 40.670142382088], [-73.9084314662349, 40.6704243827486], [-73.908605550977, 40.6703983568119], [-73.9085329916217, 40.6701163562601]]]}}, {"type": "Feature", "properties": {"zone_id": "0200JMDO1E8NX7UPOA8KU1", "tract_id": "36047090600", "city": "BROOKLYN, NY", "zone_code": "C4-3", "zone_category": "Commercial", "ev_permitted": true}, "geometry": {"type": "Polygon", "coordinates": [[[-73.9088035539815, 40.6700759065308], [-73.9085329916217, 40.6701163562601], [-73.908605550977, 40.6703983568119], [-73.9088761144367, 40.6703579069131], [-73.9088035539815, 40.6700759065308]]]}}, {"type": "Feature", "properties": {"zone_id": "0204GM8SN3LHF988KTWJNG", "tract_id": "36047090600", "city": "BROOKLYN, NY", "zone_code": "R6", "zone_category": "Residential", "ev_permitted": false}, "geometry": {"type": "Polygon", "coordinates": [[[-73.9079534150402, 40.6704833397563], [-73.9075995610952, 40.6705357481046], [-73.9076342702156, 40.6706730088961], [-73.9079881248606, 40.6706206011445], [-73.9079534150402, 40.6704833397563]]]}}, {"type": "Feature", "properties": {"zone_id": "0204G1LU33GIGSB39ZWCSF", "tract_id": "36047090600", "city": "BROOKLYN, NY", "zone_code": "C4-3", "zone_category": "Commercial", "ev_permitted": true}, "geometry": {"type": "Polygon", "coordinates": [[[-73.9081577454297, 40.6701724558639], [-73.9080882957672, 40.6701828384616], [-73.9081632587401, 40.6704644793402], [-73.9082303032594, 40.6704544566504], [-73.9081577454297, 40.6701724558639]]]}}, {"type": "Feature", "properties": {"zone_id": "02009ZCN82669STZS1PIXQ", "tract_id": "36047090600", "city": "BROOKLYN, NY", "zone_code": "C4-3", "zone_category": "Commercial", "ev_permitted": true}, "geometry": {"type": "Polygon", "coordinates": [[[-73.9082248561151, 40.67016242269], [-73.9081577454297, 40.6701724558639], [-73.9082303032594, 40.6704544566504], [-73.9082974142186, 40.6704444227319], [-73.9082248561151, 40.67016242269]]]}}, {"type": "Feature", "properties": {"zone_id": "02043K4XHZJMHJX35JMDU9", "tract_id": "36047090600", "city": "BROOKLYN, NY", "zone_code": "C4-3", "zone_category": "Commercial", "ev_permitted": true}, "geometry": {"type": "Polygon", "coordinates": [[[-73.9082958444238, 40.6701518100602], [-73.9082248561151, 40.67016242269], [-73.9082974142186, 40.6704444227319], [-73.908368402815, 40.6704338107603], [-73.9082958444238, 40.6701518100602]]]}}, {"type": "Feature", "properties": {"zone_id": "0207MDZQFE804FZO3BX1H0", "tract_id": "36047090600", "city": "BROOKLYN, NY", "zone_code": "C4-3", "zone_category": "Commercial", "ev_permitted": true}, "geometry": {"type": "Polygon", "coordinates": [[[-73.9083589075874, 40.670142382088], [-73.9082958444238, 40.6701518100602], [-73.908368402815, 40.6704338107603], [-73.9084314662349, 40.6704243827486], [-73.9083589075874, 40.670142382088]]]}}, {"type": "Feature", "properties": {"zone_id": "0206CQ60KYI60R2IC3ZDD9", "tract_id": "36047090600", "city": "BROOKLYN, NY", "zone_code": "R6", "zone_category": "Residential", "ev_permitted": false}, "geometry": {"type": "Polygon", "coordinates": [[[-73.9079881248606, 40.6706206011445], [-73.9072754066149, 40.6707261577506], [-73.9074491052559, 40.6714082314439], [-73.908160650866, 40.6713028484944], [-73.9079881248606, 40.6706206011445]]]}}, {"type": "Feature", "properties": {"zone_id": "0205G345MQBRVAC6NMFW40", "tract_id": "36047090600", "city": "BROOKLYN, NY", "zone_code": "C2-3", "zone_category": "Commercial", "ev_permitted": true}, "geometry": {"type": "Polygon", "coordinates": [[[-73.9078840059201, 40.6702088598123], [-73.9071703994371, 40.6703138135788], [-73.9072754066149, 40.6707261577506], [-73.9076342702156, 40.6706730088961], [-73.9075995610952, 40.6705357481046], [-73.9079534150402, 40.6704833397563], [-73.9078840059201, 40.6702088598123]]]}}, {"type": "Feature", "properties": {"zone_id": "0202RFOQONIE7Y18L2JGIG", "tract_id": "36047090600", "city": "BROOKLYN, NY", "zone_code": "C4-3", "zone_category": "Commercial", "ev_permitted": true}, "geometry": {"type": "Polygon", "coordinates": [[[-73.9101995407036, 40.6698671915496], [-73.910107581035, 40.6698809411164], [-73.9101801467915, 40.6701629406829], [-73.9102721068341, 40.6701491910585], [-73.9101995407036, 40.6698671915496]]]}}, {"type": "Feature", "properties": {"zone_id": "0204ABSOC5PMCJCEJIPPPF", "tract_id": "36047090600", "city": "BROOKLYN, NY", "zone_code": "C4-3", "zone_category": "Commercial", "ev_permitted": true}, "geometry": {"type": "Polygon", "coordinates": [[[-73.9102827381006, 40.669854751867], [-73.9101995407036, 40.6698671915496], [-73.9102721068341, 40.6701491910585], [-73.9103559839149, 40.6701366499671], [-73.9102827381006, 40.669854751867]]]}}, {"type": "Feature", "properties": {"zone_id": "0204UTK862V7Z2SHWG945U", "tract_id": "36047090600", "city": "BROOKLYN, NY", "zone_code": "C4-3", "zone_category": "Commercial", "ev_permitted": true}, "geometry": {"type": "Polygon", "coordinates": [[[-73.9103796598531, 40.6698402605001], [-73.9102827381006, 40.669854751867], [-73.9103559839149, 40.6701366499671], [-73.9104529051392, 40.6701221578356], [-73.9103796598531, 40.6698402605001]]]}}, {"type": "Feature", "properties": {"zone_id": "0206X10YXBJ5Y06QOE9BQJ", "tract_id": "36047090600", "city": "BROOKLYN, NY", "zone_code": "C4-3", "zone_category": "Commercial", "ev_permitted": true}, "geometry": {"type": "Polygon", "coordinates": [[[-73.9104765806416, 40.6698257683481], [-73.9103796598531, 40.6698402605001], [-73.9104529051392, 40.6701221578356], [-73.9105498263205, 40.6701076663251], [-73.9104765806416, 40.6698257683481]]]}}, {"type": "Feature", "properties": {"zone_id": "0203A88U9MO68HEUBXH1ON", "tract_id": "36047090600", "city": "BROOKLYN, NY", "zone_code": "C4-3", "zone_category": "Commercial", "ev_permitted": true}, "geometry": {"type": "Polygon", "coordinates": [[[-73.910107581035, 40.6698809411164], [-73.9099361177666, 40.6699065771844], [-73.910008683749, 40.6701885768589], [-73.9101801467915, 40.6701629406829], [-73.910107581035, 40.6698809411164]]]}}, {"type": "Feature", "properties": {"zone_id": "0206ML33X6F77XD62N5HXQ", "tract_id": "36047090600", "city": "BROOKLYN, NY", "zone_code": "C4-3", "zone_category": "Commercial", "ev_permitted": true}, "geometry": {"type": "Polygon", "coordinates": [[[-73.9097262630796, 40.6699379531482], [-73.9096345284333, 40.6699516687857], [-73.9097070922667, 40.6702336686481], [-73.909798827286, 40.6702199529532], [-73.9097262630796, 40.6699379531482]]]}}, {"type": "Feature", "properties": {"zone_id": "0201RWADF5CHG1W60LR2TJ", "tract_id": "36047090600", "city": "BROOKLYN, NY", "zone_code": "C4-3", "zone_category": "Commercial", "ev_permitted": true}, "geometry": {"type": "Polygon", "coordinates": [[[-73.9095431057315, 40.6699653375169], [-73.9094551803291, 40.6699784840387], [-73.9095277434344, 40.6702604833107], [-73.9096156691933, 40.6702473374366], [-73.9095431057315, 40.6699653375169]]]}}, {"type": "Feature", "properties": {"zone_id": "0206V6OEA34TXQY3DPAHKH", "tract_id": "36047090600", "city": "BROOKLYN, NY", "zone_code": "C4-3", "zone_category": "Commercial", "ev_permitted": true}, "geometry": {"type": "Polygon", "coordinates": [[[-73.9096345284333, 40.6699516687857], [-73.9095431057315, 40.6699653375169], [-73.9096156691933, 40.6702473374366], [-73.9097070922667, 40.6702336686481], [-73.9096345284333, 40.6699516687857]]]}}, {"type": "Feature", "properties": {"zone_id": "0205QY28H6ISZAFHRMAPLB", "tract_id": "36047090600", "city": "BROOKLYN, NY", "zone_code": "C4-3", "zone_category": "Commercial", "ev_permitted": true}, "geometry": {"type": "Polygon", "coordinates": [[[-73.9092750456658, 40.670005415034], [-73.9091785074106, 40.6700198488574], [-73.9092510684673, 40.6703018490045], [-73.9093476089607, 40.6702874151221], [-73.9092750456658, 40.670005415034]]]}}, {"type": "Feature", "properties": {"zone_id": "020273C8EZO9L9J05W82K6", "tract_id": "36047090600", "city": "BROOKLYN, NY", "zone_code": "C4-3", "zone_category": "Commercial", "ev_permitted": true}, "geometry": {"type": "Polygon", "coordinates": [[[-73.9093685342061, 40.6699914375661], [-73.9092750456658, 40.670005415034], [-73.9093476089607, 40.6702874151221], [-73.909441097881, 40.6702734375957], [-73.9093685342061, 40.6699914375661]]]}}, {"type": "Feature", "properties": {"zone_id": "0204K8631NE3P3SU2HN7Y0", "tract_id": "36047090600", "city": "BROOKLYN, NY", "zone_code": "C4-3", "zone_category": "Commercial", "ev_permitted": true}, "geometry": {"type": "Polygon", "coordinates": [[[-73.9094551803291, 40.6699784840387], [-73.9093685342061, 40.6699914375661], [-73.909441097881, 40.6702734375957], [-73.9095277434344, 40.6702604833107], [-73.9094551803291, 40.6699784840387]]]}}, {"type": "Feature", "properties": {"zone_id": "0200YUCFC7G54SC250A1Q8", "tract_id": "36047090600", "city": "BROOKLYN, NY", "zone_code": "C4-3", "zone_category": "Commercial", "ev_permitted": true}, "geometry": {"type": "Polygon", "coordinates": [[[-73.9105275677159, 40.6693259783896], [-73.9103534430279, 40.6693507248439], [-73.9104215458603, 40.669615972118], [-73.9104208729875, 40.669616067859], [-73.9104228788834, 40.6696238795222], [-73.9105976771293, 40.669599038627], [-73.9105275677159, 40.6693259783896]]]}}, {"type": "Feature", "properties": {"zone_id": "0200QQZFHDF8X3YG4PGD5N", "tract_id": "36047090600", "city": "BROOKLYN, NY", "zone_code": "C4-3", "zone_category": "Commercial", "ev_permitted": true}, "geometry": {"type": "Polygon", "coordinates": [[[-73.9103534430279, 40.6693507248439], [-73.9102586292426, 40.6693641996744], [-73.9103287375969, 40.6696372586691], [-73.9104228788834, 40.6696238795222], [-73.9104208729875, 40.669616067859], [-73.9104215458603, 40.669615972118], [-73.9103534430279, 40.6693507248439]]]}}, {"type": "Feature", "properties": {"zone_id": "0205FMCVGXZ484FNJRKQ6Q", "tract_id": "36047090600", "city": "BROOKLYN, NY", "zone_code": "C4-3", "zone_category": "Commercial", "ev_permitted": true}, "geometry": {"type": "Polygon", "coordinates": [[[-73.9102586292426, 40.6693641996744], [-73.9101667053488, 40.6693772628147], [-73.9102368124187, 40.6696503211616], [-73.9103287375969, 40.6696372586691], [-73.9102586292426, 40.6693641996744]]]}}, {"type": "Feature", "properties": {"zone_id": "020490PC5FSZCKNR6BE5P8", "tract_id": "36047090600", "city": "BROOKLYN, NY", "zone_code": "C4-3", "zone_category": "Commercial", "ev_permitted": true}, "geometry": {"type": "Polygon", "coordinates": [[[-73.9101667053488, 40.6693772628147], [-73.9100762277673, 40.6693901211318], [-73.9101463354022, 40.6696631802369], [-73.9102368124187, 40.6696503211616], [-73.9101667053488, 40.6693772628147]]]}}, {"type": "Feature", "properties": {"zone_id": "0206JEXLZYCC7ASGYFJX18", "tract_id": "36047090600", "city": "BROOKLYN, NY", "zone_code": "C4-3", "zone_category": "Commercial", "ev_permitted": true}, "geometry": {"type": "Polygon", "coordinates": [[[-73.9100762277673, 40.6693901211318], [-73.9099876340064, 40.6694027110291], [-73.9100577422137, 40.6696757708911], [-73.9101463354022, 40.6696631802369], [-73.9100762277673, 40.6693901211318]]]}}, {"type": "Feature", "properties": {"zone_id": "0205APCPYNTPZVOR5NLBSR", "tract_id": "36047090600", "city": "BROOKLYN, NY", "zone_code": "C4-3", "zone_category": "Commercial", "ev_permitted": true}, "geometry": {"type": "Polygon", "coordinates": [[[-73.9099876340064, 40.6694027110291], [-73.9099025679407, 40.6694147998114], [-73.9099726748915, 40.6696878583188], [-73.9100577422137, 40.6696757708911], [-73.9099876340064, 40.6694027110291]]]}}, {"type": "Feature", "properties": {"zone_id": "0202P7R5978AX7ISKZZQFP", "tract_id": "36047090600", "city": "BROOKLYN, NY", "zone_code": "C4-3", "zone_category": "Commercial", "ev_permitted": true}, "geometry": {"type": "Polygon", "coordinates": [[[-73.9099436255417, 40.6695747159437], [-73.9098489036562, 40.6695881771578], [-73.9098793382886, 40.6697011231936], [-73.9099726748915, 40.6696878583188], [-73.9099436255417, 40.6695747159437]]]}}, {"type": "Feature", "properties": {"zone_id": "0200Y03TD1A2WZU23Q4YCU", "tract_id": "36047090600", "city": "BROOKLYN, NY", "zone_code": "C4-3", "zone_category": "Commercial", "ev_permitted": true}, "geometry": {"type": "Polygon", "coordinates": [[[-73.9099025679407, 40.6694147998114], [-73.9098058858091, 40.669428539115], [-73.9098489036562, 40.6695881771578], [-73.9099436255417, 40.6695747159437], [-73.9099025679407, 40.6694147998114]]]}}, {"type": "Feature", "properties": {"zone_id": "0204LYNTO5G3J7BA78CIW8", "tract_id": "36047090600", "city": "BROOKLYN, NY", "zone_code": "C4-3", "zone_category": "Commercial", "ev_permitted": true}, "geometry": {"type": "Polygon", "coordinates": [[[-73.910494601276, 40.6691975825003], [-73.910133740502, 40.6692488661208], [-73.9101502463195, 40.669313155131], [-73.9105111074287, 40.6692618714591], [-73.910494601276, 40.6691975825003]]]}}, {"type": "Feature", "properties": {"zone_id": "02034OHLPWC4ZTKFE6P1V5", "tract_id": "36047090600", "city": "BROOKLYN, NY", "zone_code": "C4-3", "zone_category": "Commercial", "ev_permitted": true}, "geometry": {"type": "Polygon", "coordinates": [[[-73.9105111074287, 40.6692618714591], [-73.9101502463195, 40.669313155131], [-73.9101667053488, 40.6693772628147], [-73.9105275677159, 40.6693259783896], [-73.9105111074287, 40.6692618714591]]]}}, {"type": "Feature", "properties": {"zone_id": "02028X6V94MWK53TQQTH7U", "tract_id": "36047090600", "city": "BROOKLYN, NY", "zone_code": "C4-3", "zone_category": "Commercial", "ev_permitted": true}, "geometry": {"type": "Polygon", "coordinates": [[[-73.9101502463195, 40.669313155131], [-73.9097886425597, 40.6693645424883], [-73.9098058858091, 40.669428539115], [-73.9101667053488, 40.6693772628147], [-73.9101502463195, 40.669313155131]]]}}, {"type": "Feature", "properties": {"zone_id": "02071HX40L02UB6Q0EJU6N", "tract_id": "36047090600", "city": "BROOKLYN, NY", "zone_code": "C4-3", "zone_category": "Commercial", "ev_permitted": true}, "geometry": {"type": "Polygon", "coordinates": [[[-73.9101156630805, 40.6691784613044], [-73.9097524106161, 40.6692300833548], [-73.9097886425597, 40.6693645424883], [-73.9101502463195, 40.669313155131], [-73.9101156630805, 40.6691784613044]]]}}, {"type": "Feature", "properties": {"zone_id": "020596KXBTDWF8Y7E4UNNW", "tract_id": "36047090600", "city": "BROOKLYN, NY", "zone_code": "C4-3", "zone_category": "Commercial", "ev_permitted": true}, "geometry": {"type": "Polygon", "coordinates": [[[-73.9096025701514, 40.6694590402458], [-73.9095135167811, 40.6694722063033], [-73.909588699746, 40.6697635600617], [-73.9096773239404, 40.6697507133209], [-73.9096025701514, 40.6694590402458]]]}}, {"type": "Feature", "properties": {"zone_id": "02010IUQSGKYS14U9CYAO4", "tract_id": "36047090600", "city": "BROOKLYN, NY", "zone_code": "C4-3", "zone_category": "Commercial", "ev_permitted": true}, "geometry": {"type": "Polygon", "coordinates": [[[-73.9095135167811, 40.6694722063033], [-73.9094298953224, 40.6694845671004], [-73.9095050182655, 40.6697756896899], [-73.909588699746, 40.6697635600617], [-73.9095135167811, 40.6694722063033]]]}}, {"type": "Feature", "properties": {"zone_id": "0201CM5NXLQ2V2OVBQG0PB", "tract_id": "36047090600", "city": "BROOKLYN, NY", "zone_code": "C4-3", "zone_category": "Commercial", "ev_permitted": true}, "geometry": {"type": "Polygon", "coordinates": [[[-73.9093202115687, 40.6695007796738], [-73.9092464413872, 40.6695116837519], [-73.9093214322827, 40.6698023004393], [-73.909395256021, 40.6697916001277], [-73.9093202115687, 40.6695007796738]]]}}, {"type": "Feature", "properties": {"zone_id": "0206JIVAD9AZF0Q66PP9DW", "tract_id": "36047090600", "city": "BROOKLYN, NY", "zone_code": "C4-3", "zone_category": "Commercial", "ev_permitted": true}, "geometry": {"type": "Polygon", "coordinates": [[[-73.9092464413872, 40.6695116837519], [-73.9091784806443, 40.6695217294987], [-73.909253423523, 40.6698121585813], [-73.9093214322827, 40.6698023004393], [-73.9092464413872, 40.6695116837519]]]}}, {"type": "Feature", "properties": {"zone_id": "0205SIKD5QYFN7TTQUJU3S", "tract_id": "36047090600", "city": "BROOKLYN, NY", "zone_code": "C4-3", "zone_category": "Commercial", "ev_permitted": true}, "geometry": {"type": "Polygon", "coordinates": [[[-73.9094298953224, 40.6694845671004], [-73.9093202115687, 40.6695007796738], [-73.909395256021, 40.6697916001277], [-73.9095050182655, 40.6697756896899], [-73.9094298953224, 40.6694845671004]]]}}, {"type": "Feature", "properties": {"zone_id": "02018KFYNCZXTAOI7MLIDZ", "tract_id": "36047090600", "city": "BROOKLYN, NY", "zone_code": "C4-3", "zone_category": "Commercial", "ev_permitted": true}, "geometry": {"type": "Polygon", "coordinates": [[[-73.9091784806443, 40.6695217294987], [-73.9091208068988, 40.669530254337], [-73.9091957082246, 40.6698205246223], [-73.909253423523, 40.6698121585813], [-73.9091784806443, 40.6695217294987]]]}}, {"type": "Feature", "properties": {"zone_id": "0201USGPSI82Y9JAE2S77R", "tract_id": "36047090600", "city": "BROOKLYN, NY", "zone_code": "C4-3", "zone_category": "Commercial", "ev_permitted": true}, "geometry": {"type": "Polygon", "coordinates": [[[-73.9095695120973, 40.6693300544856], [-73.9092131661644, 40.6693827300409], [-73.9092464413872, 40.6695116837519], [-73.9096025701514, 40.6694590402458], [-73.9095695120973, 40.6693300544856]]]}}, {"type": "Feature", "properties": {"zone_id": "0201LG2R7767B0U1UTPZ6H", "tract_id": "36047090600", "city": "BROOKLYN, NY", "zone_code": "C4-3", "zone_category": "Commercial", "ev_permitted": true}, "geometry": {"type": "Polygon", "coordinates": [[[-73.9095306186531, 40.6691782978364], [-73.909176009681, 40.6692307202787], [-73.9091883777218, 40.6692813175788], [-73.9095435638352, 40.6692288098273], [-73.9095306186531, 40.6691782978364]]]}}, {"type": "Feature", "properties": {"zone_id": "0205OLEDQQAYVXROPLL774", "tract_id": "36047090600", "city": "BROOKLYN, NY", "zone_code": "C4-3", "zone_category": "Commercial", "ev_permitted": true}, "geometry": {"type": "Polygon", "coordinates": [[[-73.9095435638352, 40.6692288098273], [-73.9091883777218, 40.6692813175788], [-73.9092007448586, 40.6693319148765], [-73.9095565099598, 40.6692793218172], [-73.9095435638352, 40.6692288098273]]]}}, {"type": "Feature", "properties": {"zone_id": "02016RZE1JLDVI4U07TOBJ", "tract_id": "36047090600", "city": "BROOKLYN, NY", "zone_code": "C4-3", "zone_category": "Commercial", "ev_permitted": true}, "geometry": {"type": "Polygon", "coordinates": [[[-73.9095565099598, 40.6692793218172], [-73.9092007448586, 40.6693319148765], [-73.9092131661644, 40.6693827300409], [-73.9095695120973, 40.6693300544856], [-73.9095565099598, 40.6692793218172]]]}}, {"type": "Feature", "properties": {"zone_id": "0201Q5WXP5I304ZM4QDWR5", "tract_id": "36047090600", "city": "BROOKLYN, NY", "zone_code": "C4-3", "zone_category": "Commercial", "ev_permitted": true}, "geometry": {"type": "Polygon", "coordinates": [[[-73.9091785074106, 40.6700198488574], [-73.9090157909437, 40.6700441757758], [-73.9090883522618, 40.6703261760255], [-73.9092510684673, 40.6703018490045], [-73.9091785074106, 40.6700198488574]]]}}, {"type": "Feature", "properties": {"zone_id": "0203IK1VVWST40LNOYIYSF", "tract_id": "36047090600", "city": "BROOKLYN, NY", "zone_code": "C4-3", "zone_category": "Commercial", "ev_permitted": true}, "geometry": {"type": "Polygon", "coordinates": [[[-73.9089811498685, 40.669550897088], [-73.9088844167529, 40.6695651948967], [-73.9089591491006, 40.6698548131305], [-73.9090559514696, 40.6698407816231], [-73.9089811498685, 40.669550897088]]]}}, {"type": "Feature", "properties": {"zone_id": "020038QYKX1INJJC86VYA8", "tract_id": "36047090600", "city": "BROOKLYN, NY", "zone_code": "R7A", "zone_category": "Residential", "ev_permitted": false}, "geometry": {"type": "Polygon", "coordinates": [[[-73.9084982174393, 40.6696237947416], [-73.9084110792904, 40.669637733696], [-73.9084847031003, 40.6699173243508], [-73.9085721317074, 40.6699044852396], [-73.9084982174393, 40.6696237947416]]]}}, {"type": "Feature", "properties": {"zone_id": "0200Q07H8TJWPIMRJ9YHTO", "tract_id": "36047090600", "city": "BROOKLYN, NY", "zone_code": "C4-3", "zone_category": "Commercial", "ev_permitted": true}, "geometry": {"type": "Polygon", "coordinates": [[[-73.9087146097448, 40.6697153072424], [-73.908618463618, 40.6697306873946], [-73.9086608008215, 40.6698914636517], [-73.9087572675793, 40.6698772972178], [-73.9087146097448, 40.6697153072424]]]}}, {"type": "Feature", "properties": {"zone_id": "02023KC8NDHAA6E77HME62", "tract_id": "36047090600", "city": "BROOKLYN, NY", "zone_code": "C4-3", "zone_category": "Commercial", "ev_permitted": true}, "geometry": {"type": "Polygon", "coordinates": [[[-73.908618463618, 40.6697306873946], [-73.9085300884865, 40.6697448243102], [-73.9085721317074, 40.6699044852396], [-73.9086608008215, 40.6698914636517], [-73.908618463618, 40.6697306873946]]]}}, {"type": "Feature", "properties": {"zone_id": "0200UKHIMG9ESOYWJGLTBC", "tract_id": "36047090600", "city": "BROOKLYN, NY", "zone_code": "R7A", "zone_category": "Residential", "ev_permitted": false}, "geometry": {"type": "Polygon", "coordinates": [[[-73.9084110792904, 40.669637733696], [-73.9082369293383, 40.6696655918329], [-73.9083083163362, 40.6699432274125], [-73.9084847031003, 40.6699173243508], [-73.9084110792904, 40.669637733696]]]}}, {"type": "Feature", "properties": {"zone_id": "0203EOD8PL2UU8QURSFFUE", "tract_id": "36047090600", "city": "BROOKLYN, NY", "zone_code": "R7A", "zone_category": "Residential", "ev_permitted": false}, "geometry": {"type": "Polygon", "coordinates": [[[-73.9082369293383, 40.6696655918329], [-73.9081632904786, 40.6696773715424], [-73.9082344385264, 40.6699540759482], [-73.9083083163362, 40.6699432274125], [-73.9082369293383, 40.6696655918329]]]}}, {"type": "Feature", "properties": {"zone_id": "0201SS1WQAV9XSWIJBQ8BU", "tract_id": "36047090600", "city": "BROOKLYN, NY", "zone_code": "R7A", "zone_category": "Residential", "ev_permitted": false}, "geometry": {"type": "Polygon", "coordinates": [[[-73.9081632904786, 40.6696773715424], [-73.9079658742588, 40.6697089509702], [-73.9080363798964, 40.6699831619352], [-73.9082344385264, 40.6699540759482], [-73.9081632904786, 40.6696773715424]]]}}, {"type": "Feature", "properties": {"zone_id": "0201VJPC97E9ZCYACIA17N", "tract_id": "36047090600", "city": "BROOKLYN, NY", "zone_code": "C4-3", "zone_category": "Commercial", "ev_permitted": true}, "geometry": {"type": "Polygon", "coordinates": [[[-73.9091208068988, 40.669530254337], [-73.9090540700392, 40.6695401182847], [-73.9091289233482, 40.6698302051804], [-73.9091957082246, 40.6698205246223], [-73.9091208068988, 40.669530254337]]]}}, {"type": "Feature", "properties": {"zone_id": "0202921TK7RMWZ4HDHNGZG", "tract_id": "36047090600", "city": "BROOKLYN, NY", "zone_code": "C4-3", "zone_category": "Commercial", "ev_permitted": true}, "geometry": {"type": "Polygon", "coordinates": [[[-73.9090540700392, 40.6695401182847], [-73.9089811498685, 40.669550897088], [-73.9090559514696, 40.6698407816231], [-73.9091289233482, 40.6698302051804], [-73.9090540700392, 40.6695401182847]]]}}, {"type": "Feature", "properties": {"zone_id": "0206E519RUJQFIF9BC3PKM", "tract_id": "36047090600", "city": "BROOKLYN, NY", "zone_code": "C4-3", "zone_category": "Commercial", "ev_permitted": true}, "geometry": {"type": "Polygon", "coordinates": [[[-73.9092131661644, 40.6693827300409], [-73.9088511422034, 40.6694362410818], [-73.9088844167529, 40.6695651948967], [-73.9092464413872, 40.6695116837519], [-73.9092131661644, 40.6693827300409]]]}}, {"type": "Feature", "properties": {"zone_id": "0201SKKG0R0I50VZFC6E01", "tract_id": "36047090600", "city": "BROOKLYN, NY", "zone_code": "R7A", "zone_category": "Residential", "ev_permitted": false}, "geometry": {"type": "Polygon", "coordinates": [[[-73.9086478219428, 40.6694616799415], [-73.9082941491197, 40.6695182496352], [-73.9083105480251, 40.6695805270986], [-73.9086642202504, 40.6695239510303], [-73.9086478219428, 40.6694616799415]]]}}, {"type": "Feature", "properties": {"zone_id": "0207NC3BQ0BR8G56IE8QJX", "tract_id": "36047090600", "city": "BROOKLYN, NY", "zone_code": "R7A", "zone_category": "Residential", "ev_permitted": false}, "geometry": {"type": "Polygon", "coordinates": [[[-73.9086642202504, 40.6695239510303], [-73.9083105480251, 40.6695805270986], [-73.9083290657944, 40.6696508538493], [-73.9086827393016, 40.6695942763199], [-73.9086642202504, 40.6695239510303]]]}}, {"type": "Feature", "properties": {"zone_id": "0200VV619VGB750K8UTMKX", "tract_id": "36047090600", "city": "BROOKLYN, NY", "zone_code": "R7A", "zone_category": "Residential", "ev_permitted": false}, "geometry": {"type": "Polygon", "coordinates": [[[-73.9086827393016, 40.6695942763199], [-73.9084982174393, 40.6696237947416], [-73.9085136351662, 40.6696823444691], [-73.9086981571827, 40.6696528267256], [-73.9086827393016, 40.6695942763199]]]}}, {"type": "Feature", "properties": {"zone_id": "0205EJTSYK8CB2A4ZNMJWB", "tract_id": "36047090600", "city": "BROOKLYN, NY", "zone_code": "C4-3", "zone_category": "Commercial", "ev_permitted": true}, "geometry": {"type": "Polygon", "coordinates": [[[-73.9086981571827, 40.6696528267256], [-73.9085136351662, 40.6696823444691], [-73.9085300884865, 40.6697448243102], [-73.9087146097448, 40.6697153072424], [-73.9086981571827, 40.6696528267256]]]}}, {"type": "Feature", "properties": {"zone_id": "0201E3OT1GF4YGQEE2PWEW", "tract_id": "36047090600", "city": "BROOKLYN, NY", "zone_code": "C4-3", "zone_category": "Commercial", "ev_permitted": true}, "geometry": {"type": "Polygon", "coordinates": [[[-73.9092007852391, 40.6693320793315], [-73.9088380978957, 40.6693856881808], [-73.9088511422034, 40.6694362410818], [-73.9092131661644, 40.6693827300409], [-73.9092007852391, 40.6693320793315]]]}}, {"type": "Feature", "properties": {"zone_id": "0207CZCYW5Z0YPZNVN6NXS", "tract_id": "36047090600", "city": "BROOKLYN, NY", "zone_code": "C1-3", "zone_category": "Commercial", "ev_permitted": true}, "geometry": {"type": "Polygon", "coordinates": [[[-73.909151487593, 40.6691330293216], [-73.9087868122005, 40.6691869322609], [-73.9087990201678, 40.6692342438231], [-73.9091636939614, 40.6691803422493], [-73.909151487593, 40.6691330293216]]]}}, {"type": "Feature", "properties": {"zone_id": "02035248RFV0XTR42JLHST", "tract_id": "36047090600", "city": "BROOKLYN, NY", "zone_code": "C4-3", "zone_category": "Commercial", "ev_permitted": true}, "geometry": {"type": "Polygon", "coordinates": [[[-73.9091884043326, 40.6692814286206], [-73.9088250536078, 40.669335135278], [-73.9088380978957, 40.6693856881808], [-73.9092007852391, 40.6693320793315], [-73.9091884043326, 40.6692814286206]]]}}, {"type": "Feature", "properties": {"zone_id": "0201YY3PW2U04NO1J2MQG6", "tract_id": "36047090600", "city": "BROOKLYN, NY", "zone_code": "C4-3", "zone_category": "Commercial", "ev_permitted": true}, "geometry": {"type": "Polygon", "coordinates": [[[-73.9091760234449, 40.669230777908], [-73.9088120093396, 40.6692845823735], [-73.9088250536078, 40.669335135278], [-73.9091884043326, 40.6692814286206], [-73.9091760234449, 40.669230777908]]]}}, {"type": "Feature", "properties": {"zone_id": "0202XX23C3SBO5625PGXBF", "tract_id": "36047090600", "city": "BROOKLYN, NY", "zone_code": "R6", "zone_category": "Residential", "ev_permitted": false}, "geometry": {"type": "Polygon", "coordinates": [[[-73.9091636939614, 40.6691803422493], [-73.9087990201678, 40.6692342438231], [-73.9088120093396, 40.6692845823735], [-73.9091760234449, 40.669230777908], [-73.9091636939614, 40.6691803422493]]]}}, {"type": "Feature", "properties": {"zone_id": "02028A17VCFDQHMWIJ8RX9", "tract_id": "36047090600", "city": "BROOKLYN, NY", "zone_code": "R7A", "zone_category": "Residential", "ev_permitted": false}, "geometry": {"type": "Polygon", "coordinates": [[[-73.9083094142483, 40.6695762209775], [-73.9079466670806, 40.6696342481258], [-73.9079658742588, 40.6697089509702], [-73.9083290657944, 40.6696508538493], [-73.9083094142483, 40.6695762209775]]]}}, {"type": "Feature", "properties": {"zone_id": "0204H8G3UT2WRFX1OBRYEG", "tract_id": "36047090600", "city": "BROOKLYN, NY", "zone_code": "R7A", "zone_category": "Residential", "ev_permitted": false}, "geometry": {"type": "Polygon", "coordinates": [[[-73.9086301044276, 40.669394396408], [-73.9082764319453, 40.6694509667504], [-73.9082941491197, 40.6695182496352], [-73.9086478219428, 40.6694616799415], [-73.9086301044276, 40.669394396408]]]}}, {"type": "Feature", "properties": {"zone_id": "0200QVPJ29BIFH545CMMVW", "tract_id": "36047090600", "city": "BROOKLYN, NY", "zone_code": "R7A", "zone_category": "Residential", "ev_permitted": false}, "geometry": {"type": "Polygon", "coordinates": [[[-73.9082926591461, 40.6695125913059], [-73.9079302898317, 40.6695705575722], [-73.9079466670806, 40.6696342481258], [-73.9083094142483, 40.6695762209775], [-73.9082926591461, 40.6695125913059]]]}}, {"type": "Feature", "properties": {"zone_id": "0205I8ENYFO2GGGHTSNAYR", "tract_id": "36047090600", "city": "BROOKLYN, NY", "zone_code": "R7A", "zone_category": "Residential", "ev_permitted": false}, "geometry": {"type": "Polygon", "coordinates": [[[-73.9082565418219, 40.6693754321606], [-73.9078949901046, 40.6694332682727], [-73.9079302898317, 40.6695705575722], [-73.9082926591461, 40.6695125913059], [-73.9082565418219, 40.6693754321606]]]}}, {"type": "Feature", "properties": {"zone_id": "0202AQ1MM090OSP3ZPMUQM", "tract_id": "36047090600", "city": "BROOKLYN, NY", "zone_code": "R7A", "zone_category": "Residential", "ev_permitted": false}, "geometry": {"type": "Polygon", "coordinates": [[[-73.9085592347224, 40.669125263647], [-73.9082055626842, 40.6691818337726], [-73.9082229327043, 40.6692477960894], [-73.9085766041537, 40.6691912266128], [-73.9085592347224, 40.669125263647]]]}}, {"type": "Feature", "properties": {"zone_id": "0204MR9UB2HDSWNI1ZHAAD", "tract_id": "36047090600", "city": "BROOKLYN, NY", "zone_code": "R7A", "zone_category": "Residential", "ev_permitted": false}, "geometry": {"type": "Polygon", "coordinates": [[[-73.9085766041537, 40.6691912266128], [-73.9082229327043, 40.6692477960894], [-73.9082409977047, 40.6693164002684], [-73.9085946695035, 40.669259830034], [-73.9085766041537, 40.6691912266128]]]}}, {"type": "Feature", "properties": {"zone_id": "0203JAZ2JBYC8NOZ9E1U30", "tract_id": "36047090600", "city": "BROOKLYN, NY", "zone_code": "R7A", "zone_category": "Residential", "ev_permitted": false}, "geometry": {"type": "Polygon", "coordinates": [[[-73.9085946695035, 40.669259830034], [-73.9082409977047, 40.6693164002684], [-73.9082585018221, 40.6693828756298], [-73.9086121730435, 40.6693262997201], [-73.9085946695035, 40.669259830034]]]}}, {"type": "Feature", "properties": {"zone_id": "0205XM1UMIY6TO91WKNJXC", "tract_id": "36047090600", "city": "BROOKLYN, NY", "zone_code": "R7A", "zone_category": "Residential", "ev_permitted": false}, "geometry": {"type": "Polygon", "coordinates": [[[-73.9086121730435, 40.6693262997201], [-73.9082585018221, 40.6693828756298], [-73.9082764319453, 40.6694509667504], [-73.9086301044276, 40.669394396408], [-73.9086121730435, 40.6693262997201]]]}}, {"type": "Feature", "properties": {"zone_id": "0200AQL800COA6SMZS526Q", "tract_id": "36047090600", "city": "BROOKLYN, NY", "zone_code": "R7A", "zone_category": "Residential", "ev_permitted": false}, "geometry": {"type": "Polygon", "coordinates": [[[-73.9082229327043, 40.6692477960894], [-73.9078621431416, 40.6693055167672], [-73.9078949901046, 40.6694332682727], [-73.9082565418219, 40.6693754321606], [-73.9082229327043, 40.6692477960894]]]}}, {"type": "Feature", "properties": {"zone_id": "0200OOVE1LP0OWXM9EB7XX", "tract_id": "36047090600", "city": "BROOKLYN, NY", "zone_code": "R7A", "zone_category": "Residential", "ev_permitted": false}, "geometry": {"type": "Polygon", "coordinates": [[[-73.9082055626842, 40.6691818337726], [-73.9078451666753, 40.669239490769], [-73.9078621431416, 40.6693055167672], [-73.9082229327043, 40.6692477960894], [-73.9082055626842, 40.6691818337726]]]}}, {"type": "Feature", "properties": {"zone_id": "02005SFICP1BA17BDI7LWT", "tract_id": "36047090600", "city": "", "zone_code": "C4-3", "zone_category": "Commercial", "ev_permitted": true}, "geometry": {"type": "Polygon", "coordinates": [[[-73.9100339291693, 40.6688601127504], [-73.9096674200706, 40.668914668416], [-73.9097342951614, 40.6691628530806], [-73.9104592324922, 40.6690598308767], [-73.9104419424555, 40.6689924833081], [-73.9100810809049, 40.6690437667633], [-73.9100339291693, 40.6688601127504]]]}}, {"type": "Feature", "properties": {"zone_id": "0200FQ49CEI0KSM9MPUEWY", "tract_id": "36047090600", "city": "BROOKLYN, NY", "zone_code": "C4-3", "zone_category": "Commercial", "ev_permitted": true}, "geometry": {"type": "Polygon", "coordinates": [[[-73.9104236545525, 40.668921259069], [-73.910062794297, 40.6689725417653], [-73.9100810809049, 40.6690437667633], [-73.9104419424555, 40.6689924833081], [-73.9104236545525, 40.668921259069]]]}}, {"type": "Feature", "properties": {"zone_id": "0206U6LWSKIUKCNS6DJUIF", "tract_id": "36047090600", "city": "BROOKLYN, NY", "zone_code": "C4-3", "zone_category": "Commercial", "ev_permitted": true}, "geometry": {"type": "Polygon", "coordinates": [[[-73.9104067216855, 40.6688553107746], [-73.9100458626956, 40.6689065941216], [-73.910062794297, 40.6689725417653], [-73.9104236545525, 40.668921259069], [-73.9104067216855, 40.6688553107746]]]}}, {"type": "Feature", "properties": {"zone_id": "0202XB7K55NWVKC38IBO7K", "tract_id": "36047090600", "city": "BROOKLYN, NY", "zone_code": "C4-3", "zone_category": "Commercial", "ev_permitted": true}, "geometry": {"type": "Polygon", "coordinates": [[[-73.9104592324922, 40.6690598308767], [-73.9100983724371, 40.6691111136845], [-73.910133740502, 40.6692488661208], [-73.910494601276, 40.6691975825003], [-73.9104592324922, 40.6690598308767]]]}}, {"type": "Feature", "properties": {"zone_id": "0206N6IPOZ732Q1JX0CM34", "tract_id": "36047090600", "city": "BROOKLYN, NY", "zone_code": "C4-3", "zone_category": "Commercial", "ev_permitted": true}, "geometry": {"type": "Polygon", "coordinates": [[[-73.9100983724371, 40.6691111136845], [-73.9097342951614, 40.6691628530806], [-73.9097524106161, 40.6692300833548], [-73.9101156630805, 40.6691784613044], [-73.9100983724371, 40.6691111136845]]]}}, {"type": "Feature", "properties": {"zone_id": "0200WEGXWQYJHA6Z6UBF9J", "tract_id": "36047090600", "city": "BROOKLYN, NY", "zone_code": "C4-3", "zone_category": "Commercial", "ev_permitted": true}, "geometry": {"type": "Polygon", "coordinates": [[[-73.910320122706, 40.6685180197401], [-73.9099592645525, 40.6685693021142], [-73.9100458626956, 40.6689065941216], [-73.9104067216855, 40.6688553107746], [-73.910320122706, 40.6685180197401]]]}}, {"type": "Feature", "properties": {"zone_id": "0205LUNUC1Q3HNPVGR4UJ3", "tract_id": "36047090600", "city": "BROOKLYN, NY", "zone_code": "C1-3", "zone_category": "Commercial", "ev_permitted": true}, "geometry": {"type": "Polygon", "coordinates": [[[-73.9094658902679, 40.6689257378533], [-73.9091115151905, 40.6689781223376], [-73.909124547698, 40.6690286246088], [-73.909478835352, 40.668976249853], [-73.9094658902679, 40.6689257378533]]]}}, {"type": "Feature", "properties": {"zone_id": "02013ORB0H2BXAQ39CUEDM", "tract_id": "36047090600", "city": "BROOKLYN, NY", "zone_code": "R6", "zone_category": "Residential", "ev_permitted": false}, "geometry": {"type": "Polygon", "coordinates": [[[-73.909478835352, 40.668976249853], [-73.909124547698, 40.6690286246088], [-73.9091375774605, 40.6690791240655], [-73.9094917813786, 40.6690267618516], [-73.909478835352, 40.668976249853]]]}}, {"type": "Feature", "properties": {"zone_id": "02030JTD8G83DEDL9O3E3U", "tract_id": "36047090600", "city": "BROOKLYN, NY", "zone_code": "C1-3", "zone_category": "Commercial", "ev_permitted": true}, "geometry": {"type": "Polygon", "coordinates": [[[-73.9094917813786, 40.6690267618516], [-73.9091375774605, 40.6690791240655], [-73.9091506090885, 40.6691296235218], [-73.9095047274247, 40.6690772738486], [-73.9094917813786, 40.6690267618516]]]}}, {"type": "Feature", "properties": {"zone_id": "02030G42W565G2M51UT9AD", "tract_id": "36047090600", "city": "BROOKLYN, NY", "zone_code": "C1-3", "zone_category": "Commercial", "ev_permitted": true}, "geometry": {"type": "Polygon", "coordinates": [[[-73.9095047274247, 40.6690772738486], [-73.9091506090885, 40.6691296235218], [-73.9091636398133, 40.6691801229756], [-73.9095176725676, 40.669127785843], [-73.9095047274247, 40.6690772738486]]]}}, {"type": "Feature", "properties": {"zone_id": "0205IF0OC20L5P960UGRVH", "tract_id": "36047090600", "city": "BROOKLYN, NY", "zone_code": "R6", "zone_category": "Residential", "ev_permitted": false}, "geometry": {"type": "Polygon", "coordinates": [[[-73.9095176725676, 40.669127785843], [-73.9091636398133, 40.6691801229756], [-73.909176009681, 40.6692307202787], [-73.9095306186531, 40.6691782978364], [-73.9095176725676, 40.669127785843]]]}}, {"type": "Feature", "properties": {"zone_id": "02077FW1BK3ON0WFUYIOSM", "tract_id": "36047090600", "city": "BROOKLYN, NY", "zone_code": "C4-3", "zone_category": "Commercial", "ev_permitted": true}, "geometry": {"type": "Polygon", "coordinates": [[[-73.9099009035709, 40.6686527798975], [-73.9097999084611, 40.6686671320542], [-73.9097988013711, 40.6686628217523], [-73.9096069058466, 40.6686900918649], [-73.9096256013516, 40.6687594734711], [-73.9099176145035, 40.6687179755422], [-73.9099009035709, 40.6686527798975]]]}}, {"type": "Feature", "properties": {"zone_id": "0206IJSB1FRKR0F0IX5Y9P", "tract_id": "36047090600", "city": "BROOKLYN, NY", "zone_code": "C4-3", "zone_category": "Commercial", "ev_permitted": true}, "geometry": {"type": "Polygon", "coordinates": [[[-73.9099592645525, 40.6685693021142], [-73.9095885537872, 40.6686219844536], [-73.9096069058466, 40.6686900918649], [-73.9097988013711, 40.6686628217523], [-73.9097999084611, 40.6686671320542], [-73.9099009035709, 40.6686527798975], [-73.909934785526, 40.6687848565306], [-73.9100117976349, 40.6687739116844], [-73.9099592645525, 40.6685693021142]]]}}, {"type": "Feature", "properties": {"zone_id": "0204N2QDY7NXCTUAUCJQ8B", "tract_id": "36047090600", "city": "BROOKLYN, NY", "zone_code": "C4-3", "zone_category": "Commercial", "ev_permitted": true}, "geometry": {"type": "Polygon", "coordinates": [[[-73.9099176145035, 40.6687179755422], [-73.9096256013516, 40.6687594734711], [-73.9096674200706, 40.668914668416], [-73.9100339291693, 40.6688601127504], [-73.9100117976349, 40.6687739116844], [-73.909934785526, 40.6687848565306], [-73.9099176145035, 40.6687179755422]]]}}, {"type": "Feature", "properties": {"zone_id": "020015Q1X2GXYU3J9TE02D", "tract_id": "36047090600", "city": "BROOKLYN, NY", "zone_code": "R6", "zone_category": "Residential", "ev_permitted": false}, "geometry": {"type": "Polygon", "coordinates": [[[-73.9093943126071, 40.6686464508498], [-73.9092125962107, 40.6686733109393], [-73.9092846309467, 40.6689525337709], [-73.9094658902679, 40.6689257378533], [-73.9093943126071, 40.6686464508498]]]}}, {"type": "Feature", "properties": {"zone_id": "0207O9R4YLX6L5E3CLAL86", "tract_id": "36047090600", "city": "BROOKLYN, NY", "zone_code": "C4-3", "zone_category": "Commercial", "ev_permitted": true}, "geometry": {"type": "Polygon", "coordinates": [[[-73.9102429670412, 40.6682175892797], [-73.9100561720832, 40.6682451262149], [-73.9100925684194, 40.6683850219028], [-73.9102793637542, 40.668357484909], [-73.9102429670412, 40.6682175892797]]]}}, {"type": "Feature", "properties": {"zone_id": "020457RRSBQ2KOGKOV600H", "tract_id": "36047090600", "city": "BROOKLYN, NY", "zone_code": "C4-3", "zone_category": "Commercial", "ev_permitted": true}, "geometry": {"type": "Polygon", "coordinates": [[[-73.9100561720832, 40.6682451262149], [-73.9099668029645, 40.6682583008089], [-73.9100031991205, 40.6683981965249], [-73.9100925684194, 40.6683850219028], [-73.9100561720832, 40.6682451262149]]]}}, {"type": "Feature", "properties": {"zone_id": "02021BGVKR6B3AT9J75IKA", "tract_id": "36047090600", "city": "BROOKLYN, NY", "zone_code": "C4-3", "zone_category": "Commercial", "ev_permitted": true}, "geometry": {"type": "Polygon", "coordinates": [[[-73.9099668029645, 40.6682583008089], [-73.9098835062061, 40.6682705806814], [-73.9099199031178, 40.6684104757216], [-73.9100031991205, 40.6683981965249], [-73.9099668029645, 40.6682583008089]]]}}, {"type": "Feature", "properties": {"zone_id": "0200FYYTFF9L9EWRYAV625", "tract_id": "36047090600", "city": "BROOKLYN, NY", "zone_code": "C4-3", "zone_category": "Commercial", "ev_permitted": true}, "geometry": {"type": "Polygon", "coordinates": [[[-73.9098835062061, 40.6682705806814], [-73.9095253711496, 40.6683233745543], [-73.9095615568943, 40.6684633011613], [-73.9099199031178, 40.6684104757216], [-73.9098835062061, 40.6682705806814]]]}}, {"type": "Feature", "properties": {"zone_id": "02004TL0BLQ4XK0H4NMTZS", "tract_id": "36047090600", "city": "BROOKLYN, NY", "zone_code": "R6", "zone_category": "Residential", "ev_permitted": false}, "geometry": {"type": "Polygon", "coordinates": [[[-73.909190643674, 40.6682236340742], [-73.9091066640109, 40.6682365347023], [-73.9091757132006, 40.6685213575928], [-73.9092597932261, 40.668508875781], [-73.909190643674, 40.6682236340742]]]}}, {"type": "Feature", "properties": {"zone_id": "0200DC64343TLE2TY1T1DE", "tract_id": "36047090600", "city": "BROOKLYN, NY", "zone_code": "R6", "zone_category": "Residential", "ev_permitted": false}, "geometry": {"type": "Polygon", "coordinates": [[[-73.9091393923042, 40.6690861563473], [-73.9087747180802, 40.6691400599519], [-73.9087868122005, 40.6691869322609], [-73.909151487593, 40.6691330293216], [-73.9091393923042, 40.6690861563473]]]}}, {"type": "Feature", "properties": {"zone_id": "0204UM0KR0QGMHQHPUS7Q3", "tract_id": "36047090600", "city": "BROOKLYN, NY", "zone_code": "C1-3", "zone_category": "Commercial", "ev_permitted": true}, "geometry": {"type": "Polygon", "coordinates": [[[-73.9091276825866, 40.6690407747273], [-73.9087630076794, 40.6690946775917], [-73.9087747180802, 40.6691400599519], [-73.9091393923042, 40.6690861563473], [-73.9091276825866, 40.6690407747273]]]}}, {"type": "Feature", "properties": {"zone_id": "0205O5ZB4FPTNY7T8Y9AXT", "tract_id": "36047090600", "city": "BROOKLYN, NY", "zone_code": "C1-3", "zone_category": "Commercial", "ev_permitted": true}, "geometry": {"type": "Polygon", "coordinates": [[[-73.9091115151905, 40.6689781223376], [-73.9087468415355, 40.6690320251519], [-73.9087630076794, 40.6690946775917], [-73.9091276825866, 40.6690407747273], [-73.9091115151905, 40.6689781223376]]]}}, {"type": "Feature", "properties": {"zone_id": "02036VO9G5WCYF6PXOGFJN", "tract_id": "36047090600", "city": "BROOKLYN, NY", "zone_code": "C1-3", "zone_category": "Commercial", "ev_permitted": true}, "geometry": {"type": "Polygon", "coordinates": [[[-73.9085221347556, 40.6689843740614], [-73.9084394815064, 40.6689975956713], [-73.9084588640484, 40.6690712024237], [-73.908541517385, 40.6690579807999], [-73.9085221347556, 40.6689843740614]]]}}, {"type": "Feature", "properties": {"zone_id": "0204W6LA9CNZPTNLWFTWVK", "tract_id": "36047090600", "city": "BROOKLYN, NY", "zone_code": "C1-3", "zone_category": "Commercial", "ev_permitted": true}, "geometry": {"type": "Polygon", "coordinates": [[[-73.9088607725439, 40.6687253151192], [-73.908795511414, 40.6687349615581], [-73.9088675435487, 40.6690141839454], [-73.9089328058652, 40.669004536764], [-73.9088607725439, 40.6687253151192]]]}}, {"type": "Feature", "properties": {"zone_id": "0205WP1YRARYG8IONMX8SL", "tract_id": "36047090600", "city": "BROOKLYN, NY", "zone_code": "R6", "zone_category": "Residential", "ev_permitted": false}, "geometry": {"type": "Polygon", "coordinates": [[[-73.9092125962107, 40.6686733109393], [-73.9088607725439, 40.6687253151192], [-73.9089328058652, 40.669004536764], [-73.9092846309467, 40.6689525337709], [-73.9092125962107, 40.6686733109393]]]}}, {"type": "Feature", "properties": {"zone_id": "0201WN2W9RBXB1LAQY0IX9", "tract_id": "36047090600", "city": "BROOKLYN, NY", "zone_code": "R6", "zone_category": "Residential", "ev_permitted": false}, "geometry": {"type": "Polygon", "coordinates": [[[-73.908795511414, 40.6687349615581], [-73.9086747941971, 40.6687528040825], [-73.9087468415355, 40.6690320251519], [-73.9088675435487, 40.6690141839454], [-73.908795511414, 40.6687349615581]]]}}, {"type": "Feature", "properties": {"zone_id": "0204A358A4S4IDZLORDG83", "tract_id": "36047090600", "city": "BROOKLYN, NY", "zone_code": "C1-3", "zone_category": "Commercial", "ev_permitted": true}, "geometry": {"type": "Polygon", "coordinates": [[[-73.9083851862002, 40.6687914015839], [-73.9082977112879, 40.6688053949925], [-73.9083713878618, 40.6690851958871], [-73.9084588640484, 40.6690712024237], [-73.9083851862002, 40.6687914015839]]]}}, {"type": "Feature", "properties": {"zone_id": "0202461B9NIGMTX0NVV2BA", "tract_id": "36047090600", "city": "BROOKLYN, NY", "zone_code": "R7A", "zone_category": "Residential", "ev_permitted": false}, "geometry": {"type": "Polygon", "coordinates": [[[-73.908541517385, 40.6690579807999], [-73.9081878456895, 40.6691145501688], [-73.9082055626842, 40.6691818337726], [-73.9085592347224, 40.669125263647], [-73.908541517385, 40.6690579807999]]]}}, {"type": "Feature", "properties": {"zone_id": "0206XP29UXCE4AAW8PJF7K", "tract_id": "36047090600", "city": "BROOKLYN, NY", "zone_code": "C1-3", "zone_category": "Commercial", "ev_permitted": true}, "geometry": {"type": "Polygon", "coordinates": [[[-73.9082024450953, 40.6688206342638], [-73.9081141707672, 40.6688347554824], [-73.9081878456895, 40.6691145501688], [-73.9082761222092, 40.6691004352196], [-73.9082024450953, 40.6688206342638]]]}}, {"type": "Feature", "properties": {"zone_id": "0201IK05M6Y75KTFLLU11A", "tract_id": "36047090600", "city": "BROOKLYN, NY", "zone_code": "R6", "zone_category": "Residential", "ev_permitted": false}, "geometry": {"type": "Polygon", "coordinates": [[[-73.9082977112879, 40.6688053949925], [-73.9082024450953, 40.6688206342638], [-73.9082761222092, 40.6691004352196], [-73.9083713878618, 40.6690851958871], [-73.9082977112879, 40.6688053949925]]]}}, {"type": "Feature", "properties": {"zone_id": "0204S0ANT654CK2ME738DN", "tract_id": "36047090600", "city": "BROOKLYN, NY", "zone_code": "R7A", "zone_category": "Residential", "ev_permitted": false}, "geometry": {"type": "Polygon", "coordinates": [[[-73.9079393582098, 40.6688627194456], [-73.907755840449, 40.6688920758687], [-73.907827850623, 40.6691721434888], [-73.9080130351894, 40.6691425205692], [-73.9079393582098, 40.6688627194456]]]}}, {"type": "Feature", "properties": {"zone_id": "0206L1XO75GS399OJLGTRE", "tract_id": "36047090600", "city": "BROOKLYN, NY", "zone_code": "R7A", "zone_category": "Residential", "ev_permitted": false}, "geometry": {"type": "Polygon", "coordinates": [[[-73.9080268508099, 40.6688487235129], [-73.9079393582098, 40.6688627194456], [-73.9080130351894, 40.6691425205692], [-73.9081005272182, 40.6691285245803], [-73.9080268508099, 40.6688487235129]]]}}, {"type": "Feature", "properties": {"zone_id": "0206EK56K8DCBVIJ1E7VSM", "tract_id": "36047090600", "city": "BROOKLYN, NY", "zone_code": "C1-3", "zone_category": "Commercial", "ev_permitted": true}, "geometry": {"type": "Polygon", "coordinates": [[[-73.9081141707672, 40.6688347554824], [-73.9080268508099, 40.6688487235129], [-73.9081005272182, 40.6691285245803], [-73.9081878456895, 40.6691145501688], [-73.9081141707672, 40.6688347554824]]]}}, {"type": "Feature", "properties": {"zone_id": "0207MF15SUPCPB9Z3PHULQ", "tract_id": "36047090600", "city": "BROOKLYN, NY", "zone_code": "R7A", "zone_category": "Residential", "ev_permitted": false}, "geometry": {"type": "Polygon", "coordinates": [[[-73.9081878456895, 40.6691145501688], [-73.907827850623, 40.6691721434888], [-73.9078451666753, 40.669239490769], [-73.9082055626842, 40.6691818337726], [-73.9081878456895, 40.6691145501688]]]}}, {"type": "Feature", "properties": {"zone_id": "02049R0U0T4F2VRZUZ2V67", "tract_id": "36047090600", "city": "BROOKLYN, NY", "zone_code": "R6", "zone_category": "Residential", "ev_permitted": false}, "geometry": {"type": "Polygon", "coordinates": [[[-73.9084678382818, 40.6687781800119], [-73.9083851862002, 40.6687914015839], [-73.9084394815064, 40.6689975956713], [-73.9085221347556, 40.6689843740614], [-73.9084678382818, 40.6687781800119]]]}}, {"type": "Feature", "properties": {"zone_id": "0201ENYK0SRTJM5ZRNP6RI", "tract_id": "36047090600", "city": "BROOKLYN, NY", "zone_code": "R6", "zone_category": "Residential", "ev_permitted": false}, "geometry": {"type": "Polygon", "coordinates": [[[-73.9089272556143, 40.6682640946124], [-73.9088417528886, 40.668277228531], [-73.9089120092218, 40.6685605059739], [-73.9089976178407, 40.6685477971984], [-73.9089272556143, 40.6682640946124]]]}}, {"type": "Feature", "properties": {"zone_id": "0204IJWY3A3LSHKLJW3V5K", "tract_id": "36047090600", "city": "BROOKLYN, NY", "zone_code": "C1-3", "zone_category": "Commercial", "ev_permitted": true}, "geometry": {"type": "Polygon", "coordinates": [[[-73.9088417528886, 40.668277228531], [-73.9087490922067, 40.6682914627006], [-73.9088192343623, 40.6685742791623], [-73.9089120092218, 40.6685605059739], [-73.9088417528886, 40.668277228531]]]}}, {"type": "Feature", "properties": {"zone_id": "0201O8XIJ9S4D4Z60UTC44", "tract_id": "36047090600", "city": "BROOKLYN, NY", "zone_code": "C1-3", "zone_category": "Commercial", "ev_permitted": true}, "geometry": {"type": "Polygon", "coordinates": [[[-73.9087490922067, 40.6682914627006], [-73.9085689155727, 40.66831913949], [-73.908638834899, 40.6686010599886], [-73.9088192343623, 40.6685742791623], [-73.9087490922067, 40.6682914627006]]]}}, {"type": "Feature", "properties": {"zone_id": "0201CR0B2LPXKA9A0T3X58", "tract_id": "36047090600", "city": "BROOKLYN, NY", "zone_code": "R6", "zone_category": "Residential", "ev_permitted": false}, "geometry": {"type": "Polygon", "coordinates": [[[-73.9090195885539, 40.6682499099292], [-73.9089272556143, 40.6682640946124], [-73.9089976178407, 40.6685477971984], [-73.9090900649599, 40.6685340727935], [-73.9090195885539, 40.6682499099292]]]}}, {"type": "Feature", "properties": {"zone_id": "0201GKZBK6UFXWMM4PFURO", "tract_id": "36047090600", "city": "BROOKLYN, NY", "zone_code": "R6", "zone_category": "Residential", "ev_permitted": false}, "geometry": {"type": "Polygon", "coordinates": [[[-73.9091066640109, 40.6682365347023], [-73.9090195885539, 40.6682499099292], [-73.9090900649599, 40.6685340727935], [-73.9091757132006, 40.6685213575928], [-73.9091066640109, 40.6682365347023]]]}}, {"type": "Feature", "properties": {"zone_id": "0203SMWA7DKUOZQSB7IHCD", "tract_id": "36047090600", "city": "BROOKLYN, NY", "zone_code": "C1-3", "zone_category": "Commercial", "ev_permitted": true}, "geometry": {"type": "Polygon", "coordinates": [[[-73.9083623075072, 40.6683508760147], [-73.9080985353935, 40.6683913933736], [-73.9081708716587, 40.6686698582804], [-73.9084347751838, 40.6686298404544], [-73.9083623075072, 40.6683508760147]]]}}, {"type": "Feature", "properties": {"zone_id": "0206ZZ9J431XI16ZL5TQGO", "tract_id": "36047090600", "city": "BROOKLYN, NY", "zone_code": "C1-3", "zone_category": "Commercial", "ev_permitted": true}, "geometry": {"type": "Polygon", "coordinates": [[[-73.9080985353935, 40.6683913933736], [-73.9080067549479, 40.6684054906292], [-73.9080790458663, 40.6686837819995], [-73.9081708716587, 40.6686698582804], [-73.9080985353935, 40.6683913933736]]]}}, {"type": "Feature", "properties": {"zone_id": "02074DBC7PH1LYN36F5FW0", "tract_id": "36047090600", "city": "BROOKLYN, NY", "zone_code": "C1-3", "zone_category": "Commercial", "ev_permitted": true}, "geometry": {"type": "Polygon", "coordinates": [[[-73.9080067549479, 40.6684054906292], [-73.9079139111537, 40.6684197520863], [-73.9079861558026, 40.6686978671093], [-73.9080790458663, 40.6686837819995], [-73.9080067549479, 40.6684054906292]]]}}, {"type": "Feature", "properties": {"zone_id": "0201QW442U5NBLJEEGRSIR", "tract_id": "36047090600", "city": "BROOKLYN, NY", "zone_code": "R6", "zone_category": "Residential", "ev_permitted": false}, "geometry": {"type": "Polygon", "coordinates": [[[-73.9079139111537, 40.6684197520863], [-73.9076436146463, 40.6684612707988], [-73.9077189722739, 40.6687383808689], [-73.9079861558026, 40.6686978671093], [-73.9079139111537, 40.6684197520863]]]}}, {"type": "Feature", "properties": {"zone_id": "0203E3RWRQDT36ON8EQSUN", "tract_id": "36047090600", "city": "BROOKLYN, NY", "zone_code": "C2-3", "zone_category": "Commercial", "ev_permitted": true}, "geometry": {"type": "Polygon", "coordinates": [[[-73.9078268110788, 40.6699504264854], [-73.9075263791727, 40.6699948698491], [-73.9075414897325, 40.6700540982307], [-73.9078419228181, 40.6700096548286], [-73.9078268110788, 40.6699504264854]]]}}, {"type": "Feature", "properties": {"zone_id": "02062EWOHINYDOKJBDODYH", "tract_id": "36047090600", "city": "BROOKLYN, NY", "zone_code": "R6", "zone_category": "Residential", "ev_permitted": false}, "geometry": {"type": "Polygon", "coordinates": [[[-73.907163827915, 40.6699486386171], [-73.9070720172705, 40.6699630251261], [-73.9071117445713, 40.6701176691073], [-73.9072037520583, 40.6701040588169], [-73.907163827915, 40.6699486386171]]]}}, {"type": "Feature", "properties": {"zone_id": "0207K11YUG7L9M7CNL2RPO", "tract_id": "36047090600", "city": "BROOKLYN, NY", "zone_code": "C2-3", "zone_category": "Commercial", "ev_permitted": true}, "geometry": {"type": "Polygon", "coordinates": [[[-73.9072520986722, 40.6699348067443], [-73.907163827915, 40.6699486386171], [-73.9072037520583, 40.6701040588169], [-73.9072922187722, 40.6700909722458], [-73.9072520986722, 40.6699348067443]]]}}, {"type": "Feature", "properties": {"zone_id": "02045D1TKRRY1XDTKDF94A", "tract_id": "36047090600", "city": "BROOKLYN, NY", "zone_code": "R6", "zone_category": "Residential", "ev_permitted": false}, "geometry": {"type": "Polygon", "coordinates": [[[-73.9077545947134, 40.6696673745153], [-73.90738976669, 40.6697245993112], [-73.9074048541232, 40.669783736348], [-73.9077696824571, 40.6697265115047], [-73.9077545947134, 40.6696673745153]]]}}, {"type": "Feature", "properties": {"zone_id": "020201PE12DQLXAVFH8KF6", "tract_id": "36047090600", "city": "BROOKLYN, NY", "zone_code": "R6", "zone_category": "Residential", "ev_permitted": false}, "geometry": {"type": "Polygon", "coordinates": [[[-73.9077696824571, 40.6697265115047], [-73.9074699086943, 40.6697735326175], [-73.9074844813, 40.669830650478], [-73.9077835659943, 40.669780929143], [-73.9077696824571, 40.6697265115047]]]}}, {"type": "Feature", "properties": {"zone_id": "0205CHPUSA4QPR6R4S5P3S", "tract_id": "36047090600", "city": "BROOKLYN, NY", "zone_code": "C2-3", "zone_category": "Commercial", "ev_permitted": true}, "geometry": {"type": "Polygon", "coordinates": [[[-73.9077835659943, 40.669780929143], [-73.9074844813, 40.669830650478], [-73.9074974201624, 40.6698813664636], [-73.9077971943906, 40.6698343452797], [-73.9077835659943, 40.669780929143]]]}}, {"type": "Feature", "properties": {"zone_id": "0204M6QHNE4ZJNNRLZYO0E", "tract_id": "36047090600", "city": "BROOKLYN, NY", "zone_code": "C2-3", "zone_category": "Commercial", "ev_permitted": true}, "geometry": {"type": "Polygon", "coordinates": [[[-73.9077971943906, 40.6698343452797], [-73.9074974201624, 40.6698813664636], [-73.9075114632188, 40.6699364075244], [-73.9078118948714, 40.6698919641993], [-73.9077971943906, 40.6698343452797]]]}}, {"type": "Feature", "properties": {"zone_id": "0203R6A7N4WWAFOZHNNLT3", "tract_id": "36047090600", "city": "BROOKLYN, NY", "zone_code": "C2-3", "zone_category": "Commercial", "ev_permitted": true}, "geometry": {"type": "Polygon", "coordinates": [[[-73.9078118948714, 40.6698919641993], [-73.9075114632188, 40.6699364075244], [-73.9075263791727, 40.6699948698491], [-73.9078268110788, 40.6699504264854], [-73.9078118948714, 40.6698919641993]]]}}, {"type": "Feature", "properties": {"zone_id": "0200OBF72VZ77X6IZT5Z1L", "tract_id": "36047090600", "city": "BROOKLYN, NY", "zone_code": "R6", "zone_category": "Residential", "ev_permitted": false}, "geometry": {"type": "Polygon", "coordinates": [[[-73.9074699086943, 40.6697735326175], [-73.9074222339484, 40.6697810099486], [-73.9074937175425, 40.6700611651576], [-73.9075414897325, 40.6700540982307], [-73.9074699086943, 40.6697735326175]]]}}, {"type": "Feature", "properties": {"zone_id": "0205BVWCAROD5TUYBI9FTF", "tract_id": "36047090600", "city": "BROOKLYN, NY", "zone_code": "R6", "zone_category": "Residential", "ev_permitted": false}, "geometry": {"type": "Polygon", "coordinates": [[[-73.9073876097719, 40.6697161445365], [-73.9070232676447, 40.6697732645673], [-73.9070406187629, 40.6698408045224], [-73.9074048541232, 40.669783736348], [-73.9073876097719, 40.6697161445365]]]}}, {"type": "Feature", "properties": {"zone_id": "0200GZB4ZQ9DPGR52IXI5T", "tract_id": "36047090600", "city": "BROOKLYN, NY", "zone_code": "R6", "zone_category": "Residential", "ev_permitted": false}, "geometry": {"type": "Polygon", "coordinates": [[[-73.907371146532, 40.6696516155571], [-73.9070066985745, 40.6697087663676], [-73.9070232676447, 40.6697732645673], [-73.9073876097719, 40.6697161445365], [-73.907371146532, 40.6696516155571]]]}}, {"type": "Feature", "properties": {"zone_id": "0203BM3G717JUXNIZBFXUU", "tract_id": "36047090600", "city": "BROOKLYN, NY", "zone_code": "R6", "zone_category": "Residential", "ev_permitted": false}, "geometry": {"type": "Polygon", "coordinates": [[[-73.9074222339484, 40.6697810099486], [-73.9073569126045, 40.6697912562997], [-73.90742825183, 40.6700708493025], [-73.9074937175425, 40.6700611651576], [-73.9074222339484, 40.6697810099486]]]}}, {"type": "Feature", "properties": {"zone_id": "0202D0PRM3QDM5BCZ7ORM0", "tract_id": "36047090600", "city": "BROOKLYN, NY", "zone_code": "R6", "zone_category": "Residential", "ev_permitted": false}, "geometry": {"type": "Polygon", "coordinates": [[[-73.9073569126045, 40.6697912562997], [-73.9072911195702, 40.6698015760133], [-73.9073627860986, 40.6700805334101], [-73.90742825183, 40.6700708493025], [-73.9073569126045, 40.6697912562997]]]}}, {"type": "Feature", "properties": {"zone_id": "0202PECINUJUL4QIGAXYOQ", "tract_id": "36047090600", "city": "BROOKLYN, NY", "zone_code": "R6", "zone_category": "Residential", "ev_permitted": false}, "geometry": {"type": "Polygon", "coordinates": [[[-73.9072911195702, 40.6698015760133], [-73.9072207085669, 40.6698126206268], [-73.9072922187722, 40.6700909722458], [-73.9073627860986, 40.6700805334101], [-73.9072911195702, 40.6698015760133]]]}}, {"type": "Feature", "properties": {"zone_id": "0205TJFXDS94WCTBTKK3EQ", "tract_id": "36047090600", "city": "BROOKLYN, NY", "zone_code": "R6", "zone_category": "Residential", "ev_permitted": false}, "geometry": {"type": "Polygon", "coordinates": [[[-73.9072207085669, 40.6698126206268], [-73.9070406187629, 40.6698408045224], [-73.9070547170319, 40.6698956819636], [-73.9072347977977, 40.6698674636082], [-73.9072207085669, 40.6698126206268]]]}}, {"type": "Feature", "properties": {"zone_id": "0204TY51SKJIPQ1A78JJMS", "tract_id": "36047090600", "city": "BROOKLYN, NY", "zone_code": "C2-3", "zone_category": "Commercial", "ev_permitted": true}, "geometry": {"type": "Polygon", "coordinates": [[[-73.9072347977977, 40.6698674636082], [-73.9070547170319, 40.6698956819636], [-73.9070720172705, 40.6699630251261], [-73.9072520986722, 40.6699348067443], [-73.9072347977977, 40.6698674636082]]]}}, {"type": "Feature", "properties": {"zone_id": "02019VKO04YB3B12SS8PU8", "tract_id": "36047090600", "city": "BROOKLYN, NY", "zone_code": "C1-3", "zone_category": "Commercial", "ev_permitted": true}, "geometry": {"type": "Polygon", "coordinates": [[[-73.9076968497762, 40.6694410453481], [-73.9073320229413, 40.6694982699624], [-73.9073464595339, 40.6695548523034], [-73.9077112857431, 40.669497627643], [-73.9076968497762, 40.6694410453481]]]}}, {"type": "Feature", "properties": {"zone_id": "0207JBKI7VPERB3UNK0NVB", "tract_id": "36047090600", "city": "BROOKLYN, NY", "zone_code": "C1-3", "zone_category": "Commercial", "ev_permitted": true}, "geometry": {"type": "Polygon", "coordinates": [[[-73.9077112857431, 40.669497627643], [-73.9073464595339, 40.6695548523034], [-73.9073608952281, 40.6696114346416], [-73.9077257217344, 40.6695542099357], [-73.9077112857431, 40.669497627643]]]}}, {"type": "Feature", "properties": {"zone_id": "02037Q01DZ4HDCCOZNSOT0", "tract_id": "36047090600", "city": "BROOKLYN, NY", "zone_code": "C1-3", "zone_category": "Commercial", "ev_permitted": true}, "geometry": {"type": "Polygon", "coordinates": [[[-73.9077257217344, 40.6695542099357], [-73.9073608952281, 40.6696114346416], [-73.9073753309469, 40.6696680169775], [-73.9077401586731, 40.669610792227], [-73.9077257217344, 40.6695542099357]]]}}, {"type": "Feature", "properties": {"zone_id": "020050MHPNMRT7WIMK8A7X", "tract_id": "36047090600", "city": "BROOKLYN, NY", "zone_code": "R6", "zone_category": "Residential", "ev_permitted": false}, "geometry": {"type": "Polygon", "coordinates": [[[-73.9077401586731, 40.669610792227], [-73.9073753309469, 40.6696680169775], [-73.90738976669, 40.6697245993112], [-73.9077545947134, 40.6696673745153], [-73.9077401586731, 40.669610792227]]]}}, {"type": "Feature", "properties": {"zone_id": "0202GWMCED8SXYZP7L0Z5J", "tract_id": "36047090600", "city": "BROOKLYN, NY", "zone_code": "C1-3", "zone_category": "Commercial", "ev_permitted": true}, "geometry": {"type": "Polygon", "coordinates": [[[-73.9073195789887, 40.669449493705], [-73.9069547721959, 40.669506638441], [-73.9070066985745, 40.6697087663676], [-73.907371146532, 40.6696516155571], [-73.9073195789887, 40.669449493705]]]}}, {"type": "Feature", "properties": {"zone_id": "02079RCU5V13Y746J7529A", "tract_id": "36047090600", "city": "BROOKLYN, NY", "zone_code": "C1-3", "zone_category": "Commercial", "ev_permitted": true}, "geometry": {"type": "Polygon", "coordinates": [[[-73.907632502265, 40.6691888324599], [-73.9072676767544, 40.6692460568719], [-73.9072862719065, 40.6693189422534], [-73.9076510968779, 40.6692617170796], [-73.907632502265, 40.6691888324599]]]}}, {"type": "Feature", "properties": {"zone_id": "0205FJWSH55RZOBRRPPAJ3", "tract_id": "36047090600", "city": "BROOKLYN, NY", "zone_code": "C1-3", "zone_category": "Commercial", "ev_permitted": true}, "geometry": {"type": "Polygon", "coordinates": [[[-73.9076510968779, 40.6692617170796], [-73.9072862719065, 40.6693189422534], [-73.9073028093328, 40.669383757994], [-73.9076676337207, 40.6693265334701], [-73.9076510968779, 40.6692617170796]]]}}, {"type": "Feature", "properties": {"zone_id": "0206OYJU3UAXGZ7HBD8H9N", "tract_id": "36047090600", "city": "BROOKLYN, NY", "zone_code": "R6", "zone_category": "Residential", "ev_permitted": false}, "geometry": {"type": "Polygon", "coordinates": [[[-73.9076676337207, 40.6693265334701], [-73.9073028093328, 40.669383757994], [-73.9073175872961, 40.66944168762], [-73.9076824138339, 40.6693844630511], [-73.9076676337207, 40.6693265334701]]]}}, {"type": "Feature", "properties": {"zone_id": "0203HR4EYYQLKOMJE5LUNB", "tract_id": "36047090600", "city": "BROOKLYN, NY", "zone_code": "C1-3", "zone_category": "Commercial", "ev_permitted": true}, "geometry": {"type": "Polygon", "coordinates": [[[-73.9076824138339, 40.6693844630511], [-73.9073175872961, 40.66944168762], [-73.9073320229413, 40.6694982699624], [-73.9076968497762, 40.6694410453481], [-73.9076824138339, 40.6693844630511]]]}}, {"type": "Feature", "properties": {"zone_id": "0206O5TMH5KLJHUMA6XEQL", "tract_id": "36047090600", "city": "BROOKLYN, NY", "zone_code": "C1-3", "zone_category": "Commercial", "ev_permitted": true}, "geometry": {"type": "Polygon", "coordinates": [[[-73.9072507897134, 40.6691798650286], [-73.9068855356775, 40.6692371279353], [-73.9069547721959, 40.669506638441], [-73.9073195789887, 40.669449493705], [-73.9072507897134, 40.6691798650286]]]}}, {"type": "Feature", "properties": {"zone_id": "02064D84F24BFMBAYUIERU", "tract_id": "36047090600", "city": "BROOKLYN, NY", "zone_code": "C1-3", "zone_category": "Commercial", "ev_permitted": true}, "geometry": {"type": "Polygon", "coordinates": [[[-73.9075619249574, 40.6689122061082], [-73.9073727569365, 40.6689418784972], [-73.9074433325681, 40.6692185049633], [-73.907632502265, 40.6691888324599], [-73.9075619249574, 40.6689122061082]]]}}, {"type": "Feature", "properties": {"zone_id": "0205F8QSEPTW0KPVG5YHUW", "tract_id": "36047090600", "city": "BROOKLYN, NY", "zone_code": "C1-3", "zone_category": "Commercial", "ev_permitted": true}, "geometry": {"type": "Polygon", "coordinates": [[[-73.907283613165, 40.6689558613592], [-73.9071971027441, 40.6689694310024], [-73.9072676767544, 40.6692460568719], [-73.9073541865959, 40.6692324878779], [-73.907283613165, 40.6689558613592]]]}}, {"type": "Feature", "properties": {"zone_id": "0204WF4FM1AEHDFJ148E74", "tract_id": "36047090600", "city": "BROOKLYN, NY", "zone_code": "C1-3", "zone_category": "Commercial", "ev_permitted": true}, "geometry": {"type": "Polygon", "coordinates": [[[-73.9073727569365, 40.6689418784972], [-73.907283613165, 40.6689558613592], [-73.9073541865959, 40.6692324878779], [-73.9074433325681, 40.6692185049633], [-73.9073727569365, 40.6689418784972]]]}}, {"type": "Feature", "properties": {"zone_id": "0203N1MHN7V8QSW3A7RHZC", "tract_id": "36047090600", "city": "BROOKLYN, NY", "zone_code": "C1-3", "zone_category": "Commercial", "ev_permitted": true}, "geometry": {"type": "Polygon", "coordinates": [[[-73.9072616645689, 40.6685199373628], [-73.9071727635704, 40.6685335935964], [-73.9072431065894, 40.6688067031823], [-73.9073272339078, 40.6687939129464], [-73.9072616645689, 40.6685199373628]]]}}, {"type": "Feature", "properties": {"zone_id": "0204DKGFJAFYPYUJOTS0XD", "tract_id": "36047090600", "city": "BROOKLYN, NY", "zone_code": "R6", "zone_category": "Residential", "ev_permitted": false}, "geometry": {"type": "Polygon", "coordinates": [[[-73.9071727635704, 40.6685335935964], [-73.9070902544132, 40.6685462655736], [-73.9071605659031, 40.6688192522183], [-73.9072431065894, 40.6688067031823], [-73.9071727635704, 40.6685335935964]]]}}, {"type": "Feature", "properties": {"zone_id": "0202A69WTAC4AHDA139BAL", "tract_id": "36047090600", "city": "BROOKLYN, NY", "zone_code": "R6", "zone_category": "Residential", "ev_permitted": false}, "geometry": {"type": "Polygon", "coordinates": [[[-73.9072159372928, 40.669043255349], [-73.9068503403114, 40.6691001243763], [-73.9068855356775, 40.6692371279353], [-73.9072507897134, 40.6691798650286], [-73.9072159372928, 40.669043255349]]]}}, {"type": "Feature", "properties": {"zone_id": "0204T5KZTAJWCC9S2NR1YS", "tract_id": "36047090600", "city": "BROOKLYN, NY", "zone_code": "C1-3", "zone_category": "Commercial", "ev_permitted": true}, "geometry": {"type": "Polygon", "coordinates": [[[-73.9071971027441, 40.6689694310024], [-73.9068314981033, 40.6690267763695], [-73.9068503403114, 40.6691001243763], [-73.9072159372928, 40.669043255349], [-73.9071971027441, 40.6689694310024]]]}}, {"type": "Feature", "properties": {"zone_id": "0201600Y593X2LOGBXC57C", "tract_id": "36047090600", "city": "BROOKLYN, NY", "zone_code": "C1-3", "zone_category": "Commercial", "ev_permitted": true}, "geometry": {"type": "Polygon", "coordinates": [[[-73.9071245032462, 40.668679236422], [-73.9067696254171, 40.6687337437636], [-73.9068055496816, 40.6688732255347], [-73.9071605659031, 40.6688192522183], [-73.9071245032462, 40.668679236422]]]}}, {"type": "Feature", "properties": {"zone_id": "02037H8M0IXW5SVUCYWITA", "tract_id": "36047090600", "city": "BROOKLYN, NY", "zone_code": "C1-3", "zone_category": "Commercial", "ev_permitted": true}, "geometry": {"type": "Polygon", "coordinates": [[[-73.9071080295711, 40.6686152779507], [-73.9067531520689, 40.668669785242], [-73.9067696254171, 40.6687337437636], [-73.9071245032462, 40.668679236422], [-73.9071080295711, 40.6686152779507]]]}}, {"type": "Feature", "properties": {"zone_id": "0202548GEKVBEGVZ0DJXHB", "tract_id": "36047090600", "city": "BROOKLYN, NY", "zone_code": "R6", "zone_category": "Residential", "ev_permitted": false}, "geometry": {"type": "Polygon", "coordinates": [[[-73.9074485756667, 40.6684912280969], [-73.9072616645689, 40.6685199373628], [-73.9073272339078, 40.6687939129464], [-73.9075142136421, 40.6687654861001], [-73.9074485756667, 40.6684912280969]]]}}, {"type": "Feature", "properties": {"zone_id": "0200YN46UMOWLCFTNEPEIZ", "tract_id": "36047090600", "city": "BROOKLYN, NY", "zone_code": "R6", "zone_category": "Residential", "ev_permitted": false}, "geometry": {"type": "Polygon", "coordinates": [[[-73.9070902544132, 40.6685462655736], [-73.9067353772636, 40.6686007728105], [-73.9067531520689, 40.668669785242], [-73.9071080295711, 40.6686152779507], [-73.9070902544132, 40.6685462655736]]]}}, {"type": "Feature", "properties": {"zone_id": "0207J1UGTKELKQ7HTXYMWL", "tract_id": "36047090600", "city": "BROOKLYN, NY", "zone_code": "R6", "zone_category": "Residential", "ev_permitted": false}, "geometry": {"type": "Polygon", "coordinates": [[[-73.9070729685102, 40.6684791500768], [-73.9067180917035, 40.6685336572607], [-73.9067353772636, 40.6686007728105], [-73.9070902544132, 40.6685462655736], [-73.9070729685102, 40.6684791500768]]]}}, {"type": "Feature", "properties": {"zone_id": "0200U50SL1251N4QGV25CR", "tract_id": "36047090600", "city": "BROOKLYN, NY", "zone_code": "R6", "zone_category": "Residential", "ev_permitted": false}, "geometry": {"type": "Polygon", "coordinates": [[[-73.9070562930066, 40.6684144079639], [-73.9067014165318, 40.6684689143942], [-73.9067180917035, 40.6685336572607], [-73.9070729685102, 40.6684791500768], [-73.9070562930066, 40.6684144079639]]]}}, {"type": "Feature", "properties": {"zone_id": "0207E9XP5P69252VX9WBXS", "tract_id": "36047090600", "city": "BROOKLYN, NY", "zone_code": "C1-3", "zone_category": "Commercial", "ev_permitted": true}, "geometry": {"type": "Polygon", "coordinates": [[[-73.907039417908, 40.6683488876628], [-73.9066845417679, 40.6684033940415], [-73.9067014165318, 40.6684689143942], [-73.9070562930066, 40.6684144079639], [-73.907039417908, 40.6683488876628]]]}}, {"type": "Feature", "properties": {"zone_id": "0206YCT5NTJINBVP9EWLQG", "tract_id": "36047090600", "city": "BROOKLYN, NY", "zone_code": "C1-3", "zone_category": "Commercial", "ev_permitted": true}, "geometry": {"type": "Polygon", "coordinates": [[[-73.9070055819899, 40.6682175151496], [-73.9066507065212, 40.6682720214247], [-73.9066681268677, 40.6683396598776], [-73.907023002682, 40.6682851535492], [-73.9070055819899, 40.6682175151496]]]}}, {"type": "Feature", "properties": {"zone_id": "0205XWUZV3ZSAF6O6WZ6KH", "tract_id": "36047090600", "city": "BROOKLYN, NY", "zone_code": "C1-3", "zone_category": "Commercial", "ev_permitted": true}, "geometry": {"type": "Polygon", "coordinates": [[[-73.9069882384308, 40.6681501768463], [-73.9066333633043, 40.6682046844737], [-73.9066507065212, 40.6682720214247], [-73.9070055819899, 40.6682175151496], [-73.9069882384308, 40.6681501768463]]]}}, {"type": "Feature", "properties": {"zone_id": "0204AZ3CC08ASB1HO8D5HP", "tract_id": "36047090600", "city": "BROOKLYN, NY", "zone_code": "C1-3", "zone_category": "Commercial", "ev_permitted": true}, "geometry": {"type": "Polygon", "coordinates": [[[-73.907023002682, 40.6682851535492], [-73.9066681268677, 40.6683396598776], [-73.9066845417679, 40.6684033940415], [-73.907039417908, 40.6683488876628], [-73.907023002682, 40.6682851535492]]]}}, {"type": "Feature", "properties": {"zone_id": "0202RIRIONMSXV8CJGLCQ8", "tract_id": "36047090600", "city": "BROOKLYN, NY", "zone_code": "C4-3", "zone_category": "Commercial", "ev_permitted": true}, "geometry": {"type": "Polygon", "coordinates": [[[-73.9096396345221, 40.6673332009092], [-73.9068834967838, 40.6677435008816], [-73.9070902544132, 40.6685462655736], [-73.909190643674, 40.6682236340742], [-73.9092597932261, 40.668508875781], [-73.9093525983623, 40.6684950980452], [-73.9092833364716, 40.6682093953583], [-73.9094877284514, 40.6681779969305], [-73.9095253711496, 40.6683233745543], [-73.9098835062061, 40.6682705806814], [-73.9096396345221, 40.6673332009092]]]}}, {"type": "Feature", "properties": {"zone_id": "02010JFA04NXLDERLBKF6R", "tract_id": "36047090600", "city": "BROOKLYN, NY", "zone_code": "C4-3", "zone_category": "Commercial", "ev_permitted": true}, "geometry": {"type": "Polygon", "coordinates": [[[-73.9100701873202, 40.6675534873823], [-73.9097107308496, 40.667606478249], [-73.9098835062061, 40.6682705806814], [-73.9102429670412, 40.6682175892797], [-73.9100701873202, 40.6675534873823]]]}}, {"type": "Feature", "properties": {"zone_id": "0206BQVPMCJIIP8XHF5QLY", "tract_id": "36047090600", "city": "BROOKLYN, NY", "zone_code": "C4-3", "zone_category": "Commercial", "ev_permitted": true}, "geometry": {"type": "Polygon", "coordinates": [[[-73.910018070953, 40.6673531671918], [-73.9096586155206, 40.6674061578969], [-73.9097107308496, 40.667606478249], [-73.9100701873202, 40.6675534873823], [-73.910018070953, 40.6673531671918]]]}}, {"type": "Feature", "properties": {"zone_id": "02049D67UEBSS02U4DAXMN", "tract_id": "36047090600", "city": "BROOKLYN, NY", "zone_code": "C4-3", "zone_category": "Commercial", "ev_permitted": true}, "geometry": {"type": "Polygon", "coordinates": [[[-73.9099989582999, 40.6672797035399], [-73.9096396345221, 40.6673332009092], [-73.9096586155206, 40.6674061578969], [-73.910018070953, 40.6673531671918], [-73.9099989582999, 40.6672797035399]]]}}, {"type": "Feature", "properties": {"zone_id": "0202T8LKC25UGZQAX37FME", "tract_id": "36047090600", "city": "BROOKLYN, NY", "zone_code": "C1-3", "zone_category": "Commercial", "ev_permitted": true}, "geometry": {"type": "Polygon", "coordinates": [[[-73.9069515496118, 40.6680077285599], [-73.9065966752142, 40.6680622353723], [-73.9066333633043, 40.6682046844737], [-73.9069882384308, 40.6681501768463], [-73.9069515496118, 40.6680077285599]]]}}, {"type": "Feature", "properties": {"zone_id": "0202MDN59ZFS5CQ7QH9Z4O", "tract_id": "36047090600", "city": "BROOKLYN, NY", "zone_code": "C2-3", "zone_category": "Commercial", "ev_permitted": true}, "geometry": {"type": "Polygon", "coordinates": [[[-73.9068834967838, 40.6677435008816], [-73.9065282061296, 40.6677963875075], [-73.9065966752142, 40.6680622353723], [-73.9069515496118, 40.6680077285599], [-73.9068834967838, 40.6677435008816]]]}}]}