{"type": "FeatureCollection", "features": [{"type": "Feature", "properties": {"zone_id": "0202KBYR5T9IZY42E2VGJP", "tract_id": "06037125322", "city": "NORTH HOLLYWOOD, CA", "zone_code": "CA", "zone_category": "Other", "ev_permitted": false}, "geometry": {"type": "Polygon", "coordinates": [[[-118.378863200884, 34.1675632007915], [-118.378036769395, 34.1675636987405], [-118.378036829869, 34.1679496946565], [-118.378863277013, 34.1679518071655], [-118.378863200884, 34.1675632007915]]]}}, {"type": "Feature", "properties": {"zone_id": "0204OQ0RL9S95SBDFXPS3V", "tract_id": "06037125322", "city": "NORTH HOLLYWOOD, CA", "zone_code": "CA", "zone_category": "Other", "ev_permitted": false}, "geometry": {"type": "Polygon", "coordinates": [[[-118.378036769395, 34.1675636987405], [-118.377540989788, 34.1675639835598], [-118.377541074076, 34.1679484405762], [-118.378036829869, 34.1679496946565], [-118.378036769395, 34.1675636987405]]]}}, {"type": "Feature", "properties": {"zone_id": "020763YVRAQ59BT6NBEC62", "tract_id": "06037125322", "city": "NORTH HOLLYWOOD, CA", "zone_code": "CA", "zone_category": "Other", "ev_permitted": false}, "geometry": {"type": "Polygon", "coordinates": [[[-118.378863132413, 34.1670960871769], [-118.37795409256, 34.1670966235253], [-118.37795420487, 34.1675087791883], [-118.378863216274, 34.1675082704211], [-118.378863132413, 34.1670960871769]]]}}, {"type": "Feature", "properties": {"zone_id": "0205SCOUBN9Z1960C05XEI", "tract_id": "06037125322", "city": "NORTH HOLLYWOOD, CA", "zone_code": "CA", "zone_category": "Other", "ev_permitted": false}, "geometry": {"type": "Polygon", "coordinates": [[[-118.37795409256, 34.1670966235253], [-118.377540895651, 34.1670968700478], [-118.377541005922, 34.167509025711], [-118.37795420487, 34.1675087791883], [-118.37795409256, 34.1670966235253]]]}}, {"type": "Feature", "properties": {"zone_id": "0200FOFP9SF6OPHUEGLFAZ", "tract_id": "06037125322", "city": "NORTH HOLLYWOOD, CA", "zone_code": "CA", "zone_category": "Other", "ev_permitted": false}, "geometry": {"type": "Polygon", "coordinates": [[[-118.378449802743, 34.1665196375498], [-118.378284511924, 34.1665197425428], [-118.378284566077, 34.1669040897427], [-118.378797017549, 34.1669037754018], [-118.378808516805, 34.1669029142229], [-118.378819660868, 34.1669004146837], [-118.378830111441, 34.1668963526616], [-118.37883955128, 34.1668908514658], [-118.378847693823, 34.1668840780938], [-118.37885429189, 34.1668762381622], [-118.378859145186, 34.1668675696648], [-118.378862106381, 34.1668583357477], [-118.378863085582, 34.1668488167215], [-118.378863057557, 34.1666567272746], [-118.378449830017, 34.1666570319633], [-118.378449802743, 34.1665196375498]]]}}, {"type": "Feature", "properties": {"zone_id": "02065DP73VLJT95WD9QBOO", "tract_id": "06037125322", "city": "NORTH HOLLYWOOD, CA", "zone_code": "CA", "zone_category": "Other", "ev_permitted": false}, "geometry": {"type": "Polygon", "coordinates": [[[-118.378863029604, 34.1665193328611], [-118.378449802743, 34.1665196375498], [-118.378449830017, 34.1666570319633], [-118.378863057557, 34.1666567272746], [-118.378863029604, 34.1665193328611]]]}}, {"type": "Feature", "properties": {"zone_id": "0205RAV16L6IZYPBT3LRNC", "tract_id": "06037125322", "city": "NORTH HOLLYWOOD, CA", "zone_code": "CA", "zone_category": "Other", "ev_permitted": false}, "geometry": {"type": "Polygon", "coordinates": [[[-118.378119221228, 34.1665198747884], [-118.377953930407, 34.1665199793294], [-118.377953982791, 34.1669042715725], [-118.378119274372, 34.1669041670314], [-118.378119221228, 34.1665198747884]]]}}, {"type": "Feature", "properties": {"zone_id": "02030QKEV4SQC2F029LRYR", "tract_id": "06037125322", "city": "NORTH HOLLYWOOD, CA", "zone_code": "CA", "zone_category": "Other", "ev_permitted": false}, "geometry": {"type": "Polygon", "coordinates": [[[-118.378284511924, 34.1665197425428], [-118.378119221228, 34.1665198747884], [-118.378119274372, 34.1669041670314], [-118.378284566077, 34.1669040897427], [-118.378284511924, 34.1665197425428]]]}}, {"type": "Feature", "properties": {"zone_id": "0202WGCJ8VTTGVA23LGS18", "tract_id": "06037125322", "city": "NORTH HOLLYWOOD, CA", "zone_code": "CA", "zone_category": "Other", "ev_permitted": false}, "geometry": {"type": "Polygon", "coordinates": [[[-118.377953930407, 34.1665199793294], [-118.377540769656, 34.1665202807051], [-118.377540852825, 34.1669044904096], [-118.377953982791, 34.1669042715725], [-118.377953930407, 34.1665199793294]]]}}, {"type": "Feature", "properties": {"zone_id": "0200D75XOF62IOO5VB0UXB", "tract_id": "06037125322", "city": "NORTH HOLLYWOOD, CA", "zone_code": "CA", "zone_category": "Other", "ev_permitted": false}, "geometry": {"type": "Polygon", "coordinates": [[[-118.377953886755, 34.1663276271715], [-118.377540726954, 34.166327928547], [-118.377540752733, 34.1664653229604], [-118.377953913213, 34.1664650215847], [-118.377953886755, 34.1663276271715]]]}}, {"type": "Feature", "properties": {"zone_id": "02060S6GTKY9P8JHHBCNUV", "tract_id": "06037125322", "city": "NORTH HOLLYWOOD, CA", "zone_code": "CA", "zone_category": "Other", "ev_permitted": false}, "geometry": {"type": "Polygon", "coordinates": [[[-118.378862825644, 34.1654755474845], [-118.377540516224, 34.1654765230113], [-118.377540600217, 34.1657511743393], [-118.377953790222, 34.1657508728609], [-118.377953824612, 34.1658607883493], [-118.378796833888, 34.1658601840284], [-118.378808330436, 34.1658593218512], [-118.378819471802, 34.1658568222365], [-118.378829919997, 34.1658527610134], [-118.37883935806, 34.1658472613843], [-118.378847499676, 34.1658404901874], [-118.378854097858, 34.165832652836], [-118.378858952442, 34.1658239870862], [-118.378861916156, 34.1658147558249], [-118.378862899092, 34.1658052390948], [-118.378862825644, 34.1654755474845]]]}}, {"type": "Feature", "properties": {"zone_id": "02073BIZPQ6XKWKEPKPT5R", "tract_id": "06037125322", "city": "NORTH HOLLYWOOD, CA", "zone_code": "CA", "zone_category": "Other", "ev_permitted": false}, "geometry": {"type": "Polygon", "coordinates": [[[-118.378862896266, 34.1660524942453], [-118.378284414876, 34.1660529038229], [-118.378284494511, 34.1664647847981], [-118.378863011811, 34.1664643751165], [-118.378862896266, 34.1660524942453]]]}}, {"type": "Feature", "properties": {"zone_id": "0203YI1O8PB5DNTHR9NNXU", "tract_id": "06037125322", "city": "NORTH HOLLYWOOD, CA", "zone_code": "CA", "zone_category": "Other", "ev_permitted": false}, "geometry": {"type": "Polygon", "coordinates": [[[-118.378119124979, 34.1660530085898], [-118.377953835206, 34.1660531406094], [-118.377953913213, 34.1664650215847], [-118.378119203924, 34.1664649170437], [-118.378119124979, 34.1660530085898]]]}}, {"type": "Feature", "properties": {"zone_id": "0202JO1FFA803HK8NH4SPV", "tract_id": "06037125322", "city": "NORTH HOLLYWOOD, CA", "zone_code": "CA", "zone_category": "Other", "ev_permitted": false}, "geometry": {"type": "Polygon", "coordinates": [[[-118.378284414876, 34.1660529038229], [-118.378119124979, 34.1660530085898], [-118.378119203924, 34.1664649170437], [-118.378284494511, 34.1664647847981], [-118.378284414876, 34.1660529038229]]]}}, {"type": "Feature", "properties": {"zone_id": "0203XOVDEHPHXSXTD8PF03", "tract_id": "06037125322", "city": "NORTH HOLLYWOOD, CA", "zone_code": "CA", "zone_category": "Other", "ev_permitted": false}, "geometry": {"type": "Polygon", "coordinates": [[[-118.377854752675, 34.1662123057651], [-118.377540701334, 34.1662125172524], [-118.377540726954, 34.166327928547], [-118.377854745672, 34.1663277171629], [-118.377854752675, 34.1662123057651]]]}}, {"type": "Feature", "properties": {"zone_id": "02031LIQQ4WL18VV3P69O6", "tract_id": "06037125322", "city": "NORTH HOLLYWOOD, CA", "zone_code": "CA", "zone_category": "Other", "ev_permitted": false}, "geometry": {"type": "Polygon", "coordinates": [[[-118.37795386154, 34.1661905075436], [-118.37754066936, 34.1661908090222], [-118.377540701334, 34.1662125172524], [-118.377854752675, 34.1662123057651], [-118.377854745672, 34.1663277171629], [-118.377953886755, 34.1663276271715], [-118.37795386154, 34.1661905075436]]]}}, {"type": "Feature", "properties": {"zone_id": "02000KJRNTXKXN0ZPXXZDX", "tract_id": "06037125322", "city": "NORTH HOLLYWOOD, CA", "zone_code": "CA", "zone_category": "Other", "ev_permitted": false}, "geometry": {"type": "Polygon", "coordinates": [[[-118.377953835206, 34.1660531406094], [-118.377540676639, 34.1660534145062], [-118.37754066936, 34.1661908090222], [-118.37795386154, 34.1661905075436], [-118.377953835206, 34.1660531406094]]]}}, {"type": "Feature", "properties": {"zone_id": "0200NZA8WIA0QJHB2KJSTN", "tract_id": "06037125322", "city": "NORTH HOLLYWOOD, CA", "zone_code": "CA", "zone_category": "Other", "ev_permitted": false}, "geometry": {"type": "Polygon", "coordinates": [[[-118.377953790222, 34.1657508728609], [-118.377540600217, 34.1657511743393], [-118.377540600881, 34.1658610624525], [-118.377953824612, 34.1658607883493], [-118.377953790222, 34.1657508728609]]]}}, {"type": "Feature", "properties": {"zone_id": "02007AU9EZXJG2F6WK8UTK", "tract_id": "06037125322", "city": "NORTH HOLLYWOOD, CA", "zone_code": "CA", "zone_category": "Other", "ev_permitted": false}, "geometry": {"type": "Polygon", "coordinates": [[[-118.37886278127, 34.1652834975933], [-118.378449594575, 34.1652840220057], [-118.378449619607, 34.1654209218036], [-118.378862841159, 34.1654206445942], [-118.37886278127, 34.1652834975933]]]}}, {"type": "Feature", "properties": {"zone_id": "0201CAJZI01225PUU6S1OX", "tract_id": "06037125322", "city": "NORTH HOLLYWOOD, CA", "zone_code": "CA", "zone_category": "Other", "ev_permitted": false}, "geometry": {"type": "Polygon", "coordinates": [[[-118.377953692537, 34.1652834845755], [-118.377540472655, 34.1652839785063], [-118.377540532359, 34.1654215651641], [-118.377953720735, 34.1654212636859], [-118.377953692537, 34.1652834845755]]]}}, {"type": "Feature", "properties": {"zone_id": "0206PQZ7HE02CHGJSWICQZ", "tract_id": "06037125322", "city": "NORTH HOLLYWOOD, CA", "zone_code": "CA", "zone_category": "Other", "ev_permitted": false}, "geometry": {"type": "Polygon", "coordinates": [[[-118.378862787746, 34.1651464053424], [-118.378449568547, 34.1651469023798], [-118.378449594575, 34.1652840220057], [-118.37886278127, 34.1652834975933], [-118.378862787746, 34.1651464053424]]]}}, {"type": "Feature", "properties": {"zone_id": "02020U1EJBCDNAI36W6RR9", "tract_id": "06037125322", "city": "NORTH HOLLYWOOD, CA", "zone_code": "CA", "zone_category": "Other", "ev_permitted": false}, "geometry": {"type": "Polygon", "coordinates": [[[-118.378796608413, 34.1650183755121], [-118.378449545445, 34.1650186395378], [-118.378449568547, 34.1651469023798], [-118.378862787746, 34.1651464053424], [-118.378862782845, 34.1650733303765], [-118.378861989473, 34.1650647467606], [-118.378859582171, 34.1650563716838], [-118.378855620278, 34.1650484115909], [-118.378850201456, 34.1650410626978], [-118.378843459277, 34.1650345061542], [-118.378835559936, 34.1650289035784], [-118.378826698151, 34.1650243930736], [-118.378817092364, 34.1650210858235], [-118.378806979356, 34.1650190633518], [-118.378796608413, 34.1650183755121]]]}}, {"type": "Feature", "properties": {"zone_id": "0206TD25ZIDTTIJ4GR39SB", "tract_id": "06037125322", "city": "NORTH HOLLYWOOD, CA", "zone_code": "CA", "zone_category": "Other", "ev_permitted": false}, "geometry": {"type": "Polygon", "coordinates": [[[-118.378118970277, 34.1650207934275], [-118.377953643167, 34.165020898091], [-118.377953720735, 34.1654212636859], [-118.378119042439, 34.1654211590417], [-118.378118970277, 34.1650207934275]]]}}, {"type": "Feature", "properties": {"zone_id": "0201MODBIR5G7HN9DE1TQE", "tract_id": "06037125322", "city": "NORTH HOLLYWOOD, CA", "zone_code": "CA", "zone_category": "Other", "ev_permitted": false}, "geometry": {"type": "Polygon", "coordinates": [[[-118.378330538116, 34.1650104848817], [-118.378118970086, 34.1650107069548], [-118.378119042439, 34.1654211590417], [-118.378449619607, 34.1654209218036], [-118.378449545445, 34.1650186395378], [-118.378330540319, 34.1650187285446], [-118.378330538116, 34.1650104848817]]]}}, {"type": "Feature", "properties": {"zone_id": "0204HK9CW057QIW7W96T32", "tract_id": "06037125322", "city": "NORTH HOLLYWOOD, CA", "zone_code": "CA", "zone_category": "Other", "ev_permitted": false}, "geometry": {"type": "Polygon", "coordinates": [[[-118.377953643167, 34.165020898091], [-118.377606582057, 34.1650211167556], [-118.377595138434, 34.1650219757908], [-118.377584045468, 34.165024455372], [-118.377573635767, 34.1650284811525], [-118.37756422145, 34.165033932425], [-118.377556084792, 34.1650406457408], [-118.377549469759, 34.1650484198105], [-118.377544574693, 34.1650570215397], [-118.377541546365, 34.165066193018], [-118.377540475575, 34.1650756592517], [-118.377540472655, 34.1652839785063], [-118.377953692537, 34.1652834845755], [-118.377953643167, 34.165020898091]]]}}, {"type": "Feature", "properties": {"zone_id": "0205QNTXXSM44X4VB1KSZ7", "tract_id": "06037125322", "city": "NORTH HOLLYWOOD, CA", "zone_code": "SN", "zone_category": "Other", "ev_permitted": false}, "geometry": {"type": "Polygon", "coordinates": [[[-118.374656202604, 34.1682521788647], [-118.374660150867, 34.1698772685876], [-118.374799000911, 34.16987722304], [-118.374792364433, 34.1698717478286], [-118.374791433135, 34.1694872659863], [-118.377233564782, 34.1694869270819], [-118.377200455561, 34.1694319626437], [-118.376510407034, 34.1694320795884], [-118.376509377437, 34.169020201581], [-118.376951710259, 34.1690202250228], [-118.376821502567, 34.1688031353367], [-118.374789785412, 34.1688030465593], [-118.374788444292, 34.1682535002602], [-118.374656202604, 34.1682521788647]]]}}, {"type": "Feature", "properties": {"zone_id": "0202SJS7M07VDBXUIVQKQ4", "tract_id": "06037125322", "city": "NORTH HOLLYWOOD, CA", "zone_code": "DNSP", "zone_category": "Other", "ev_permitted": false}, "geometry": {"type": "MultiPolygon", "coordinates": [[[[-118.375284890404, 34.1682534994591], [-118.374788444292, 34.1682535002602], [-118.374789785412, 34.1688030465593], [-118.376821502567, 34.1688031353367], [-118.376604445777, 34.168445898841], [-118.375285324616, 34.1684458503917], [-118.375284890404, 34.1682534994591]]], [[[-118.37691718423, 34.168226082544], [-118.376907705178, 34.1682269973188], [-118.376893505385, 34.1682315262164], [-118.376883704096, 34.1682376387913], [-118.376876447161, 34.1682449819687], [-118.376870237671, 34.1682566421751], [-118.376868736567, 34.1682636680012], [-118.376868715956, 34.1682708027402], [-118.376871891864, 34.1682821546191], [-118.377186971533, 34.1688031226103], [-118.378863433242, 34.1688028007562], [-118.378863330802, 34.1682261288631], [-118.37691718423, 34.168226082544]]]]}}, {"type": "Feature", "properties": {"zone_id": "0200ZM3V8JFEKUFC3ATSUM", "tract_id": "06037125322", "city": "NORTH HOLLYWOOD, CA", "zone_code": "DNSP", "zone_category": "Other", "ev_permitted": false}, "geometry": {"type": "Polygon", "coordinates": [[[-118.376451694398, 34.1670696816519], [-118.376451842069, 34.1672345271009], [-118.37624139114, 34.1672344676049], [-118.37668195185, 34.1679613147728], [-118.376686583819, 34.1679660108017], [-118.376698087741, 34.1679734647463], [-118.376705815784, 34.1679763957444], [-118.3767225091, 34.1679787745346], [-118.377276608245, 34.1679787782878], [-118.377276520052, 34.1675639021459], [-118.376836047314, 34.16756412143], [-118.376835305497, 34.1670698058388], [-118.376451694398, 34.1670696816519]]]}}, {"type": "Feature", "properties": {"zone_id": "0205JS86OBKG20E4MW0SMW", "tract_id": "06037125322", "city": "NORTH HOLLYWOOD, CA", "zone_code": "DNSP", "zone_category": "Other", "ev_permitted": false}, "geometry": {"type": "Polygon", "coordinates": [[[-118.375483211067, 34.1682535158558], [-118.375483678794, 34.1684458666851], [-118.376604445777, 34.168445898841], [-118.376506290401, 34.1682838041909], [-118.376501300454, 34.1682769164979], [-118.376495147871, 34.1682707058756], [-118.376487964678, 34.1682653055958], [-118.376479905018, 34.1682608315414], [-118.376468227999, 34.1682564798574], [-118.376457862684, 34.168254396994], [-118.376447243116, 34.1682535688759], [-118.375483211067, 34.1682535158558]]]}}, {"type": "Feature", "properties": {"zone_id": "02000UAVDQHE72ICC61JTN", "tract_id": "06037125322", "city": "NORTH HOLLYWOOD, CA", "zone_code": "C4-2D", "zone_category": "Commercial", "ev_permitted": true}, "geometry": {"type": "Polygon", "coordinates": [[[-118.375235234446, 34.1670827777524], [-118.375140400664, 34.1674165558708], [-118.375140354531, 34.1679732235048], [-118.37559950889, 34.1679732821281], [-118.375665647568, 34.167970603586], [-118.376165166551, 34.1679706170989], [-118.37617636194, 34.1679697955293], [-118.376187229442, 34.1679674233311], [-118.376197457649, 34.1679635684798], [-118.376206753467, 34.1679583414367], [-118.376214850526, 34.1679518919832], [-118.376221516801, 34.1679444049293], [-118.37622656127, 34.1679360948175], [-118.376229839383, 34.1679271997752], [-118.376231257204, 34.1679179746912], [-118.376230774107, 34.1679086839117], [-118.376228403933, 34.1678995936655], [-118.376224214601, 34.1678909644352], [-118.375766785603, 34.1671350957524], [-118.375718872595, 34.1671105410974], [-118.375337575744, 34.1671104886222], [-118.375235234446, 34.1670827777524]]]}}, {"type": "Feature", "properties": {"zone_id": "0205YHZ44ETXGWRDULS7ZF", "tract_id": "06037125322", "city": "NORTH HOLLYWOOD, CA", "zone_code": "DNSP", "zone_category": "Other", "ev_permitted": false}, "geometry": {"type": "Polygon", "coordinates": [[[-118.375284890404, 34.1682534994591], [-118.375285324616, 34.1684458503917], [-118.375483678794, 34.1684458666851], [-118.375483211067, 34.1682535158558], [-118.375284890404, 34.1682534994591]]]}}, {"type": "Feature", "properties": {"zone_id": "0202KBSHI5H9TAEVW6A5O7", "tract_id": "06037125322", "city": "NORTH HOLLYWOOD, CA", "zone_code": "DNSP", "zone_category": "Other", "ev_permitted": false}, "geometry": {"type": "Polygon", "coordinates": [[[-118.377276452738, 34.1672341830485], [-118.376835651034, 34.167234375884], [-118.376836047314, 34.16756412143], [-118.377276520052, 34.1675639021459], [-118.377276452738, 34.1672341830485]]]}}, {"type": "Feature", "properties": {"zone_id": "0207AVT9BRSFZT34ESTXM7", "tract_id": "06037125322", "city": "NORTH HOLLYWOOD, CA", "zone_code": "SN", "zone_category": "Other", "ev_permitted": false}, "geometry": {"type": "Polygon", "coordinates": [[[-118.377276428386, 34.1670970084618], [-118.376835495422, 34.1670972566663], [-118.376835651034, 34.167234375884], [-118.377276452738, 34.1672341830485], [-118.377276428386, 34.1670970084618]]]}}, {"type": "Feature", "properties": {"zone_id": "020144F9CZ25TC9DSEJ00S", "tract_id": "06037125322", "city": "NORTH HOLLYWOOD, CA", "zone_code": "C4-2D", "zone_category": "Commercial", "ev_permitted": true}, "geometry": {"type": "Polygon", "coordinates": [[[-118.376834937279, 34.1666436642327], [-118.376620058334, 34.1666436741567], [-118.376620334703, 34.1669323391191], [-118.376835181704, 34.1669324117332], [-118.376834937279, 34.1666436642327]]]}}, {"type": "Feature", "properties": {"zone_id": "0204XTA5Y5GHD7MRHL7BM5", "tract_id": "06037125322", "city": "NORTH HOLLYWOOD, CA", "zone_code": "C4-2D", "zone_category": "Commercial", "ev_permitted": true}, "geometry": {"type": "Polygon", "coordinates": [[[-118.37610457984, 34.1670695526594], [-118.376204398534, 34.1672344452992], [-118.376451842069, 34.1672345271009], [-118.376451694398, 34.1670696816519], [-118.37610457984, 34.1670695526594]]]}}, {"type": "Feature", "properties": {"zone_id": "0203ZDBSNRUDTFGNG8B7LE", "tract_id": "06037125322", "city": "NORTH HOLLYWOOD, CA", "zone_code": "C4-2D", "zone_category": "Commercial", "ev_permitted": true}, "geometry": {"type": "Polygon", "coordinates": [[[-118.37634435197, 34.1666436531874], [-118.375846791456, 34.1666436618312], [-118.376021381367, 34.1669321421149], [-118.376620334703, 34.1669323391191], [-118.376620058334, 34.1666436741567], [-118.37634435197, 34.1666436531874]]]}}, {"type": "Feature", "properties": {"zone_id": "0205ARXJWQX9MGE0MP2KPK", "tract_id": "06037125322", "city": "NORTH HOLLYWOOD, CA", "zone_code": "C4-2D", "zone_category": "Commercial", "ev_permitted": true}, "geometry": {"type": "Polygon", "coordinates": [[[-118.376048417174, 34.1662770985273], [-118.375625208818, 34.1662775894802], [-118.375763593955, 34.1665062785887], [-118.376187136273, 34.1665062807364], [-118.376048417174, 34.1662770985273]]]}}, {"type": "Feature", "properties": {"zone_id": "0203HPINET8LW668KW98D1", "tract_id": "06037125322", "city": "NORTH HOLLYWOOD, CA", "zone_code": "C4-2D", "zone_category": "Commercial", "ev_permitted": true}, "geometry": {"type": "Polygon", "coordinates": [[[-118.375763593955, 34.1665062785887], [-118.375846791456, 34.1666436618312], [-118.376270334471, 34.1666436636875], [-118.376187136273, 34.1665062807364], [-118.375763593955, 34.1665062785887]]]}}, {"type": "Feature", "properties": {"zone_id": "0202JUAOO24R7ZAYVEL65J", "tract_id": "06037125322", "city": "NORTH HOLLYWOOD, CA", "zone_code": "C4-2D", "zone_category": "Commercial", "ev_permitted": true}, "geometry": {"type": "Polygon", "coordinates": [[[-118.373377610582, 34.1670823448789], [-118.373380448259, 34.1680058468182], [-118.373545683547, 34.1679926687549], [-118.373710933901, 34.1679828703233], [-118.373876197212, 34.1679764377904], [-118.374041479638, 34.1679733573978], [-118.375140354531, 34.1679732235048], [-118.375140400664, 34.1674165558708], [-118.375235234446, 34.1670827777524], [-118.373377610582, 34.1670823448789]]]}}, {"type": "Feature", "properties": {"zone_id": "0204609N08615QX0IVE75W", "tract_id": "06037125322", "city": "NORTH HOLLYWOOD, CA", "zone_code": "DNSP", "zone_category": "Other", "ev_permitted": false}, "geometry": {"type": "Polygon", "coordinates": [[[-118.374438176777, 34.1682521671694], [-118.374427795343, 34.1682528621555], [-118.374417673721, 34.1682548943285], [-118.374408061916, 34.1682582134938], [-118.374399197337, 34.1682627376683], [-118.374391298938, 34.1682683551056], [-118.374384561808, 34.1682749270555], [-118.374379152353, 34.1682822911915], [-118.374375204187, 34.1682902656204], [-118.374372814828, 34.1682986533748], [-118.374372043293, 34.1683072472783], [-118.374372366682, 34.1684458223509], [-118.374656674218, 34.1684458211874], [-118.374656202604, 34.1682521788647], [-118.374438176777, 34.1682521671694]]]}}, {"type": "Feature", "properties": {"zone_id": "0206ZD06FKWEJNUM4PRY85", "tract_id": "06037125322", "city": "NORTH HOLLYWOOD, CA", "zone_code": "C4-2D", "zone_category": "Commercial", "ev_permitted": true}, "geometry": {"type": "Polygon", "coordinates": [[[-118.372967718345, 34.1681709496269], [-118.372968356316, 34.1682842431424], [-118.373205013573, 34.1682939220088], [-118.373441375516, 34.1683076809507], [-118.373677339402, 34.1683255139855], [-118.373912802663, 34.1683474133589], [-118.374160626433, 34.1683726143944], [-118.374160153464, 34.1681710306769], [-118.372967718345, 34.1681709496269]]]}}, {"type": "Feature", "properties": {"zone_id": "0206BNWKR3QVMSCPN5ZZA2", "tract_id": "06037125322", "city": "NORTH HOLLYWOOD, CA", "zone_code": "PF-1VL", "zone_category": "Other", "ev_permitted": false}, "geometry": {"type": "Polygon", "coordinates": [[[-118.372968356316, 34.1682842431424], [-118.372969308615, 34.1684457336701], [-118.374160788835, 34.1684457901921], [-118.374160626433, 34.1683726143944], [-118.373912802663, 34.1683474133589], [-118.373677339402, 34.1683255139855], [-118.373441375516, 34.1683076809507], [-118.373205013573, 34.1682939220088], [-118.372968356316, 34.1682842431424]]]}}, {"type": "Feature", "properties": {"zone_id": "020482B68JB7Y7CN874YLX", "tract_id": "06037125322", "city": "NORTH HOLLYWOOD, CA", "zone_code": "C4-2D", "zone_category": "Commercial", "ev_permitted": true}, "geometry": {"type": "Polygon", "coordinates": [[[-118.372716411773, 34.167068364397], [-118.372717862554, 34.1675492130947], [-118.372552568956, 34.1675491453817], [-118.37255406779, 34.1680335661898], [-118.372719329043, 34.1680335790456], [-118.372719300811, 34.1680198396854], [-118.373049889381, 34.1680198645155], [-118.373049917421, 34.1680335489186], [-118.373215211856, 34.1680335884732], [-118.373213743229, 34.1675493873995], [-118.373379036829, 34.1675494542087], [-118.373377582242, 34.1670686055189], [-118.372716411773, 34.167068364397]]]}}, {"type": "Feature", "properties": {"zone_id": "0203G9H03H30A969HX16SM", "tract_id": "06037125322", "city": "NORTH HOLLYWOOD, CA", "zone_code": "PF-1VL", "zone_category": "Other", "ev_permitted": false}, "geometry": {"type": "Polygon", "coordinates": [[[-118.372472456703, 34.1682807978878], [-118.372473423234, 34.1684456957555], [-118.372969308615, 34.1684457336701], [-118.372968356316, 34.1682842431424], [-118.372845956843, 34.1682808284946], [-118.372472456703, 34.1682807978878]]]}}, {"type": "Feature", "properties": {"zone_id": "0200510N5TZLY58OWX8FDW", "tract_id": "06037125322", "city": "NORTH HOLLYWOOD, CA", "zone_code": "C4-2D", "zone_category": "Commercial", "ev_permitted": true}, "geometry": {"type": "Polygon", "coordinates": [[[-118.372471801658, 34.1681709392862], [-118.372472456703, 34.1682807978878], [-118.372845956843, 34.1682808284946], [-118.372968356316, 34.1682842431424], [-118.372967718345, 34.1681709496269], [-118.372471801658, 34.1681709392862]]]}}, {"type": "Feature", "properties": {"zone_id": "020230Y7J0CJ5PYSSDTA2M", "tract_id": "06037125322", "city": "NORTH HOLLYWOOD, CA", "zone_code": "C4-2D", "zone_category": "Commercial", "ev_permitted": true}, "geometry": {"type": "Polygon", "coordinates": [[[-118.373213743229, 34.1675493873995], [-118.373215211856, 34.1680335884732], [-118.373380539226, 34.1680336002214], [-118.373379036829, 34.1675494542087], [-118.373213743229, 34.1675493873995]]]}}, {"type": "Feature", "properties": {"zone_id": "0207I1B1GIF6S0FSNWTC8Q", "tract_id": "06037125322", "city": "NORTH HOLLYWOOD, CA", "zone_code": "C4-2D", "zone_category": "Commercial", "ev_permitted": true}, "geometry": {"type": "Polygon", "coordinates": [[[-118.374673804616, 34.1665442078855], [-118.373655352436, 34.1665448052925], [-118.373655434651, 34.1665830556601], [-118.373605847911, 34.1665832071516], [-118.373607247586, 34.1669174835835], [-118.374754580923, 34.1669179110121], [-118.374754691027, 34.1666867959807], [-118.374673804616, 34.1665442078855]]]}}, {"type": "Feature", "properties": {"zone_id": "0200G5SGES2AIJVMDGXGUK", "tract_id": "06037125322", "city": "NORTH HOLLYWOOD, CA", "zone_code": "C4-2D", "zone_category": "Commercial", "ev_permitted": true}, "geometry": {"type": "Polygon", "coordinates": [[[-118.375306030666, 34.1663738240697], [-118.374948280611, 34.166523821375], [-118.374923919491, 34.1664779436055], [-118.373541093142, 34.1664778813694], [-118.373542419925, 34.166917457151], [-118.373607247586, 34.1669174835835], [-118.373605847911, 34.1665832071516], [-118.373655434651, 34.1665830556601], [-118.373655352436, 34.1665448052925], [-118.374673804616, 34.1665442078855], [-118.374754691027, 34.1666867959807], [-118.374754580923, 34.1669179110121], [-118.375528221534, 34.166918231437], [-118.375539421823, 34.166917411222], [-118.375550294382, 34.1669150394924], [-118.37556052759, 34.1669111842251], [-118.375569828149, 34.1669059559165], [-118.375577929493, 34.1668995044166], [-118.375584599428, 34.1668920146333], [-118.375589646785, 34.1668837012331], [-118.375592926901, 34.1668748024885], [-118.375594345761, 34.1668655734488], [-118.375593862702, 34.16685627863], [-118.375591491567, 34.1668471844334], [-118.375587300316, 34.1668385515106], [-118.375306030666, 34.1663738240697]]]}}, {"type": "Feature", "properties": {"zone_id": "0203CE6Q8AP9SF2NALT3UY", "tract_id": "06037125322", "city": "NORTH HOLLYWOOD, CA", "zone_code": "C4-2D", "zone_category": "Commercial", "ev_permitted": true}, "geometry": {"type": "Polygon", "coordinates": [[[-118.372551119125, 34.1670682966821], [-118.372552568956, 34.1675491453817], [-118.372717862554, 34.1675492130947], [-118.372716411773, 34.167068364397], [-118.372551119125, 34.1670682966821]]]}}, {"type": "Feature", "properties": {"zone_id": "0200OPBPO97TD3YALDVI1R", "tract_id": "06037125322", "city": "NORTH HOLLYWOOD, CA", "zone_code": "C4-2D", "zone_category": "Commercial", "ev_permitted": true}, "geometry": {"type": "Polygon", "coordinates": [[[-118.373210477124, 34.16647774807], [-118.37321187436, 34.1669311729953], [-118.373542458868, 34.1669312514359], [-118.373541093142, 34.1664778813694], [-118.373210477124, 34.16647774807]]]}}, {"type": "Feature", "properties": {"zone_id": "02051H01HOBISO6XMD06ZX", "tract_id": "06037125322", "city": "NORTH HOLLYWOOD, CA", "zone_code": "C4-2D", "zone_category": "Commercial", "ev_permitted": true}, "geometry": {"type": "Polygon", "coordinates": [[[-118.372879927469, 34.16647766862], [-118.372881289485, 34.1669310112154], [-118.373046581861, 34.1669310784791], [-118.373045185768, 34.166477708509], [-118.372879927469, 34.16647766862]]]}}, {"type": "Feature", "properties": {"zone_id": "0200H3523JNA75WJ9Y87OO", "tract_id": "06037125322", "city": "NORTH HOLLYWOOD, CA", "zone_code": "C4-2D", "zone_category": "Commercial", "ev_permitted": true}, "geometry": {"type": "Polygon", "coordinates": [[[-118.373045185768, 34.166477708509], [-118.373046581861, 34.1669310784791], [-118.37321187436, 34.1669311729953], [-118.373210477124, 34.16647774807], [-118.373045185768, 34.166477708509]]]}}, {"type": "Feature", "properties": {"zone_id": "0202IBD2QZXFN8C03DMA64", "tract_id": "06037125322", "city": "NORTH HOLLYWOOD, CA", "zone_code": "C4-2D", "zone_category": "Commercial", "ev_permitted": true}, "geometry": {"type": "Polygon", "coordinates": [[[-118.372549344389, 34.1664775059326], [-118.372550704856, 34.1669309034888], [-118.372881289485, 34.1669310112154], [-118.372879927469, 34.16647766862], [-118.372549344389, 34.1664775059326]]]}}, {"type": "Feature", "properties": {"zone_id": "0201IJ87KWXCVVZ8PVF49K", "tract_id": "06037125322", "city": "NORTH HOLLYWOOD, CA", "zone_code": "C4-2D", "zone_category": "Commercial", "ev_permitted": true}, "geometry": {"type": "Polygon", "coordinates": [[[-118.372053473014, 34.1664779883878], [-118.372054830668, 34.166931358471], [-118.372385448233, 34.166931439973], [-118.372384055605, 34.1664780425167], [-118.372053473014, 34.1664779883878]]]}}, {"type": "Feature", "properties": {"zone_id": "02065JOSWC2W47LXWBQP3F", "tract_id": "06037125322", "city": "NORTH HOLLYWOOD, CA", "zone_code": "C4-2D", "zone_category": "Commercial", "ev_permitted": true}, "geometry": {"type": "Polygon", "coordinates": [[[-118.370732937226, 34.167068471074], [-118.370734378787, 34.1675498144088], [-118.370749519568, 34.1675497954692], [-118.370801389177, 34.1676316200372], [-118.370859207338, 34.1677106679065], [-118.370922757777, 34.1677866433985], [-118.370991802775, 34.1678592623275], [-118.371066084063, 34.1679282530638], [-118.371066124091, 34.1679372660178], [-118.371182091909, 34.1680334434704], [-118.372388773355, 34.1680335257314], [-118.372385829173, 34.1670688332685], [-118.370732937226, 34.167068471074]]]}}, {"type": "Feature", "properties": {"zone_id": "0205F9URGMAD927953ZZYG", "tract_id": "06037125322", "city": "NORTH HOLLYWOOD, CA", "zone_code": "C4-2D", "zone_category": "Commercial", "ev_permitted": true}, "geometry": {"type": "Polygon", "coordinates": [[[-118.370631513767, 34.1670684522223], [-118.370621122829, 34.1670691381064], [-118.370610990681, 34.1670711645425], [-118.370601368344, 34.1670744813259], [-118.370592494209, 34.1670790062843], [-118.370584588131, 34.1670846273127], [-118.37057784598, 34.1670912051514], [-118.370572434791, 34.167098576836], [-118.370568488626, 34.1671065597348], [-118.370566105248, 34.1671149560734], [-118.370565343707, 34.1671235578347], [-118.370568243417, 34.1679786096342], [-118.370569250733, 34.1679881094875], [-118.370572232028, 34.1679973212836], [-118.370577097133, 34.1680059664143], [-118.370583698904, 34.1680137834103], [-118.370591837672, 34.1680205358491], [-118.370601267282, 34.1680260195052], [-118.37061170254, 34.1680300685274], [-118.370622827832, 34.1680325604543], [-118.370634306679, 34.1680334199183], [-118.371182091909, 34.1680334434704], [-118.371066124091, 34.1679372660178], [-118.371066084063, 34.1679282530638], [-118.370991802775, 34.1678592623275], [-118.370922757777, 34.1677866433985], [-118.370859207338, 34.1677106679065], [-118.370801389177, 34.1676316200372], [-118.370749519568, 34.1675497954692], [-118.370734378787, 34.1675498144088], [-118.370732937226, 34.167068471074], [-118.370631513767, 34.1670684522223]]]}}, {"type": "Feature", "properties": {"zone_id": "020518HWDX28MMXB7MT1KO", "tract_id": "06037125322", "city": "NORTH HOLLYWOOD, CA", "zone_code": "PF-1VL", "zone_category": "Other", "ev_permitted": false}, "geometry": {"type": "Polygon", "coordinates": [[[-118.372472456703, 34.1682807978878], [-118.37220567979, 34.1682827734003], [-118.371973991296, 34.1682906724811], [-118.371742533851, 34.1683023194168], [-118.371511396004, 34.1683177097501], [-118.371280666186, 34.1683368375907], [-118.370975060451, 34.168364677317], [-118.37055311611, 34.1683991105197], [-118.370553289131, 34.1684455767966], [-118.372473423234, 34.1684456957555], [-118.372472456703, 34.1682807978878]]]}}, {"type": "Feature", "properties": {"zone_id": "0203XX1UTN0FOKBOLZRVJE", "tract_id": "06037125322", "city": "NORTH HOLLYWOOD, CA", "zone_code": "MR1-1VL", "zone_category": "Industrial", "ev_permitted": true}, "geometry": {"type": "Polygon", "coordinates": [[[-118.370205574413, 34.1682739644065], [-118.369230370185, 34.1682743079232], [-118.369230741899, 34.168388344186], [-118.370190604887, 34.168387278225], [-118.370205574413, 34.1682739644065]]]}}, {"type": "Feature", "properties": {"zone_id": "02010XJA0T1C7GNBI9B5GK", "tract_id": "06037125322", "city": "NORTH HOLLYWOOD, CA", "zone_code": "MR1-1VL", "zone_category": "Industrial", "ev_permitted": true}, "geometry": {"type": "Polygon", "coordinates": [[[-118.370205130937, 34.1681365713043], [-118.369709248486, 34.1681367693615], [-118.369709691147, 34.1682741624655], [-118.370205574413, 34.1682739644065], [-118.370205130937, 34.1681365713043]]]}}, {"type": "Feature", "properties": {"zone_id": "0206FS6FUGHJ3RV5I3ALH6", "tract_id": "06037125322", "city": "NORTH HOLLYWOOD, CA", "zone_code": "MR1-1VL", "zone_category": "Industrial", "ev_permitted": true}, "geometry": {"type": "Polygon", "coordinates": [[[-118.369709248486, 34.1681367693615], [-118.369229895375, 34.1681369423968], [-118.369230370185, 34.1682743079232], [-118.369709691147, 34.1682741624655], [-118.369709248486, 34.1681367693615]]]}}, {"type": "Feature", "properties": {"zone_id": "0207364JKTK8VAK0ER1CZ9", "tract_id": "06037125322", "city": "NORTH HOLLYWOOD, CA", "zone_code": "CM-1VL", "zone_category": "Commercial", "ev_permitted": true}, "geometry": {"type": "Polygon", "coordinates": [[[-118.37018911463, 34.1673122535812], [-118.369706460317, 34.1673124111469], [-118.369708772768, 34.1679993763588], [-118.370204654525, 34.1679992057821], [-118.370204348632, 34.167892863407], [-118.370191092115, 34.16789287651], [-118.370191039935, 34.1677766409573], [-118.370203885431, 34.1677659398237], [-118.370202656246, 34.1674139115045], [-118.370189432984, 34.1674139519847], [-118.37018911463, 34.1673122535812]]]}}, {"type": "Feature", "properties": {"zone_id": "0201VB2A61WN4JWE8T4LRO", "tract_id": "06037125322", "city": "NORTH HOLLYWOOD, CA", "zone_code": "MR1-1VL", "zone_category": "Industrial", "ev_permitted": true}, "geometry": {"type": "Polygon", "coordinates": [[[-118.370204654525, 34.1679992057821], [-118.369708772768, 34.1679993763588], [-118.369709248486, 34.1681367693615], [-118.370205130937, 34.1681365713043], [-118.370204654525, 34.1679992057821]]]}}, {"type": "Feature", "properties": {"zone_id": "0200PJFWLME427JJVS6JPH", "tract_id": "06037125322", "city": "NORTH HOLLYWOOD, CA", "zone_code": "MR1-1VL", "zone_category": "Industrial", "ev_permitted": true}, "geometry": {"type": "Polygon", "coordinates": [[[-118.369708297051, 34.1678619833564], [-118.369228978575, 34.167862156287], [-118.369229420445, 34.1679995493923], [-118.369708772768, 34.1679993763588], [-118.369708297051, 34.1678619833564]]]}}, {"type": "Feature", "properties": {"zone_id": "0200X2WNF9LH4FZIJL01P5", "tract_id": "06037125322", "city": "NORTH HOLLYWOOD, CA", "zone_code": "MR1-1VL", "zone_category": "Industrial", "ev_permitted": true}, "geometry": {"type": "Polygon", "coordinates": [[[-118.369708772768, 34.1679993763588], [-118.369229420445, 34.1679995493923], [-118.369229895375, 34.1681369423968], [-118.369709248486, 34.1681367693615], [-118.369708772768, 34.1679993763588]]]}}, {"type": "Feature", "properties": {"zone_id": "0205YZ8955BHJNE22K638S", "tract_id": "06037125322", "city": "NORTH HOLLYWOOD, CA", "zone_code": "CM-1VL", "zone_category": "Commercial", "ev_permitted": true}, "geometry": {"type": "Polygon", "coordinates": [[[-118.369707854395, 34.1677245902531], [-118.369228503649, 34.1677247632829], [-118.369228978575, 34.167862156287], [-118.369708297051, 34.1678619833564], [-118.369707854395, 34.1677245902531]]]}}, {"type": "Feature", "properties": {"zone_id": "0204KXA60UR915F4HTLJ4L", "tract_id": "06037125322", "city": "NORTH HOLLYWOOD, CA", "zone_code": "CM-1VL", "zone_category": "Commercial", "ev_permitted": true}, "geometry": {"type": "Polygon", "coordinates": [[[-118.369707378681, 34.1675871972511], [-118.369228028723, 34.1675873702791], [-118.369228503649, 34.1677247632829], [-118.369707854395, 34.1677245902531], [-118.369707378681, 34.1675871972511]]]}}, {"type": "Feature", "properties": {"zone_id": "0205UO6XTGXZWYY89PBKPA", "tract_id": "06037125322", "city": "NORTH HOLLYWOOD, CA", "zone_code": "CM-1VL", "zone_category": "Commercial", "ev_permitted": true}, "geometry": {"type": "Polygon", "coordinates": [[[-118.369706936028, 34.1674498041484], [-118.369227586858, 34.1674499771745], [-118.369228028723, 34.1675873702791], [-118.369707378681, 34.1675871972511], [-118.369706936028, 34.1674498041484]]]}}, {"type": "Feature", "properties": {"zone_id": "0202IEIYR48TR6Q6ZA42R2", "tract_id": "06037125322", "city": "NORTH HOLLYWOOD, CA", "zone_code": "C4-2D", "zone_category": "Commercial", "ev_permitted": true}, "geometry": {"type": "Polygon", "coordinates": [[[-118.371722890301, 34.1664779058766], [-118.371724246283, 34.1669313034421], [-118.372054830668, 34.166931358471], [-118.372053473014, 34.1664779883878], [-118.371722890301, 34.1664779058766]]]}}, {"type": "Feature", "properties": {"zone_id": "0206XV8ELAYZS06LJ2FROH", "tract_id": "06037125322", "city": "NORTH HOLLYWOOD, CA", "zone_code": "C4-2D", "zone_category": "Commercial", "ev_permitted": true}, "geometry": {"type": "Polygon", "coordinates": [[[-118.371557599067, 34.1664778917607], [-118.371558920972, 34.1669312619511], [-118.371724246283, 34.1669313034421], [-118.371722890301, 34.1664779058766], [-118.371557599067, 34.1664778917607]]]}}, {"type": "Feature", "properties": {"zone_id": "0206L3SLD9RGT7ZF8Y3AP1", "tract_id": "06037125322", "city": "NORTH HOLLYWOOD, CA", "zone_code": "C4-2D", "zone_category": "Commercial", "ev_permitted": true}, "geometry": {"type": "Polygon", "coordinates": [[[-118.371392274653, 34.1664778500418], [-118.371393661777, 34.166931220031], [-118.371558920972, 34.1669312619511], [-118.371557599067, 34.1664778917607], [-118.371392274653, 34.1664778500418]]]}}, {"type": "Feature", "properties": {"zone_id": "0207CYN6X8QVFULBYDYRP4", "tract_id": "06037125322", "city": "NORTH HOLLYWOOD, CA", "zone_code": "C4-2D", "zone_category": "Commercial", "ev_permitted": true}, "geometry": {"type": "Polygon", "coordinates": [[[-118.371227016355, 34.166477807894], [-118.371228369647, 34.166931205465], [-118.371393661777, 34.166931220031], [-118.371392274653, 34.1664778500418], [-118.371227016355, 34.166477807894]]]}}, {"type": "Feature", "properties": {"zone_id": "0206UZ526LUIKZ6C836R17", "tract_id": "06037125322", "city": "NORTH HOLLYWOOD, CA", "zone_code": "C4-2D", "zone_category": "Commercial", "ev_permitted": true}, "geometry": {"type": "Polygon", "coordinates": [[[-118.371061724999, 34.1664777656217], [-118.371063110452, 34.1669311630932], [-118.371228369647, 34.166931205465], [-118.371227016355, 34.166477807894], [-118.371061724999, 34.1664777656217]]]}}, {"type": "Feature", "properties": {"zone_id": "02076MA0BAS2KMXG6MKVCQ", "tract_id": "06037125322", "city": "NORTH HOLLYWOOD, CA", "zone_code": "C4-2D", "zone_category": "Commercial", "ev_permitted": true}, "geometry": {"type": "Polygon", "coordinates": [[[-118.370627936471, 34.1660235233683], [-118.370617552381, 34.1660242195142], [-118.3706074284, 34.1660262533716], [-118.370597814649, 34.1660295746923], [-118.370588948644, 34.1660341014202], [-118.370581049426, 34.1660397217186], [-118.370574312153, 34.1660462967333], [-118.370568903273, 34.1660536640231], [-118.370564956418, 34.1660616415728], [-118.370562569098, 34.1660700322905], [-118.370561800294, 34.1660786288766], [-118.37056451146, 34.1668762778369], [-118.370565515656, 34.1668857801798], [-118.370568496578, 34.166894994385], [-118.370573363864, 34.166903641139], [-118.370579969971, 34.1669114583297], [-118.370588114645, 34.1669182089919], [-118.370597550993, 34.1669236884905], [-118.370607992968, 34.1669277307237], [-118.370619124039, 34.1669302131579], [-118.370630606785, 34.1669310605423], [-118.371063110452, 34.1669311630932], [-118.371060369203, 34.166023598653], [-118.370627936471, 34.1660235233683]]]}}, {"type": "Feature", "properties": {"zone_id": "0204ZQSVMPJA8FJOZUDZ6F", "tract_id": "06037125322", "city": "NORTH HOLLYWOOD, CA", "zone_code": "CM-1VL", "zone_category": "Commercial", "ev_permitted": true}, "geometry": {"type": "Polygon", "coordinates": [[[-118.370201861473, 34.1671748475804], [-118.36970598473, 34.1671750456242], [-118.369706460317, 34.1673124111469], [-118.370202337997, 34.1673122405797], [-118.370201861473, 34.1671748475804]]]}}, {"type": "Feature", "properties": {"zone_id": "02028QOXGENYBHVSLM9TMD", "tract_id": "06037125322", "city": "NORTH HOLLYWOOD, CA", "zone_code": "CM-1VL", "zone_category": "Commercial", "ev_permitted": true}, "geometry": {"type": "Polygon", "coordinates": [[[-118.369705542081, 34.1670376525222], [-118.369226195155, 34.1670377980643], [-118.369227102222, 34.1673103858896], [-118.369243631279, 34.1673103354207], [-118.369244048209, 34.1674271194331], [-118.36922748607, 34.167427170003], [-118.369227586858, 34.1674499771745], [-118.369706936028, 34.1674498041484], [-118.369705542081, 34.1670376525222]]]}}, {"type": "Feature", "properties": {"zone_id": "020180NOMBY4MX0PJ2V4MN", "tract_id": "06037125322", "city": "NORTH HOLLYWOOD, CA", "zone_code": "CM-1VL", "zone_category": "Commercial", "ev_permitted": true}, "geometry": {"type": "Polygon", "coordinates": [[[-118.370201384951, 34.1670374545814], [-118.369705542081, 34.1670376525222], [-118.36970598473, 34.1671750456242], [-118.370201861473, 34.1671748475804], [-118.370201384951, 34.1670374545814]]]}}, {"type": "Feature", "properties": {"zone_id": "0203723QY1Z5UN495P04D0", "tract_id": "06037125322", "city": "NORTH HOLLYWOOD, CA", "zone_code": "CM-2D", "zone_category": "Commercial", "ev_permitted": true}, "geometry": {"type": "Polygon", "coordinates": [[[-118.369705066376, 34.1669002595214], [-118.369225720359, 34.1669004325402], [-118.369226195155, 34.1670377980643], [-118.369705542081, 34.1670376525222], [-118.369705066376, 34.1669002595214]]]}}, {"type": "Feature", "properties": {"zone_id": "02016FR82MVSQJ1Y7JNJXR", "tract_id": "06037125322", "city": "NORTH HOLLYWOOD, CA", "zone_code": "CM-2D", "zone_category": "Commercial", "ev_permitted": true}, "geometry": {"type": "Polygon", "coordinates": [[[-118.370199512056, 34.1664879099651], [-118.369703672326, 34.1664880804197], [-118.369705542081, 34.1670376525222], [-118.370201384951, 34.1670374545814], [-118.370199512056, 34.1664879099651]]]}}, {"type": "Feature", "properties": {"zone_id": "02028346V3FJWKB3SXQ917", "tract_id": "06037125322", "city": "NORTH HOLLYWOOD, CA", "zone_code": "CM-2D", "zone_category": "Commercial", "ev_permitted": true}, "geometry": {"type": "Polygon", "coordinates": [[[-118.369704148027, 34.1666254734197], [-118.369224803586, 34.1666256464348], [-118.369225245443, 34.1667630395378], [-118.369704590671, 34.166762866521], [-118.369704148027, 34.1666254734197]]]}}, {"type": "Feature", "properties": {"zone_id": "0200GFHEQT0LSA5789O90Z", "tract_id": "06037125322", "city": "NORTH HOLLYWOOD, CA", "zone_code": "CM-2D", "zone_category": "Commercial", "ev_permitted": true}, "geometry": {"type": "Polygon", "coordinates": [[[-118.369704590671, 34.166762866521], [-118.369225245443, 34.1667630395378], [-118.369225720359, 34.1669004325402], [-118.369705066376, 34.1669002595214], [-118.369704590671, 34.166762866521]]]}}, {"type": "Feature", "properties": {"zone_id": "0206MY37WYGIRB4POEZ1QB", "tract_id": "06037125322", "city": "NORTH HOLLYWOOD, CA", "zone_code": "CM-1VL", "zone_category": "Commercial", "ev_permitted": true}, "geometry": {"type": "Polygon", "coordinates": [[[-118.370199068598, 34.1663505168661], [-118.369703196626, 34.16635068742], [-118.369703672326, 34.1664880804197], [-118.370199512056, 34.1664879099651], [-118.370199068598, 34.1663505168661]]]}}, {"type": "Feature", "properties": {"zone_id": "0206NRGMBDCI70HU2BJ5RY", "tract_id": "06037125322", "city": "NORTH HOLLYWOOD, CA", "zone_code": "CM-1VL", "zone_category": "Commercial", "ev_permitted": true}, "geometry": {"type": "Polygon", "coordinates": [[[-118.369703196626, 34.16635068742], [-118.369223853762, 34.1663508604313], [-118.369224295616, 34.1664882535339], [-118.369703672326, 34.1664880804197], [-118.369703196626, 34.16635068742]]]}}, {"type": "Feature", "properties": {"zone_id": "0205MLQXABC5INNANHZUMZ", "tract_id": "06037125322", "city": "NORTH HOLLYWOOD, CA", "zone_code": "CM-1VL", "zone_category": "Commercial", "ev_permitted": true}, "geometry": {"type": "Polygon", "coordinates": [[[-118.369703672326, 34.1664880804197], [-118.369224295616, 34.1664882535339], [-118.369224803586, 34.1666256464348], [-118.369704148027, 34.1666254734197], [-118.369703672326, 34.1664880804197]]]}}, {"type": "Feature", "properties": {"zone_id": "0202DCYC3J4VZYA3ZY7WUK", "tract_id": "06037125322", "city": "CA", "zone_code": "PF-1VL", "zone_category": "Other", "ev_permitted": false}, "geometry": {"type": "Polygon", "coordinates": [[[-118.370151904913, 34.1684422445557], [-118.367774709718, 34.1684449634836], [-118.367775237096, 34.1686098352175], [-118.370087079591, 34.1686072063971], [-118.370097531703, 34.168606492326], [-118.370107716381, 34.1686044215676], [-118.370117378043, 34.168601046087], [-118.370126274231, 34.1685964505909], [-118.370134181698, 34.168590750402], [-118.370140902007, 34.1685840885651], [-118.370146266515, 34.168576632257], [-118.3701501406, 34.1685685685919], [-118.370152427042, 34.1685600999254], [-118.370151904913, 34.1684422445557]]]}}, {"type": "Feature", "properties": {"zone_id": "0205GCO9DC8WZFBAGJWYKR", "tract_id": "06037125322", "city": "NORTH HOLLYWOOD, CA", "zone_code": "MR1-1VL", "zone_category": "Industrial", "ev_permitted": true}, "geometry": {"type": "Polygon", "coordinates": [[[-118.369080899189, 34.1681744112961], [-118.368700889193, 34.1681748835301], [-118.368701811974, 34.1684439265334], [-118.369081790257, 34.1684434818759], [-118.369080899189, 34.1681744112961]]]}}, {"type": "Feature", "properties": {"zone_id": "0202W0K0JESTU8AJIPWMRY", "tract_id": "06037125322", "city": "NORTH HOLLYWOOD, CA", "zone_code": "R3-1VL", "zone_category": "Residential", "ev_permitted": false}, "geometry": {"type": "Polygon", "coordinates": [[[-118.369079910815, 34.1678982789394], [-118.36869996807, 34.1678987234901], [-118.368700448191, 34.1680374904226], [-118.369080391567, 34.1680370458704], [-118.369079910815, 34.1678982789394]]]}}, {"type": "Feature", "properties": {"zone_id": "02073FFPO5GLH1SXPBHR9E", "tract_id": "06037125322", "city": "NORTH HOLLYWOOD, CA", "zone_code": "R3-1VL", "zone_category": "Residential", "ev_permitted": false}, "geometry": {"type": "Polygon", "coordinates": [[[-118.369079436012, 34.1677608584561], [-118.368699460954, 34.1677613305846], [-118.36869996807, 34.1678987234901], [-118.369079910815, 34.1678982789394], [-118.369079436012, 34.1677608584561]]]}}, {"type": "Feature", "properties": {"zone_id": "020663KD6W95Y8W8THBKN3", "tract_id": "06037125322", "city": "NORTH HOLLYWOOD, CA", "zone_code": "R3-1VL", "zone_category": "Residential", "ev_permitted": false}, "geometry": {"type": "Polygon", "coordinates": [[[-118.369078928395, 34.167623493031], [-118.368699020078, 34.1676239649564], [-118.368699460954, 34.1677613305846], [-118.369079436012, 34.1677608584561], [-118.369078928395, 34.167623493031]]]}}, {"type": "Feature", "properties": {"zone_id": "0204RRYT3EA3LE8ZQMY507", "tract_id": "06037125322", "city": "NORTH HOLLYWOOD, CA", "zone_code": "R3-1VL", "zone_category": "Residential", "ev_permitted": false}, "geometry": {"type": "Polygon", "coordinates": [[[-118.369061924495, 34.1674861212771], [-118.368698546025, 34.1674865719506], [-118.368699020078, 34.1676239649564], [-118.369062399146, 34.1676235142814], [-118.369061924495, 34.1674861212771]]]}}, {"type": "Feature", "properties": {"zone_id": "0202JJ2XQMQFE03PGRUG3S", "tract_id": "06037125322", "city": "NORTH HOLLYWOOD, CA", "zone_code": "R3-1VL", "zone_category": "Residential", "ev_permitted": false}, "geometry": {"type": "Polygon", "coordinates": [[[-118.369077504364, 34.167211314019], [-118.368697597922, 34.1672117859399], [-118.368698071972, 34.1673491789451], [-118.369077979039, 34.1673487070227], [-118.369077504364, 34.167211314019]]]}}, {"type": "Feature", "properties": {"zone_id": "0205RLO5MU5WTZGXIYWL3A", "tract_id": "06037125322", "city": "NORTH HOLLYWOOD, CA", "zone_code": "R3-1VL", "zone_category": "Residential", "ev_permitted": false}, "geometry": {"type": "Polygon", "coordinates": [[[-118.369077979039, 34.1673487070227], [-118.368698071972, 34.1673491789451], [-118.368698546025, 34.1674865719506], [-118.369078453716, 34.1674861000267], [-118.369077979039, 34.1673487070227]]]}}, {"type": "Feature", "properties": {"zone_id": "02030K1GG2R8Y6U1WLA6VB", "tract_id": "06037125322", "city": "NORTH HOLLYWOOD, CA", "zone_code": "R3-1VL", "zone_category": "Residential", "ev_permitted": false}, "geometry": {"type": "Polygon", "coordinates": [[[-118.369076997117, 34.1670740310305], [-118.368697123266, 34.1670742555423], [-118.368697597922, 34.1672117859399], [-118.369077504364, 34.167211314019], [-118.369076997117, 34.1670740310305]]]}}, {"type": "Feature", "properties": {"zone_id": "0202Y4WHV96J1GK2Q65QRE", "tract_id": "06037125322", "city": "NORTH HOLLYWOOD, CA", "zone_code": "R3-1VL", "zone_category": "Residential", "ev_permitted": false}, "geometry": {"type": "Polygon", "coordinates": [[[-118.369075898762, 34.1667580271435], [-118.368695993168, 34.1667582242742], [-118.368696649097, 34.166936835059], [-118.369076522566, 34.1669366655057], [-118.369075898762, 34.1667580271435]]]}}, {"type": "Feature", "properties": {"zone_id": "02024M88PQEEX5BPXDATXU", "tract_id": "06037125322", "city": "NORTH HOLLYWOOD, CA", "zone_code": "R3-1VL", "zone_category": "Residential", "ev_permitted": false}, "geometry": {"type": "Polygon", "coordinates": [[[-118.369075391035, 34.1666206342418], [-118.36869558524, 34.1666208310684], [-118.368695993168, 34.1667582242742], [-118.369075898762, 34.1667580271435], [-118.369075391035, 34.1666206342418]]]}}, {"type": "Feature", "properties": {"zone_id": "0200KOPATWCV42LOCBJ76O", "tract_id": "06037125322", "city": "NORTH HOLLYWOOD, CA", "zone_code": "R3-1VL", "zone_category": "Residential", "ev_permitted": false}, "geometry": {"type": "Polygon", "coordinates": [[[-118.369074441824, 34.1663458757156], [-118.368694637035, 34.1663460175823], [-118.368695111197, 34.1664834380645], [-118.369074916489, 34.1664832687178], [-118.369074441824, 34.1663458757156]]]}}, {"type": "Feature", "properties": {"zone_id": "0200D0IZMGZSRDOSYU2DO4", "tract_id": "06037125322", "city": "NORTH HOLLYWOOD, CA", "zone_code": "R3-1VL", "zone_category": "Residential", "ev_permitted": false}, "geometry": {"type": "Polygon", "coordinates": [[[-118.369074916489, 34.1664832687178], [-118.368695111197, 34.1664834380645], [-118.36869558524, 34.1666208310684], [-118.369075391035, 34.1666206342418], [-118.369074916489, 34.1664832687178]]]}}, {"type": "Feature", "properties": {"zone_id": "0204L6301TCK8JMTP11JGW", "tract_id": "06037125322", "city": "NORTH HOLLYWOOD, CA", "zone_code": "C4-2D", "zone_category": "Commercial", "ev_permitted": true}, "geometry": {"type": "Polygon", "coordinates": [[[-118.377226395311, 34.1650213810892], [-118.376832548363, 34.1650218396483], [-118.376832387653, 34.1655359428447], [-118.376833429042, 34.1655689417557], [-118.375852369352, 34.1655687250047], [-118.375852259324, 34.1658308740219], [-118.376195740692, 34.1663982069443], [-118.376203762004, 34.166409253577], [-118.376213779322, 34.1664191216376], [-118.376225544349, 34.1664275665277], [-118.376238765465, 34.1664343789244], [-118.376253114959, 34.1664393899699], [-118.376268237151, 34.1664424754558], [-118.376283757208, 34.1664435589025], [-118.376299290435, 34.1664426134549], [-118.376314451811, 34.1664396625476], [-118.376328865531, 34.1664347793243], [-118.376358640725, 34.1664838738858], [-118.376344214565, 34.1664912640802], [-118.376331510581, 34.1665005700847], [-118.376320896232, 34.1665115227256], [-118.376312678535, 34.1665238052006], [-118.376307095183, 34.1665370622424], [-118.376304307674, 34.1665509103951], [-118.376304396635, 34.1665649491049], [-118.376307359494, 34.1665787723065], [-118.376313110549, 34.1665919801685], [-118.37634435197, 34.1666436531874], [-118.376834937279, 34.1666436642327], [-118.376835156946, 34.1669049329121], [-118.377276419351, 34.1669046561989], [-118.37727596925, 34.1650625272163], [-118.377226395311, 34.1650213810892]]]}}, {"type": "Feature", "properties": {"zone_id": "020431ANW5ZCQ2KBPVF9J4", "tract_id": "06037125322", "city": "NORTH HOLLYWOOD, CA", "zone_code": "C4-2D", "zone_category": "Commercial", "ev_permitted": true}, "geometry": {"type": "Polygon", "coordinates": [[[-118.376832548363, 34.1650218396483], [-118.376603922785, 34.165022112225], [-118.376603775701, 34.1655688877834], [-118.376833429042, 34.1655689417557], [-118.376832387653, 34.1655359428447], [-118.376832548363, 34.1650218396483]]]}}, {"type": "Feature", "properties": {"zone_id": "02027BD3MZWLC3RWKCD04C", "tract_id": "06037125322", "city": "NORTH HOLLYWOOD, CA", "zone_code": "C4-2D", "zone_category": "Commercial", "ev_permitted": true}, "geometry": {"type": "Polygon", "coordinates": [[[-118.375287937156, 34.165023647983], [-118.375010617814, 34.165023958742], [-118.375000144306, 34.1650246685937], [-118.374989939284, 34.1650267434155], [-118.374980260898, 34.1650301307223], [-118.374971353973, 34.1650347448277], [-118.374963443821, 34.165040469012], [-118.374956730541, 34.1650471584745], [-118.374951383952, 34.1650546439968], [-118.374947761583, 34.1650620981055], [-118.374945485955, 34.1650699084694], [-118.374944605319, 34.1650779094799], [-118.374945138349, 34.165085931486], [-118.374947073742, 34.1650938043915], [-118.374950370461, 34.1651013612619], [-118.375005190513, 34.1651920639779], [-118.374968165754, 34.1651920413965], [-118.375051327705, 34.1653294527648], [-118.37547311239, 34.1653295452829], [-118.375287937156, 34.165023647983]]]}}, {"type": "Feature", "properties": {"zone_id": "0204RSJH86SBR2V3AM4DX9", "tract_id": "06037125322", "city": "NORTH HOLLYWOOD, CA", "zone_code": "C4-2D", "zone_category": "Commercial", "ev_permitted": true}, "geometry": {"type": "Polygon", "coordinates": [[[-118.375513914051, 34.1650151149718], [-118.375356890998, 34.1650153002133], [-118.375514356539, 34.1652753937027], [-118.375513914051, 34.1650151149718]]]}}, {"type": "Feature", "properties": {"zone_id": "0201EZFYHO97LZDFQMGNE3", "tract_id": "06037125322", "city": "NORTH HOLLYWOOD, CA", "zone_code": "C4-2D", "zone_category": "Commercial", "ev_permitted": true}, "geometry": {"type": "Polygon", "coordinates": [[[-118.376603922785, 34.165022112225], [-118.376175067884, 34.1650225952283], [-118.376175973109, 34.1655687629682], [-118.376603775701, 34.1655688877834], [-118.376603922785, 34.165022112225]]]}}, {"type": "Feature", "properties": {"zone_id": "0203A3U59FE0J79XSZ8GYU", "tract_id": "06037125322", "city": "NORTH HOLLYWOOD, CA", "zone_code": "C4-2D", "zone_category": "Commercial", "ev_permitted": true}, "geometry": {"type": "Polygon", "coordinates": [[[-118.375905968939, 34.1660418274393], [-118.375482794832, 34.166042317791], [-118.375625208818, 34.1662775894802], [-118.376048417174, 34.1662770985273], [-118.375905968939, 34.1660418274393]]]}}, {"type": "Feature", "properties": {"zone_id": "0205IKKU1L0AY44RGW89ZW", "tract_id": "06037125322", "city": "NORTH HOLLYWOOD, CA", "zone_code": "C4-2D", "zone_category": "Commercial", "ev_permitted": true}, "geometry": {"type": "Polygon", "coordinates": [[[-118.375774212307, 34.1658241644151], [-118.375351072359, 34.1658246542031], [-118.375482794832, 34.166042317791], [-118.375905968939, 34.1660418274393], [-118.375774212307, 34.1658241644151]]]}}, {"type": "Feature", "properties": {"zone_id": "0203BP74EHREQX6M1VL6S0", "tract_id": "06037125322", "city": "NORTH HOLLYWOOD, CA", "zone_code": "C4-2D", "zone_category": "Commercial", "ev_permitted": true}, "geometry": {"type": "Polygon", "coordinates": [[[-118.374923937068, 34.1657456069291], [-118.374644390474, 34.1658611942783], [-118.374710171496, 34.1661255847494], [-118.374923919491, 34.1664779436055], [-118.374948280611, 34.166523821375], [-118.375306030666, 34.1663738240697], [-118.374923937068, 34.1657456069291]]]}}, {"type": "Feature", "properties": {"zone_id": "0201YEGZ8GW3Q1BJWM56QZ", "tract_id": "06037125322", "city": "NORTH HOLLYWOOD, CA", "zone_code": "C4-2D", "zone_category": "Commercial", "ev_permitted": true}, "geometry": {"type": "Polygon", "coordinates": [[[-118.376175063827, 34.1650143515719], [-118.376009776601, 34.1650145908481], [-118.376010683673, 34.1655687549391], [-118.376175973109, 34.1655687629682], [-118.376175063827, 34.1650143515719]]]}}, {"type": "Feature", "properties": {"zone_id": "02079NAX0STN2QO25UNLEL", "tract_id": "06037125322", "city": "NORTH HOLLYWOOD, CA", "zone_code": "C4-2D", "zone_category": "Commercial", "ev_permitted": true}, "geometry": {"type": "Polygon", "coordinates": [[[-118.376009747705, 34.1650008240108], [-118.37567917281, 34.1650011919713], [-118.375680055342, 34.1655356812442], [-118.375852353129, 34.1655357229002], [-118.375852369352, 34.1655687250047], [-118.376010683673, 34.1655687549391], [-118.376009747705, 34.1650008240108]]]}}, {"type": "Feature", "properties": {"zone_id": "02067GGIC8H6HCZDIGBFU0", "tract_id": "06037125322", "city": "NORTH HOLLYWOOD, CA", "zone_code": "C4-2D", "zone_category": "Commercial", "ev_permitted": true}, "geometry": {"type": "Polygon", "coordinates": [[[-118.375679201527, 34.1650149313303], [-118.375513914051, 34.1650151149718], [-118.375514356539, 34.1652753937027], [-118.375671923097, 34.1655356790295], [-118.375680055342, 34.1655356812442], [-118.375679201527, 34.1650149313303]]]}}, {"type": "Feature", "properties": {"zone_id": "0203ZPF27ZOHCH99UY42HD", "tract_id": "06037125322", "city": "NORTH HOLLYWOOD, CA", "zone_code": "C4-2D", "zone_category": "Commercial", "ev_permitted": true}, "geometry": {"type": "Polygon", "coordinates": [[[-118.375216020273, 34.1656015325055], [-118.375296818308, 34.165735021561], [-118.375785413844, 34.1657348231918], [-118.37578507941, 34.1656016614976], [-118.375216020273, 34.1656015325055]]]}}, {"type": "Feature", "properties": {"zone_id": "0205TH0Q1ZR8TKVAZA3KDF", "tract_id": "06037125322", "city": "NORTH HOLLYWOOD, CA", "zone_code": "C4-2D", "zone_category": "Commercial", "ev_permitted": true}, "geometry": {"type": "Polygon", "coordinates": [[[-118.375051327705, 34.1653294527648], [-118.375176087672, 34.1655355696594], [-118.375597873398, 34.1655356617423], [-118.37547311239, 34.1653295452829], [-118.375051327705, 34.1653294527648]]]}}, {"type": "Feature", "properties": {"zone_id": "0204HBGBZAQPOQUPWLUHFQ", "tract_id": "06037125322", "city": "NORTH HOLLYWOOD, CA", "zone_code": "C4-2D", "zone_category": "Commercial", "ev_permitted": true}, "geometry": {"type": "Polygon", "coordinates": [[[-118.375785413844, 34.1657348231918], [-118.375296818308, 34.165735021561], [-118.375351072359, 34.1658246542031], [-118.37578568339, 34.1658241562474], [-118.375785413844, 34.1657348231918]]]}}, {"type": "Feature", "properties": {"zone_id": "0205WNWNGERSQEYH0U7AFM", "tract_id": "06037125322", "city": "NORTH HOLLYWOOD, CA", "zone_code": "C4-2D", "zone_category": "Commercial", "ev_permitted": true}, "geometry": {"type": "Polygon", "coordinates": [[[-118.374853961806, 34.1656143888699], [-118.374565376695, 34.1657346789023], [-118.374436893063, 34.1657079826184], [-118.374184152678, 34.1657863928223], [-118.37383089857, 34.1657871281631], [-118.373832997762, 34.1664779685698], [-118.374923919491, 34.1664779436055], [-118.374710171496, 34.1661255847494], [-118.374644390474, 34.1658611942783], [-118.374596763029, 34.1657821201689], [-118.374882679852, 34.1656638992511], [-118.374853961806, 34.1656143888699]]]}}, {"type": "Feature", "properties": {"zone_id": "020638MR4DCVP5GNX5AJ9K", "tract_id": "06037125322", "city": "NORTH HOLLYWOOD, CA", "zone_code": "C4-2D", "zone_category": "Commercial", "ev_permitted": true}, "geometry": {"type": "Polygon", "coordinates": [[[-118.374472968628, 34.1650314779016], [-118.373886377337, 34.1650352714797], [-118.374311216214, 34.1657469795487], [-118.374436893063, 34.1657079826184], [-118.374565376695, 34.1657346789023], [-118.374853961806, 34.1656143888699], [-118.374533702043, 34.165062423399], [-118.374528255575, 34.1650547564926], [-118.374521381905, 34.1650479195776], [-118.374513262101, 34.1650420927534], [-118.374504110056, 34.1650374295115], [-118.374494166855, 34.165034052692], [-118.374483694424, 34.1650320512478], [-118.374472968628, 34.1650314779016]]]}}, {"type": "Feature", "properties": {"zone_id": "020298SG7U1ITTGPQ0JA71", "tract_id": "06037125322", "city": "NORTH HOLLYWOOD, CA", "zone_code": "C4-2D", "zone_category": "Commercial", "ev_permitted": true}, "geometry": {"type": "Polygon", "coordinates": [[[-118.374875915525, 34.1656666955896], [-118.374596763029, 34.1657821201689], [-118.374644390474, 34.1658611942783], [-118.374923937068, 34.1657456069291], [-118.374875915525, 34.1656666955896]]]}}, {"type": "Feature", "properties": {"zone_id": "02018SMSZL4U48T8QC57FA", "tract_id": "06037125322", "city": "NORTH HOLLYWOOD, CA", "zone_code": "C4-2D", "zone_category": "Commercial", "ev_permitted": true}, "geometry": {"type": "Polygon", "coordinates": [[[-118.373886377337, 34.1650352714797], [-118.373621725253, 34.1650369687894], [-118.373808730899, 34.1653543491418], [-118.373809850909, 34.1657229200933], [-118.373657244661, 34.1657870328578], [-118.374184152678, 34.1657863928223], [-118.374311216214, 34.1657469795487], [-118.373886377337, 34.1650352714797]]]}}, {"type": "Feature", "properties": {"zone_id": "0203GA1QC8X80ZJLDIHXBP", "tract_id": "06037125322", "city": "NORTH HOLLYWOOD, CA", "zone_code": "C4-2D", "zone_category": "Commercial", "ev_permitted": true}, "geometry": {"type": "Polygon", "coordinates": [[[-118.372641829677, 34.1650369147662], [-118.372631355177, 34.1650375097945], [-118.372621125835, 34.1650394665859], [-118.372611398581, 34.1650427359914], [-118.372602417738, 34.1650472358929], [-118.372594408877, 34.1650528532654], [-118.372587573158, 34.1650594470165], [-118.372582082276, 34.16506685153], [-118.372578074145, 34.1650748808254], [-118.372575649438, 34.1650833332298], [-118.372574869057, 34.165091996443], [-118.372577142525, 34.1658316662896], [-118.372577895005, 34.1658387954769], [-118.372580129923, 34.1658457087532], [-118.372583779587, 34.1658521967284], [-118.372588733455, 34.1658580628938], [-118.372594841485, 34.1658631295746], [-118.372601918674, 34.1658672433103], [-118.372609750669, 34.1658702795039], [-118.372618100253, 34.1658721461949], [-118.372626714533, 34.1658727868446], [-118.373455243537, 34.1658719895926], [-118.373809850909, 34.1657229200933], [-118.373808730899, 34.1653543491418], [-118.373621725253, 34.1650369687894], [-118.373040835852, 34.165036948561], [-118.373042076135, 34.1654332178615], [-118.372876753787, 34.1654331781721], [-118.372875547468, 34.1650369362466], [-118.372641829677, 34.1650369147662]]]}}, {"type": "Feature", "properties": {"zone_id": "02012LUCAV8873UOGATJV3", "tract_id": "06037125322", "city": "NORTH HOLLYWOOD, CA", "zone_code": "C4-2D", "zone_category": "Commercial", "ev_permitted": true}, "geometry": {"type": "Polygon", "coordinates": [[[-118.373657244661, 34.1657870328578], [-118.373455243537, 34.1658719895926], [-118.373109460187, 34.1658727272314], [-118.373110054544, 34.1660650501773], [-118.373043939064, 34.1660651991962], [-118.373045185768, 34.166477708509], [-118.373832997762, 34.1664779685698], [-118.37383089857, 34.1657871281631], [-118.373657244661, 34.1657870328578]]]}}, {"type": "Feature", "properties": {"zone_id": "0206MY3Q7GGEOIISQAULMW", "tract_id": "06037125322", "city": "NORTH HOLLYWOOD, CA", "zone_code": "C4-2D", "zone_category": "Commercial", "ev_permitted": true}, "geometry": {"type": "Polygon", "coordinates": [[[-118.372878530694, 34.1660239414299], [-118.372879927469, 34.16647766862], [-118.373045185768, 34.166477708509], [-118.373043821153, 34.1660239812189], [-118.372878530694, 34.1660239414299]]]}}, {"type": "Feature", "properties": {"zone_id": "0203E7H7WOYG4AVOFVBMD1", "tract_id": "06037125322", "city": "NORTH HOLLYWOOD, CA", "zone_code": "C4-2D", "zone_category": "Commercial", "ev_permitted": true}, "geometry": {"type": "Polygon", "coordinates": [[[-118.372547916841, 34.1660238887547], [-118.372549344389, 34.1664775059326], [-118.372879927469, 34.16647766862], [-118.372878530694, 34.1660239414299], [-118.372547916841, 34.1660238887547]]]}}, {"type": "Feature", "properties": {"zone_id": "02043F8ZZ8X9XW6VIYUMD5", "tract_id": "06037125322", "city": "NORTH HOLLYWOOD, CA", "zone_code": "C4-2D", "zone_category": "Commercial", "ev_permitted": true}, "geometry": {"type": "Polygon", "coordinates": [[[-118.372875547468, 34.1650369362466], [-118.372876753787, 34.1654331781721], [-118.373042076135, 34.1654332178615], [-118.373040835852, 34.165036948561], [-118.372875547468, 34.1650369362466]]]}}, {"type": "Feature", "properties": {"zone_id": "0207A0653NRU63KZ2M9SVR", "tract_id": "06037125322", "city": "NORTH HOLLYWOOD, CA", "zone_code": "C4-2D", "zone_category": "Commercial", "ev_permitted": true}, "geometry": {"type": "Polygon", "coordinates": [[[-118.371718527317, 34.165036513977], [-118.370624419565, 34.1650369045513], [-118.370558448356, 34.1650917622438], [-118.370560907013, 34.1658175821447], [-118.370561909548, 34.1658270885044], [-118.370564888759, 34.1658363070996], [-118.370569754418, 34.1658449587399], [-118.370576359167, 34.1658527814057], [-118.370584502975, 34.1658595381831], [-118.370593939204, 34.1658650244397], [-118.370604382071, 34.165869074021], [-118.370615515309, 34.1658715642836], [-118.370627001741, 34.1658724198084], [-118.371721056886, 34.1658726064628], [-118.371718527317, 34.165036513977]]]}}, {"type": "Feature", "properties": {"zone_id": "02042BGZQX9Y4CXVHRNR12", "tract_id": "06037125322", "city": "NORTH HOLLYWOOD, CA", "zone_code": "C4-2D", "zone_category": "Commercial", "ev_permitted": true}, "geometry": {"type": "Polygon", "coordinates": [[[-118.371721497853, 34.166023739017], [-118.371722890301, 34.1664779058766], [-118.372384055605, 34.1664780425167], [-118.372382659563, 34.1660238756647], [-118.371721497853, 34.166023739017]]]}}, {"type": "Feature", "properties": {"zone_id": "0204I36T4TP0J4LSNZNJ6O", "tract_id": "06037125322", "city": "NORTH HOLLYWOOD, CA", "zone_code": "C4-2D", "zone_category": "Commercial", "ev_permitted": true}, "geometry": {"type": "Polygon", "coordinates": [[[-118.371060369203, 34.166023598653], [-118.371061724999, 34.1664777656217], [-118.371722890301, 34.1664779058766], [-118.371721497853, 34.166023739017], [-118.371060369203, 34.166023598653]]]}}, {"type": "Feature", "properties": {"zone_id": "0205KVPTQJS8QKGZX6RVSS", "tract_id": "06037125322", "city": "NORTH HOLLYWOOD, CA", "zone_code": "C4-2D", "zone_category": "Commercial", "ev_permitted": true}, "geometry": {"type": "Polygon", "coordinates": [[[-118.372320192749, 34.1650308176567], [-118.371718519397, 34.1650310182229], [-118.371721056886, 34.1658726064628], [-118.372315969107, 34.1658727272698], [-118.372324595211, 34.1658720821741], [-118.37233295537, 34.1658702089843], [-118.372340796193, 34.1658671644756], [-118.372347880029, 34.165863040925], [-118.372353992172, 34.1658579633148], [-118.372358947365, 34.165852085544], [-118.372362595421, 34.1658455857642], [-118.372364825769, 34.1658386609795], [-118.372365570808, 34.1658315210759], [-118.372363252298, 34.1650664883515], [-118.372320192749, 34.1650308176567]]]}}, {"type": "Feature", "properties": {"zone_id": "0200M8H3BHBDTR6UJ03OU4", "tract_id": "06037125322", "city": "NORTH HOLLYWOOD, CA", "zone_code": "CM-1VL", "zone_category": "Commercial", "ev_permitted": true}, "geometry": {"type": "Polygon", "coordinates": [[[-118.370198148631, 34.1660757307701], [-118.36970227829, 34.1660759013202], [-118.369702753986, 34.1662132943195], [-118.370198625143, 34.1662131237674], [-118.370198148631, 34.1660757307701]]]}}, {"type": "Feature", "properties": {"zone_id": "0204TQOB0N8G3M4G0U1046", "tract_id": "06037125322", "city": "NORTH HOLLYWOOD, CA", "zone_code": "CM-1VL", "zone_category": "Commercial", "ev_permitted": true}, "geometry": {"type": "Polygon", "coordinates": [[[-118.370198625143, 34.1662131237674], [-118.369702753986, 34.1662132943195], [-118.369703196626, 34.16635068742], [-118.370199068598, 34.1663505168661], [-118.370198625143, 34.1662131237674]]]}}, {"type": "Feature", "properties": {"zone_id": "02070NTHTBX343X01LP6C5", "tract_id": "06037125322", "city": "NORTH HOLLYWOOD, CA", "zone_code": "CM-1VL", "zone_category": "Commercial", "ev_permitted": true}, "geometry": {"type": "Polygon", "coordinates": [[[-118.36970227829, 34.1660759013202], [-118.369222937002, 34.1660760743279], [-118.36922341191, 34.166213467329], [-118.369702753986, 34.1662132943195], [-118.36970227829, 34.1660759013202]]]}}, {"type": "Feature", "properties": {"zone_id": "02045P390PO1EFEKLU4N3G", "tract_id": "06037125322", "city": "NORTH HOLLYWOOD, CA", "zone_code": "CM-1VL", "zone_category": "Commercial", "ev_permitted": true}, "geometry": {"type": "Polygon", "coordinates": [[[-118.369702753986, 34.1662132943195], [-118.36922341191, 34.166213467329], [-118.369223853762, 34.1663508604313], [-118.369703196626, 34.16635068742], [-118.369702753986, 34.1662132943195]]]}}, {"type": "Feature", "properties": {"zone_id": "0203XV82L8P1ZEY117B1NM", "tract_id": "06037125322", "city": "NORTH HOLLYWOOD, CA", "zone_code": "CM-1VL", "zone_category": "Commercial", "ev_permitted": true}, "geometry": {"type": "Polygon", "coordinates": [[[-118.370197672121, 34.1659383377731], [-118.369701769659, 34.1659385359009], [-118.36970227829, 34.1660759013202], [-118.370198148631, 34.1660757307701], [-118.370197672121, 34.1659383377731]]]}}, {"type": "Feature", "properties": {"zone_id": "0201W3ZGAXMJ5YKOR5DGJU", "tract_id": "06037125322", "city": "NORTH HOLLYWOOD, CA", "zone_code": "CM-1VL", "zone_category": "Commercial", "ev_permitted": true}, "geometry": {"type": "Polygon", "coordinates": [[[-118.370197228791, 34.1658009721537], [-118.369701360081, 34.1658011427], [-118.369701769659, 34.1659385359009], [-118.370197672121, 34.1659383377731], [-118.370197228791, 34.1658009721537]]]}}, {"type": "Feature", "properties": {"zone_id": "0201PAFNKDTW8KO5QS7G1V", "tract_id": "06037125322", "city": "NORTH HOLLYWOOD, CA", "zone_code": "CM-1VL", "zone_category": "Commercial", "ev_permitted": true}, "geometry": {"type": "Polygon", "coordinates": [[[-118.369701360081, 34.1658011427], [-118.369222020369, 34.1658013157041], [-118.369222937002, 34.1660760743279], [-118.36970227829, 34.1660759013202], [-118.369701360081, 34.1658011427]]]}}, {"type": "Feature", "properties": {"zone_id": "0202N7OV4D8VHE04EKS0LI", "tract_id": "06037125322", "city": "NORTH HOLLYWOOD, CA", "zone_code": "CM-1VL", "zone_category": "Commercial", "ev_permitted": true}, "geometry": {"type": "Polygon", "coordinates": [[[-118.370196752284, 34.1656635791572], [-118.369700884389, 34.1656637497016], [-118.369701360081, 34.1658011427], [-118.370197228791, 34.1658009721537], [-118.370196752284, 34.1656635791572]]]}}, {"type": "Feature", "properties": {"zone_id": "02033YE0DE4L9R1INU4Y3I", "tract_id": "06037125322", "city": "NORTH HOLLYWOOD, CA", "zone_code": "CM-1VL", "zone_category": "Commercial", "ev_permitted": true}, "geometry": {"type": "Polygon", "coordinates": [[[-118.370196275779, 34.1655261861609], [-118.369700474814, 34.1655263565012], [-118.369700884389, 34.1656637497016], [-118.370196752284, 34.1656635791572], [-118.370196275779, 34.1655261861609]]]}}, {"type": "Feature", "properties": {"zone_id": "0200M66DNKKKPX23BKBXGQ", "tract_id": "06037125322", "city": "NORTH HOLLYWOOD, CA", "zone_code": "CM-1VL", "zone_category": "Commercial", "ev_permitted": true}, "geometry": {"type": "Polygon", "coordinates": [[[-118.369699966067, 34.1653889636044], [-118.369237157641, 34.165389141092], [-118.369237270423, 34.1654221428944], [-118.369220741375, 34.1654221109269], [-118.369221545466, 34.1656639227038], [-118.369238074319, 34.1656638997141], [-118.36923854925, 34.1658012927144], [-118.369701360081, 34.1658011427], [-118.369699966067, 34.1653889636044]]]}}, {"type": "Feature", "properties": {"zone_id": "02044VOT4UWI95AXUSQVSN", "tract_id": "06037125322", "city": "NORTH HOLLYWOOD, CA", "zone_code": "CM-1VL", "zone_category": "Commercial", "ev_permitted": true}, "geometry": {"type": "Polygon", "coordinates": [[[-118.370195832332, 34.1653887930637], [-118.369699966067, 34.1653889636044], [-118.369700474814, 34.1655263565012], [-118.370196275779, 34.1655261861609], [-118.370195832332, 34.1653887930637]]]}}, {"type": "Feature", "properties": {"zone_id": "0204PS16D5M2XTNA45JKA5", "tract_id": "06037125322", "city": "NORTH HOLLYWOOD, CA", "zone_code": "CA", "zone_category": "Other", "ev_permitted": false}, "geometry": {"type": "Polygon", "coordinates": [[[-118.370105351543, 34.1650316074384], [-118.369864055843, 34.1650317033931], [-118.369865254782, 34.1653888978239], [-118.370172691979, 34.1653888175317], [-118.370171654435, 34.1650865374517], [-118.370170854975, 34.165077946053], [-118.370168438653, 34.1650695643806], [-118.370164465145, 34.1650615994394], [-118.370159032588, 34.1650542479429], [-118.37015227515, 34.1650476914536], [-118.370144359722, 34.1650420918998], [-118.370135481795, 34.1650375875759], [-118.37012586063, 34.1650342897268], [-118.370115733844, 34.1650322798011], [-118.370105351543, 34.1650316074384]]]}}, {"type": "Feature", "properties": {"zone_id": "0202D2UPBDFHNXOYQYX0L8", "tract_id": "06037125322", "city": "NORTH HOLLYWOOD, CA", "zone_code": "CA", "zone_category": "Other", "ev_permitted": false}, "geometry": {"type": "Polygon", "coordinates": [[[-118.369864055843, 34.1650317033931], [-118.369781393244, 34.1650317363676], [-118.369782610425, 34.1653889307424], [-118.369865254782, 34.1653888978239], [-118.369864055843, 34.1650317033931]]]}}, {"type": "Feature", "properties": {"zone_id": "0204GG2YXSL9PCVF2KTMXC", "tract_id": "06037125322", "city": "NORTH HOLLYWOOD, CA", "zone_code": "CA", "zone_category": "Other", "ev_permitted": false}, "geometry": {"type": "Polygon", "coordinates": [[[-118.369781393244, 34.1650317363676], [-118.369616105115, 34.1650317745549], [-118.36961732171, 34.1653889964099], [-118.369782610425, 34.1653889307424], [-118.369781393244, 34.1650317363676]]]}}, {"type": "Feature", "properties": {"zone_id": "0205DI7Z28I2SHND74P9AJ", "tract_id": "06037125322", "city": "NORTH HOLLYWOOD, CA", "zone_code": "R3-1VL", "zone_category": "Residential", "ev_permitted": false}, "geometry": {"type": "Polygon", "coordinates": [[[-118.369073315285, 34.1660309710734], [-118.368693545228, 34.1660311677928], [-118.368694163117, 34.1662086520574], [-118.369073934102, 34.1662084828146], [-118.369073315285, 34.1660309710734]]]}}, {"type": "Feature", "properties": {"zone_id": "02040XF8SM7IB7HWBANU2X", "tract_id": "06037125322", "city": "NORTH HOLLYWOOD, CA", "zone_code": "R3-1VL", "zone_category": "Residential", "ev_permitted": false}, "geometry": {"type": "Polygon", "coordinates": [[[-118.369073934102, 34.1662084828146], [-118.368694163117, 34.1662086520574], [-118.368694637035, 34.1663460175823], [-118.369074441824, 34.1663458757156], [-118.369073934102, 34.1662084828146]]]}}, {"type": "Feature", "properties": {"zone_id": "02040TC8EG3LN4YQ9LV1D3", "tract_id": "06037125322", "city": "NORTH HOLLYWOOD, CA", "zone_code": "R3-1VL", "zone_category": "Residential", "ev_permitted": false}, "geometry": {"type": "Polygon", "coordinates": [[[-118.369071489394, 34.1655128346975], [-118.368691754507, 34.1655129763533], [-118.368692228538, 34.1656503693554], [-118.36907196405, 34.1656502276981], [-118.369071489394, 34.1655128346975]]]}}, {"type": "Feature", "properties": {"zone_id": "02006UPZY79ZV028VUFBO5", "tract_id": "06037125322", "city": "NORTH HOLLYWOOD, CA", "zone_code": "R3-1VL", "zone_category": "Residential", "ev_permitted": false}, "geometry": {"type": "Polygon", "coordinates": [[[-118.36907196405, 34.1656502276981], [-118.368692228538, 34.1656503693554], [-118.368693071192, 34.1658937747899], [-118.369072840625, 34.1658935780721], [-118.36907196405, 34.1656502276981]]]}}, {"type": "Feature", "properties": {"zone_id": "020508KVO8RMHTEHH24ECN", "tract_id": "06037125322", "city": "NORTH HOLLYWOOD, CA", "zone_code": "R3-1VL", "zone_category": "Residential", "ev_permitted": false}, "geometry": {"type": "Polygon", "coordinates": [[[-118.369071014739, 34.1653754416971], [-118.368691313534, 34.1653755832506], [-118.368691754507, 34.1655129763533], [-118.369071489394, 34.1655128346975], [-118.369071014739, 34.1653754416971]]]}}, {"type": "Feature", "properties": {"zone_id": "02056VCE2C11PB32VHZ9UI", "tract_id": "06037125322", "city": "NORTH HOLLYWOOD, CA", "zone_code": "CA", "zone_category": "Other", "ev_permitted": false}, "geometry": {"type": "Polygon", "coordinates": [[[-118.369616105115, 34.1650317745549], [-118.369285529098, 34.1650319052088], [-118.369252574308, 34.1650593902741], [-118.36925368647, 34.1653891249698], [-118.36961732171, 34.1653889964099], [-118.369616105115, 34.1650317745549]]]}}, {"type": "Feature", "properties": {"zone_id": "0201PFDYNZHI6EW58YKPKX", "tract_id": "06037125322", "city": "NORTH HOLLYWOOD, CA", "zone_code": "CA", "zone_category": "Other", "ev_permitted": false}, "geometry": {"type": "Polygon", "coordinates": [[[-118.369037139594, 34.1650182370785], [-118.368723092355, 34.1650183432305], [-118.368690156034, 34.1650458401076], [-118.368691104088, 34.1653206261104], [-118.369071267846, 34.165320483145], [-118.369070318542, 34.1650456971452], [-118.369037139594, 34.1650182370785]]]}}]}