{"type": "FeatureCollection", "features": [{"type": "Feature", "properties": {"zone_id": "0200GJMB5SKI721IRJN1T6", "tract_id": "06037207305", "city": "LOS ANGELES, CA", "zone_code": "CPIO", "zone_category": "Other", "ev_permitted": false}, "geometry": {"type": "Polygon", "coordinates": [[[-118.247686740456, 34.0525224164913], [-118.247444138515, 34.0527829446892], [-118.247722908268, 34.0529635127155], [-118.247965411233, 34.0527031215512], [-118.247686740456, 34.0525224164913]]]}}, {"type": "Feature", "properties": {"zone_id": "0206UJ5F5K5M82WLC8M458", "tract_id": "06037207305", "city": "LOS ANGELES, CA", "zone_code": "CPIO", "zone_category": "Other", "ev_permitted": false}, "geometry": {"type": "Polygon", "coordinates": [[[-118.251355770704, 34.0486177250139], [-118.251120132265, 34.0488700299717], [-118.251380540193, 34.0490388668126], [-118.251615913818, 34.0487864245022], [-118.251355770704, 34.0486177250139]]]}}, {"type": "Feature", "properties": {"zone_id": "0203G0WKJKEHSGXMM6FWGZ", "tract_id": "06037207305", "city": "LOS ANGELES, CA", "zone_code": "CPIO", "zone_category": "Other", "ev_permitted": false}, "geometry": {"type": "Polygon", "coordinates": [[[-118.25182227207, 34.0478659528703], [-118.251583438131, 34.0481192821053], [-118.251992383171, 34.0483824996326], [-118.252229529658, 34.0481280464828], [-118.25182227207, 34.0478659528703]]]}}, {"type": "Feature", "properties": {"zone_id": "0206QA58QMYMCFAQQCWWZO", "tract_id": "06037207305", "city": "LOS ANGELES, CA", "zone_code": "CPIO", "zone_category": "Other", "ev_permitted": false}, "geometry": {"type": "Polygon", "coordinates": [[[-118.251787875795, 34.0483710554226], [-118.251612780333, 34.0485567641417], [-118.251748193549, 34.0486445236398], [-118.251921999055, 34.0484580205324], [-118.251787875795, 34.0483710554226]]]}}, {"type": "Feature", "properties": {"zone_id": "02048XTIUTHRG5OD4S60MO", "tract_id": "06037207305", "city": "LOS ANGELES, CA", "zone_code": "CPIO", "zone_category": "Other", "ev_permitted": false}, "geometry": {"type": "Polygon", "coordinates": [[[-118.251733286382, 34.0483309953887], [-118.251555492713, 34.04851962239], [-118.251612780333, 34.0485567641417], [-118.251787875795, 34.0483710554226], [-118.251774050141, 34.0483621261964], [-118.251776781309, 34.048359207761], [-118.251733286382, 34.0483309953887]]]}}, {"type": "Feature", "properties": {"zone_id": "0200568XBZGFPNX3AMRVZ2", "tract_id": "06037207305", "city": "LOS ANGELES, CA", "zone_code": "CPIO", "zone_category": "Other", "ev_permitted": false}, "geometry": {"type": "Polygon", "coordinates": [[[-118.251800909033, 34.0482592724168], [-118.251733286382, 34.0483309953887], [-118.251776781309, 34.048359207761], [-118.251774050141, 34.0483621261964], [-118.251921999055, 34.0484580205324], [-118.251992383171, 34.0483824996326], [-118.251800909033, 34.0482592724168]]]}}, {"type": "Feature", "properties": {"zone_id": "02075ULD3LFKUNU4XWMLLM", "tract_id": "06037207305", "city": "LOS ANGELES, CA", "zone_code": "CPIO", "zone_category": "Other", "ev_permitted": false}, "geometry": {"type": "Polygon", "coordinates": [[[-118.251688220928, 34.0481867162906], [-118.251443067652, 34.0484467632203], [-118.251555492713, 34.04851962239], [-118.251800909033, 34.0482592724168], [-118.251688220928, 34.0481867162906]]]}}, {"type": "Feature", "properties": {"zone_id": "0205Y8E930CNFJXNU8H0PH", "tract_id": "06037207305", "city": "LOS ANGELES, CA", "zone_code": "CPIO", "zone_category": "Other", "ev_permitted": false}, "geometry": {"type": "Polygon", "coordinates": [[[-118.251567753448, 34.0481398138835], [-118.251477459708, 34.0482580778808], [-118.251354887245, 34.0483895712946], [-118.251443067652, 34.0484467632203], [-118.251669957833, 34.0482060718724], [-118.251567753448, 34.0481398138835]]]}}, {"type": "Feature", "properties": {"zone_id": "0203B0YHN69MOKFTBLPI94", "tract_id": "06037207305", "city": "LOS ANGELES, CA", "zone_code": "CPIO", "zone_category": "Other", "ev_permitted": false}, "geometry": {"type": "Polygon", "coordinates": [[[-118.251583438131, 34.0481192821053], [-118.251567753448, 34.0481398138835], [-118.251669957833, 34.0482060718724], [-118.251688220928, 34.0481867162906], [-118.251583438131, 34.0481192821053]]]}}, {"type": "Feature", "properties": {"zone_id": "0206QSPLZGQ8Y0NF2W3K1F", "tract_id": "06037207305", "city": "LOS ANGELES, CA", "zone_code": "CPIO", "zone_category": "Other", "ev_permitted": false}, "geometry": {"type": "Polygon", "coordinates": [[[-118.248634473923, 34.0514649849244], [-118.248391781346, 34.0517256234091], [-118.248693470244, 34.0519212570373], [-118.248936131494, 34.0516606162902], [-118.248634473923, 34.0514649849244]]]}}, {"type": "Feature", "properties": {"zone_id": "0204A4K8M9KOH41QD49RRY", "tract_id": "06037207305", "city": "LOS ANGELES, CA", "zone_code": "CDO", "zone_category": "Other", "ev_permitted": false}, "geometry": {"type": "Polygon", "coordinates": [[[-118.248679518958, 34.0504484279194], [-118.248439394692, 34.050706479925], [-118.24930018791, 34.0512701075207], [-118.249546959952, 34.0510054451711], [-118.248679518958, 34.0504484279194]]]}}, {"type": "Feature", "properties": {"zone_id": "0201MI7T9LVOFW69PPQCZJ", "tract_id": "06037207305", "city": "LOS ANGELES, CA", "zone_code": "CPIO", "zone_category": "Other", "ev_permitted": false}, "geometry": {"type": "Polygon", "coordinates": [[[-118.248956385237, 34.0510449968889], [-118.248712474141, 34.0513065745224], [-118.249018464382, 34.0515050270623], [-118.249087901533, 34.0514977943568], [-118.24930018791, 34.0512701075207], [-118.248956385237, 34.0510449968889]]]}}, {"type": "Feature", "properties": {"zone_id": "0206EQ0KBRYA4Q6X1IPPTQ", "tract_id": "06037207305", "city": "LOS ANGELES, CA", "zone_code": "CPIO", "zone_category": "Other", "ev_permitted": false}, "geometry": {"type": "Polygon", "coordinates": [[[-118.249207104905, 34.0507201212874], [-118.249167945134, 34.0507620796174], [-118.249546959952, 34.0510054451711], [-118.249567197919, 34.05098375014], [-118.249214412051, 34.0507572024407], [-118.249206951946, 34.0507504725106], [-118.249204328882, 34.0507464357547], [-118.249201655405, 34.0507375706404], [-118.249202615714, 34.050728467684], [-118.249207104905, 34.0507201212874]]]}}, {"type": "Feature", "properties": {"zone_id": "02017SC0JYT3Y0WS2YVAJX", "tract_id": "06037207305", "city": "LOS ANGELES, CA", "zone_code": "CPIO", "zone_category": "Other", "ev_permitted": false}, "geometry": {"type": "Polygon", "coordinates": [[[-118.249276111286, 34.0506460886639], [-118.249208486915, 34.0507186071074], [-118.249204441246, 34.0507241397544], [-118.24920167851, 34.0507329860629], [-118.249202547035, 34.0507420953458], [-118.249206951946, 34.0507504725106], [-118.249214412051, 34.0507572024407], [-118.249567197919, 34.05098375014], [-118.249652328625, 34.0508923998796], [-118.249276111286, 34.0506460886639]]]}}, {"type": "Feature", "properties": {"zone_id": "0200QFJQ2DLDHRPQQOK7MC", "tract_id": "06037207305", "city": "LOS ANGELES, CA", "zone_code": "CPIO", "zone_category": "Other", "ev_permitted": false}, "geometry": {"type": "MultiPolygon", "coordinates": [[[[-118.249310532268, 34.0506091961612], [-118.249276111286, 34.0506460886639], [-118.249652328625, 34.0508923998796], [-118.249686716695, 34.0508555622945], [-118.249310532268, 34.0506091961612]]], [[[-118.24936111041, 34.050554903754], [-118.249351074147, 34.0505658060392], [-118.249727258334, 34.0508121170886], [-118.249737360766, 34.0508012695926], [-118.24936111041, 34.050554903754]]]]}}, {"type": "Feature", "properties": {"zone_id": "0205JQY64KPBOH4ZV5S6LD", "tract_id": "06037207305", "city": "LOS ANGELES, CA", "zone_code": "CPIO", "zone_category": "Other", "ev_permitted": false}, "geometry": {"type": "Polygon", "coordinates": [[[-118.249424292057, 34.0504871482149], [-118.24936111041, 34.050554903754], [-118.249737360766, 34.0508012695926], [-118.249800542212, 34.0507334863772], [-118.249424292057, 34.0504871482149]]]}}, {"type": "Feature", "properties": {"zone_id": "02015G9O8AXRNOQQWNDUQ7", "tract_id": "06037207305", "city": "LOS ANGELES, CA", "zone_code": "SN", "zone_category": "Other", "ev_permitted": false}, "geometry": {"type": "Polygon", "coordinates": [[[-118.248927013124, 34.0501825288182], [-118.248782682834, 34.0503375862262], [-118.24919569637, 34.05060281082], [-118.24933716413, 34.050451056269], [-118.248927013124, 34.0501825288182]]]}}, {"type": "Feature", "properties": {"zone_id": "0203PWO9Q9YOMPKSEVRUBJ", "tract_id": "06037207305", "city": "LOS ANGELES, CA", "zone_code": "CDO", "zone_category": "Other", "ev_permitted": false}, "geometry": {"type": "Polygon", "coordinates": [[[-118.248782682834, 34.0503375862262], [-118.248679518958, 34.0504484279194], [-118.249089787469, 34.0507118998938], [-118.249193083338, 34.0506011125332], [-118.248782682834, 34.0503375862262]]]}}, {"type": "Feature", "properties": {"zone_id": "02039CM7ZUCAWU6D40JHC8", "tract_id": "06037207305", "city": "LOS ANGELES, CA", "zone_code": "CDO", "zone_category": "Other", "ev_permitted": false}, "geometry": {"type": "Polygon", "coordinates": [[[-118.247098376833, 34.0521408436168], [-118.246854258819, 34.0524024728732], [-118.247290137838, 34.0526843918011], [-118.247444138515, 34.0527829446892], [-118.247686740456, 34.0525224164913], [-118.247098376833, 34.0521408436168]]]}}, {"type": "Feature", "properties": {"zone_id": "0206TGTMG14CHZN2JYPV87", "tract_id": "06037207305", "city": "LOS ANGELES, CA", "zone_code": "CDO", "zone_category": "Other", "ev_permitted": false}, "geometry": {"type": "Polygon", "coordinates": [[[-118.247341539854, 34.0518805348002], [-118.247098376833, 34.0521408436168], [-118.247533496829, 34.0524230380016], [-118.247654830218, 34.0522927325901], [-118.247697300399, 34.0523202615728], [-118.247818633303, 34.0521899285189], [-118.247341539854, 34.0518805348002]]]}}, {"type": "Feature", "properties": {"zone_id": "0207FUHMM0UHRMO04CFX2N", "tract_id": "06037207305", "city": "LOS ANGELES, CA", "zone_code": "CDO", "zone_category": "Other", "ev_permitted": false}, "geometry": {"type": "Polygon", "coordinates": [[[-118.247463335825, 34.0517505309017], [-118.247341539854, 34.0518805348002], [-118.248208077019, 34.0524424822573], [-118.248329409467, 34.0523122036464], [-118.247463335825, 34.0517505309017]]]}}, {"type": "Feature", "properties": {"zone_id": "0202SBAV3XKLWTEEW1413X", "tract_id": "06037207305", "city": "LOS ANGELES, CA", "zone_code": "CPIO", "zone_category": "Other", "ev_permitted": false}, "geometry": {"type": "Polygon", "coordinates": [[[-118.247818633303, 34.0521899285189], [-118.247697300399, 34.0523202615728], [-118.247654830218, 34.0522927325901], [-118.247533496829, 34.0524230380016], [-118.247627764873, 34.0524841497027], [-118.247718756714, 34.0523864412099], [-118.248056402918, 34.052605412803], [-118.248208077019, 34.0524424822573], [-118.247818633303, 34.0521899285189]]]}}, {"type": "Feature", "properties": {"zone_id": "0206QOD9DP3EI49YHIDMTV", "tract_id": "06037207305", "city": "LOS ANGELES, CA", "zone_code": "CPIO", "zone_category": "Other", "ev_permitted": false}, "geometry": {"type": "Polygon", "coordinates": [[[-118.247718756714, 34.0523864412099], [-118.247627764873, 34.0524841497027], [-118.247965411233, 34.0527031215512], [-118.248056402918, 34.052605412803], [-118.247718756714, 34.0523864412099]]]}}, {"type": "Feature", "properties": {"zone_id": "02032VK9617LRYRMHXS1B3", "tract_id": "06037207305", "city": "LOS ANGELES, CA", "zone_code": "CDO", "zone_category": "Other", "ev_permitted": false}, "geometry": {"type": "Polygon", "coordinates": [[[-118.2478287544, 34.0513604909278], [-118.247706564553, 34.0514908807043], [-118.248139859805, 34.0517718641383], [-118.248261557439, 34.0516411761022], [-118.2478287544, 34.0513604909278]]]}}, {"type": "Feature", "properties": {"zone_id": "0202H8NQ80F8S8W2UR866M", "tract_id": "06037207305", "city": "LOS ANGELES, CA", "zone_code": "CDO", "zone_category": "Other", "ev_permitted": false}, "geometry": {"type": "Polygon", "coordinates": [[[-118.247585131337, 34.0516204994026], [-118.247463335825, 34.0517505309017], [-118.248329409467, 34.0523122036464], [-118.248450774387, 34.0521818698895], [-118.247585131337, 34.0516204994026]]]}}, {"type": "Feature", "properties": {"zone_id": "0206XHTLAFFJJCC7JFYXQF", "tract_id": "06037207305", "city": "LOS ANGELES, CA", "zone_code": "CPIO", "zone_category": "Other", "ev_permitted": false}, "geometry": {"type": "Polygon", "coordinates": [[[-118.248192582434, 34.0517152355602], [-118.248018894062, 34.0519017880151], [-118.248450774387, 34.0521818698895], [-118.248624462459, 34.0519953442895], [-118.248192582434, 34.0517152355602]]]}}, {"type": "Feature", "properties": {"zone_id": "02028XHXB9WPHOEFYTWX3T", "tract_id": "06037207305", "city": "LOS ANGELES, CA", "zone_code": "CPIO", "zone_category": "Other", "ev_permitted": false}, "geometry": {"type": "Polygon", "coordinates": [[[-118.248261557439, 34.0516411761022], [-118.248192582434, 34.0517152355602], [-118.248624462459, 34.0519953442895], [-118.248693470244, 34.0519212570373], [-118.248261557439, 34.0516411761022]]]}}, {"type": "Feature", "properties": {"zone_id": "0204PK30DVUQ6GBPA7ZZZX", "tract_id": "06037207305", "city": "LOS ANGELES, CA", "zone_code": "CPIO", "zone_category": "Other", "ev_permitted": false}, "geometry": {"type": "Polygon", "coordinates": [[[-118.248504252235, 34.0513805361585], [-118.248261557439, 34.0516411761022], [-118.248391781346, 34.0517256234091], [-118.248634473923, 34.0514649849244], [-118.248504252235, 34.0513805361585]]]}}, {"type": "Feature", "properties": {"zone_id": "0205WV4Z32AL4HQZSVODC7", "tract_id": "06037207305", "city": "LOS ANGELES, CA", "zone_code": "CDO", "zone_category": "Other", "ev_permitted": false}, "geometry": {"type": "Polygon", "coordinates": [[[-118.247706564553, 34.0514908807043], [-118.247585131337, 34.0516204994026], [-118.248018894062, 34.0519017880151], [-118.248139859805, 34.0517718641383], [-118.247706564553, 34.0514908807043]]]}}, {"type": "Feature", "properties": {"zone_id": "0201N4NJK5479Q4BDGE8E1", "tract_id": "06037207305", "city": "LOS ANGELES, CA", "zone_code": "CDO", "zone_category": "Other", "ev_permitted": false}, "geometry": {"type": "Polygon", "coordinates": [[[-118.247482581015, 34.051348313344], [-118.247118646365, 34.0517383217517], [-118.24713171133, 34.0517467584528], [-118.247496172285, 34.051356116917], [-118.247482581015, 34.051348313344]]]}}, {"type": "Feature", "properties": {"zone_id": "0206QFT2Q965C6OVUMSZ3H", "tract_id": "06037207305", "city": "CA", "zone_code": "CDO", "zone_category": "Other", "ev_permitted": false}, "geometry": {"type": "Polygon", "coordinates": [[[-118.246040142683, 34.0514572666871], [-118.245829231494, 34.0516835641717], [-118.245835058034, 34.0517221152173], [-118.246611455316, 34.0522236670503], [-118.246670391019, 34.0522171338436], [-118.246875648452, 34.0519987396943], [-118.246245454618, 34.0515911709186], [-118.246040142683, 34.0514572666871]]]}}, {"type": "Feature", "properties": {"zone_id": "0204EGE53C7PLES9KZIA5O", "tract_id": "06037207305", "city": "CA", "zone_code": "CDO", "zone_category": "Other", "ev_permitted": false}, "geometry": {"type": "Polygon", "coordinates": [[[-118.246027185023, 34.0514487815621], [-118.245783625923, 34.0517100777599], [-118.246645681011, 34.0522675939725], [-118.24688868042, 34.0520071764893], [-118.246875648452, 34.0519987396943], [-118.246670391019, 34.0522171338436], [-118.246611455316, 34.0522236670503], [-118.245835058034, 34.0517221152173], [-118.245829231494, 34.0516835641717], [-118.246040142683, 34.0514572666871], [-118.246027185023, 34.0514487815621]]]}}, {"type": "Feature", "properties": {"zone_id": "0206UQZJV9FSPAA39V9UXF", "tract_id": "06037207305", "city": "LOS ANGELES, CA", "zone_code": "CDO", "zone_category": "Other", "ev_permitted": false}, "geometry": {"type": "Polygon", "coordinates": [[[-118.248072342855, 34.051100454554], [-118.2478287544, 34.0513604909278], [-118.248118336842, 34.051548290205], [-118.248361031815, 34.0512876505504], [-118.248072342855, 34.051100454554]]]}}, {"type": "Feature", "properties": {"zone_id": "02067KOAOBQH2CIZ9FCJVR", "tract_id": "06037207305", "city": "LOS ANGELES, CA", "zone_code": "CDO", "zone_category": "Other", "ev_permitted": false}, "geometry": {"type": "Polygon", "coordinates": [[[-118.248452360755, 34.0507149716436], [-118.248206903909, 34.0509787222473], [-118.248712474141, 34.0513065745224], [-118.248956385237, 34.0510449968889], [-118.248452360755, 34.0507149716436]]]}}, {"type": "Feature", "properties": {"zone_id": "02071O5MC6QSJW7QPSV95M", "tract_id": "06037207305", "city": "LOS ANGELES, CA", "zone_code": "CPIO", "zone_category": "Other", "ev_permitted": false}, "geometry": {"type": "Polygon", "coordinates": [[[-118.248361031815, 34.0512876505504], [-118.248118336842, 34.051548290205], [-118.248261557439, 34.0516411761022], [-118.248504252235, 34.0513805361585], [-118.248361031815, 34.0512876505504]]]}}, {"type": "Feature", "properties": {"zone_id": "0203S5ZNUSLFTPIILDM22Q", "tract_id": "06037207305", "city": "LOS ANGELES, CA", "zone_code": "CDO", "zone_category": "Other", "ev_permitted": false}, "geometry": {"type": "Polygon", "coordinates": [[[-118.247187116406, 34.0509454763607], [-118.247064072632, 34.0510774884743], [-118.247482581015, 34.051348313344], [-118.247496172285, 34.051356116917], [-118.247618393568, 34.0512251502375], [-118.247187116406, 34.0509454763607]]]}}, {"type": "Feature", "properties": {"zone_id": "02078LIDH7E7Z7N8KFG6H5", "tract_id": "06037207305", "city": "LOS ANGELES, CA", "zone_code": "CDO", "zone_category": "Other", "ev_permitted": false}, "geometry": {"type": "Polygon", "coordinates": [[[-118.247623367909, 34.0508088653591], [-118.247378890338, 34.0510698369192], [-118.247618393568, 34.0512251502375], [-118.247864095556, 34.0509652748244], [-118.247623367909, 34.0508088653591]]]}}, {"type": "Feature", "properties": {"zone_id": "0201HIL2C48LDGMMNIWGYK", "tract_id": "06037207305", "city": "LOS ANGELES, CA", "zone_code": "CDO", "zone_category": "Other", "ev_permitted": false}, "geometry": {"type": "Polygon", "coordinates": [[[-118.248040897799, 34.0502372211392], [-118.247939839239, 34.0503458321], [-118.248237794448, 34.050541692619], [-118.24833852388, 34.050433466786], [-118.248040897799, 34.0502372211392]]]}}, {"type": "Feature", "properties": {"zone_id": "0200T6M2PM8DPC3WJQ01GG", "tract_id": "06037207305", "city": "LOS ANGELES, CA", "zone_code": "CDO", "zone_category": "Other", "ev_permitted": false}, "geometry": {"type": "Polygon", "coordinates": [[[-118.247924293217, 34.0503356144662], [-118.247900632721, 34.0503610258697], [-118.24822710009, 34.0505756233055], [-118.248250760547, 34.0505502118377], [-118.247924293217, 34.0503356144662]]]}}, {"type": "Feature", "properties": {"zone_id": "0203H830E35ZJF1AT48INA", "tract_id": "06037207305", "city": "LOS ANGELES, CA", "zone_code": "CDO", "zone_category": "Other", "ev_permitted": false}, "geometry": {"type": "Polygon", "coordinates": [[[-118.247806378211, 34.0501922803385], [-118.24750099536, 34.0505202052804], [-118.247985624715, 34.0508350785973], [-118.24822710009, 34.0505756233055], [-118.247876089929, 34.0503449187798], [-118.247940325258, 34.0502758978374], [-118.247806378211, 34.0501922803385]]]}}, {"type": "Feature", "properties": {"zone_id": "020492J8HRBLAAIR0BHMJR", "tract_id": "06037207305", "city": "LOS ANGELES, CA", "zone_code": "CDO", "zone_category": "Other", "ev_permitted": false}, "geometry": {"type": "Polygon", "coordinates": [[[-118.246525158334, 34.0509369097018], [-118.246040142683, 34.0514572666871], [-118.246245454618, 34.0515911709186], [-118.246875648452, 34.0519987396943], [-118.247361642765, 34.0514779033234], [-118.246525158334, 34.0509369097018]]]}}, {"type": "Feature", "properties": {"zone_id": "0201WVLNHYOQ9CTS1U6N5E", "tract_id": "06037207305", "city": "LOS ANGELES, CA", "zone_code": "CDO", "zone_category": "Other", "ev_permitted": false}, "geometry": {"type": "Polygon", "coordinates": [[[-118.247064072632, 34.0510774884743], [-118.246943134612, 34.051207242904], [-118.247361642765, 34.0514779033234], [-118.247482581015, 34.051348313344], [-118.247064072632, 34.0510774884743]]]}}, {"type": "Feature", "properties": {"zone_id": "020426GRHU4IQ1K3GA0D4I", "tract_id": "06037207305", "city": "LOS ANGELES, CA", "zone_code": "CDO", "zone_category": "Other", "ev_permitted": false}, "geometry": {"type": "Polygon", "coordinates": [[[-118.246632505349, 34.0507992970669], [-118.24651212665, 34.0509285003465], [-118.246943134612, 34.051207242904], [-118.247064072632, 34.0510774884743], [-118.247021272843, 34.0510498500317], [-118.247019232571, 34.0510520525003], [-118.246632505349, 34.0507992970669]]]}}, {"type": "Feature", "properties": {"zone_id": "0204DTF7682U3VT4LPCD6D", "tract_id": "06037207305", "city": "LOS ANGELES, CA", "zone_code": "CDO", "zone_category": "Other", "ev_permitted": false}, "geometry": {"type": "Polygon", "coordinates": [[[-118.246756832735, 34.0506658813593], [-118.246632505349, 34.0507992970669], [-118.247019232571, 34.0510520525003], [-118.247021272843, 34.0510498500317], [-118.247064072632, 34.0510774884743], [-118.247187116406, 34.0509454763607], [-118.246756832735, 34.0506658813593]]]}}, {"type": "Feature", "properties": {"zone_id": "0204IGEMQK0YZMOGJ3A1N6", "tract_id": "06037207305", "city": "LOS ANGELES, CA", "zone_code": "CDO", "zone_category": "Other", "ev_permitted": false}, "geometry": {"type": "Polygon", "coordinates": [[[-118.247000385755, 34.050404583212], [-118.246756832735, 34.0506658813593], [-118.247378890338, 34.0510698369192], [-118.247623367909, 34.0508088653591], [-118.247000385755, 34.050404583212]]]}}, {"type": "Feature", "properties": {"zone_id": "0200PM8JYQP481TC7I7HZ8", "tract_id": "06037207305", "city": "LOS ANGELES, CA", "zone_code": "CPIO", "zone_category": "Other", "ev_permitted": false}, "geometry": {"type": "Polygon", "coordinates": [[[-118.250080789773, 34.0500947137456], [-118.24995034563, 34.0502339435486], [-118.250146557972, 34.0503624123297], [-118.250276605189, 34.0502229633067], [-118.250080789773, 34.0500947137456]]]}}, {"type": "Feature", "properties": {"zone_id": "0207065OB4QPM9M4F4K7G4", "tract_id": "06037207305", "city": "LOS ANGELES, CA", "zone_code": "CPIO", "zone_category": "Other", "ev_permitted": false}, "geometry": {"type": "Polygon", "coordinates": [[[-118.250424007843, 34.0496725704019], [-118.250280453671, 34.0498265202595], [-118.250282305924, 34.0498277168959], [-118.250172776613, 34.0499451765328], [-118.250398030233, 34.0500926824262], [-118.250651936009, 34.0498203639512], [-118.250424007843, 34.0496725704019]]]}}, {"type": "Feature", "properties": {"zone_id": "02079VS1C0T7K6960YQY3F", "tract_id": "06037207305", "city": "LOS ANGELES, CA", "zone_code": "CPIO", "zone_category": "Other", "ev_permitted": false}, "geometry": {"type": "Polygon", "coordinates": [[[-118.250704630601, 34.049018563779], [-118.25046428585, 34.0492767027084], [-118.25049660235, 34.0492980690552], [-118.250494759541, 34.0493000238648], [-118.250530218332, 34.0493234445862], [-118.250448182254, 34.0494111069012], [-118.250337708427, 34.0493395066717], [-118.250176896427, 34.0495123511476], [-118.250651936009, 34.0498203639512], [-118.251137695679, 34.0492993754577], [-118.250704630601, 34.049018563779]]]}}, {"type": "Feature", "properties": {"zone_id": "0206STV3XJZ5YZY6AG8FS7", "tract_id": "06037207305", "city": "LOS ANGELES, CA", "zone_code": "CDO", "zone_category": "Other", "ev_permitted": false}, "geometry": {"type": "Polygon", "coordinates": [[[-118.249917664015, 34.0491178268003], [-118.249786269693, 34.0492590368541], [-118.249799301528, 34.0492674733339], [-118.249548884634, 34.0495366777048], [-118.250172776613, 34.0499451765328], [-118.250282305924, 34.0498277168959], [-118.250280453671, 34.0498265202595], [-118.250424007843, 34.0496725704019], [-118.250176896427, 34.0495123511476], [-118.250308290488, 34.049371140667], [-118.249917664015, 34.0491178268003]]]}}, {"type": "Feature", "properties": {"zone_id": "02022NR8WML4KTJD4PWCX1", "tract_id": "06037207305", "city": "LOS ANGELES, CA", "zone_code": "CDO", "zone_category": "Other", "ev_permitted": false}, "geometry": {"type": "Polygon", "coordinates": [[[-118.249744002118, 34.0498742072671], [-118.249500660231, 34.0501364997586], [-118.249604289686, 34.0502043503238], [-118.249544695805, 34.0502684438773], [-118.249596461544, 34.0503025203865], [-118.249424292057, 34.0504871482149], [-118.249800542212, 34.0507334863772], [-118.250276605189, 34.0502229633067], [-118.249744002118, 34.0498742072671]]]}}, {"type": "Feature", "properties": {"zone_id": "0203Q58H2HK71DCE3ECJWF", "tract_id": "06037207305", "city": "LOS ANGELES, CA", "zone_code": "CPIO", "zone_category": "Other", "ev_permitted": false}, "geometry": {"type": "Polygon", "coordinates": [[[-118.249848028408, 34.0499423315882], [-118.249544695805, 34.0502684438773], [-118.249673497542, 34.050352976887], [-118.249977722419, 34.0500272471273], [-118.249848028408, 34.0499423315882]]]}}, {"type": "Feature", "properties": {"zone_id": "0204ZREBPR87BV7O0DBMU3", "tract_id": "06037207305", "city": "LOS ANGELES, CA", "zone_code": "CPIO", "zone_category": "Other", "ev_permitted": false}, "geometry": {"type": "Polygon", "coordinates": [[[-118.249844746135, 34.0501697795], [-118.249733421422, 34.0502888551085], [-118.250032503119, 34.0504847363561], [-118.250146557972, 34.0503624123297], [-118.24995034563, 34.0502339435486], [-118.249947647184, 34.0502368069177], [-118.249844746135, 34.0501697795]]]}}, {"type": "Feature", "properties": {"zone_id": "020029VF6HDE3MQJ42QYQC", "tract_id": "06037207305", "city": "LOS ANGELES, CA", "zone_code": "CPIO", "zone_category": "Other", "ev_permitted": false}, "geometry": {"type": "Polygon", "coordinates": [[[-118.249977722419, 34.0500272471273], [-118.249844746135, 34.0501697795], [-118.249947647184, 34.0502368069177], [-118.250080789773, 34.0500947137456], [-118.249977722419, 34.0500272471273]]]}}, {"type": "Feature", "properties": {"zone_id": "02036SIGIMZ4YT2LATWJY6", "tract_id": "06037207305", "city": "LOS ANGELES, CA", "zone_code": "CDO", "zone_category": "Other", "ev_permitted": false}, "geometry": {"type": "Polygon", "coordinates": [[[-118.249414625285, 34.0496585207988], [-118.249250816267, 34.0498345852356], [-118.249580486915, 34.0500504604619], [-118.249744002118, 34.0498742072671], [-118.249414625285, 34.0496585207988]]]}}, {"type": "Feature", "properties": {"zone_id": "0201RQ7V92ELSHPP7RBDWR", "tract_id": "06037207305", "city": "LOS ANGELES, CA", "zone_code": "CDO", "zone_category": "Other", "ev_permitted": false}, "geometry": {"type": "Polygon", "coordinates": [[[-118.249263788478, 34.0498430802887], [-118.249183043787, 34.049928516738], [-118.249500660231, 34.0501364997586], [-118.249580486915, 34.0500504604619], [-118.249263788478, 34.0498430802887]]]}}, {"type": "Feature", "properties": {"zone_id": "0205XPO5V5TMLV0QITMF2G", "tract_id": "06037207305", "city": "LOS ANGELES, CA", "zone_code": "CDO", "zone_category": "Other", "ev_permitted": false}, "geometry": {"type": "Polygon", "coordinates": [[[-118.249170819927, 34.0499205113137], [-118.249108066757, 34.0499879635694], [-118.249541470793, 34.0502718578992], [-118.249604289686, 34.0502043503238], [-118.249170819927, 34.0499205113137]]]}}, {"type": "Feature", "properties": {"zone_id": "0202T81TC2OVEADTN0EEXJ", "tract_id": "06037207305", "city": "LOS ANGELES, CA", "zone_code": "CDO", "zone_category": "Other", "ev_permitted": false}, "geometry": {"type": "Polygon", "coordinates": [[[-118.249108066757, 34.0499879635694], [-118.248927013124, 34.0501825288182], [-118.249334319524, 34.0504491935913], [-118.249515571432, 34.0502548196697], [-118.249108066757, 34.0499879635694]]]}}, {"type": "Feature", "properties": {"zone_id": "0206U27NUR4HK11A7E0LE1", "tract_id": "06037207305", "city": "LOS ANGELES, CA", "zone_code": "SN", "zone_category": "Other", "ev_permitted": false}, "geometry": {"type": "Polygon", "coordinates": [[[-118.248464351899, 34.0495725204502], [-118.248365531498, 34.04967843425], [-118.248797677531, 34.0499625261746], [-118.248900906348, 34.0498515743329], [-118.248464351899, 34.0495725204502]]]}}, {"type": "Feature", "properties": {"zone_id": "0204SEWXC7PG9G0ZAHL0B8", "tract_id": "06037207305", "city": "LOS ANGELES, CA", "zone_code": "CDO", "zone_category": "Other", "ev_permitted": false}, "geometry": {"type": "Polygon", "coordinates": [[[-118.248800896177, 34.0494899977191], [-118.248691545843, 34.0496078300356], [-118.248710401899, 34.0496210359303], [-118.24870895412, 34.049622632676], [-118.248844947613, 34.0497096213984], [-118.248950009275, 34.0497786271099], [-118.249062221243, 34.0496580390698], [-118.248800896177, 34.0494899977191]]]}}, {"type": "Feature", "properties": {"zone_id": "02063IIPAN4O7KZPDAJ0WB", "tract_id": "06037207305", "city": "LOS ANGELES, CA", "zone_code": "SN", "zone_category": "Other", "ev_permitted": false}, "geometry": {"type": "Polygon", "coordinates": [[[-118.248530264768, 34.0495018195427], [-118.248464351899, 34.0495725204502], [-118.248887940291, 34.0498430551844], [-118.248950009275, 34.0497786271099], [-118.248844947613, 34.0497096213984], [-118.24870895412, 34.049622632676], [-118.248710401899, 34.0496210359303], [-118.248691545843, 34.0496078300356], [-118.248530264768, 34.0495018195427]]]}}, {"type": "Feature", "properties": {"zone_id": "020362XARVSQBZHSB7O2OT", "tract_id": "06037207305", "city": "LOS ANGELES, CA", "zone_code": "CDO", "zone_category": "Other", "ev_permitted": false}, "geometry": {"type": "Polygon", "coordinates": [[[-118.2489363709, 34.0493444094997], [-118.248800896177, 34.0494899977191], [-118.249062221243, 34.0496580390698], [-118.249195559048, 34.0495147923713], [-118.2489363709, 34.0493444094997]]]}}, {"type": "Feature", "properties": {"zone_id": "0202QW4ACHC6CGHPA624SF", "tract_id": "06037207305", "city": "LOS ANGELES, CA", "zone_code": "CDO", "zone_category": "Other", "ev_permitted": false}, "geometry": {"type": "Polygon", "coordinates": [[[-118.248745246135, 34.0492712978456], [-118.248530264768, 34.0495018195427], [-118.248691545843, 34.0496078300356], [-118.2489363709, 34.0493444094997], [-118.24893283187, 34.0493421360639], [-118.248902524782, 34.0493746783454], [-118.248745246135, 34.0492712978456]]]}}, {"type": "Feature", "properties": {"zone_id": "0200O0MNX5NHMQXDS5N8B5", "tract_id": "06037207305", "city": "LOS ANGELES, CA", "zone_code": "CPIO", "zone_category": "Other", "ev_permitted": false}, "geometry": {"type": "Polygon", "coordinates": [[[-118.251182519017, 34.0485053954042], [-118.250784624669, 34.0489326916457], [-118.250870290948, 34.0489880756192], [-118.25126811943, 34.0485608891457], [-118.251182519017, 34.0485053954042]]]}}, {"type": "Feature", "properties": {"zone_id": "0205NATEDWAADDAJVKPHIE", "tract_id": "06037207305", "city": "LOS ANGELES, CA", "zone_code": "CDO", "zone_category": "Other", "ev_permitted": false}, "geometry": {"type": "Polygon", "coordinates": [[[-118.250513884761, 34.0484768875301], [-118.250389600205, 34.0486104993725], [-118.250822959876, 34.0488915313864], [-118.250947343191, 34.0487579188902], [-118.250513884761, 34.0484768875301]]]}}, {"type": "Feature", "properties": {"zone_id": "0205BSYZYRN1H30YPQLN94", "tract_id": "06037207305", "city": "LOS ANGELES, CA", "zone_code": "CDO", "zone_category": "Other", "ev_permitted": false}, "geometry": {"type": "Polygon", "coordinates": [[[-118.250389600205, 34.0486104993725], [-118.25027133694, 34.0487376136376], [-118.251137695679, 34.0492993754577], [-118.251218117566, 34.0492131174442], [-118.250784624669, 34.0489326916457], [-118.250822959876, 34.0488915313864], [-118.250389600205, 34.0486104993725]]]}}, {"type": "Feature", "properties": {"zone_id": "02077N98SFD2FUD0KR22I3", "tract_id": "06037207305", "city": "LOS ANGELES, CA", "zone_code": "CPIO", "zone_category": "Other", "ev_permitted": false}, "geometry": {"type": "Polygon", "coordinates": [[[-118.251120132265, 34.0488700299717], [-118.251030332428, 34.0489663371358], [-118.251291003742, 34.0491348988363], [-118.251380540193, 34.0490388668126], [-118.251120132265, 34.0488700299717]]]}}, {"type": "Feature", "properties": {"zone_id": "0206N8QSEJNYMQFTKHCDEA", "tract_id": "06037207305", "city": "LOS ANGELES, CA", "zone_code": "CPIO", "zone_category": "Other", "ev_permitted": false}, "geometry": {"type": "Polygon", "coordinates": [[[-118.250943078301, 34.0489098849064], [-118.250870290948, 34.0489880756192], [-118.251218117566, 34.0492131174442], [-118.251291003742, 34.0491348988363], [-118.250943078301, 34.0489098849064]]]}}, {"type": "Feature", "properties": {"zone_id": "0203VFXJQ3CREZFX8PM8CQ", "tract_id": "06037207305", "city": "LOS ANGELES, CA", "zone_code": "CPIO", "zone_category": "Other", "ev_permitted": false}, "geometry": {"type": "Polygon", "coordinates": [[[-118.25126811943, 34.0485608891457], [-118.250943078301, 34.0489098849064], [-118.251030332428, 34.0489663371358], [-118.251355770704, 34.0486177250139], [-118.25126811943, 34.0485608891457]]]}}, {"type": "Feature", "properties": {"zone_id": "0207K42IKQPYCIWEU74KMT", "tract_id": "06037207305", "city": "LOS ANGELES, CA", "zone_code": "CDO", "zone_category": "Other", "ev_permitted": false}, "geometry": {"type": "Polygon", "coordinates": [[[-118.25027133694, 34.0487376136376], [-118.250149815698, 34.0488682518079], [-118.250583043523, 34.0491491750457], [-118.250704630601, 34.049018563779], [-118.25027133694, 34.0487376136376]]]}}, {"type": "Feature", "properties": {"zone_id": "02054S5VBIZQCA7MH9T5NW", "tract_id": "06037207305", "city": "LOS ANGELES, CA", "zone_code": "CDO", "zone_category": "Other", "ev_permitted": false}, "geometry": {"type": "Polygon", "coordinates": [[[-118.250149815698, 34.0488682518079], [-118.250028820455, 34.0489982842357], [-118.250461949511, 34.0492792081149], [-118.250583043523, 34.0491491750457], [-118.250149815698, 34.0488682518079]]]}}, {"type": "Feature", "properties": {"zone_id": "0206TRNGVGJTL3610Y06HW", "tract_id": "06037207305", "city": "LOS ANGELES, CA", "zone_code": "SN", "zone_category": "Other", "ev_permitted": false}, "geometry": {"type": "Polygon", "coordinates": [[[-118.250028820455, 34.0489982842357], [-118.249917664015, 34.0491178268003], [-118.250308290488, 34.049371140667], [-118.250337708427, 34.0493395066717], [-118.250448182254, 34.0494111069012], [-118.250530218332, 34.0493234445862], [-118.250494759541, 34.0493000238648], [-118.25049660235, 34.0492980690552], [-118.25046428585, 34.0492767027084], [-118.250461949511, 34.0492792081149], [-118.250028820455, 34.0489982842357]]]}}, {"type": "Feature", "properties": {"zone_id": "0203GCPFTE4T1FUBV0A3S0", "tract_id": "06037207305", "city": "LOS ANGELES, CA", "zone_code": "CDO", "zone_category": "Other", "ev_permitted": false}, "geometry": {"type": "Polygon", "coordinates": [[[-118.250748895638, 34.0482242278419], [-118.250513884761, 34.0484768875301], [-118.250947343191, 34.0487579188902], [-118.251182519017, 34.0485053954042], [-118.250748895638, 34.0482242278419]]]}}, {"type": "Feature", "properties": {"zone_id": "0206U101Z3K19WN5PBCL5F", "tract_id": "06037207305", "city": "LOS ANGELES, CA", "zone_code": "CDO", "zone_category": "Other", "ev_permitted": false}, "geometry": {"type": "Polygon", "coordinates": [[[-118.249914640199, 34.0480612500048], [-118.249651789955, 34.0483441921776], [-118.250043381576, 34.0486015992118], [-118.250306198211, 34.048318628773], [-118.249914640199, 34.0480612500048]]]}}, {"type": "Feature", "properties": {"zone_id": "02053D6JAYMV4G34C8W7ZU", "tract_id": "06037207305", "city": "LOS ANGELES, CA", "zone_code": "CPIO", "zone_category": "Other", "ev_permitted": false}, "geometry": {"type": "Polygon", "coordinates": [[[-118.249965117211, 34.0480069025994], [-118.249914640199, 34.0480612500048], [-118.250319164176, 34.0483271477686], [-118.250369674179, 34.0482728276034], [-118.249965117211, 34.0480069025994]]]}}, {"type": "Feature", "properties": {"zone_id": "0201DRSR9FCDKK1PD3PXK2", "tract_id": "06037207305", "city": "CA", "zone_code": "CDO", "zone_category": "Other", "ev_permitted": false}, "geometry": {"type": "Polygon", "coordinates": [[[-118.249409471321, 34.0486050534671], [-118.248923190457, 34.0491285675255], [-118.249287871624, 34.0493683156057], [-118.249333983432, 34.0493636228784], [-118.249800571547, 34.0488621858036], [-118.249409471321, 34.0486050534671]]]}}, {"type": "Feature", "properties": {"zone_id": "02064KEWCDL9WSH3BDWBQE", "tract_id": "06037207305", "city": "LOS ANGELES, CA", "zone_code": "[DM4-CHC1-5] [CX2-FA]", "zone_category": "Other", "ev_permitted": false}, "geometry": {"type": "Polygon", "coordinates": [[[-118.248712517743, 34.0485670315211], [-118.248469633281, 34.0488275348625], [-118.24887299876, 34.0490926979382], [-118.24911535349, 34.0488318376509], [-118.248712517743, 34.0485670315211]]]}}, {"type": "Feature", "properties": {"zone_id": "0206BOXQ6WYB03XQ5OYXVE", "tract_id": "06037207305", "city": "LOS ANGELES, CA", "zone_code": "[DM4-CHC1-5] [CX2-FA]", "zone_category": "Other", "ev_permitted": false}, "geometry": {"type": "Polygon", "coordinates": [[[-118.249359917055, 34.0478726564264], [-118.248870600743, 34.0483974645939], [-118.249273138335, 34.0486620235007], [-118.249761526321, 34.0481361989018], [-118.249359917055, 34.0478726564264]]]}}, {"type": "Feature", "properties": {"zone_id": "0203DU4WP5X8IA8977EEIK", "tract_id": "06037207305", "city": "LOS ANGELES, CA", "zone_code": "CDO", "zone_category": "Other", "ev_permitted": false}, "geometry": {"type": "Polygon", "coordinates": [[[-118.249651789955, 34.0483441921776], [-118.249526089897, 34.0484795372117], [-118.24993025088, 34.0487452172059], [-118.250056082974, 34.0486099539115], [-118.249651789955, 34.0483441921776]]]}}, {"type": "Feature", "properties": {"zone_id": "0206AORC029794GBJE7UST", "tract_id": "06037207305", "city": "LOS ANGELES, CA", "zone_code": "[DM4-CHC1-5] [CX2-FA]", "zone_category": "Other", "ev_permitted": false}, "geometry": {"type": "Polygon", "coordinates": [[[-118.248870600743, 34.0483974645939], [-118.248712517743, 34.0485670315211], [-118.24911535349, 34.0488318376509], [-118.249273138335, 34.0486620235007], [-118.248870600743, 34.0483974645939]]]}}, {"type": "Feature", "properties": {"zone_id": "02060XB0FISNUWQ913ZW6V", "tract_id": "06037207305", "city": "LOS ANGELES, CA", "zone_code": "SN", "zone_category": "Other", "ev_permitted": false}, "geometry": {"type": "Polygon", "coordinates": [[[-118.248120964094, 34.0499406165567], [-118.248039518205, 34.0500279737534], [-118.248472127921, 34.0503123406839], [-118.248553474436, 34.050224928441], [-118.248120964094, 34.0499406165567]]]}}, {"type": "Feature", "properties": {"zone_id": "0205TYIK4AA975DGT2UKYT", "tract_id": "06037207305", "city": "LOS ANGELES, CA", "zone_code": "CDO", "zone_category": "Other", "ev_permitted": false}, "geometry": {"type": "Polygon", "coordinates": [[[-118.248104811372, 34.050070898731], [-118.247984567961, 34.050200075724], [-118.24835145696, 34.0504419860617], [-118.248472127921, 34.0503123406839], [-118.248104811372, 34.050070898731]]]}}, {"type": "Feature", "properties": {"zone_id": "02041V872114PRMUQAJF30", "tract_id": "06037207305", "city": "LOS ANGELES, CA", "zone_code": "CDO", "zone_category": "Other", "ev_permitted": false}, "geometry": {"type": "Polygon", "coordinates": [[[-118.247984567961, 34.050200075724], [-118.247923919635, 34.0502652423093], [-118.247940325258, 34.0502758978374], [-118.247876089929, 34.0503449187798], [-118.247900632721, 34.0503610258697], [-118.247924293217, 34.0503356144662], [-118.247939839239, 34.0503458321], [-118.248040897799, 34.0502372211392], [-118.247984567961, 34.050200075724]]]}}, {"type": "Feature", "properties": {"zone_id": "0203YQ2M0J4GBVOFBGGQJG", "tract_id": "06037207305", "city": "LOS ANGELES, CA", "zone_code": "CDO", "zone_category": "Other", "ev_permitted": false}, "geometry": {"type": "Polygon", "coordinates": [[[-118.248202936535, 34.0498527636065], [-118.248120964094, 34.0499406165567], [-118.248540508357, 34.050216409255], [-118.248622348335, 34.0501284738551], [-118.248202936535, 34.0498527636065]]]}}, {"type": "Feature", "properties": {"zone_id": "02007X3748V7HTW83EPAQ8", "tract_id": "06037207305", "city": "LOS ANGELES, CA", "zone_code": "CPIO", "zone_category": "Other", "ev_permitted": false}, "geometry": {"type": "Polygon", "coordinates": [[[-118.252870936829, 34.0468052274201], [-118.252707824268, 34.0469781075622], [-118.253062263008, 34.0472075542773], [-118.253224184487, 34.0470338792697], [-118.252870936829, 34.0468052274201]]]}}, {"type": "Feature", "properties": {"zone_id": "0204E2AZB11R83O0IWAVRG", "tract_id": "06037207305", "city": "LOS ANGELES, CA", "zone_code": "CPIO", "zone_category": "Other", "ev_permitted": false}, "geometry": {"type": "Polygon", "coordinates": [[[-118.252528893335, 34.0471163699389], [-118.25182227207, 34.0478659528703], [-118.252190335174, 34.04810282047], [-118.252891104998, 34.0473508569817], [-118.252528893335, 34.0471163699389]]]}}, {"type": "Feature", "properties": {"zone_id": "0200UA5Q054MIESBQN0VXV", "tract_id": "06037207305", "city": "LOS ANGELES, CA", "zone_code": "CDO", "zone_category": "Other", "ev_permitted": false}, "geometry": {"type": "Polygon", "coordinates": [[[-118.251510450738, 34.0474056752092], [-118.25141025566, 34.0475133804806], [-118.251819864029, 34.0477794807408], [-118.251921085382, 34.0476721319271], [-118.251510450738, 34.0474056752092]]]}}, {"type": "Feature", "properties": {"zone_id": "0202UNP7NBBLTO5O4T2V4S", "tract_id": "06037207305", "city": "LOS ANGELES, CA", "zone_code": "CDO", "zone_category": "Other", "ev_permitted": false}, "geometry": {"type": "Polygon", "coordinates": [[[-118.25141025566, 34.0475133804806], [-118.251364221748, 34.047562855515], [-118.251774554224, 34.047827527248], [-118.251819864029, 34.0477794807408], [-118.25141025566, 34.0475133804806]]]}}, {"type": "Feature", "properties": {"zone_id": "02067LE4L85C6YUETFBHG7", "tract_id": "06037207305", "city": "LOS ANGELES, CA", "zone_code": "CDO", "zone_category": "Other", "ev_permitted": false}, "geometry": {"type": "Polygon", "coordinates": [[[-118.251364221748, 34.047562855515], [-118.251313679808, 34.0476171761629], [-118.251723582503, 34.0478816016564], [-118.251774554224, 34.047827527248], [-118.251364221748, 34.047562855515]]]}}, {"type": "Feature", "properties": {"zone_id": "0206JS7OYU0G0ASL0030PY", "tract_id": "06037207305", "city": "LOS ANGELES, CA", "zone_code": "CDO", "zone_category": "Other", "ev_permitted": false}, "geometry": {"type": "Polygon", "coordinates": [[[-118.251313679808, 34.0476171761629], [-118.251220723375, 34.047717117222], [-118.251631872672, 34.0479788750023], [-118.251723582503, 34.0478816016564], [-118.251313679808, 34.0476171761629]]]}}, {"type": "Feature", "properties": {"zone_id": "0202YWKNFPYAXNSY6KO7KI", "tract_id": "06037207305", "city": "LOS ANGELES, CA", "zone_code": "CDO", "zone_category": "Other", "ev_permitted": false}, "geometry": {"type": "Polygon", "coordinates": [[[-118.252400224994, 34.0469878188554], [-118.252167163836, 34.0472383618292], [-118.25226817705, 34.0473039073491], [-118.252377932354, 34.0472032983643], [-118.252511490982, 34.0470598277108], [-118.252400224994, 34.0469878188554]]]}}, {"type": "Feature", "properties": {"zone_id": "0205FBNM3IUPLH6AW4YN75", "tract_id": "06037207305", "city": "LOS ANGELES, CA", "zone_code": "CDO", "zone_category": "Other", "ev_permitted": false}, "geometry": {"type": "Polygon", "coordinates": [[[-118.251937657039, 34.0469465002663], [-118.251854764666, 34.0470356165393], [-118.252167163836, 34.0472383618292], [-118.252250049872, 34.0471492402016], [-118.251937657039, 34.0469465002663]]]}}, {"type": "Feature", "properties": {"zone_id": "0202H1SHUH8HS0EKG1GD20", "tract_id": "06037207305", "city": "LOS ANGELES, CA", "zone_code": "CDO", "zone_category": "Other", "ev_permitted": false}, "geometry": {"type": "Polygon", "coordinates": [[[-118.251854764666, 34.0470356165393], [-118.251732622983, 34.0471668621269], [-118.252145076321, 34.0474344958713], [-118.25226817705, 34.0473039073491], [-118.251854764666, 34.0470356165393]]]}}, {"type": "Feature", "properties": {"zone_id": "0204X441RV8TOX6130GVT9", "tract_id": "06037207305", "city": "LOS ANGELES, CA", "zone_code": "CDO", "zone_category": "Other", "ev_permitted": false}, "geometry": {"type": "Polygon", "coordinates": [[[-118.251732622983, 34.0471668621269], [-118.251612192191, 34.0472963453902], [-118.252023620457, 34.047563322199], [-118.252145076321, 34.0474344958713], [-118.251732622983, 34.0471668621269]]]}}, {"type": "Feature", "properties": {"zone_id": "0203UP05TLVCP3Q6R1A5MH", "tract_id": "06037207305", "city": "LOS ANGELES, CA", "zone_code": "CDO", "zone_category": "Other", "ev_permitted": false}, "geometry": {"type": "Polygon", "coordinates": [[[-118.251612192191, 34.0472963453902], [-118.251560663305, 34.0473516849094], [-118.251971727731, 34.047618387867], [-118.252023620457, 34.047563322199], [-118.251612192191, 34.0472963453902]]]}}, {"type": "Feature", "properties": {"zone_id": "0200A4KYC0U3R3DKC3G4MX", "tract_id": "06037207305", "city": "LOS ANGELES, CA", "zone_code": "CDO", "zone_category": "Other", "ev_permitted": false}, "geometry": {"type": "Polygon", "coordinates": [[[-118.251560663305, 34.0473516849094], [-118.251510450738, 34.0474056752092], [-118.251921085382, 34.0476721319271], [-118.251971727731, 34.047618387867], [-118.251560663305, 34.0473516849094]]]}}, {"type": "Feature", "properties": {"zone_id": "02051WQRLZPOOXDPE48RS9", "tract_id": "06037207305", "city": "LOS ANGELES, CA", "zone_code": "CPIO", "zone_category": "Other", "ev_permitted": false}, "geometry": {"type": "Polygon", "coordinates": [[[-118.253896898035, 34.0456904900237], [-118.253269101586, 34.0463650637127], [-118.253630580924, 34.0465979288195], [-118.254259037665, 34.045923764031], [-118.253896898035, 34.0456904900237]]]}}, {"type": "Feature", "properties": {"zone_id": "0201IQAN2PEZ191VC37FOQ", "tract_id": "06037207305", "city": "LOS ANGELES, CA", "zone_code": "CDO", "zone_category": "Other", "ev_permitted": false}, "geometry": {"type": "Polygon", "coordinates": [[[-118.252624885966, 34.046207806176], [-118.252370406948, 34.0464813115686], [-118.253224184487, 34.0470338792697], [-118.253479914217, 34.0467595176031], [-118.25306637433, 34.0464931272432], [-118.253057720658, 34.0465024331748], [-118.253005495043, 34.0464687987802], [-118.25301470815, 34.0464589146277], [-118.252624885966, 34.046207806176]]]}}, {"type": "Feature", "properties": {"zone_id": "0205NVXZ5QRFA7428ATH19", "tract_id": "06037207305", "city": "LOS ANGELES, CA", "zone_code": "CPIO", "zone_category": "Other", "ev_permitted": false}, "geometry": {"type": "Polygon", "coordinates": [[[-118.253269101586, 34.0463650637127], [-118.253193850816, 34.0464458989461], [-118.253555264024, 34.0466786819822], [-118.253630580924, 34.0465979288195], [-118.253269101586, 34.0463650637127]]]}}, {"type": "Feature", "properties": {"zone_id": "0206XRQLKXR1JP55WEVA69", "tract_id": "06037207305", "city": "LOS ANGELES, CA", "zone_code": "CPIO", "zone_category": "Other", "ev_permitted": false}, "geometry": {"type": "Polygon", "coordinates": [[[-118.253193850816, 34.0464458989461], [-118.253118599984, 34.0465267616115], [-118.253479914217, 34.0467595176031], [-118.253555264024, 34.0466786819822], [-118.253193850816, 34.0464458989461]]]}}, {"type": "Feature", "properties": {"zone_id": "0206TPDCGQ7GSZ3NBJPO0M", "tract_id": "06037207305", "city": "LOS ANGELES, CA", "zone_code": "SN", "zone_category": "Other", "ev_permitted": false}, "geometry": {"type": "Polygon", "coordinates": [[[-118.252902527393, 34.0459093835275], [-118.252759133391, 34.0460635369285], [-118.253148955389, 34.0463146724236], [-118.253292415124, 34.0461605184192], [-118.252902527393, 34.0459093835275]]]}}, {"type": "Feature", "properties": {"zone_id": "0205SB82DLD73BPEJP0P19", "tract_id": "06037207305", "city": "LOS ANGELES, CA", "zone_code": "CDO", "zone_category": "Other", "ev_permitted": false}, "geometry": {"type": "Polygon", "coordinates": [[[-118.249526089897, 34.0484795372117], [-118.249409471321, 34.0486050534671], [-118.24981356627, 34.0488706515543], [-118.24993025088, 34.0487452172059], [-118.249526089897, 34.0484795372117]]]}}, {"type": "Feature", "properties": {"zone_id": "0202S1QHWCKHK7JMLQ0AYF", "tract_id": "06037207305", "city": "LONG BEACH, CA", "zone_code": "CPIO", "zone_category": "Other", "ev_permitted": false}, "geometry": {"type": "Polygon", "coordinates": [[[-118.24810275285, 34.0492208222452], [-118.247973953938, 34.0493588924183], [-118.247987018618, 34.0493673290259], [-118.247401363404, 34.0499951817727], [-118.24761098713, 34.0501280237766], [-118.247341702231, 34.0504167171599], [-118.24750099536, 34.0505202052804], [-118.247806378211, 34.0501922803385], [-118.247923919635, 34.0502652423093], [-118.248104811372, 34.050070898731], [-118.248039518205, 34.0500279737534], [-118.248202936535, 34.0498527636065], [-118.248622348335, 34.0501284738551], [-118.248784711467, 34.0499540070149], [-118.248365531498, 34.04967843425], [-118.248530264768, 34.0495018195427], [-118.24810275285, 34.0492208222452]]]}}, {"type": "Feature", "properties": {"zone_id": "020706EZY72R8WGMTCKNZR", "tract_id": "06037207305", "city": "LOS ANGELES, CA", "zone_code": "CPIO", "zone_category": "Other", "ev_permitted": false}, "geometry": {"type": "Polygon", "coordinates": [[[-118.247389126177, 34.0499874853309], [-118.247121783234, 34.0502743331708], [-118.247341702231, 34.0504167171599], [-118.24761098713, 34.0501280237766], [-118.247389126177, 34.0499874853309]]]}}, {"type": "Feature", "properties": {"zone_id": "02016OGDET8YEY04EY8XCF", "tract_id": "06037207305", "city": "LOS ANGELES, CA", "zone_code": "CPIO", "zone_category": "Other", "ev_permitted": false}, "geometry": {"type": "Polygon", "coordinates": [[[-118.248348140802, 34.0489577314961], [-118.24810275285, 34.0492208222452], [-118.248530264768, 34.0495018195427], [-118.24877561927, 34.0492387554678], [-118.248348140802, 34.0489577314961]]]}}, {"type": "Feature", "properties": {"zone_id": "0204LQZ0AA9CJB7VR8IPP7", "tract_id": "06037207305", "city": "LOS ANGELES, CA", "zone_code": "CDO", "zone_category": "Other", "ev_permitted": false}, "geometry": {"type": "Polygon", "coordinates": [[[-118.252759133391, 34.0460635369285], [-118.252624885966, 34.046207806176], [-118.25301470815, 34.0464589146277], [-118.253148955389, 34.0463146724236], [-118.252759133391, 34.0460635369285]]]}}, {"type": "Feature", "properties": {"zone_id": "0207GGJOZUT1JV9TTDCJ16", "tract_id": "06037207305", "city": "LOS ANGELES, CA", "zone_code": "SN", "zone_category": "Other", "ev_permitted": false}, "geometry": {"type": "Polygon", "coordinates": [[[-118.252974290174, 34.045832292886], [-118.252902527393, 34.0459093835275], [-118.253292415124, 34.0461605184192], [-118.253364144835, 34.0460834550928], [-118.252974290174, 34.045832292886]]]}}, {"type": "Feature", "properties": {"zone_id": "0202IZG0ICVD4MBG7BM1LK", "tract_id": "06037207305", "city": "LOS ANGELES, CA", "zone_code": "CDO", "zone_category": "Other", "ev_permitted": false}, "geometry": {"type": "Polygon", "coordinates": [[[-118.252370406948, 34.0464813115686], [-118.252208814955, 34.0466550122157], [-118.252603603178, 34.0469106181348], [-118.252766650134, 34.0467378481863], [-118.252370406948, 34.0464813115686]]]}}, {"type": "Feature", "properties": {"zone_id": "02079KZZJA40E9KUKL1P48", "tract_id": "06037207305", "city": "LOS ANGELES, CA", "zone_code": "CPIO", "zone_category": "Other", "ev_permitted": false}, "geometry": {"type": "Polygon", "coordinates": [[[-118.25208753001, 34.0467853770549], [-118.251937657039, 34.0469465002663], [-118.252250049872, 34.0471492402016], [-118.252400224994, 34.0469878188554], [-118.25208753001, 34.0467853770549]]]}}, {"type": "Feature", "properties": {"zone_id": "020411VZPSH8YUSZTR59PN", "tract_id": "06037207305", "city": "LOS ANGELES, CA", "zone_code": "CDO", "zone_category": "Other", "ev_permitted": false}, "geometry": {"type": "Polygon", "coordinates": [[[-118.253402527198, 34.0453720063039], [-118.252974290174, 34.045832292886], [-118.253364144835, 34.0460834550928], [-118.253792480196, 34.0456232218713], [-118.253402527198, 34.0453720063039]]]}}, {"type": "Feature", "properties": {"zone_id": "0206DJGG6WTP4A7I8CPT6R", "tract_id": "06037207305", "city": "LOS ANGELES, CA", "zone_code": "SN", "zone_category": "Other", "ev_permitted": false}, "geometry": {"type": "Polygon", "coordinates": [[[-118.251220723375, 34.047717117222], [-118.250880911862, 34.0480823284818], [-118.251313211694, 34.0483625640466], [-118.251435882886, 34.0482309605549], [-118.251531771554, 34.0480850688527], [-118.251631872672, 34.0479788750023], [-118.251220723375, 34.047717117222]]]}}, {"type": "Feature", "properties": {"zone_id": "0203UVKKSZ5GJV9TX7L9OS", "tract_id": "06037207305", "city": "LOS ANGELES, CA", "zone_code": "CDO", "zone_category": "Other", "ev_permitted": false}, "geometry": {"type": "Polygon", "coordinates": [[[-118.250127604075, 34.0478319665637], [-118.249965117211, 34.0480069025994], [-118.250356743229, 34.0482642879317], [-118.250521348911, 34.0480873582004], [-118.250127604075, 34.0478319665637]]]}}, {"type": "Feature", "properties": {"zone_id": "0203P0IEAM0XRUCFAC7CE5", "tract_id": "06037207305", "city": "LOS ANGELES, CA", "zone_code": "CPIO", "zone_category": "Other", "ev_permitted": false}, "geometry": {"type": "Polygon", "coordinates": [[[-118.24967242468, 34.047537457687], [-118.249442708659, 34.0477838666697], [-118.249742435777, 34.0479780161012], [-118.249740263196, 34.0479800814959], [-118.249844448492, 34.0480469689392], [-118.250076662213, 34.0477969817862], [-118.24967242468, 34.047537457687]]]}}, {"type": "Feature", "properties": {"zone_id": "0206BGCUA9OQ87S89O19NM", "tract_id": "06037207305", "city": "LOS ANGELES, CA", "zone_code": "[DM4-CHC1-5] [CX2-FA]", "zone_category": "Other", "ev_permitted": false}, "geometry": {"type": "Polygon", "coordinates": [[[-118.249442708659, 34.0477838666697], [-118.249359917055, 34.0478726564264], [-118.249761526321, 34.0481361989018], [-118.249844448492, 34.0480469689392], [-118.249740263196, 34.0479800814959], [-118.249742435777, 34.0479780161012], [-118.249442708659, 34.0477838666697]]]}}]}