{"type": "FeatureCollection", "features": [{"type": "Feature", "properties": {"zone_id": "02013AZTNH5NUO0IBPLQ30", "tract_id": "36047051400", "city": "", "zone_code": "R7A", "zone_category": "Residential", "ev_permitted": false}, "geometry": {"type": "Polygon", "coordinates": [[[-73.9639090893044, 40.6440356946959], [-73.9637210256648, 40.6440560767474], [-73.9637730901505, 40.6443316108936], [-73.9639614820505, 40.6443111937269], [-73.9639090893044, 40.6440356946959]]]}}, {"type": "Feature", "properties": {"zone_id": "0200NA8PQC6OA3O6NA83BY", "tract_id": "36047051400", "city": "BROOKLYN, NY", "zone_code": "R7A", "zone_category": "Residential", "ev_permitted": false}, "geometry": {"type": "Polygon", "coordinates": [[[-73.9637210256648, 40.6440560767474], [-73.9636360281615, 40.644065287838], [-73.963688092303, 40.644340822725], [-73.9637730901505, 40.6443316108936], [-73.9637210256648, 40.6440560767474]]]}}, {"type": "Feature", "properties": {"zone_id": "0205DUUG82ACNFBB9FHE25", "tract_id": "36047051400", "city": "BROOKLYN, NY", "zone_code": "R7A", "zone_category": "Residential", "ev_permitted": false}, "geometry": {"type": "Polygon", "coordinates": [[[-73.9636113870207, 40.643934882292], [-73.9633469942631, 40.6439635352169], [-73.9634236979698, 40.644369475825], [-73.963688092303, 40.644340822725], [-73.9636113870207, 40.643934882292]]]}}, {"type": "Feature", "properties": {"zone_id": "0204IXSDXSEKAPZUU60AKF", "tract_id": "36047051400", "city": "BROOKLYN, NY", "zone_code": "R7A", "zone_category": "Residential", "ev_permitted": false}, "geometry": {"type": "Polygon", "coordinates": [[[-73.9638842935787, 40.6439053053209], [-73.9636113870207, 40.643934882292], [-73.9636360281615, 40.644065287838], [-73.9639090893044, 40.6440356946959], [-73.9638842935787, 40.6439053053209]]]}}, {"type": "Feature", "properties": {"zone_id": "0200GNO1YGS7ESIUB0PF2A", "tract_id": "36047051400", "city": "BROOKLYN, NY", "zone_code": "R3X", "zone_category": "Residential", "ev_permitted": false}, "geometry": {"type": "Polygon", "coordinates": [[[-73.9638322528528, 40.643631653659], [-73.9634722082606, 40.6436706733808], [-73.9634980282281, 40.6438073225129], [-73.9638582359079, 40.6437682844927], [-73.9638322528528, 40.643631653659]]]}}, {"type": "Feature", "properties": {"zone_id": "0204014383UAH0YE7IYMUN", "tract_id": "36047051400", "city": "BROOKLYN, NY", "zone_code": "R3X", "zone_category": "Residential", "ev_permitted": false}, "geometry": {"type": "Polygon", "coordinates": [[[-73.9638582359079, 40.6437682844927], [-73.9634980282281, 40.6438073225129], [-73.9635239228091, 40.6439443609373], [-73.9638842935787, 40.6439053053209], [-73.9638582359079, 40.6437682844927]]]}}, {"type": "Feature", "properties": {"zone_id": "02031WEABPRIMOSV5D8ND4", "tract_id": "36047051400", "city": "BROOKLYN, NY", "zone_code": "R7A", "zone_category": "Residential", "ev_permitted": false}, "geometry": {"type": "Polygon", "coordinates": [[[-73.9633469942631, 40.6439635352169], [-73.9631509046277, 40.6439847857851], [-73.9632276071658, 40.644390726523], [-73.9634236979698, 40.644369475825], [-73.9633469942631, 40.6439635352169]]]}}, {"type": "Feature", "properties": {"zone_id": "0202ARKSMUUCKHJSUOQPLU", "tract_id": "36047051400", "city": "BROOKLYN, NY", "zone_code": "R3X", "zone_category": "Residential", "ev_permitted": false}, "geometry": {"type": "Polygon", "coordinates": [[[-73.9634980282281, 40.6438073225129], [-73.9631250107971, 40.6438477472774], [-73.9631509046277, 40.6439847857851], [-73.9635239228091, 40.6439443609373], [-73.9634980282281, 40.6438073225129]]]}}, {"type": "Feature", "properties": {"zone_id": "0204XYAGHIXK8WXYZDENTZ", "tract_id": "36047051400", "city": "BROOKLYN, NY", "zone_code": "R3X", "zone_category": "Residential", "ev_permitted": false}, "geometry": {"type": "Polygon", "coordinates": [[[-73.9637804029638, 40.6433589984042], [-73.9634206826953, 40.6433979836369], [-73.963446266983, 40.643533384777], [-73.9638061484858, 40.6434943819487], [-73.9637804029638, 40.6433589984042]]]}}, {"type": "Feature", "properties": {"zone_id": "02012T6XT5J7ZVFUGEE7X2", "tract_id": "36047051400", "city": "BROOKLYN, NY", "zone_code": "R3X", "zone_category": "Residential", "ev_permitted": false}, "geometry": {"type": "Polygon", "coordinates": [[[-73.9638061484858, 40.6434943819487], [-73.963446266983, 40.643533384777], [-73.9634722082606, 40.6436706733808], [-73.9638322528528, 40.643631653659], [-73.9638061484858, 40.6434943819487]]]}}, {"type": "Feature", "properties": {"zone_id": "02063XBMRO9SV4LBWST6R4", "tract_id": "36047051400", "city": "BROOKLYN, NY", "zone_code": "R3X", "zone_category": "Residential", "ev_permitted": false}, "geometry": {"type": "Polygon", "coordinates": [[[-73.9637275205244, 40.6430809104887], [-73.9633681310629, 40.6431198612315], [-73.9633960265842, 40.6432674972236], [-73.9637555921023, 40.6432285295856], [-73.9637275205244, 40.6430809104887]]]}}, {"type": "Feature", "properties": {"zone_id": "0201ASZGLJ1DY2MPZMAIZI", "tract_id": "36047051400", "city": "BROOKLYN, NY", "zone_code": "R3X", "zone_category": "Residential", "ev_permitted": false}, "geometry": {"type": "Polygon", "coordinates": [[[-73.9637555921023, 40.6432285295856], [-73.9633960265842, 40.6432674972236], [-73.9634206826953, 40.6433979836369], [-73.9637804029638, 40.6433589984042], [-73.9637555921023, 40.6432285295856]]]}}, {"type": "Feature", "properties": {"zone_id": "0202N81WBB9RAVHMM7Y9LK", "tract_id": "36047051400", "city": "BROOKLYN, NY", "zone_code": "R3X", "zone_category": "Residential", "ev_permitted": false}, "geometry": {"type": "Polygon", "coordinates": [[[-73.9634206826953, 40.6433979836369], [-73.9630476675058, 40.6434384081524], [-73.9631250107971, 40.6438477472774], [-73.9634980282281, 40.6438073225129], [-73.9634206826953, 40.6433979836369]]]}}, {"type": "Feature", "properties": {"zone_id": "0205FBUTGXUUHVE4AW3QP0", "tract_id": "36047051400", "city": "BROOKLYN, NY", "zone_code": "R3X", "zone_category": "Residential", "ev_permitted": false}, "geometry": {"type": "Polygon", "coordinates": [[[-73.9633834097537, 40.6432007175453], [-73.9630103947215, 40.6432411426431], [-73.9630476675058, 40.6434384081524], [-73.9634206826953, 40.6433979836369], [-73.9633834097537, 40.6432007175453]]]}}, {"type": "Feature", "properties": {"zone_id": "020450H7P9NLAEW079I1H0", "tract_id": "36047051400", "city": "BROOKLYN, NY", "zone_code": "R7A", "zone_category": "Residential", "ev_permitted": false}, "geometry": {"type": "Polygon", "coordinates": [[[-73.9624019404499, 40.6440646324069], [-73.962291175325, 40.6440768449955], [-73.9621765402017, 40.6441267717459], [-73.9622475551407, 40.6444989229168], [-73.9629892498272, 40.6444171475536], [-73.9629312045518, 40.6441097747831], [-73.9624210838069, 40.6441660114336], [-73.9624019404499, 40.6440646324069]]]}}, {"type": "Feature", "properties": {"zone_id": "02058KVKJCVY2N1ACHEOCA", "tract_id": "36047051400", "city": "BROOKLYN, NY", "zone_code": "R7A", "zone_category": "Residential", "ev_permitted": false}, "geometry": {"type": "Polygon", "coordinates": [[[-73.9616334676548, 40.6443628074237], [-73.9612748956755, 40.6444001842493], [-73.9613134968959, 40.6446039377464], [-73.9615957592751, 40.6445745148058], [-73.9615645104395, 40.6444105796661], [-73.9616361798745, 40.6443770337801], [-73.9616334676548, 40.6443628074237]]]}}, {"type": "Feature", "properties": {"zone_id": "0207O27A1XUO0MQSIUPVHN", "tract_id": "36047051400", "city": "BROOKLYN, NY", "zone_code": "R7A", "zone_category": "Residential", "ev_permitted": false}, "geometry": {"type": "Polygon", "coordinates": [[[-73.9619803566832, 40.6442238652387], [-73.9617966697976, 40.6442430138185], [-73.9618547162135, 40.6445475209889], [-73.9620384048427, 40.6445283730201], [-73.9619803566832, 40.6442238652387]]]}}, {"type": "Feature", "properties": {"zone_id": "020278P6FOKFTFT2PYE56S", "tract_id": "36047051400", "city": "BROOKLYN, NY", "zone_code": "R7A", "zone_category": "Residential", "ev_permitted": false}, "geometry": {"type": "Polygon", "coordinates": [[[-73.9617966697976, 40.6442430138185], [-73.9616142577518, 40.6442620283214], [-73.9616361798745, 40.6443770337801], [-73.9615645104395, 40.6444105796661], [-73.9615957592751, 40.6445745148058], [-73.9618547162135, 40.6445475209889], [-73.9617966697976, 40.6442430138185]]]}}, {"type": "Feature", "properties": {"zone_id": "0202WSRAKV0AK3DPG754PB", "tract_id": "36047051400", "city": "BROOKLYN, NY", "zone_code": "R7A", "zone_category": "Residential", "ev_permitted": false}, "geometry": {"type": "Polygon", "coordinates": [[[-73.9615946321968, 40.6441590764358], [-73.9612362937688, 40.6441964300315], [-73.9612748956755, 40.6444001842493], [-73.9616334676548, 40.6443628074237], [-73.9615946321968, 40.6441590764358]]]}}, {"type": "Feature", "properties": {"zone_id": "02037T4R7RH3PQ4RO06MUK", "tract_id": "36047051400", "city": "BROOKLYN, NY", "zone_code": "R7A", "zone_category": "Residential", "ev_permitted": false}, "geometry": {"type": "Polygon", "coordinates": [[[-73.9609934851351, 40.6442895234102], [-73.9605665186372, 40.6443361506884], [-73.9606315391496, 40.644679572341], [-73.9610585068801, 40.6446329399042], [-73.9609934851351, 40.6442895234102]]]}}, {"type": "Feature", "properties": {"zone_id": "0204KP3VEYP40T0RQXZC0Z", "tract_id": "36047051400", "city": "BROOKLYN, NY", "zone_code": "R3X", "zone_category": "Residential", "ev_permitted": false}, "geometry": {"type": "Polygon", "coordinates": [[[-73.9609600525821, 40.644112938688], [-73.9605330881124, 40.6441595672486], [-73.9605665186372, 40.6443361506884], [-73.9609934851351, 40.6442895234102], [-73.9609600525821, 40.644112938688]]]}}, {"type": "Feature", "properties": {"zone_id": "0200FS5SNL3BLEGTNL81OE", "tract_id": "36047051400", "city": "BROOKLYN, NY", "zone_code": "R7A", "zone_category": "Residential", "ev_permitted": false}, "geometry": {"type": "Polygon", "coordinates": [[[-73.9605691882709, 40.6443502470624], [-73.9601002693808, 40.6444014564567], [-73.9601635571466, 40.6447306783186], [-73.9606315391496, 40.644679572341], [-73.9605691882709, 40.6443502470624]]]}}, {"type": "Feature", "properties": {"zone_id": "0204JV6BEQ8DCD4JQP1IIU", "tract_id": "36047051400", "city": "BROOKLYN, NY", "zone_code": "R7A", "zone_category": "Residential", "ev_permitted": false}, "geometry": {"type": "Polygon", "coordinates": [[[-73.9605069621549, 40.6440215759616], [-73.9600371073067, 40.6440728852592], [-73.9601002693808, 40.6444014564567], [-73.9605691882709, 40.6443502470624], [-73.9605069621549, 40.6440215759616]]]}}, {"type": "Feature", "properties": {"zone_id": "0204CV2K7XWZFWHJP4D979", "tract_id": "36047051400", "city": "BROOKLYN, NY", "zone_code": "R3X", "zone_category": "Residential", "ev_permitted": false}, "geometry": {"type": "Polygon", "coordinates": [[[-73.9629120604359, 40.6440083958406], [-73.9624019404499, 40.6440646324069], [-73.9624210838069, 40.6441660114336], [-73.9629312045518, 40.6441097747831], [-73.9629120604359, 40.6440083958406]]]}}, {"type": "Feature", "properties": {"zone_id": "0207KO3SBN4FJ44XY54WS6", "tract_id": "36047051400", "city": "BROOKLYN, NY", "zone_code": "R3X", "zone_category": "Residential", "ev_permitted": false}, "geometry": {"type": "Polygon", "coordinates": [[[-73.9624636594844, 40.6437338709278], [-73.9621090284137, 40.6437729703603], [-73.9621765402017, 40.6441267717459], [-73.962291175325, 40.6440768449955], [-73.9625235859091, 40.644051220998], [-73.9624636594844, 40.6437338709278]]]}}, {"type": "Feature", "properties": {"zone_id": "0203VYUR5NZ4S9X1Y6WDGR", "tract_id": "36047051400", "city": "BROOKLYN, NY", "zone_code": "R3X", "zone_category": "Residential", "ev_permitted": false}, "geometry": {"type": "Polygon", "coordinates": [[[-73.9628747648001, 40.6438109005211], [-73.9624862913997, 40.6438537248507], [-73.9625235859091, 40.644051220998], [-73.9629120604359, 40.6440083958406], [-73.9628747648001, 40.6438109005211]]]}}, {"type": "Feature", "properties": {"zone_id": "02007K7C61F30V6ICWDTW7", "tract_id": "36047051400", "city": "BROOKLYN, NY", "zone_code": "R3X", "zone_category": "Residential", "ev_permitted": false}, "geometry": {"type": "Polygon", "coordinates": [[[-73.9628400833426, 40.6436272436114], [-73.9624516109888, 40.6436700685275], [-73.9624862913997, 40.6438537248507], [-73.9628747648001, 40.6438109005211], [-73.9628400833426, 40.6436272436114]]]}}, {"type": "Feature", "properties": {"zone_id": "0206LJGI1OR7F30FBK5NLA", "tract_id": "36047051400", "city": "BROOKLYN, NY", "zone_code": "R3X", "zone_category": "Residential", "ev_permitted": false}, "geometry": {"type": "Polygon", "coordinates": [[[-73.962435214036, 40.643583236968], [-73.9620802903849, 40.6436223685393], [-73.9621090284137, 40.6437729703603], [-73.9624636594844, 40.6437338709278], [-73.962435214036, 40.643583236968]]]}}, {"type": "Feature", "properties": {"zone_id": "02072RZIMTHA43FKV9GMSH", "tract_id": "36047051400", "city": "BROOKLYN, NY", "zone_code": "R7A", "zone_category": "Residential", "ev_permitted": false}, "geometry": {"type": "Polygon", "coordinates": [[[-73.9619544148096, 40.6440877743495], [-73.9616849169801, 40.6441158673614], [-73.9616912344584, 40.6441490071452], [-73.9615946321968, 40.6441590764358], [-73.9616142577518, 40.6442620283214], [-73.9619803566832, 40.6442238652387], [-73.9619544148096, 40.6440877743495]]]}}, {"type": "Feature", "properties": {"zone_id": "0207HGKJGJ0M5001OAFDIZ", "tract_id": "36047051400", "city": "BROOKLYN, NY", "zone_code": "R3X", "zone_category": "Residential", "ev_permitted": false}, "geometry": {"type": "Polygon", "coordinates": [[[-73.9619269619318, 40.6439437646205], [-73.9615608645067, 40.6439819275344], [-73.9615946321968, 40.6441590764358], [-73.9616912344584, 40.6441490071452], [-73.9616849169801, 40.6441158673614], [-73.9619544148096, 40.6440877743495], [-73.9619269619318, 40.6439437646205]]]}}, {"type": "Feature", "properties": {"zone_id": "0207C6ZFBWNM7EQ0ZNPN8N", "tract_id": "36047051400", "city": "BROOKLYN, NY", "zone_code": "R3X", "zone_category": "Residential", "ev_permitted": false}, "geometry": {"type": "Polygon", "coordinates": [[[-73.9615687426372, 40.6440232574071], [-73.9612105608331, 40.6440605934087], [-73.9612362937688, 40.6441964300315], [-73.9615946321968, 40.6441590764358], [-73.9615687426372, 40.6440232574071]]]}}, {"type": "Feature", "properties": {"zone_id": "0201RW3FJJ4JV85AWRYHSJ", "tract_id": "36047051400", "city": "BROOKLYN, NY", "zone_code": "R3X", "zone_category": "Residential", "ev_permitted": false}, "geometry": {"type": "Polygon", "coordinates": [[[-73.9615428522605, 40.6438874383703], [-73.9611848252334, 40.6439247588851], [-73.9612105608331, 40.6440605934087], [-73.9615687426372, 40.6440232574071], [-73.9615428522605, 40.6438874383703]]]}}, {"type": "Feature", "properties": {"zone_id": "0200WGHMY7PBSZ84D7CXBD", "tract_id": "36047051400", "city": "BROOKLYN, NY", "zone_code": "R3X", "zone_category": "Residential", "ev_permitted": false}, "geometry": {"type": "Polygon", "coordinates": [[[-73.9618958937619, 40.6437807810279], [-73.9615297962913, 40.6438189431405], [-73.9615608645067, 40.6439819275344], [-73.9619269619318, 40.6439437646205], [-73.9618958937619, 40.6437807810279]]]}}, {"type": "Feature", "properties": {"zone_id": "0201K9IHJ9FN18SFX7ITTY", "tract_id": "36047051400", "city": "BROOKLYN, NY", "zone_code": "R3X", "zone_category": "Residential", "ev_permitted": false}, "geometry": {"type": "Polygon", "coordinates": [[[-73.9618682314452, 40.6436356652158], [-73.9615021347546, 40.6436738279437], [-73.9615297962913, 40.6438189431405], [-73.9618958937619, 40.6437807810279], [-73.9618682314452, 40.6436356652158]]]}}, {"type": "Feature", "properties": {"zone_id": "0200TGOMFGHWDHKC9I3YIX", "tract_id": "36047051400", "city": "BROOKLYN, NY", "zone_code": "R3X", "zone_category": "Residential", "ev_permitted": false}, "geometry": {"type": "Polygon", "coordinates": [[[-73.9615173307878, 40.6437535496696], [-73.9611594576045, 40.6437908546987], [-73.9611848252334, 40.6439247588851], [-73.9615428522605, 40.6438874383703], [-73.9615173307878, 40.6437535496696]]]}}, {"type": "Feature", "properties": {"zone_id": "0202I39JJO8S4QL07LQTS2", "tract_id": "36047051400", "city": "BROOKLYN, NY", "zone_code": "R3X", "zone_category": "Residential", "ev_permitted": false}, "geometry": {"type": "Polygon", "coordinates": [[[-73.9628068672408, 40.6434513523123], [-73.962418396813, 40.643494175712], [-73.9624516109888, 40.6436700685275], [-73.9628400833426, 40.6436272436114], [-73.9628068672408, 40.6434513523123]]]}}, {"type": "Feature", "properties": {"zone_id": "0201O55A08YJ634Z2CBBGQ", "tract_id": "36047051400", "city": "BROOKLYN, NY", "zone_code": "R3X", "zone_category": "Residential", "ev_permitted": false}, "geometry": {"type": "Polygon", "coordinates": [[[-73.9624070519929, 40.6434341004703], [-73.9620518385224, 40.6434732641821], [-73.9620802903849, 40.6436223685393], [-73.962435214036, 40.643583236968], [-73.9624070519929, 40.6434341004703]]]}}, {"type": "Feature", "properties": {"zone_id": "0200OVV7A9CHSWBUXQUQO2", "tract_id": "36047051400", "city": "BROOKLYN, NY", "zone_code": "R3X", "zone_category": "Residential", "ev_permitted": false}, "geometry": {"type": "Polygon", "coordinates": [[[-73.9627767637519, 40.6432919352862], [-73.96238829331, 40.6433347592873], [-73.962418396813, 40.643494175712], [-73.9628068672408, 40.6434513523123], [-73.9627767637519, 40.6432919352862]]]}}, {"type": "Feature", "properties": {"zone_id": "0201Z32SC3VXSTD3GA5R56", "tract_id": "36047051400", "city": "BROOKLYN, NY", "zone_code": "R3X", "zone_category": "Residential", "ev_permitted": false}, "geometry": {"type": "Polygon", "coordinates": [[[-73.9627473575735, 40.6431362109799], [-73.9623588880194, 40.6431790348824], [-73.96238829331, 40.6433347592873], [-73.9627767637519, 40.6432919352862], [-73.9627473575735, 40.6431362109799]]]}}, {"type": "Feature", "properties": {"zone_id": "0204AO0FK2TSO59M9OUZUD", "tract_id": "36047051400", "city": "BROOKLYN, NY", "zone_code": "R3X", "zone_category": "Residential", "ev_permitted": false}, "geometry": {"type": "Polygon", "coordinates": [[[-73.9623786371532, 40.6432836231957], [-73.9620231311044, 40.6433228183434], [-73.9620518385224, 40.6434732641821], [-73.9624070519929, 40.6434341004703], [-73.9623786371532, 40.6432836231957]]]}}, {"type": "Feature", "properties": {"zone_id": "020789VNERLKH0PQ1U14WH", "tract_id": "36047051400", "city": "BROOKLYN, NY", "zone_code": "R3X", "zone_category": "Residential", "ev_permitted": false}, "geometry": {"type": "Polygon", "coordinates": [[[-73.9623517077834, 40.6431410134355], [-73.9619959247985, 40.6431802400287], [-73.9620231311044, 40.6433228183434], [-73.9623786371532, 40.6432836231957], [-73.9623517077834, 40.6431410134355]]]}}, {"type": "Feature", "properties": {"zone_id": "0205SMB59OASNOGKXBRAKI", "tract_id": "36047051400", "city": "BROOKLYN, NY", "zone_code": "R3X", "zone_category": "Residential", "ev_permitted": false}, "geometry": {"type": "Polygon", "coordinates": [[[-73.9618423406093, 40.6434998462405], [-73.961476244649, 40.6435380088865], [-73.9615021347546, 40.6436738279437], [-73.9618682314452, 40.6436356652158], [-73.9618423406093, 40.6434998462405]]]}}, {"type": "Feature", "properties": {"zone_id": "02008B115Z3EZCQLTHGE2O", "tract_id": "36047051400", "city": "BROOKLYN, NY", "zone_code": "R3X", "zone_category": "Residential", "ev_permitted": false}, "geometry": {"type": "Polygon", "coordinates": [[[-73.9618169143335, 40.6433664593351], [-73.9614508190905, 40.6434046219008], [-73.961476244649, 40.6435380088865], [-73.9618423406093, 40.6434998462405], [-73.9618169143335, 40.6433664593351]]]}}, {"type": "Feature", "properties": {"zone_id": "02003GYEKKK0UU77ICM1N4", "tract_id": "36047051400", "city": "BROOKLYN, NY", "zone_code": "R3X", "zone_category": "Residential", "ev_permitted": false}, "geometry": {"type": "Polygon", "coordinates": [[[-73.961790560177, 40.6432282068612], [-73.9614244656775, 40.6432663693435], [-73.9614508190905, 40.6434046219008], [-73.9618169143335, 40.6433664593351], [-73.961790560177, 40.6432282068612]]]}}, {"type": "Feature", "properties": {"zone_id": "0206QQUYI7GHR5CQ0OY8BS", "tract_id": "36047051400", "city": "BROOKLYN, NY", "zone_code": "R3X", "zone_category": "Residential", "ev_permitted": false}, "geometry": {"type": "Polygon", "coordinates": [[[-73.9617652463114, 40.643095408811], [-73.9613991525257, 40.6431335719159], [-73.9614244656775, 40.6432663693435], [-73.961790560177, 40.6432282068612], [-73.9617652463114, 40.643095408811]]]}}, {"type": "Feature", "properties": {"zone_id": "0204AXMCQM58GZ0V5IZBCO", "tract_id": "36047051400", "city": "BROOKLYN, NY", "zone_code": "R3X", "zone_category": "Residential", "ev_permitted": false}, "geometry": {"type": "Polygon", "coordinates": [[[-73.9609163322917, 40.6438820211038], [-73.9604893692699, 40.643928648098], [-73.9605330881124, 40.6441595672486], [-73.9609600525821, 40.644112938688], [-73.9609163322917, 40.6438820211038]]]}}, {"type": "Feature", "properties": {"zone_id": "0205NN1ZC59YBJB5OCIEBG", "tract_id": "36047051400", "city": "BROOKLYN, NY", "zone_code": "R3X", "zone_category": "Residential", "ev_permitted": false}, "geometry": {"type": "Polygon", "coordinates": [[[-73.9614906175029, 40.6436134082491], [-73.9611329046538, 40.6436506963855], [-73.9611594576045, 40.6437908546987], [-73.9615173307878, 40.6437535496696], [-73.9614906175029, 40.6436134082491]]]}}, {"type": "Feature", "properties": {"zone_id": "0201NFTUGLVX6RR5PH4595", "tract_id": "36047051400", "city": "BROOKLYN, NY", "zone_code": "R3X", "zone_category": "Residential", "ev_permitted": false}, "geometry": {"type": "Polygon", "coordinates": [[[-73.9608803279538, 40.6436918536647], [-73.9604533652012, 40.6437384805259], [-73.9604893692699, 40.643928648098], [-73.9609163322917, 40.6438820211038], [-73.9608803279538, 40.6436918536647]]]}}, {"type": "Feature", "properties": {"zone_id": "02030DLZP3O1CJWS9XK8CY", "tract_id": "36047051400", "city": "BROOKLYN, NY", "zone_code": "R7A", "zone_category": "Residential", "ev_permitted": false}, "geometry": {"type": "Polygon", "coordinates": [[[-73.9604250619847, 40.6435889844336], [-73.9599539757716, 40.6436404278808], [-73.9600057826122, 40.6439099347954], [-73.9604761022171, 40.6438585744905], [-73.9604250619847, 40.6435889844336]]]}}, {"type": "Feature", "properties": {"zone_id": "0205PJGCNNEPD78CJJW43B", "tract_id": "36047051400", "city": "BROOKLYN, NY", "zone_code": "R7A", "zone_category": "Residential", "ev_permitted": false}, "geometry": {"type": "Polygon", "coordinates": [[[-73.9604761022171, 40.6438585744905], [-73.9600057826122, 40.6439099347954], [-73.9600371073067, 40.6440728852592], [-73.9605069621549, 40.6440215759616], [-73.9604761022171, 40.6438585744905]]]}}, {"type": "Feature", "properties": {"zone_id": "0200KS0O2876U2EPUCXV8H", "tract_id": "36047051400", "city": "BROOKLYN, NY", "zone_code": "R3X", "zone_category": "Residential", "ev_permitted": false}, "geometry": {"type": "Polygon", "coordinates": [[[-73.9614647265259, 40.6434775821615], [-73.9611071702974, 40.6435148541093], [-73.9611329046538, 40.6436506963855], [-73.9614906175029, 40.6436134082491], [-73.9614647265259, 40.6434775821615]]]}}, {"type": "Feature", "properties": {"zone_id": "020311GP2BASZQNJWE60CP", "tract_id": "36047051400", "city": "BROOKLYN, NY", "zone_code": "R3X", "zone_category": "Residential", "ev_permitted": false}, "geometry": {"type": "Polygon", "coordinates": [[[-73.9614336597017, 40.6433145991381], [-73.9610762888346, 40.6433518506753], [-73.9611071702974, 40.6435148541093], [-73.9614647265259, 40.6434775821615], [-73.9614336597017, 40.6433145991381]]]}}, {"type": "Feature", "properties": {"zone_id": "0201HXFHWZXZGJKPK2NMBP", "tract_id": "36047051400", "city": "BROOKLYN, NY", "zone_code": "R3X", "zone_category": "Residential", "ev_permitted": false}, "geometry": {"type": "Polygon", "coordinates": [[[-73.9608545224113, 40.6435555538733], [-73.9604275605125, 40.643602181342], [-73.9604533652012, 40.6437384805259], [-73.9608803279538, 40.6436918536647], [-73.9608545224113, 40.6435555538733]]]}}, {"type": "Feature", "properties": {"zone_id": "0203RRSBH0971OD6J8YO6E", "tract_id": "36047051400", "city": "BROOKLYN, NY", "zone_code": "R3X", "zone_category": "Residential", "ev_permitted": false}, "geometry": {"type": "Polygon", "coordinates": [[[-73.9614025921069, 40.643151616103], [-73.9610454084445, 40.6431888486356], [-73.9610762888346, 40.6433518506753], [-73.9614336597017, 40.6433145991381], [-73.9614025921069, 40.643151616103]]]}}, {"type": "Feature", "properties": {"zone_id": "020712RDIN7YH44H4NS64I", "tract_id": "36047051400", "city": "BROOKLYN, NY", "zone_code": "R7A", "zone_category": "Residential", "ev_permitted": false}, "geometry": {"type": "Polygon", "coordinates": [[[-73.9608290737853, 40.6434211394459], [-73.9604021127292, 40.6434677661181], [-73.9603995406434, 40.6434541827178], [-73.9602915069211, 40.6434659804519], [-73.9603170280486, 40.6436007821915], [-73.9604250619847, 40.6435889844336], [-73.9604275605125, 40.643602181342], [-73.9608545224113, 40.6435555538733], [-73.9608290737853, 40.6434211394459]]]}}, {"type": "Feature", "properties": {"zone_id": "0201VYEBOOPBUFLXHJLE2S", "tract_id": "36047051400", "city": "BROOKLYN, NY", "zone_code": "R7A", "zone_category": "Residential", "ev_permitted": false}, "geometry": {"type": "Polygon", "coordinates": [[[-73.9602452614638, 40.6432217096822], [-73.9599030503182, 40.643375506834], [-73.9599539757716, 40.6436404278808], [-73.9603170280486, 40.6436007821915], [-73.9602452614638, 40.6432217096822]]]}}, {"type": "Feature", "properties": {"zone_id": "0207J2JFUM1JX6W10OZ4DR", "tract_id": "36047051400", "city": "BROOKLYN, NY", "zone_code": "R3X", "zone_category": "Residential", "ev_permitted": false}, "geometry": {"type": "Polygon", "coordinates": [[[-73.9608007845754, 40.6432717214416], [-73.9604565769926, 40.6433093114133], [-73.9604848654481, 40.6434587287989], [-73.9608290737853, 40.6434211394459], [-73.9608007845754, 40.6432717214416]]]}}, {"type": "Feature", "properties": {"zone_id": "0207AMUXPE45OACM07HDHF", "tract_id": "36047051400", "city": "BROOKLYN, NY", "zone_code": "R3X", "zone_category": "Residential", "ev_permitted": false}, "geometry": {"type": "Polygon", "coordinates": [[[-73.9607742234372, 40.6431314316361], [-73.9604300165632, 40.6431690215289], [-73.9604565769926, 40.6433093114133], [-73.9608007845754, 40.6432717214416], [-73.9607742234372, 40.6431314316361]]]}}, {"type": "Feature", "properties": {"zone_id": "02067M0E9CCEKOE4WQYN74", "tract_id": "36047051400", "city": "BROOKLYN, NY", "zone_code": "R7A", "zone_category": "Residential", "ev_permitted": false}, "geometry": {"type": "Polygon", "coordinates": [[[-73.9604247225159, 40.6431410564495], [-73.9602452614638, 40.6432217096822], [-73.9602915069211, 40.6434659804519], [-73.9603995406434, 40.6434541827178], [-73.9604021127292, 40.6434677661181], [-73.9604848654481, 40.6434587287989], [-73.9604247225159, 40.6431410564495]]]}}, {"type": "Feature", "properties": {"zone_id": "0200TJ10SVZYVY1PXTGZMU", "tract_id": "36047051400", "city": "BROOKLYN, NY", "zone_code": "R3X", "zone_category": "Residential", "ev_permitted": false}, "geometry": {"type": "Polygon", "coordinates": [[[-73.9637029113105, 40.6429515048503], [-73.963343676593, 40.6429904372967], [-73.9633681310629, 40.6431198612315], [-73.9637275205244, 40.6430809104887], [-73.9637029113105, 40.6429515048503]]]}}, {"type": "Feature", "properties": {"zone_id": "02057O50321MDFK4OGCQPQ", "tract_id": "36047051400", "city": "BROOKLYN, NY", "zone_code": "R3X", "zone_category": "Residential", "ev_permitted": false}, "geometry": {"type": "Polygon", "coordinates": [[[-73.9636247307409, 40.6425403796346], [-73.9632659843551, 40.6425792592938], [-73.9632932962834, 40.642723808326], [-73.9636522150177, 40.6426849103671], [-73.9636247307409, 40.6425403796346]]]}}, {"type": "Feature", "properties": {"zone_id": "0204J2BD8R22PRHX4Y35A6", "tract_id": "36047051400", "city": "BROOKLYN, NY", "zone_code": "R3X", "zone_category": "Residential", "ev_permitted": false}, "geometry": {"type": "Polygon", "coordinates": [[[-73.9633460579261, 40.6430030410557], [-73.9629730448993, 40.6430434653309], [-73.9630103947215, 40.6432411426431], [-73.9633834097537, 40.6432007175453], [-73.9633460579261, 40.6430030410557]]]}}, {"type": "Feature", "properties": {"zone_id": "02034SULE379ZWUPC4NZ4L", "tract_id": "36047051400", "city": "BROOKLYN, NY", "zone_code": "R3X", "zone_category": "Residential", "ev_permitted": false}, "geometry": {"type": "Polygon", "coordinates": [[[-73.9633179501536, 40.6428542842286], [-73.9629449379413, 40.6428947084132], [-73.9629730448993, 40.6430434653309], [-73.9633460579261, 40.6430030410557], [-73.9633179501536, 40.6428542842286]]]}}, {"type": "Feature", "properties": {"zone_id": "02016XNQ5B1LDHQK2TQAKB", "tract_id": "36047051400", "city": "BROOKLYN, NY", "zone_code": "R3X", "zone_category": "Residential", "ev_permitted": false}, "geometry": {"type": "Polygon", "coordinates": [[[-73.9632932962834, 40.642723808326], [-73.9629202847856, 40.6427642324312], [-73.9629449379413, 40.6428947084132], [-73.9633179501536, 40.6428542842286], [-73.9632932962834, 40.642723808326]]]}}, {"type": "Feature", "properties": {"zone_id": "0203ZJNZIRO3FNDFEHJ1WM", "tract_id": "36047051400", "city": "BROOKLYN, NY", "zone_code": "R3X", "zone_category": "Residential", "ev_permitted": false}, "geometry": {"type": "Polygon", "coordinates": [[[-73.9632659843551, 40.6425792592938], [-73.9628929736488, 40.6426196833112], [-73.9629202847856, 40.6427642324312], [-73.9632932962834, 40.642723808326], [-73.9632659843551, 40.6425792592938]]]}}, {"type": "Feature", "properties": {"zone_id": "0204AIRGIYQ1CE7N7M9ECP", "tract_id": "36047051400", "city": "BROOKLYN, NY", "zone_code": "R3X", "zone_category": "Residential", "ev_permitted": false}, "geometry": {"type": "Polygon", "coordinates": [[[-73.9635999085292, 40.6424098503375], [-73.9632413178129, 40.6424487124028], [-73.9632659843551, 40.6425792592938], [-73.9636247307409, 40.6425403796346], [-73.9635999085292, 40.6424098503375]]]}}, {"type": "Feature", "properties": {"zone_id": "0202HR6KUA9TPWPWA8X93O", "tract_id": "36047051400", "city": "BROOKLYN, NY", "zone_code": "R3X", "zone_category": "Residential", "ev_permitted": false}, "geometry": {"type": "Polygon", "coordinates": [[[-73.9635739200957, 40.6422731814789], [-73.9632154915373, 40.6423120266515], [-73.9632413178129, 40.6424487124028], [-73.9635999085292, 40.6424098503375], [-73.9635739200957, 40.6422731814789]]]}}, {"type": "Feature", "properties": {"zone_id": "0200GVX1ZJK16YU4G6GKU1", "tract_id": "36047051400", "city": "BROOKLYN, NY", "zone_code": "R3X", "zone_category": "Residential", "ev_permitted": false}, "geometry": {"type": "Polygon", "coordinates": [[[-73.9632413178129, 40.6424487124028], [-73.9628683078211, 40.6424891370434], [-73.9628929736488, 40.6426196833112], [-73.9632659843551, 40.6425792592938], [-73.9632413178129, 40.6424487124028]]]}}, {"type": "Feature", "properties": {"zone_id": "0203CIUYK7YVPKED6VL7HB", "tract_id": "36047051400", "city": "BROOKLYN, NY", "zone_code": "R3X", "zone_category": "Residential", "ev_permitted": false}, "geometry": {"type": "Polygon", "coordinates": [[[-73.9632154915373, 40.6423120266515], [-73.962842482294, 40.6423524512089], [-73.9628529719756, 40.6424079700581], [-73.9632259815227, 40.6423675461695], [-73.9632154915373, 40.6423120266515]]]}}, {"type": "Feature", "properties": {"zone_id": "02021TRB7MVEM92PRKLOWR", "tract_id": "36047051400", "city": "BROOKLYN, NY", "zone_code": "R3X", "zone_category": "Residential", "ev_permitted": false}, "geometry": {"type": "Polygon", "coordinates": [[[-73.9635487559106, 40.6421408588573], [-73.9631904857969, 40.6421796871384], [-73.9632154915373, 40.6423120266515], [-73.9635739200957, 40.6422731814789], [-73.9635487559106, 40.6421408588573]]]}}, {"type": "Feature", "properties": {"zone_id": "0207MESU56XHD8CYNZ7Z2K", "tract_id": "36047051400", "city": "BROOKLYN, NY", "zone_code": "R3X", "zone_category": "Residential", "ev_permitted": false}, "geometry": {"type": "Polygon", "coordinates": [[[-73.9631904857969, 40.6421796871384], [-73.962817478201, 40.642220110913], [-73.962842482294, 40.6423524512089], [-73.9632154915373, 40.6423120266515], [-73.9631904857969, 40.6421796871384]]]}}, {"type": "Feature", "properties": {"zone_id": "0203Z744CJVL4HJ4KM8DHR", "tract_id": "36047051400", "city": "BROOKLYN, NY", "zone_code": "R7A", "zone_category": "Residential", "ev_permitted": false}, "geometry": {"type": "Polygon", "coordinates": [[[-73.9633238661062, 40.6409407041424], [-73.96296075851, 40.6409796910784], [-73.9630268824808, 40.6413273967091], [-73.963389697655, 40.6412884410921], [-73.9633238661062, 40.6409407041424]]]}}, {"type": "Feature", "properties": {"zone_id": "0200CVJRM1DP725SXSS9CO", "tract_id": "36047051400", "city": "BROOKLYN, NY", "zone_code": "R3X", "zone_category": "Residential", "ev_permitted": false}, "geometry": {"type": "Polygon", "coordinates": [[[-73.9627162113792, 40.6429712762687], [-73.9623277436882, 40.6430140993644], [-73.9623588880194, 40.6431790348824], [-73.9627473575735, 40.6431362109799], [-73.9627162113792, 40.6429712762687]]]}}, {"type": "Feature", "properties": {"zone_id": "02019EX1H7UZE88G4NVXAW", "tract_id": "36047051400", "city": "BROOKLYN, NY", "zone_code": "R3X", "zone_category": "Residential", "ev_permitted": false}, "geometry": {"type": "Polygon", "coordinates": [[[-73.9626775005111, 40.6427662780484], [-73.9622890330654, 40.6428091024193], [-73.9623277436882, 40.6430140993644], [-73.9627162113792, 40.6429712762687], [-73.9626775005111, 40.6427662780484]]]}}, {"type": "Feature", "properties": {"zone_id": "02068NYP1SS5A184WNZCB3", "tract_id": "36047051400", "city": "BROOKLYN, NY", "zone_code": "R3X", "zone_category": "Residential", "ev_permitted": false}, "geometry": {"type": "Polygon", "coordinates": [[[-73.9623267982195, 40.6430090981876], [-73.9619707585401, 40.6430483527258], [-73.9619959247985, 40.6431802400287], [-73.9623517077834, 40.6431410134355], [-73.9623267982195, 40.6430090981876]]]}}, {"type": "Feature", "properties": {"zone_id": "0202XVJ63O5KV55QRHKAG3", "tract_id": "36047051400", "city": "BROOKLYN, NY", "zone_code": "R3X", "zone_category": "Residential", "ev_permitted": false}, "geometry": {"type": "Polygon", "coordinates": [[[-73.9623008117757, 40.6428714769391], [-73.9619445034404, 40.6429107594149], [-73.9619707585401, 40.6430483527258], [-73.9623267982195, 40.6430090981876], [-73.9623008117757, 40.6428714769391]]]}}, {"type": "Feature", "properties": {"zone_id": "0207FN9F06G597ODECKWBW", "tract_id": "36047051400", "city": "BROOKLYN, NY", "zone_code": "R7A", "zone_category": "Residential", "ev_permitted": false}, "geometry": {"type": "Polygon", "coordinates": [[[-73.9596726494031, 40.6437855746405], [-73.9592472700229, 40.6438336998767], [-73.9594014695209, 40.644640992777], [-73.9598263068653, 40.6445929293207], [-73.9596726494031, 40.6437855746405]]]}}, {"type": "Feature", "properties": {"zone_id": "0204433THIOCD26VBSWRY4", "tract_id": "36047051400", "city": "BROOKLYN, NY", "zone_code": "R7A", "zone_category": "Residential", "ev_permitted": false}, "geometry": {"type": "Polygon", "coordinates": [[[-73.9593238501861, 40.6446538466023], [-73.9590289552091, 40.6446872077412], [-73.9590616114955, 40.6448581749329], [-73.9593565072118, 40.6448248137109], [-73.9593238501861, 40.6446538466023]]]}}, {"type": "Feature", "properties": {"zone_id": "0204NOCSY0U01LYTQY65TQ", "tract_id": "36047051400", "city": "BROOKLYN, NY", "zone_code": "C4-4A", "zone_category": "Commercial", "ev_permitted": true}, "geometry": {"type": "Polygon", "coordinates": [[[-73.9588064906561, 40.6445460479087], [-73.9583725463997, 40.6445951091126], [-73.9584038613248, 40.6449291406422], [-73.9588717752244, 40.6448762394658], [-73.9588064906561, 40.6445460479087]]]}}, {"type": "Feature", "properties": {"zone_id": "0206U5LVMRSZ5XD1D54C6B", "tract_id": "36047051400", "city": "BROOKLYN, NY", "zone_code": "R7A", "zone_category": "Residential", "ev_permitted": false}, "geometry": {"type": "Polygon", "coordinates": [[[-73.959381515175, 40.6445365240499], [-73.9593031345722, 40.6445453913744], [-73.9593565072118, 40.6448248137109], [-73.9598596075607, 40.6447678967833], [-73.9598263068653, 40.6445929293207], [-73.9594014695209, 40.644640992777], [-73.959381515175, 40.6445365240499]]]}}, {"type": "Feature", "properties": {"zone_id": "0201WQDPB23DOC8351H2YT", "tract_id": "36047051400", "city": "BROOKLYN, NY", "zone_code": "R7A", "zone_category": "Residential", "ev_permitted": false}, "geometry": {"type": "Polygon", "coordinates": [[[-73.9593031345722, 40.6445453913744], [-73.9590082400641, 40.6445787524606], [-73.9590289552091, 40.6446872077412], [-73.9593238501861, 40.6446538466023], [-73.9593031345722, 40.6445453913744]]]}}, {"type": "Feature", "properties": {"zone_id": "0207K72IBDXV9I6W30VC3C", "tract_id": "36047051400", "city": "BROOKLYN, NY", "zone_code": "R6A", "zone_category": "Residential", "ev_permitted": false}, "geometry": {"type": "Polygon", "coordinates": [[[-73.9587702809866, 40.6443629204503], [-73.9584270520039, 40.6444017252249], [-73.9584632589071, 40.6445848534927], [-73.9588064906561, 40.6445460479087], [-73.9587702809866, 40.6443629204503]]]}}, {"type": "Feature", "properties": {"zone_id": "02039VQG6X6K3KT85DNQDO", "tract_id": "36047051400", "city": "BROOKLYN, NY", "zone_code": "R6A", "zone_category": "Residential", "ev_permitted": false}, "geometry": {"type": "Polygon", "coordinates": [[[-73.9593115595897, 40.6441702837031], [-73.9589382864829, 40.644212512591], [-73.9589502126349, 40.6442749493324], [-73.9593234860833, 40.644232720406], [-73.9593115595897, 40.6441702837031]]]}}, {"type": "Feature", "properties": {"zone_id": "0206QUGGSBBL588DTX5RAS", "tract_id": "36047051400", "city": "BROOKLYN, NY", "zone_code": "R7A", "zone_category": "Residential", "ev_permitted": false}, "geometry": {"type": "Polygon", "coordinates": [[[-73.9593234860833, 40.644232720406], [-73.9589502126349, 40.6442749493324], [-73.9589610905535, 40.6443319013981], [-73.9593343643132, 40.6442896731393], [-73.9593234860833, 40.644232720406]]]}}, {"type": "Feature", "properties": {"zone_id": "0200CXK0LP1NMBKL43SHLH", "tract_id": "36047051400", "city": "BROOKLYN, NY", "zone_code": "R7A", "zone_category": "Residential", "ev_permitted": false}, "geometry": {"type": "Polygon", "coordinates": [[[-73.9593343643132, 40.6442896731393], [-73.9589610905535, 40.6443319013981], [-73.9590082400641, 40.6445787524606], [-73.959381515175, 40.6445365240499], [-73.9593343643132, 40.6442896731393]]]}}, {"type": "Feature", "properties": {"zone_id": "0202H9WBE87524HY2RD849", "tract_id": "36047051400", "city": "BROOKLYN, NY", "zone_code": "C4-4A", "zone_category": "Commercial", "ev_permitted": true}, "geometry": {"type": "Polygon", "coordinates": [[[-73.9583773867549, 40.6446467461967], [-73.958122511904, 40.6447163046243], [-73.958127988944, 40.6447747289904], [-73.9583828640124, 40.644705170551], [-73.9583773867549, 40.6446467461967]]]}}, {"type": "Feature", "properties": {"zone_id": "0204K5IJBIMKI373MSGA85", "tract_id": "36047051400", "city": "BROOKLYN, NY", "zone_code": "C4-4A", "zone_category": "Commercial", "ev_permitted": true}, "geometry": {"type": "Polygon", "coordinates": [[[-73.9583828640124, 40.644705170551], [-73.958127988944, 40.6447747289904], [-73.9581377838605, 40.6448792146124], [-73.9583926602402, 40.6448096561524], [-73.9583828640124, 40.644705170551]]]}}, {"type": "Feature", "properties": {"zone_id": "020062J49D3ZZ5VE44PWAX", "tract_id": "36047051400", "city": "BROOKLYN, NY", "zone_code": "C4-4A", "zone_category": "Commercial", "ev_permitted": true}, "geometry": {"type": "Polygon", "coordinates": [[[-73.9583926602402, 40.6448096561524], [-73.9581377838605, 40.6448792146124], [-73.9581452054378, 40.6449583837576], [-73.9584038613248, 40.6449291406422], [-73.9583926602402, 40.6448096561524]]]}}, {"type": "Feature", "properties": {"zone_id": "0202OWE1AKHW1ZLVOJOAA9", "tract_id": "36047051400", "city": "BROOKLYN, NY", "zone_code": "C4-4A", "zone_category": "Commercial", "ev_permitted": true}, "geometry": {"type": "Polygon", "coordinates": [[[-73.9583604744129, 40.6440649897126], [-73.95807336009, 40.6441919932711], [-73.9581176708186, 40.6446646675297], [-73.9584605387618, 40.6445710950336], [-73.9583604744129, 40.6440649897126]]]}}, {"type": "Feature", "properties": {"zone_id": "0206PCS38V9KRZG3JS7GTX", "tract_id": "36047051400", "city": "BROOKLYN, NY", "zone_code": "C4-4A", "zone_category": "Commercial", "ev_permitted": true}, "geometry": {"type": "Polygon", "coordinates": [[[-73.9583725463997, 40.6445951091126], [-73.9581176708186, 40.6446646675297], [-73.958122511904, 40.6447163046243], [-73.9583773867549, 40.6446467461967], [-73.9583725463997, 40.6445951091126]]]}}, {"type": "Feature", "properties": {"zone_id": "02032J55L6CWSBFB39RJKT", "tract_id": "36047051400", "city": "BROOKLYN, NY", "zone_code": "C4-4A", "zone_category": "Commercial", "ev_permitted": true}, "geometry": {"type": "Polygon", "coordinates": [[[-73.9584605387618, 40.6445710950336], [-73.9583725463997, 40.6445951091126], [-73.9584632589071, 40.6445848534927], [-73.9584605387618, 40.6445710950336]]]}}, {"type": "Feature", "properties": {"zone_id": "0203T9LB8T3B2OZSC58E7S", "tract_id": "36047051400", "city": "BROOKLYN, NY", "zone_code": "C4-4A", "zone_category": "Commercial", "ev_permitted": true}, "geometry": {"type": "Polygon", "coordinates": [[[-73.9587339142682, 40.6441789904769], [-73.9583906871325, 40.6442177958468], [-73.9584270520039, 40.6444017252249], [-73.9587702809866, 40.6443629204503], [-73.9587339142682, 40.6441789904769]]]}}, {"type": "Feature", "properties": {"zone_id": "0204L4X0MKX3NSF523BFR1", "tract_id": "36047051400", "city": "BROOKLYN, NY", "zone_code": "R7A", "zone_category": "Residential", "ev_permitted": false}, "geometry": {"type": "Polygon", "coordinates": [[[-73.9596190635488, 40.6435040190527], [-73.9592183967092, 40.6436825365648], [-73.9592472700229, 40.6438336998767], [-73.9596726494031, 40.6437855746405], [-73.9596190635488, 40.6435040190527]]]}}, {"type": "Feature", "properties": {"zone_id": "0204R133CEZXWJN77H47TD", "tract_id": "36047051400", "city": "BROOKLYN, NY", "zone_code": "R6A", "zone_category": "Residential", "ev_permitted": false}, "geometry": {"type": "Polygon", "coordinates": [[[-73.9592183967092, 40.6436825365648], [-73.9588669682076, 40.6438391141274], [-73.9589139551844, 40.6440851226889], [-73.9592872275934, 40.644042894582], [-73.9592183967092, 40.6436825365648]]]}}, {"type": "Feature", "properties": {"zone_id": "0203YWFUUDG814TM6TCDAX", "tract_id": "36047051400", "city": "BROOKLYN, NY", "zone_code": "R6A", "zone_category": "Residential", "ev_permitted": false}, "geometry": {"type": "Polygon", "coordinates": [[[-73.9592872275934, 40.644042894582], [-73.9589139551844, 40.6440851226889], [-73.9589382864829, 40.644212512591], [-73.9593115595897, 40.6441702837031], [-73.9592872275934, 40.644042894582]]]}}, {"type": "Feature", "properties": {"zone_id": "0200PMUWRIE4J3U5ZU1QR3", "tract_id": "36047051400", "city": "BROOKLYN, NY", "zone_code": "C4-4A", "zone_category": "Commercial", "ev_permitted": true}, "geometry": {"type": "Polygon", "coordinates": [[[-73.9586831533042, 40.6439222514968], [-73.9583604744129, 40.6440649897126], [-73.9583906871325, 40.6442177958468], [-73.9587339142682, 40.6441789904769], [-73.9586831533042, 40.6439222514968]]]}}, {"type": "Feature", "properties": {"zone_id": "0201Q7HMN1I1WZASFFU4OV", "tract_id": "36047051400", "city": "BROOKLYN, NY", "zone_code": "R7A", "zone_category": "Residential", "ev_permitted": false}, "geometry": {"type": "Polygon", "coordinates": [[[-73.9601738781694, 40.6422311970634], [-73.9596901431123, 40.6422862453463], [-73.959735288097, 40.6425245152204], [-73.9602185506702, 40.6424695199875], [-73.9601738781694, 40.6422311970634]]]}}, {"type": "Feature", "properties": {"zone_id": "020591XRIS8N4E46DUZQC0", "tract_id": "36047051400", "city": "BROOKLYN, NY", "zone_code": "R7A", "zone_category": "Residential", "ev_permitted": false}, "geometry": {"type": "Polygon", "coordinates": [[[-73.960091857117, 40.6417936211649], [-73.9596072552365, 40.6418487685784], [-73.9596901431123, 40.6422862453463], [-73.9601738781694, 40.6422311970634], [-73.960091857117, 40.6417936211649]]]}}, {"type": "Feature", "properties": {"zone_id": "020451IFGDG3A6158PE4DT", "tract_id": "36047051400", "city": "BROOKLYN, NY", "zone_code": "R7A", "zone_category": "Residential", "ev_permitted": false}, "geometry": {"type": "Polygon", "coordinates": [[[-73.9600512846778, 40.6415771707535], [-73.959566254447, 40.6416323670328], [-73.9596072552365, 40.6418487685784], [-73.960091857117, 40.6417936211649], [-73.9600512846778, 40.6415771707535]]]}}, {"type": "Feature", "properties": {"zone_id": "0207FPW56MN75TEIYDQA05", "tract_id": "36047051400", "city": "BROOKLYN, NY", "zone_code": "R7A", "zone_category": "Residential", "ev_permitted": false}, "geometry": {"type": "Polygon", "coordinates": [[[-73.9602038580651, 40.6411946098221], [-73.9595420448892, 40.6415045872908], [-73.959566254447, 40.6416323670328], [-73.9600512846778, 40.6415771707535], [-73.960041934225, 40.6415272824946], [-73.9602615310728, 40.6415022917124], [-73.9602038580651, 40.6411946098221]]]}}, {"type": "Feature", "properties": {"zone_id": "0200HDK347D3N4DFZYX042", "tract_id": "36047051400", "city": "BROOKLYN, NY", "zone_code": "R3X", "zone_category": "Residential", "ev_permitted": false}, "geometry": {"type": "Polygon", "coordinates": [[[-73.9636770236354, 40.642815369378], [-73.9633179501536, 40.6428542842286], [-73.963343676593, 40.6429904372967], [-73.9637029113105, 40.6429515048503], [-73.9636770236354, 40.642815369378]]]}}, {"type": "Feature", "properties": {"zone_id": "0203WPCEEKDM6X28XH0FQZ", "tract_id": "36047051400", "city": "BROOKLYN, NY", "zone_code": "R3X", "zone_category": "Residential", "ev_permitted": false}, "geometry": {"type": "Polygon", "coordinates": [[[-73.9636522150177, 40.6426849103671], [-73.9632932962834, 40.642723808326], [-73.9633179501536, 40.6428542842286], [-73.9636770236354, 40.642815369378], [-73.9636522150177, 40.6426849103671]]]}}, {"type": "Feature", "properties": {"zone_id": "0200OL8YORMD9XADG3YUPQ", "tract_id": "36047051400", "city": "BROOKLYN, NY", "zone_code": "R3X", "zone_category": "Residential", "ev_permitted": false}, "geometry": {"type": "Polygon", "coordinates": [[[-73.9632259815227, 40.6423675461695], [-73.9628529719756, 40.6424079700581], [-73.9628683078211, 40.6424891370434], [-73.9632413178129, 40.6424487124028], [-73.9632259815227, 40.6423675461695]]]}}, {"type": "Feature", "properties": {"zone_id": "0201DAMUCTJADF4E9OO8W3", "tract_id": "36047051400", "city": "BROOKLYN, NY", "zone_code": "R3X", "zone_category": "Residential", "ev_permitted": false}, "geometry": {"type": "Polygon", "coordinates": [[[-73.9634780487632, 40.6417690190697], [-73.9634149185814, 40.6417972854901], [-73.9634554579065, 40.6420118339862], [-73.9635228329934, 40.6420045322017], [-73.9634780487632, 40.6417690190697]]]}}, {"type": "Feature", "properties": {"zone_id": "0205ESC79K0IBZ73J9ZSMP", "tract_id": "36047051400", "city": "BROOKLYN, NY", "zone_code": "C2-4", "zone_category": "Commercial", "ev_permitted": true}, "geometry": {"type": "Polygon", "coordinates": [[[-73.9634149185814, 40.6417972854901], [-73.9633659624587, 40.6418192064072], [-73.9634034240527, 40.6420174731901], [-73.9634554579065, 40.6420118339862], [-73.9634149185814, 40.6417972854901]]]}}, {"type": "Feature", "properties": {"zone_id": "0203AMQWDFZGH1JYMD753E", "tract_id": "36047051400", "city": "BROOKLYN, NY", "zone_code": "C2-4", "zone_category": "Commercial", "ev_permitted": true}, "geometry": {"type": "Polygon", "coordinates": [[[-73.9633659624587, 40.6418192064072], [-73.963306382632, 40.6418458844703], [-73.9633401005791, 40.6420243370306], [-73.9634034240527, 40.6420174731901], [-73.9633659624587, 40.6418192064072]]]}}, {"type": "Feature", "properties": {"zone_id": "02038VQEOA6VQL0N6094OP", "tract_id": "36047051400", "city": "BROOKLYN, NY", "zone_code": "R3X", "zone_category": "Residential", "ev_permitted": false}, "geometry": {"type": "Polygon", "coordinates": [[[-73.9635228329934, 40.6420045322017], [-73.963164725035, 40.6420433428878], [-73.9631904857969, 40.6421796871384], [-73.9635487559106, 40.6421408588573], [-73.9635228329934, 40.6420045322017]]]}}, {"type": "Feature", "properties": {"zone_id": "0204Z28XT6Y4N80UIAF50P", "tract_id": "36047051400", "city": "BROOKLYN, NY", "zone_code": "R6A", "zone_category": "Residential", "ev_permitted": false}, "geometry": {"type": "Polygon", "coordinates": [[[-73.9631996909539, 40.6418936561986], [-73.9631413769061, 40.6419197675304], [-73.963164725035, 40.6420433428878], [-73.9632267044547, 40.642036625571], [-73.9631996909539, 40.6418936561986]]]}}, {"type": "Feature", "properties": {"zone_id": "02034BVRZGGZEXDKQZM8P2", "tract_id": "36047051400", "city": "BROOKLYN, NY", "zone_code": "R6A", "zone_category": "Residential", "ev_permitted": false}, "geometry": {"type": "Polygon", "coordinates": [[[-73.963306382632, 40.6418458844703], [-73.9632548466392, 40.6418689596983], [-73.9632853259446, 40.6420302725347], [-73.9633401005791, 40.6420243370306], [-73.963306382632, 40.6418458844703]]]}}, {"type": "Feature", "properties": {"zone_id": "0203G458XM7DZGCW1WK2WD", "tract_id": "36047051400", "city": "BROOKLYN, NY", "zone_code": "R6A", "zone_category": "Residential", "ev_permitted": false}, "geometry": {"type": "Polygon", "coordinates": [[[-73.9632548466392, 40.6418689596983], [-73.9631996909539, 40.6418936561986], [-73.9632267044547, 40.642036625571], [-73.9632853259446, 40.6420302725347], [-73.9632548466392, 40.6418689596983]]]}}, {"type": "Feature", "properties": {"zone_id": "0202P29NTQZDGIH70MAU21", "tract_id": "36047051400", "city": "BROOKLYN, NY", "zone_code": "R3X", "zone_category": "Residential", "ev_permitted": false}, "geometry": {"type": "Polygon", "coordinates": [[[-73.9631413769061, 40.6419197675304], [-73.9627904213544, 40.6420769095536], [-73.962817478201, 40.642220110913], [-73.9631904857969, 40.6421796871384], [-73.9631413769061, 40.6419197675304]]]}}, {"type": "Feature", "properties": {"zone_id": "02031BXJ9I4QK3CRJCBOF6", "tract_id": "36047051400", "city": "BROOKLYN, NY", "zone_code": "R7D", "zone_category": "Residential", "ev_permitted": false}, "geometry": {"type": "Polygon", "coordinates": [[[-73.9629145889162, 40.6414873292999], [-73.9628474615519, 40.6414945366512], [-73.9629006021359, 40.6417739742223], [-73.9629636938617, 40.6417455443508], [-73.9629145889162, 40.6414873292999]]]}}, {"type": "Feature", "properties": {"zone_id": "02010L5V0X4W46FO0RSHUV", "tract_id": "36047051400", "city": "BROOKLYN, NY", "zone_code": "R7D", "zone_category": "Residential", "ev_permitted": false}, "geometry": {"type": "Polygon", "coordinates": [[[-73.9628474615519, 40.6414945366512], [-73.9627695557108, 40.6415029005744], [-73.9628273793501, 40.6418069688107], [-73.9629006021359, 40.6417739742223], [-73.9628474615519, 40.6414945366512]]]}}, {"type": "Feature", "properties": {"zone_id": "02043CEC77SW3BKDPMFL4J", "tract_id": "36047051400", "city": "BROOKLYN, NY", "zone_code": "R7A", "zone_category": "Residential", "ev_permitted": false}, "geometry": {"type": "Polygon", "coordinates": [[[-73.9627695557108, 40.6415029005744], [-73.9626937383851, 40.6415110409722], [-73.9627561199532, 40.6418390786302], [-73.9628273793501, 40.6418069688107], [-73.9627695557108, 40.6415029005744]]]}}, {"type": "Feature", "properties": {"zone_id": "0205DX5D770V53DTFKDNUI", "tract_id": "36047051400", "city": "BROOKLYN, NY", "zone_code": "R7A", "zone_category": "Residential", "ev_permitted": false}, "geometry": {"type": "Polygon", "coordinates": [[[-73.963389697655, 40.6412884410921], [-73.9630268824808, 40.6413273967091], [-73.9630544422349, 40.6414723126892], [-73.9629145889162, 40.6414873292999], [-73.9629636938617, 40.6417455443508], [-73.9634359477326, 40.6415327401596], [-73.963389697655, 40.6412884410921]]]}}, {"type": "Feature", "properties": {"zone_id": "0206J3FU1FN4WA09XS3DFP", "tract_id": "36047051400", "city": "BROOKLYN, NY", "zone_code": "R7A", "zone_category": "Residential", "ev_permitted": false}, "geometry": {"type": "Polygon", "coordinates": [[[-73.9629510376783, 40.6409285669461], [-73.9625903376301, 40.6409672949074], [-73.9626937383851, 40.6415110409722], [-73.9630544422349, 40.6414723126892], [-73.9629510376783, 40.6409285669461]]]}}, {"type": "Feature", "properties": {"zone_id": "0206468RC7FMCNFD2TABNZ", "tract_id": "36047051400", "city": "BROOKLYN, NY", "zone_code": "R3X", "zone_category": "Residential", "ev_permitted": false}, "geometry": {"type": "Polygon", "coordinates": [[[-73.9626378775087, 40.6425564486917], [-73.9622494112595, 40.6425992722271], [-73.9622890330654, 40.6428091024193], [-73.9626775005111, 40.6427662780484], [-73.9626378775087, 40.6425564486917]]]}}, {"type": "Feature", "properties": {"zone_id": "0205YL4GJ1NSVYYK2SD3G2", "tract_id": "36047051400", "city": "BROOKLYN, NY", "zone_code": "R3X", "zone_category": "Residential", "ev_permitted": false}, "geometry": {"type": "Polygon", "coordinates": [[[-73.9622754867061, 40.6427373600902], [-73.9619189179983, 40.6427766733189], [-73.9619445034404, 40.6429107594149], [-73.9623008117757, 40.6428714769391], [-73.9622754867061, 40.6427373600902]]]}}, {"type": "Feature", "properties": {"zone_id": "02052QU14HL85QB12YLLUS", "tract_id": "36047051400", "city": "BROOKLYN, NY", "zone_code": "R3X", "zone_category": "Residential", "ev_permitted": false}, "geometry": {"type": "Polygon", "coordinates": [[[-73.9622484345353, 40.6425941009942], [-73.9618915879776, 40.6426334442619], [-73.9619189179983, 40.6427766733189], [-73.9622754867061, 40.6427373600902], [-73.9622484345353, 40.6425941009942]]]}}, {"type": "Feature", "properties": {"zone_id": "02022U0D5HHBUXV3OC544Q", "tract_id": "36047051400", "city": "BROOKLYN, NY", "zone_code": "R3X", "zone_category": "Residential", "ev_permitted": false}, "geometry": {"type": "Polygon", "coordinates": [[[-73.9617396603148, 40.6429611856579], [-73.9613735672513, 40.6429993479794], [-73.9613991525257, 40.6431335719159], [-73.9617652463114, 40.643095408811], [-73.9617396603148, 40.6429611856579]]]}}, {"type": "Feature", "properties": {"zone_id": "0204RLJSXUFWXJ1M99GV1M", "tract_id": "36047051400", "city": "BROOKLYN, NY", "zone_code": "R3X", "zone_category": "Residential", "ev_permitted": false}, "geometry": {"type": "Polygon", "coordinates": [[[-73.9617137709248, 40.6428253666437], [-73.9613476785916, 40.6428635288834], [-73.9613735672513, 40.6429993479794], [-73.9617396603148, 40.6429611856579], [-73.9617137709248, 40.6428253666437]]]}}, {"type": "Feature", "properties": {"zone_id": "0201VKOR7ESGZF9I8Z9TU3", "tract_id": "36047051400", "city": "BROOKLYN, NY", "zone_code": "R3X", "zone_category": "Residential", "ev_permitted": false}, "geometry": {"type": "Polygon", "coordinates": [[[-73.9616668879421, 40.6425794161456], [-73.9613236376397, 40.6427374029628], [-73.9613476785916, 40.6428635288834], [-73.9617137709248, 40.6428253666437], [-73.9616668879421, 40.6425794161456]]]}}, {"type": "Feature", "properties": {"zone_id": "0203X2OSM0HE62IG5296QI", "tract_id": "36047051400", "city": "BROOKLYN, NY", "zone_code": "R3X", "zone_category": "Residential", "ev_permitted": false}, "geometry": {"type": "Polygon", "coordinates": [[[-73.9626099196253, 40.6424083929919], [-73.9622214542198, 40.6424512171363], [-73.9622494112595, 40.6425992722271], [-73.9626378775087, 40.6425564486917], [-73.9626099196253, 40.6424083929919]]]}}, {"type": "Feature", "properties": {"zone_id": "02045KCKR3BGDMAK7R2ZGU", "tract_id": "36047051400", "city": "BROOKLYN, NY", "zone_code": "R3X", "zone_category": "Residential", "ev_permitted": false}, "geometry": {"type": "Polygon", "coordinates": [[[-73.9622013772467, 40.6423448916903], [-73.9618657102818, 40.6424978276486], [-73.9618915879776, 40.6426334442619], [-73.9622484345353, 40.6425941009942], [-73.9622013772467, 40.6423448916903]]]}}, {"type": "Feature", "properties": {"zone_id": "02028Y65P4Z2RW9U7CRJWQ", "tract_id": "36047051400", "city": "BROOKLYN, NY", "zone_code": "R3X", "zone_category": "Residential", "ev_permitted": false}, "geometry": {"type": "Polygon", "coordinates": [[[-73.9625665133206, 40.642178527282], [-73.9622013772467, 40.6423448916903], [-73.9622214542198, 40.6424512171363], [-73.9626099196253, 40.6424083929919], [-73.9625665133206, 40.642178527282]]]}}, {"type": "Feature", "properties": {"zone_id": "0200OM0XDKLDRRBXXWFXI6", "tract_id": "36047051400", "city": "BROOKLYN, NY", "zone_code": "R7A", "zone_category": "Residential", "ev_permitted": false}, "geometry": {"type": "Polygon", "coordinates": [[[-73.962141545017, 40.6420295060738], [-73.9617849559455, 40.6420689650366], [-73.9618200518469, 40.6422553452624], [-73.9621560796384, 40.6421066873776], [-73.962141545017, 40.6420295060738]]]}}, {"type": "Feature", "properties": {"zone_id": "0205CVFT24LD5TIS1I8Q80", "tract_id": "36047051400", "city": "BROOKLYN, NY", "zone_code": "R7A", "zone_category": "Residential", "ev_permitted": false}, "geometry": {"type": "Polygon", "coordinates": [[[-73.9615818157366, 40.6421331574804], [-73.9612283078585, 40.6421739142714], [-73.9612916166594, 40.6425046301685], [-73.9616246768833, 40.6423570521344], [-73.9615818157366, 40.6421331574804]]]}}, {"type": "Feature", "properties": {"zone_id": "0207E7LQ2ZVWFPU0DBYQYO", "tract_id": "36047051400", "city": "BROOKLYN, NY", "zone_code": "R3X", "zone_category": "Residential", "ev_permitted": false}, "geometry": {"type": "Polygon", "coordinates": [[[-73.9613735672513, 40.6429993479794], [-73.9610165578216, 40.6430365622118], [-73.9610454084445, 40.6431888486356], [-73.9614025921069, 40.643151616103], [-73.9613735672513, 40.6429993479794]]]}}, {"type": "Feature", "properties": {"zone_id": "0204Z5B6PREWNMJDHPT0UJ", "tract_id": "36047051400", "city": "BROOKLYN, NY", "zone_code": "R3X", "zone_category": "Residential", "ev_permitted": false}, "geometry": {"type": "Polygon", "coordinates": [[[-73.9613236376397, 40.6427374029628], [-73.9609890573408, 40.6428913963412], [-73.9610165578216, 40.6430365622118], [-73.9613735672513, 40.6429993479794], [-73.9613236376397, 40.6427374029628]]]}}, {"type": "Feature", "properties": {"zone_id": "02036WBEOZOD4H8QGTTPHU", "tract_id": "36047051400", "city": "BROOKLYN, NY", "zone_code": "R3X", "zone_category": "Residential", "ev_permitted": false}, "geometry": {"type": "Polygon", "coordinates": [[[-73.9607484964946, 40.6429955450062], [-73.9604247225159, 40.6431410564495], [-73.9604300165632, 40.6431690215289], [-73.9607742234372, 40.6431314316361], [-73.9607484964946, 40.6429955450062]]]}}, {"type": "Feature", "properties": {"zone_id": "0203D48DAY8BWMNRJKFIFQ", "tract_id": "36047051400", "city": "BROOKLYN, NY", "zone_code": "R7A", "zone_category": "Residential", "ev_permitted": false}, "geometry": {"type": "Polygon", "coordinates": [[[-73.9602401554825, 40.6428859956407], [-73.9598129886885, 40.6429346071931], [-73.9598542191229, 40.6431522165804], [-73.9602567688054, 40.6429746250129], [-73.9602401554825, 40.6428859956407]]]}}, {"type": "Feature", "properties": {"zone_id": "02073PF1UI5JYMVEVX9067", "tract_id": "36047051400", "city": "BROOKLYN, NY", "zone_code": "R7A", "zone_category": "Residential", "ev_permitted": false}, "geometry": {"type": "Polygon", "coordinates": [[[-73.9606799684684, 40.642562083356], [-73.9603219202019, 40.6426028308885], [-73.9603580806628, 40.642686471043], [-73.9604002318008, 40.6429113341686], [-73.9607190694707, 40.6427706716017], [-73.9606799684684, 40.642562083356]]]}}, {"type": "Feature", "properties": {"zone_id": "0200FQTMBAALHHGU5QY5E0", "tract_id": "36047051400", "city": "BROOKLYN, NY", "zone_code": "R7A", "zone_category": "Residential", "ev_permitted": false}, "geometry": {"type": "Polygon", "coordinates": [[[-73.9603219202019, 40.6426028308885], [-73.9601898937138, 40.6426178560196], [-73.9602567688054, 40.6429746250129], [-73.9604002318008, 40.6429113341686], [-73.9603580806628, 40.642686471043], [-73.9603219202019, 40.6426028308885]]]}}, {"type": "Feature", "properties": {"zone_id": "0204NG025LHSW1LFONGT2H", "tract_id": "36047051400", "city": "BROOKLYN, NY", "zone_code": "R7A", "zone_category": "Residential", "ev_permitted": false}, "geometry": {"type": "Polygon", "coordinates": [[[-73.960215412592, 40.6427539949654], [-73.9597879837055, 40.6428026365493], [-73.9598129886885, 40.6429346071931], [-73.9602401554825, 40.6428859956407], [-73.960215412592, 40.6427539949654]]]}}, {"type": "Feature", "properties": {"zone_id": "02031QDWSPXAO315Q5UMS8", "tract_id": "36047051400", "city": "BROOKLYN, NY", "zone_code": "R7A", "zone_category": "Residential", "ev_permitted": false}, "geometry": {"type": "Polygon", "coordinates": [[[-73.9601898937138, 40.6426178560196], [-73.9597621953828, 40.6426665269267], [-73.9597879837055, 40.6428026365493], [-73.960215412592, 40.6427539949654], [-73.9601898937138, 40.6426178560196]]]}}, {"type": "Feature", "properties": {"zone_id": "0201MG25NPQLWZ7ACZL1GW", "tract_id": "36047051400", "city": "BROOKLYN, NY", "zone_code": "R7A", "zone_category": "Residential", "ev_permitted": false}, "geometry": {"type": "Polygon", "coordinates": [[[-73.9612435116998, 40.6422533353089], [-73.9608756881333, 40.6422976023263], [-73.9609443832501, 40.6426584856544], [-73.9612916166594, 40.6425046301685], [-73.9612435116998, 40.6422533353089]]]}}, {"type": "Feature", "properties": {"zone_id": "02024LLVAEF95AOPXHKSWP", "tract_id": "36047051400", "city": "BROOKLYN, NY", "zone_code": "R7A", "zone_category": "Residential", "ev_permitted": false}, "geometry": {"type": "Polygon", "coordinates": [[[-73.9606392290539, 40.6423447533774], [-73.9602044386421, 40.6423942343779], [-73.9602451757482, 40.642611564509], [-73.9606799684684, 40.642562083356], [-73.9606392290539, 40.6423447533774]]]}}, {"type": "Feature", "properties": {"zone_id": "0205WRI71RMR5GC1AEDMGE", "tract_id": "36047051400", "city": "BROOKLYN, NY", "zone_code": "R7A", "zone_category": "Residential", "ev_permitted": false}, "geometry": {"type": "Polygon", "coordinates": [[[-73.9602185506702, 40.6424695199875], [-73.959735288097, 40.6425245152204], [-73.9597621953828, 40.6426665269267], [-73.9602451757482, 40.642611564509], [-73.9602185506702, 40.6424695199875]]]}}, {"type": "Feature", "properties": {"zone_id": "0205MW333QZF5MA68QCMCJ", "tract_id": "36047051400", "city": "BROOKLYN, NY", "zone_code": "R7A", "zone_category": "Residential", "ev_permitted": false}, "geometry": {"type": "Polygon", "coordinates": [[[-73.9606086675416, 40.6421817161776], [-73.9601738781694, 40.6422311970634], [-73.9602044386421, 40.6423942343779], [-73.9606392290539, 40.6423447533774], [-73.9606086675416, 40.6421817161776]]]}}, {"type": "Feature", "properties": {"zone_id": "0204DDE06AZ60UO4M6T3BY", "tract_id": "36047051400", "city": "BROOKLYN, NY", "zone_code": "R7A", "zone_category": "Residential", "ev_permitted": false}, "geometry": {"type": "Polygon", "coordinates": [[[-73.9605778661744, 40.6420174007365], [-73.9601430778506, 40.6420668808041], [-73.9601738781694, 40.6422311970634], [-73.9606086675416, 40.6421817161776], [-73.9605778661744, 40.6420174007365]]]}}, {"type": "Feature", "properties": {"zone_id": "0206GSML2ZHOPM2X0EEOQQ", "tract_id": "36047051400", "city": "BROOKLYN, NY", "zone_code": "R7A", "zone_category": "Residential", "ev_permitted": false}, "geometry": {"type": "Polygon", "coordinates": [[[-73.962056967344, 40.6415803395654], [-73.9617003806228, 40.641619798268], [-73.9617849559455, 40.6420689650366], [-73.962141545017, 40.6420295060738], [-73.9621560796384, 40.6421066873776], [-73.9624941681186, 40.6419571157164], [-73.9624253341001, 40.6415950478471], [-73.9620671995591, 40.6416346793342], [-73.962056967344, 40.6415803395654]]]}}, {"type": "Feature", "properties": {"zone_id": "0205JJCBRA2T2R4SB08MS4", "tract_id": "36047051400", "city": "BROOKLYN, NY", "zone_code": "R7A", "zone_category": "Residential", "ev_permitted": false}, "geometry": {"type": "Polygon", "coordinates": [[[-73.961477825953, 40.6415899379546], [-73.9611243208897, 40.6416306937258], [-73.9612283078585, 40.6421739142714], [-73.9615818157366, 40.6421331574804], [-73.961477825953, 40.6415899379546]]]}}, {"type": "Feature", "properties": {"zone_id": "0207C1CWMQI9JLSFFSOA2B", "tract_id": "36047051400", "city": "BROOKLYN, NY", "zone_code": "R7A", "zone_category": "Residential", "ev_permitted": false}, "geometry": {"type": "Polygon", "coordinates": [[[-73.9623427061221, 40.6411604160914], [-73.961985343227, 40.6411999618523], [-73.9620671995591, 40.6416346793342], [-73.9624253341001, 40.6415950478471], [-73.9623427061221, 40.6411604160914]]]}}, {"type": "Feature", "properties": {"zone_id": "0201YEPOQH7GQVYQ9TYT6V", "tract_id": "36047051400", "city": "BROOKLYN, NY", "zone_code": "R7A", "zone_category": "Residential", "ev_permitted": false}, "geometry": {"type": "Polygon", "coordinates": [[[-73.9620288292993, 40.641430905722], [-73.9616722424376, 40.6414703643377], [-73.9617003806228, 40.641619798268], [-73.962056967344, 40.6415803395654], [-73.9620288292993, 40.641430905722]]]}}, {"type": "Feature", "properties": {"zone_id": "0204OK05XPQ8O6ZSOT7B86", "tract_id": "36047051400", "city": "BROOKLYN, NY", "zone_code": "R4A", "zone_category": "Residential", "ev_permitted": false}, "geometry": {"type": "Polygon", "coordinates": [[[-73.9620058074405, 40.6413086414059], [-73.9616492212186, 40.6413480999507], [-73.9616722424376, 40.6414703643377], [-73.9620288292993, 40.641430905722], [-73.9620058074405, 40.6413086414059]]]}}, {"type": "Feature", "properties": {"zone_id": "0200X62WK6AUJD93D17XF3", "tract_id": "36047051400", "city": "BROOKLYN, NY", "zone_code": "R4A", "zone_category": "Residential", "ev_permitted": false}, "geometry": {"type": "Polygon", "coordinates": [[[-73.961985343227, 40.6411999618523], [-73.9616287584958, 40.6412394210371], [-73.9616492212186, 40.6413480999507], [-73.9620058074405, 40.6413086414059], [-73.961985343227, 40.6411999618523]]]}}, {"type": "Feature", "properties": {"zone_id": "0207B2JWK5VBWP3U6YVWF4", "tract_id": "36047051400", "city": "BROOKLYN, NY", "zone_code": "R4A", "zone_category": "Residential", "ev_permitted": false}, "geometry": {"type": "Polygon", "coordinates": [[[-73.9619648800021, 40.6410912829967], [-73.9616082949175, 40.6411307414155], [-73.9616287584958, 40.6412394210371], [-73.961985343227, 40.6411999618523], [-73.9619648800021, 40.6410912829967]]]}}, {"type": "Feature", "properties": {"zone_id": "0204IYGF8OHLOE41XSPG07", "tract_id": "36047051400", "city": "BROOKLYN, NY", "zone_code": "R4A", "zone_category": "Residential", "ev_permitted": false}, "geometry": {"type": "Polygon", "coordinates": [[[-73.9619444149995, 40.6409826034328], [-73.961587831406, 40.641022061789], [-73.9616082949175, 40.6411307414155], [-73.9619648800021, 40.6410912829967], [-73.9619444149995, 40.6409826034328]]]}}, {"type": "Feature", "properties": {"zone_id": "0206SHHEPZIHJ017O41A3O", "tract_id": "36047051400", "city": "BROOKLYN, NY", "zone_code": "R7A", "zone_category": "Residential", "ev_permitted": false}, "geometry": {"type": "Polygon", "coordinates": [[[-73.9611535794691, 40.6417835389029], [-73.9607862510539, 40.6418277467791], [-73.9608756881333, 40.6422976023263], [-73.9612435116998, 40.6422533353089], [-73.9611535794691, 40.6417835389029]]]}}, {"type": "Feature", "properties": {"zone_id": "0204VLIWVGJU0HS1HB2H6G", "tract_id": "36047051400", "city": "BROOKLYN, NY", "zone_code": "R7A", "zone_category": "Residential", "ev_permitted": false}, "geometry": {"type": "Polygon", "coordinates": [[[-73.9610724043695, 40.6413594832478], [-73.9607055238053, 40.6414036376164], [-73.9607862510539, 40.6418277467791], [-73.9611535794691, 40.6417835389029], [-73.9610724043695, 40.6413594832478]]]}}, {"type": "Feature", "properties": {"zone_id": "0201BOGT3O5M03F9QHGWRY", "tract_id": "36047051400", "city": "BROOKLYN, NY", "zone_code": "R7A", "zone_category": "Residential", "ev_permitted": false}, "geometry": {"type": "Polygon", "coordinates": [[[-73.9605532829382, 40.6418862553195], [-73.9601184954502, 40.6419357359976], [-73.9601430778506, 40.6420668808041], [-73.9605778661744, 40.6420174007365], [-73.9605532829382, 40.6418862553195]]]}}, {"type": "Feature", "properties": {"zone_id": "02034JUZAKHMTYN31YZT6U", "tract_id": "36047051400", "city": "BROOKLYN, NY", "zone_code": "R7A", "zone_category": "Residential", "ev_permitted": false}, "geometry": {"type": "Polygon", "coordinates": [[[-73.9605174675795, 40.6416951855668], [-73.960082680388, 40.6417446654075], [-73.9601184954502, 40.6419357359976], [-73.9605532829382, 40.6418862553195], [-73.9605174675795, 40.6416951855668]]]}}, {"type": "Feature", "properties": {"zone_id": "0203PYS054U70V6K7V489A", "tract_id": "36047051400", "city": "BROOKLYN, NY", "zone_code": "R7A", "zone_category": "Residential", "ev_permitted": false}, "geometry": {"type": "Polygon", "coordinates": [[[-73.9604767191083, 40.6414778021038], [-73.960041934225, 40.6415272824946], [-73.960082680388, 40.6417446654075], [-73.9605174675795, 40.6416951855668], [-73.9604767191083, 40.6414778021038]]]}}, {"type": "Feature", "properties": {"zone_id": "0202FAKKYOQR5YG8HMCQH2", "tract_id": "36047051400", "city": "BROOKLYN, NY", "zone_code": "R7A", "zone_category": "Residential", "ev_permitted": false}, "geometry": {"type": "Polygon", "coordinates": [[[-73.9614570276463, 40.6414812933314], [-73.961103524068, 40.6415220497421], [-73.9611243208897, 40.6416306937258], [-73.961477825953, 40.6415899379546], [-73.9614570276463, 40.6414812933314]]]}}, {"type": "Feature", "properties": {"zone_id": "0201714I3JQ9RCP0TT0IAD", "tract_id": "36047051400", "city": "BROOKLYN, NY", "zone_code": "R7A", "zone_category": "Residential", "ev_permitted": false}, "geometry": {"type": "Polygon", "coordinates": [[[-73.9614362303295, 40.6413726494061], [-73.9610827263916, 40.6414134057531], [-73.961103524068, 40.6415220497421], [-73.9614570276463, 40.6414812933314], [-73.9614362303295, 40.6413726494061]]]}}, {"type": "Feature", "properties": {"zone_id": "02033F92XK07ECNS6D24UV", "tract_id": "36047051400", "city": "BROOKLYN, NY", "zone_code": "R7A", "zone_category": "Residential", "ev_permitted": false}, "geometry": {"type": "Polygon", "coordinates": [[[-73.9610381470365, 40.6411805217977], [-73.9606714556243, 40.6412246536369], [-73.9607055238053, 40.6414036376164], [-73.9610724043695, 40.6413594832478], [-73.9610381470365, 40.6411805217977]]]}}, {"type": "Feature", "properties": {"zone_id": "0203OVH1WJX0QB28Q4O6N8", "tract_id": "36047051400", "city": "BROOKLYN, NY", "zone_code": "R7A", "zone_category": "Residential", "ev_permitted": false}, "geometry": {"type": "Polygon", "coordinates": [[[-73.9604058986568, 40.6410999778637], [-73.9602038580651, 40.6411946098221], [-73.9602615310728, 40.6415022917124], [-73.9604767191083, 40.6414778021038], [-73.9604058986568, 40.6410999778637]]]}}, {"type": "Feature", "properties": {"zone_id": "0202LBDWHV1FWCGM3YCKBR", "tract_id": "36047051400", "city": "BROOKLYN, NY", "zone_code": "R7A", "zone_category": "Residential", "ev_permitted": false}, "geometry": {"type": "Polygon", "coordinates": [[[-73.9633030362385, 40.6408306776937], [-73.9631472999997, 40.6408473991028], [-73.963147558453, 40.6408487581401], [-73.9629400963516, 40.64087103341], [-73.96296075851, 40.6409796910784], [-73.9633238661062, 40.6409407041424], [-73.9633030362385, 40.6408306776937]]]}}, {"type": "Feature", "properties": {"zone_id": "0203V3CLJYG6MD17P9VMLD", "tract_id": "36047051400", "city": "BROOKLYN, NY", "zone_code": "R7A", "zone_category": "Residential", "ev_permitted": false}, "geometry": {"type": "Polygon", "coordinates": [[[-73.9629093695248, 40.6407094126139], [-73.9625486697151, 40.6407481397424], [-73.9625903376301, 40.6409672949074], [-73.9629510376783, 40.6409285669461], [-73.9629093695248, 40.6407094126139]]]}}, {"type": "Feature", "properties": {"zone_id": "0204JJY6YJ5XWS4GX22J4P", "tract_id": "36047051400", "city": "BROOKLYN, NY", "zone_code": "R7A", "zone_category": "Residential", "ev_permitted": false}, "geometry": {"type": "Polygon", "coordinates": [[[-73.9632410170464, 40.6405030711461], [-73.9628775437118, 40.6405420977554], [-73.9629400963516, 40.64087103341], [-73.963147558453, 40.6408487581401], [-73.9631472999997, 40.6408473991028], [-73.9633030362385, 40.6408306776937], [-73.9632410170464, 40.6405030711461]]]}}, {"type": "Feature", "properties": {"zone_id": "0203MEO2E56UPP9NZ1VDDU", "tract_id": "36047051400", "city": "BROOKLYN, NY", "zone_code": "R7A", "zone_category": "Residential", "ev_permitted": false}, "geometry": {"type": "Polygon", "coordinates": [[[-73.9628810570815, 40.6405606309822], [-73.9625203746645, 40.64059935592], [-73.9625486697151, 40.6407481397424], [-73.9629093695248, 40.6407094126139], [-73.9628810570815, 40.6405606309822]]]}}, {"type": "Feature", "properties": {"zone_id": "0203DCDG3E6GG991IUU96W", "tract_id": "36047051400", "city": "BROOKLYN, NY", "zone_code": "R7A", "zone_category": "Residential", "ev_permitted": false}, "geometry": {"type": "Polygon", "coordinates": [[[-73.9631785891758, 40.6401733058344], [-73.9628148399343, 40.6402123623727], [-73.9628775437118, 40.6405420977554], [-73.9632410170464, 40.6405030711461], [-73.9631785891758, 40.6401733058344]]]}}, {"type": "Feature", "properties": {"zone_id": "02009R557PYGSASZXJPAI8", "tract_id": "36047051400", "city": "BROOKLYN, NY", "zone_code": "R4A", "zone_category": "Residential", "ev_permitted": false}, "geometry": {"type": "Polygon", "coordinates": [[[-73.9629094170435, 40.6399202998859], [-73.9627789577926, 40.6399821892444], [-73.9629631073044, 40.6401964428569], [-73.9631273021234, 40.6401788137549], [-73.963034255374, 40.6400705551627], [-73.9630366189505, 40.6400682947456], [-73.9629094170435, 40.6399202998859]]]}}, {"type": "Feature", "properties": {"zone_id": "0200KXB478QTOXSOTY7ADM", "tract_id": "36047051400", "city": "BROOKLYN, NY", "zone_code": "R4A", "zone_category": "Residential", "ev_permitted": false}, "geometry": {"type": "Polygon", "coordinates": [[[-73.9627789577926, 40.6399821892444], [-73.9626626234113, 40.6400373775071], [-73.962815355901, 40.6402150783408], [-73.9628148399343, 40.6402123623727], [-73.9629631073044, 40.6401964428569], [-73.9627789577926, 40.6399821892444]]]}}, {"type": "Feature", "properties": {"zone_id": "0203QL2CTSSFD62D24THBM", "tract_id": "36047051400", "city": "BROOKLYN, NY", "zone_code": "R4A", "zone_category": "Residential", "ev_permitted": false}, "geometry": {"type": "Polygon", "coordinates": [[[-73.963112458154, 40.6398239763849], [-73.9629094170435, 40.6399202998859], [-73.9630366189505, 40.6400682947456], [-73.963034255374, 40.6400705551627], [-73.9631273021234, 40.6401788137549], [-73.9631785891758, 40.6401733058344], [-73.963112458154, 40.6398239763849]]]}}, {"type": "Feature", "properties": {"zone_id": "0205PFXWWE81PE54XEWER5", "tract_id": "36047051400", "city": "BROOKLYN, NY", "zone_code": "R7A", "zone_category": "Residential", "ev_permitted": false}, "geometry": {"type": "Polygon", "coordinates": [[[-73.9622394228938, 40.6406171264598], [-73.9618830240808, 40.6406565654156], [-73.961985343227, 40.6411999618523], [-73.9623427061221, 40.6411604160914], [-73.9622394228938, 40.6406171264598]]]}}, {"type": "Feature", "properties": {"zone_id": "0205W6PLFVCXKE3K6J4TVQ", "tract_id": "36047051400", "city": "BROOKLYN, NY", "zone_code": "R4A", "zone_category": "Residential", "ev_permitted": false}, "geometry": {"type": "Polygon", "coordinates": [[[-73.9619239519083, 40.6408739238647], [-73.9615673679607, 40.6409133828602], [-73.961587831406, 40.641022061789], [-73.9619444149995, 40.6409826034328], [-73.9619239519083, 40.6408739238647]]]}}, {"type": "Feature", "properties": {"zone_id": "0205MGOFO5RJQFIQHO1NFG", "tract_id": "36047051400", "city": "BROOKLYN, NY", "zone_code": "R4A", "zone_category": "Residential", "ev_permitted": false}, "geometry": {"type": "Polygon", "coordinates": [[[-73.961903487961, 40.6407652449939], [-73.9615469055049, 40.6408047032241], [-73.9615673679607, 40.6409133828602], [-73.9619239519083, 40.6408739238647], [-73.961903487961, 40.6407652449939]]]}}, {"type": "Feature", "properties": {"zone_id": "0204LYCNIE9VDNWYOGR8DO", "tract_id": "36047051400", "city": "BROOKLYN, NY", "zone_code": "R4A", "zone_category": "Residential", "ev_permitted": false}, "geometry": {"type": "Polygon", "coordinates": [[[-73.9618400889632, 40.6404285349035], [-73.9617070059559, 40.6404908226916], [-73.9617616696599, 40.6407811357758], [-73.961903487961, 40.6407652449939], [-73.9618400889632, 40.6404285349035]]]}}, {"type": "Feature", "properties": {"zone_id": "0205KFEZODT626ZRSBSQ13", "tract_id": "36047051400", "city": "BROOKLYN, NY", "zone_code": "R4A", "zone_category": "Residential", "ev_permitted": false}, "geometry": {"type": "Polygon", "coordinates": [[[-73.9617070059559, 40.6404908226916], [-73.9615055577654, 40.6405851079147], [-73.9615469055049, 40.6408047032241], [-73.9617616696599, 40.6407811357758], [-73.9617070059559, 40.6404908226916]]]}}, {"type": "Feature", "properties": {"zone_id": "0203DZ5SMQUV3KCZ9BOOU1", "tract_id": "36047051400", "city": "BROOKLYN, NY", "zone_code": "R7A", "zone_category": "Residential", "ev_permitted": false}, "geometry": {"type": "Polygon", "coordinates": [[[-73.9628347833753, 40.640317240203], [-73.9624740874867, 40.6403559678025], [-73.9624947487268, 40.6404646255608], [-73.9628554470352, 40.6404258986001], [-73.9628347833753, 40.640317240203]]]}}, {"type": "Feature", "properties": {"zone_id": "02061ZNGIF5CKTM200N16C", "tract_id": "36047051400", "city": "BROOKLYN, NY", "zone_code": "R7A", "zone_category": "Residential", "ev_permitted": false}, "geometry": {"type": "Polygon", "coordinates": [[[-73.9628554470352, 40.6404258986001], [-73.9624947487268, 40.6404646255608], [-73.9625203746645, 40.64059935592], [-73.9628810570815, 40.6405606309822], [-73.9628554470352, 40.6404258986001]]]}}, {"type": "Feature", "properties": {"zone_id": "0203KJ0B71ANU82DPRMIZ8", "tract_id": "36047051400", "city": "BROOKLYN, NY", "zone_code": "R4A", "zone_category": "Residential", "ev_permitted": false}, "geometry": {"type": "Polygon", "coordinates": [[[-73.9621738712286, 40.6402723098952], [-73.961977163205, 40.640364377786], [-73.96202913616, 40.6406403969437], [-73.9622394228938, 40.6406171264598], [-73.9621738712286, 40.6402723098952]]]}}, {"type": "Feature", "properties": {"zone_id": "0207MQQXVLB11WITGDFMFR", "tract_id": "36047051400", "city": "BROOKLYN, NY", "zone_code": "R4A", "zone_category": "Residential", "ev_permitted": false}, "geometry": {"type": "Polygon", "coordinates": [[[-73.9626626234113, 40.6400373775071], [-73.9625382367075, 40.6400963869332], [-73.9627370759976, 40.6403277309951], [-73.9628347833753, 40.640317240203], [-73.962815355901, 40.6402150783408], [-73.9626626234113, 40.6400373775071]]]}}, {"type": "Feature", "properties": {"zone_id": "0206YK9DE25QLTWYJOS7S5", "tract_id": "36047051400", "city": "BROOKLYN, NY", "zone_code": "R4A", "zone_category": "Residential", "ev_permitted": false}, "geometry": {"type": "Polygon", "coordinates": [[[-73.9625382367075, 40.6400963869332], [-73.9624341171579, 40.640145780549], [-73.9624740874867, 40.6403559678025], [-73.9627370759976, 40.6403277309951], [-73.9625382367075, 40.6400963869332]]]}}, {"type": "Feature", "properties": {"zone_id": "0200TUS2Y8W7K5V8ZBM0V9", "tract_id": "36047051400", "city": "BROOKLYN, NY", "zone_code": "R4A", "zone_category": "Residential", "ev_permitted": false}, "geometry": {"type": "Polygon", "coordinates": [[[-73.961977163205, 40.640364377786], [-73.9618400889632, 40.6404285349035], [-73.9618830240808, 40.6406565654156], [-73.96202913616, 40.6406403969437], [-73.961977163205, 40.640364377786]]]}}, {"type": "Feature", "properties": {"zone_id": "0201N7T6ZWF3X6DFZROGWB", "tract_id": "36047051400", "city": "BROOKLYN, NY", "zone_code": "R7A", "zone_category": "Residential", "ev_permitted": false}, "geometry": {"type": "Polygon", "coordinates": [[[-73.9613020527472, 40.6406717154745], [-73.9606267360693, 40.6409897085517], [-73.9606714556243, 40.6412246536369], [-73.9610381470365, 40.6411805217977], [-73.9610827263916, 40.6414134057531], [-73.9614362303295, 40.6413726494061], [-73.9613020527472, 40.6406717154745]]]}}]}