{"type": "FeatureCollection", "features": [{"type": "Feature", "properties": {"zone_id": "0203INQSZOLWAV2K4YQT64", "tract_id": "36061017000", "city": "NEW YORK, NY", "zone_code": "R7A", "zone_category": "Residential", "ev_permitted": false}, "geometry": {"type": "Polygon", "coordinates": [[[-73.9442781638395, 40.7909286640951], [-73.9440981556848, 40.7911752419393], [-73.9446100333232, 40.7913910800296], [-73.9447899846318, 40.7911445772539], [-73.9442781638395, 40.7909286640951]]]}}, {"type": "Feature", "properties": {"zone_id": "02013UCOG29ITUS1HIPEEG", "tract_id": "36061017000", "city": "NEW YORK, NY", "zone_code": "EHC", "zone_category": "Other", "ev_permitted": false}, "geometry": {"type": "Polygon", "coordinates": [[[-73.9446505061249, 40.79096057875], [-73.9446156186889, 40.7910083682729], [-73.9445628428576, 40.7909861046913], [-73.944527873895, 40.7910340058697], [-73.9447899846318, 40.7911445772539], [-73.9448598398713, 40.7910488864108], [-73.9446505061249, 40.79096057875]]]}}, {"type": "Feature", "properties": {"zone_id": "0202YVK9HD95UCI4K7WTO4", "tract_id": "36061017000", "city": "NEW YORK, NY", "zone_code": "EHC", "zone_category": "Other", "ev_permitted": false}, "geometry": {"type": "Polygon", "coordinates": [[[-73.9446867392841, 40.7909109454027], [-73.9446505061249, 40.79096057875], [-73.9448598398713, 40.7910488864108], [-73.944896072923, 40.7909992522957], [-73.9446867392841, 40.7909109454027]]]}}, {"type": "Feature", "properties": {"zone_id": "0206CG7JUPXYUL9719IEML", "tract_id": "36061017000", "city": "NEW YORK, NY", "zone_code": "R7A", "zone_category": "Residential", "ev_permitted": false}, "geometry": {"type": "Polygon", "coordinates": [[[-73.9448308968651, 40.7903417404874], [-73.9446500834028, 40.7905894276127], [-73.9450668405923, 40.7907653263561], [-73.9452476520579, 40.7905176378806], [-73.9448308968651, 40.7903417404874]]]}}, {"type": "Feature", "properties": {"zone_id": "0207DF0G8Y57XSBC7Y0722", "tract_id": "36061017000", "city": "NEW YORK, NY", "zone_code": "R9", "zone_category": "Residential", "ev_permitted": false}, "geometry": {"type": "Polygon", "coordinates": [[[-73.9451020492814, 40.7901367976617], [-73.9450656067529, 40.7901867198351], [-73.9453894458806, 40.7903233995856], [-73.9454258882406, 40.7902734780134], [-73.9451020492814, 40.7901367976617]]]}}, {"type": "Feature", "properties": {"zone_id": "02067G1AKGOQD6K15EA8YZ", "tract_id": "36061017000", "city": "NEW YORK, NY", "zone_code": "R9", "zone_category": "Residential", "ev_permitted": false}, "geometry": {"type": "Polygon", "coordinates": [[[-73.9450656067529, 40.7901867198351], [-73.9450180038847, 40.7902519291764], [-73.9453418423069, 40.7903886097615], [-73.9453894458806, 40.7903233995856], [-73.9450656067529, 40.7901867198351]]]}}, {"type": "Feature", "properties": {"zone_id": "02011G23A02V0NUJO358II", "tract_id": "36061017000", "city": "NEW YORK, NY", "zone_code": "EHC", "zone_category": "Other", "ev_permitted": false}, "geometry": {"type": "Polygon", "coordinates": [[[-73.9450180038847, 40.7902519291764], [-73.9449721696542, 40.7903147151949], [-73.945296009212, 40.7904513959079], [-73.9453418423069, 40.7903886097615], [-73.9450180038847, 40.7902519291764]]]}}, {"type": "Feature", "properties": {"zone_id": "0207BU2KKII4NQV5YWRCNV", "tract_id": "36061017000", "city": "NEW YORK, NY", "zone_code": "R9", "zone_category": "Residential", "ev_permitted": false}, "geometry": {"type": "Polygon", "coordinates": [[[-73.9449721696542, 40.7903147151949], [-73.9449238132015, 40.7903809570337], [-73.9452476520579, 40.7905176378806], [-73.945296009212, 40.7904513959079], [-73.9449721696542, 40.7903147151949]]]}}, {"type": "Feature", "properties": {"zone_id": "02046ZIPZR8K027XAYQOCN", "tract_id": "36061017000", "city": "NEW YORK, NY", "zone_code": "R7A", "zone_category": "Residential", "ev_permitted": false}, "geometry": {"type": "Polygon", "coordinates": [[[-73.9442604111088, 40.7905998786619], [-73.9440810840757, 40.7908455251056], [-73.9441068974701, 40.790856414668], [-73.9439268694409, 40.7911030168309], [-73.9440981556848, 40.7911752419393], [-73.9442781638395, 40.7909286640951], [-73.9443458152481, 40.7909572033429], [-73.9445251416046, 40.7907115571943], [-73.9442604111088, 40.7905998786619]]]}}, {"type": "Feature", "properties": {"zone_id": "0201RCLNZRNAWFZR9C94RY", "tract_id": "36061017000", "city": "NEW YORK, NY", "zone_code": "R9", "zone_category": "Residential", "ev_permitted": false}, "geometry": {"type": "Polygon", "coordinates": [[[-73.9446552022645, 40.7907664237096], [-73.9444758762401, 40.7910120700585], [-73.944527873895, 40.7910340058697], [-73.9445628428576, 40.7909861046913], [-73.9446156186889, 40.7910083682729], [-73.9446867392841, 40.7909109454027], [-73.944896072923, 40.7909992522957], [-73.9449693098547, 40.7908989297187], [-73.9446552022645, 40.7907664237096]]]}}, {"type": "Feature", "properties": {"zone_id": "0204KFL2FHQLYD9M1511KP", "tract_id": "36061017000", "city": "NEW YORK, NY", "zone_code": "R7A", "zone_category": "Residential", "ev_permitted": false}, "geometry": {"type": "Polygon", "coordinates": [[[-73.9445251416046, 40.7907115571943], [-73.9443458152481, 40.7909572033429], [-73.9444758762401, 40.7910120700585], [-73.9446552022645, 40.7907664237096], [-73.9445251416046, 40.7907115571943]]]}}, {"type": "Feature", "properties": {"zone_id": "0204A8VU832FDURLSTAG0V", "tract_id": "36061017000", "city": "NEW YORK, NY", "zone_code": "R7A", "zone_category": "Residential", "ev_permitted": false}, "geometry": {"type": "Polygon", "coordinates": [[[-73.9447259829288, 40.7902974604287], [-73.944545170121, 40.7905451473915], [-73.9446500834028, 40.7905894276127], [-73.9448308968651, 40.7903417404874], [-73.9447259829288, 40.7902974604287]]]}}, {"type": "Feature", "properties": {"zone_id": "0203S7132CHO526ZTDXN6Z", "tract_id": "36061017000", "city": "NEW YORK, NY", "zone_code": "R7A", "zone_category": "Residential", "ev_permitted": false}, "geometry": {"type": "Polygon", "coordinates": [[[-73.9434702072091, 40.7902665206948], [-73.9432908781584, 40.7905121659217], [-73.9436451974785, 40.7906616411658], [-73.9438245246995, 40.7904159960955], [-73.9434702072091, 40.7902665206948]]]}}, {"type": "Feature", "properties": {"zone_id": "02048YO5FGDAH5BTV2341X", "tract_id": "36061017000", "city": "NEW YORK, NY", "zone_code": "R7A", "zone_category": "Residential", "ev_permitted": false}, "geometry": {"type": "Polygon", "coordinates": [[[-73.944142002243, 40.7905499260689], [-73.943962674907, 40.7907955730329], [-73.9440810840757, 40.7908455251056], [-73.9442604111088, 40.7905998786619], [-73.944142002243, 40.7905499260689]]]}}, {"type": "Feature", "properties": {"zone_id": "02012YAK2TH3NWDBK4BOS3", "tract_id": "36061017000", "city": "NEW YORK, NY", "zone_code": "R7A", "zone_category": "Residential", "ev_permitted": false}, "geometry": {"type": "Polygon", "coordinates": [[[-73.9438827414484, 40.7907618518506], [-73.9437026887787, 40.7910084873825], [-73.9439268694409, 40.7911030168309], [-73.9441068974701, 40.790856414668], [-73.9438827414484, 40.7907618518506]]]}}, {"type": "Feature", "properties": {"zone_id": "020196C1ZAYHL22OR11ZXT", "tract_id": "36061017000", "city": "NEW YORK, NY", "zone_code": "R7A", "zone_category": "Residential", "ev_permitted": false}, "geometry": {"type": "Polygon", "coordinates": [[[-73.9435664482132, 40.7906284199274], [-73.9433863614102, 40.7908751020316], [-73.9434651192082, 40.7909083114508], [-73.9436451974785, 40.7906616411658], [-73.9435664482132, 40.7906284199274]]]}}, {"type": "Feature", "properties": {"zone_id": "02040EJDZQQXC2AV6BQ8AC", "tract_id": "36061017000", "city": "NEW YORK, NY", "zone_code": "R7A", "zone_category": "Residential", "ev_permitted": false}, "geometry": {"type": "Polygon", "coordinates": [[[-73.9436451974785, 40.7906616411658], [-73.9434651192082, 40.7909083114508], [-73.9437026887787, 40.7910084873825], [-73.9438827414484, 40.7907618518506], [-73.9436451974785, 40.7906616411658]]]}}, {"type": "Feature", "properties": {"zone_id": "0200M0CXRJQEA2N7R5GDUS", "tract_id": "36061017000", "city": "NEW YORK, NY", "zone_code": "R7A", "zone_category": "Residential", "ev_permitted": false}, "geometry": {"type": "Polygon", "coordinates": [[[-73.9440620680634, 40.7905162057119], [-73.9438827414484, 40.7907618518506], [-73.943962674907, 40.7907955730329], [-73.944142002243, 40.7905499260689], [-73.9440620680634, 40.7905162057119]]]}}, {"type": "Feature", "properties": {"zone_id": "020282UJF2AVXJKG7ZV1WU", "tract_id": "36061017000", "city": "NEW YORK, NY", "zone_code": "R7A", "zone_category": "Residential", "ev_permitted": false}, "geometry": {"type": "Polygon", "coordinates": [[[-73.943982560936, 40.790482664683], [-73.9438026962443, 40.7907280841833], [-73.9438827414484, 40.7907618518506], [-73.9440620680634, 40.7905162057119], [-73.943982560936, 40.790482664683]]]}}, {"type": "Feature", "properties": {"zone_id": "0206RBVDXCVJI7QI0ZU0D7", "tract_id": "36061017000", "city": "NEW YORK, NY", "zone_code": "R7A", "zone_category": "Residential", "ev_permitted": false}, "geometry": {"type": "Polygon", "coordinates": [[[-73.9439035908359, 40.790449350114], [-73.9437242628911, 40.7906949967109], [-73.9438026962443, 40.7907280841833], [-73.943982560936, 40.790482664683], [-73.9439035908359, 40.790449350114]]]}}, {"type": "Feature", "properties": {"zone_id": "0201VZMVRAS40FTP4HEVT2", "tract_id": "36061017000", "city": "NEW YORK, NY", "zone_code": "R7A", "zone_category": "Residential", "ev_permitted": false}, "geometry": {"type": "Polygon", "coordinates": [[[-73.9438245246995, 40.7904159960955], [-73.9436451974785, 40.7906616411658], [-73.9437242628911, 40.7906949967109], [-73.9439035908359, 40.790449350114], [-73.9438245246995, 40.7904159960955]]]}}, {"type": "Feature", "properties": {"zone_id": "0202SZYW4LK3699S56RIML", "tract_id": "36061017000", "city": "NEW YORK, NY", "zone_code": "R7A", "zone_category": "Residential", "ev_permitted": false}, "geometry": {"type": "Polygon", "coordinates": [[[-73.9445967119278, 40.7899235112631], [-73.9444184745651, 40.7901676705645], [-73.9449238132015, 40.7903809570337], [-73.9451020492814, 40.7901367976617], [-73.9445967119278, 40.7899235112631]]]}}, {"type": "Feature", "properties": {"zone_id": "02010J26BDEFM2D5K1QGJ2", "tract_id": "36061017000", "city": "NEW YORK, NY", "zone_code": "R7A", "zone_category": "Residential", "ev_permitted": false}, "geometry": {"type": "Polygon", "coordinates": [[[-73.9446177864492, 40.790251793771], [-73.9444369733629, 40.7904994805659], [-73.944545170121, 40.7905451473915], [-73.9447259829288, 40.7902974604287], [-73.9446177864492, 40.790251793771]]]}}, {"type": "Feature", "properties": {"zone_id": "0205WP07MJO50HDZ4VOUTI", "tract_id": "36061017000", "city": "NEW YORK, NY", "zone_code": "R7A", "zone_category": "Residential", "ev_permitted": false}, "geometry": {"type": "Polygon", "coordinates": [[[-73.9444184745651, 40.7901676705645], [-73.9442376600418, 40.7904153563468], [-73.944286280191, 40.7904358776035], [-73.9444670945897, 40.790188191043], [-73.9444184745651, 40.7901676705645]]]}}, {"type": "Feature", "properties": {"zone_id": "02011HKFOLNV4R2BSTQ7LP", "tract_id": "36061017000", "city": "NEW YORK, NY", "zone_code": "R7A", "zone_category": "Residential", "ev_permitted": false}, "geometry": {"type": "Polygon", "coordinates": [[[-73.9445164733938, 40.7902090322752], [-73.9443356591222, 40.7904567189123], [-73.9443864576259, 40.7904781595439], [-73.9445672717667, 40.7902304728278], [-73.9445164733938, 40.7902090322752]]]}}, {"type": "Feature", "properties": {"zone_id": "0200ZOBNT0D4BU610QWUJ1", "tract_id": "36061017000", "city": "NEW YORK, NY", "zone_code": "R7A", "zone_category": "Residential", "ev_permitted": false}, "geometry": {"type": "Polygon", "coordinates": [[[-73.9445672717667, 40.7902304728278], [-73.9443864576259, 40.7904781595439], [-73.9444369733629, 40.7904994805659], [-73.9446177864492, 40.790251793771], [-73.9445672717667, 40.7902304728278]]]}}, {"type": "Feature", "properties": {"zone_id": "02008XK15MZW8W10H4CJWB", "tract_id": "36061017000", "city": "NEW YORK, NY", "zone_code": "R7A", "zone_category": "Residential", "ev_permitted": false}, "geometry": {"type": "Polygon", "coordinates": [[[-73.9444670945897, 40.790188191043], [-73.944286280191, 40.7904358776035], [-73.9443356591222, 40.7904567189123], [-73.9445164733938, 40.7902090322752], [-73.9444670945897, 40.790188191043]]]}}, {"type": "Feature", "properties": {"zone_id": "0201QZGURHHWG16WE90H0W", "tract_id": "36061017000", "city": "NEW YORK, NY", "zone_code": "R7A", "zone_category": "Residential", "ev_permitted": false}, "geometry": {"type": "Polygon", "coordinates": [[[-73.9439461939894, 40.7899683315297], [-73.9437653782494, 40.7902160179841], [-73.9442376600418, 40.7904153563468], [-73.9444184745651, 40.7901676705645], [-73.9439461939894, 40.7899683315297]]]}}, {"type": "Feature", "properties": {"zone_id": "0201CB7IBXQ9I4VNGMBJSJ", "tract_id": "36061017000", "city": "NEW YORK, NY", "zone_code": "R7A", "zone_category": "Residential", "ev_permitted": false}, "geometry": {"type": "Polygon", "coordinates": [[[-73.9436228077729, 40.7898318369489], [-73.9434419921255, 40.7900795221991], [-73.9437653782494, 40.7902160179841], [-73.9439461939894, 40.7899683315297], [-73.9436228077729, 40.7898318369489]]]}}, {"type": "Feature", "properties": {"zone_id": "0203VH4TU9OFHIEQIEV0TS", "tract_id": "36061017000", "city": "NEW YORK, NY", "zone_code": "R7A", "zone_category": "Residential", "ev_permitted": false}, "geometry": {"type": "Polygon", "coordinates": [[[-73.9434831248773, 40.7894534891363], [-73.9433048837652, 40.7896976460303], [-73.9444184745651, 40.7901676705645], [-73.9445967119278, 40.7899235112631], [-73.9434831248773, 40.7894534891363]]]}}, {"type": "Feature", "properties": {"zone_id": "02016V4NBRMRF610QCK645", "tract_id": "36061017000", "city": "NEW YORK, NY", "zone_code": "TA", "zone_category": "Other", "ev_permitted": false}, "geometry": {"type": "Polygon", "coordinates": [[[-73.9425047560454, 40.7908085503478], [-73.9416921915957, 40.7919206259053], [-73.9436184889158, 40.792737408598], [-73.9444305644389, 40.7916251212296], [-73.9425047560454, 40.7908085503478]]]}}, {"type": "Feature", "properties": {"zone_id": "0203BM047WIFAO4YT5SWMK", "tract_id": "36061017000", "city": "NEW YORK, NY", "zone_code": "TA", "zone_category": "Other", "ev_permitted": false}, "geometry": {"type": "Polygon", "coordinates": [[[-73.9416921915957, 40.7919206259053], [-73.9412636293914, 40.79250713885], [-73.9428435316965, 40.7931770445455], [-73.9430140215042, 40.7929435354444], [-73.9430459065984, 40.7929570540492], [-73.9433037197322, 40.7926039444228], [-73.9416921915957, 40.7919206259053]]]}}, {"type": "Feature", "properties": {"zone_id": "02036H27RBANOQDN7AZUJS", "tract_id": "36061017000", "city": "NEW YORK, NY", "zone_code": "R7-2", "zone_category": "Residential", "ev_permitted": false}, "geometry": {"type": "Polygon", "coordinates": [[[-73.9433037197322, 40.7926039444228], [-73.9430459065984, 40.7929570540492], [-73.9430140215042, 40.7929435354444], [-73.9428801700562, 40.7931268632125], [-73.9432270075662, 40.7932736012491], [-73.9436184889158, 40.792737408598], [-73.9433037197322, 40.7926039444228]]]}}, {"type": "Feature", "properties": {"zone_id": "0207C3WMJA5W62HPHLETKF", "tract_id": "36061017000", "city": "NEW YORK, NY", "zone_code": "TA", "zone_category": "Other", "ev_permitted": false}, "geometry": {"type": "Polygon", "coordinates": [[[-73.9408260245618, 40.7921694450377], [-73.9407374987477, 40.7922911935859], [-73.940953424475, 40.7923824747927], [-73.9410420221004, 40.7922607584393], [-73.9408260245618, 40.7921694450377]]]}}, {"type": "Feature", "properties": {"zone_id": "0200TPLBSDG4W2JPLZJNAN", "tract_id": "36061017000", "city": "NEW YORK, NY", "zone_code": "TA", "zone_category": "Other", "ev_permitted": false}, "geometry": {"type": "Polygon", "coordinates": [[[-73.9407374987477, 40.7922911935859], [-73.9407053338693, 40.7923352592659], [-73.940921334554, 40.7924265728927], [-73.940953424475, 40.7923824747927], [-73.9407374987477, 40.7922911935859]]]}}, {"type": "Feature", "properties": {"zone_id": "0206LYB1982523WXE61FKK", "tract_id": "36061017000", "city": "NEW YORK, NY", "zone_code": "TA", "zone_category": "Other", "ev_permitted": false}, "geometry": {"type": "Polygon", "coordinates": [[[-73.9408652384765, 40.7919227980762], [-73.9408645025806, 40.791923808111], [-73.9411878090175, 40.7920604846009], [-73.9411885439862, 40.792059473861], [-73.9408652384765, 40.7919227980762]]]}}, {"type": "Feature", "properties": {"zone_id": "0206SGNI3KXGOIZU8W1WLC", "tract_id": "36061017000", "city": "NEW YORK, NY", "zone_code": "TA", "zone_category": "Other", "ev_permitted": false}, "geometry": {"type": "Polygon", "coordinates": [[[-73.9408645025806, 40.791923808111], [-73.9407770899263, 40.7920438933873], [-73.941100395843, 40.7921805694168], [-73.9411878090175, 40.7920604846009], [-73.9408645025806, 40.791923808111]]]}}, {"type": "Feature", "properties": {"zone_id": "0201QPJEXIS8U6P6Z6X87A", "tract_id": "36061017000", "city": "NEW YORK, NY", "zone_code": "TA", "zone_category": "Other", "ev_permitted": false}, "geometry": {"type": "Polygon", "coordinates": [[[-73.9407770899263, 40.7920438933873], [-73.9407187177625, 40.7921240829513], [-73.9410420221004, 40.7922607584393], [-73.941100395843, 40.7921805694168], [-73.9407770899263, 40.7920438933873]]]}}, {"type": "Feature", "properties": {"zone_id": "0201UK6XBWQKLNY5VHB9N1", "tract_id": "36061017000", "city": "NEW YORK, NY", "zone_code": "EHC", "zone_category": "Other", "ev_permitted": false}, "geometry": {"type": "Polygon", "coordinates": [[[-73.9409592035086, 40.7917937109102], [-73.9408652384765, 40.7919227980762], [-73.9411885439862, 40.792059473861], [-73.9412827733167, 40.791930026109], [-73.9409592035086, 40.7917937109102]]]}}, {"type": "Feature", "properties": {"zone_id": "0202DLID7K3K0X5F4F2BW4", "tract_id": "36061017000", "city": "NEW YORK, NY", "zone_code": "R7A", "zone_category": "Residential", "ev_permitted": false}, "geometry": {"type": "Polygon", "coordinates": [[[-73.9406183537129, 40.7919767872273], [-73.9404392911907, 40.7922227899621], [-73.9405214075166, 40.7922575046867], [-73.9407004698294, 40.792011501123], [-73.9406183537129, 40.7919767872273]]]}}, {"type": "Feature", "properties": {"zone_id": "0200MQCNAHU3Z2NL9RDQJX", "tract_id": "36061017000", "city": "NEW YORK, NY", "zone_code": "R7A", "zone_category": "Residential", "ev_permitted": false}, "geometry": {"type": "Polygon", "coordinates": [[[-73.9403811774033, 40.7918765201352], [-73.9402021133498, 40.792122522505], [-73.9404392911907, 40.7922227899621], [-73.9406183537129, 40.7919767872273], [-73.9403811774033, 40.7918765201352]]]}}, {"type": "Feature", "properties": {"zone_id": "02058G53N41VQAXU2SZ6EC", "tract_id": "36061017000", "city": "NEW YORK, NY", "zone_code": "R7A", "zone_category": "Residential", "ev_permitted": false}, "geometry": {"type": "Polygon", "coordinates": [[[-73.9407004698294, 40.792011501123], [-73.9405214075166, 40.7922575046867], [-73.9407053338693, 40.7923352592659], [-73.9408260245618, 40.7921694450377], [-73.9407187177625, 40.7921240829513], [-73.9407770899263, 40.7920438933873], [-73.9407004698294, 40.792011501123]]]}}, {"type": "Feature", "properties": {"zone_id": "020253SROEKT3SX2GZ8EUQ", "tract_id": "36061017000", "city": "NEW YORK, NY", "zone_code": "R7A", "zone_category": "Residential", "ev_permitted": false}, "geometry": {"type": "Polygon", "coordinates": [[[-73.9402935387108, 40.7918426062808], [-73.940276055651, 40.7918666229739], [-73.9402642206615, 40.7918616195857], [-73.940104385227, 40.7920812071672], [-73.9402021133498, 40.792122522505], [-73.9403794315991, 40.7918789187859], [-73.9402935387108, 40.7918426062808]]]}}, {"type": "Feature", "properties": {"zone_id": "02008QXKXEO2K84HB4QZNQ", "tract_id": "36061017000", "city": "NEW YORK, NY", "zone_code": "R7A", "zone_category": "Residential", "ev_permitted": false}, "geometry": {"type": "Polygon", "coordinates": [[[-73.9404880202555, 40.7915952050128], [-73.9403062877463, 40.7918448606655], [-73.9407770899263, 40.7920438933873], [-73.9409592035086, 40.7917937109102], [-73.9404880202555, 40.7915952050128]]]}}, {"type": "Feature", "properties": {"zone_id": "0200DQFVJ6VOE98FYQINZU", "tract_id": "36061017000", "city": "NEW YORK, NY", "zone_code": "R7A", "zone_category": "Residential", "ev_permitted": false}, "geometry": {"type": "Polygon", "coordinates": [[[-73.9401257817312, 40.7917685504649], [-73.9399467170245, 40.792014552442], [-73.9400271656224, 40.7920485625947], [-73.9402062291988, 40.7918025604934], [-73.9401257817312, 40.7917685504649]]]}}, {"type": "Feature", "properties": {"zone_id": "02053SA7GEPELTKTBV3PIM", "tract_id": "36061017000", "city": "NEW YORK, NY", "zone_code": "R7A", "zone_category": "Residential", "ev_permitted": false}, "geometry": {"type": "Polygon", "coordinates": [[[-73.9402062291988, 40.7918025604934], [-73.9400271656224, 40.7920485625947], [-73.940104385227, 40.7920812071672], [-73.9402642206615, 40.7918616195857], [-73.940276055651, 40.7918666229739], [-73.9402935387108, 40.7918426062808], [-73.9403794315991, 40.7918789187859], [-73.9403811774033, 40.7918765201352], [-73.9402062291988, 40.7918025604934]]]}}, {"type": "Feature", "properties": {"zone_id": "02049D4UQNOSHC8NDNYT67", "tract_id": "36061017000", "city": "NEW YORK, NY", "zone_code": "R7A", "zone_category": "Residential", "ev_permitted": false}, "geometry": {"type": "Polygon", "coordinates": [[[-73.9403311381607, 40.791529111227], [-73.9401495329852, 40.791778591741], [-73.9403062877463, 40.7918448606655], [-73.9404880202555, 40.7915952050128], [-73.9403311381607, 40.791529111227]]]}}, {"type": "Feature", "properties": {"zone_id": "02049QPIZB49ZT3M84URC8", "tract_id": "36061017000", "city": "NEW YORK, NY", "zone_code": "R7A", "zone_category": "Residential", "ev_permitted": false}, "geometry": {"type": "Polygon", "coordinates": [[[-73.9401698194358, 40.7914611472769], [-73.9399883443612, 40.7917104477286], [-73.9401495329852, 40.791778591741], [-73.9403311381607, 40.791529111227], [-73.9401698194358, 40.7914611472769]]]}}, {"type": "Feature", "properties": {"zone_id": "0202QKVCA0WFO6G9CBF6IX", "tract_id": "36061017000", "city": "NEW YORK, NY", "zone_code": "R7A", "zone_category": "Residential", "ev_permitted": false}, "geometry": {"type": "Polygon", "coordinates": [[[-73.939091979764, 40.791331482511], [-73.9391923920662, 40.7916580456021], [-73.9391714595383, 40.7916868179599], [-73.9395470342975, 40.7918455821507], [-73.9397260991021, 40.7915995807877], [-73.939091979764, 40.791331482511]]]}}, {"type": "Feature", "properties": {"zone_id": "02002SJRLUBYAPHS3M6MX6", "tract_id": "36061017000", "city": "NEW YORK, NY", "zone_code": "R7A", "zone_category": "Residential", "ev_permitted": false}, "geometry": {"type": "Polygon", "coordinates": [[[-73.9399652530138, 40.7917006857155], [-73.9397861888209, 40.7919466874462], [-73.9398653092159, 40.7919801363028], [-73.9400443732063, 40.7917341344504], [-73.9399652530138, 40.7917006857155]]]}}, {"type": "Feature", "properties": {"zone_id": "0205JYRO625RFBP0H1KDN8", "tract_id": "36061017000", "city": "NEW YORK, NY", "zone_code": "R7A", "zone_category": "Residential", "ev_permitted": false}, "geometry": {"type": "Polygon", "coordinates": [[[-73.9400443732063, 40.7917341344504], [-73.9398653092159, 40.7919801363028], [-73.9399467170245, 40.792014552442], [-73.9401257817312, 40.7917685504649], [-73.9400443732063, 40.7917341344504]]]}}, {"type": "Feature", "properties": {"zone_id": "0206PJD4H9BC2OIDVXY7WS", "tract_id": "36061017000", "city": "NEW YORK, NY", "zone_code": "R7A", "zone_category": "Residential", "ev_permitted": false}, "geometry": {"type": "Polygon", "coordinates": [[[-73.9398101652087, 40.7916351212524], [-73.9396311006198, 40.7918811220421], [-73.9397861888209, 40.7919466874462], [-73.9399652530138, 40.7917006857155], [-73.9398101652087, 40.7916351212524]]]}}, {"type": "Feature", "properties": {"zone_id": "02005XHAJJFY7JBCAT7CUT", "tract_id": "36061017000", "city": "NEW YORK, NY", "zone_code": "R7A", "zone_category": "Residential", "ev_permitted": false}, "geometry": {"type": "Polygon", "coordinates": [[[-73.9397260991021, 40.7915995807877], [-73.9395470342975, 40.7918455821507], [-73.9396311006198, 40.7918811220421], [-73.9398101652087, 40.7916351212524], [-73.9397260991021, 40.7915995807877]]]}}, {"type": "Feature", "properties": {"zone_id": "0201DBI5K5LUTRMLONK3NB", "tract_id": "36061017000", "city": "NEW YORK, NY", "zone_code": "R7A", "zone_category": "Residential", "ev_permitted": false}, "geometry": {"type": "Polygon", "coordinates": [[[-73.9400096858234, 40.7913936833019], [-73.939828340852, 40.7916428050989], [-73.9399883443612, 40.7917104477286], [-73.9401698194358, 40.7914611472769], [-73.9400096858234, 40.7913936833019]]]}}, {"type": "Feature", "properties": {"zone_id": "0206GC2VQPQ8DLCAHUP6WU", "tract_id": "36061017000", "city": "NEW YORK, NY", "zone_code": "R7A", "zone_category": "Residential", "ev_permitted": false}, "geometry": {"type": "Polygon", "coordinates": [[[-73.9398537306937, 40.791327978615], [-73.939672512135, 40.791576925978], [-73.939828340852, 40.7916428050989], [-73.9400096858234, 40.7913936833019], [-73.9398537306937, 40.791327978615]]]}}, {"type": "Feature", "properties": {"zone_id": "02032A6Z0HA2K5EYQ8QOI5", "tract_id": "36061017000", "city": "NEW YORK, NY", "zone_code": "R7A", "zone_category": "Residential", "ev_permitted": false}, "geometry": {"type": "Polygon", "coordinates": [[[-73.9396923269953, 40.791259978817], [-73.9395112394641, 40.7915087454165], [-73.939672512135, 40.791576925978], [-73.9398537306937, 40.791327978615], [-73.9396923269953, 40.791259978817]]]}}, {"type": "Feature", "properties": {"zone_id": "0204L5MQ9DWACEYPGRWLN9", "tract_id": "36061017000", "city": "NEW YORK, NY", "zone_code": "R7A", "zone_category": "Residential", "ev_permitted": false}, "geometry": {"type": "Polygon", "coordinates": [[[-73.9395378095658, 40.7911948787331], [-73.9393568466013, 40.7914434730086], [-73.9395112394641, 40.7915087454165], [-73.9396923269953, 40.791259978817], [-73.9395378095658, 40.7911948787331]]]}}, {"type": "Feature", "properties": {"zone_id": "0202A122WB30Z9K3VZZX6P", "tract_id": "36061017000", "city": "NEW YORK, NY", "zone_code": "R8A", "zone_category": "Residential", "ev_permitted": false}, "geometry": {"type": "Polygon", "coordinates": [[[-73.9389005885765, 40.7914857670336], [-73.9388524370192, 40.7915519284309], [-73.9391714595383, 40.7916868179599], [-73.9391923920662, 40.7916580456021], [-73.9391751049266, 40.7916018243849], [-73.9389005885765, 40.7914857670336]]]}}, {"type": "Feature", "properties": {"zone_id": "0207A3QNZ3W4152BQ0KO8A", "tract_id": "36061017000", "city": "NEW YORK, NY", "zone_code": "R8A", "zone_category": "Residential", "ev_permitted": false}, "geometry": {"type": "Polygon", "coordinates": [[[-73.9391211558015, 40.7911827705493], [-73.9390315036006, 40.7913059281356], [-73.9393568466013, 40.7914434730086], [-73.939446500234, 40.7913203158755], [-73.9391211558015, 40.7911827705493]]]}}, {"type": "Feature", "properties": {"zone_id": "0201OEQC3N7AF0BZH89189", "tract_id": "36061017000", "city": "NEW YORK, NY", "zone_code": "R8A", "zone_category": "Residential", "ev_permitted": false}, "geometry": {"type": "Polygon", "coordinates": [[[-73.9390315036006, 40.7913059281356], [-73.9389005885765, 40.7914857670336], [-73.9391751049266, 40.7916018243849], [-73.939091979764, 40.791331482511], [-73.9390315036006, 40.7913059281356]]]}}, {"type": "Feature", "properties": {"zone_id": "02000028QT05STV4WQPMA1", "tract_id": "36061017000", "city": "NEW YORK, NY", "zone_code": "R8A", "zone_category": "Residential", "ev_permitted": false}, "geometry": {"type": "Polygon", "coordinates": [[[-73.9392122026633, 40.7910576974966], [-73.9391211558015, 40.7911827705493], [-73.939446500234, 40.7913203158755], [-73.9395378095658, 40.7911948787331], [-73.9392122026633, 40.7910576974966]]]}}, {"type": "Feature", "properties": {"zone_id": "0205SPG6M7ZE19LPITGTIQ", "tract_id": "36061017000", "city": "NEW YORK, NY", "zone_code": "TA", "zone_category": "Other", "ev_permitted": false}, "geometry": {"type": "Polygon", "coordinates": [[[-73.9401453952062, 40.7898140433667], [-73.9393696697183, 40.7908779951683], [-73.9414039253482, 40.7917354807977], [-73.9421796273931, 40.7906715154467], [-73.9401453952062, 40.7898140433667]]]}}, {"type": "Feature", "properties": {"zone_id": "0201E5H8IEVJY7W7DBJQ23", "tract_id": "36061017000", "city": "NEW YORK, NY", "zone_code": "R7A", "zone_category": "Residential", "ev_permitted": false}, "geometry": {"type": "Polygon", "coordinates": [[[-73.9434075285355, 40.7905613772293], [-73.9432274237396, 40.7908080822665], [-73.9433072562003, 40.7908417448308], [-73.9434873515363, 40.7905950516106], [-73.9434075285355, 40.7905613772293]]]}}, {"type": "Feature", "properties": {"zone_id": "0205HGH3A8D67A9234RY9H", "tract_id": "36061017000", "city": "NEW YORK, NY", "zone_code": "R7A", "zone_category": "Residential", "ev_permitted": false}, "geometry": {"type": "Polygon", "coordinates": [[[-73.9434873515363, 40.7905950516106], [-73.9433072562003, 40.7908417448308], [-73.9433863614102, 40.7908751020316], [-73.9435664482132, 40.7906284199274], [-73.9434873515363, 40.7905950516106]]]}}, {"type": "Feature", "properties": {"zone_id": "02000J8TXQBLRHMKDRKR0H", "tract_id": "36061017000", "city": "NEW YORK, NY", "zone_code": "R7A", "zone_category": "Residential", "ev_permitted": false}, "geometry": {"type": "Polygon", "coordinates": [[[-73.943252651518, 40.7904960388257], [-73.9430725296639, 40.7907427668027], [-73.9432274237396, 40.7908080822665], [-73.9434075285355, 40.7905613772293], [-73.943252651518, 40.7904960388257]]]}}, {"type": "Feature", "properties": {"zone_id": "0202QK171ZOCS48E7DGNDT", "tract_id": "36061017000", "city": "NEW YORK, NY", "zone_code": "TA", "zone_category": "Other", "ev_permitted": false}, "geometry": {"type": "Polygon", "coordinates": [[[-73.9428022744375, 40.790386118978], [-73.9427570516954, 40.7904480633452], [-73.942993866241, 40.7905479698508], [-73.9430390888311, 40.790486024689], [-73.9428022744375, 40.790386118978]]]}}, {"type": "Feature", "properties": {"zone_id": "0200QLM5BWPKXG0LF9XS5D", "tract_id": "36061017000", "city": "NEW YORK, NY", "zone_code": "TA", "zone_category": "Other", "ev_permitted": false}, "geometry": {"type": "Polygon", "coordinates": [[[-73.9427570516954, 40.7904480633452], [-73.9427141761854, 40.7905067928258], [-73.9429509918006, 40.7906066987163], [-73.942993866241, 40.7905479698508], [-73.9427570516954, 40.7904480633452]]]}}, {"type": "Feature", "properties": {"zone_id": "0201RUHAPKPVSGJQXP1MYK", "tract_id": "36061017000", "city": "NEW YORK, NY", "zone_code": "TA", "zone_category": "Other", "ev_permitted": false}, "geometry": {"type": "Polygon", "coordinates": [[[-73.9427141761854, 40.7905067928258], [-73.9426668049616, 40.7905716809001], [-73.9429036457278, 40.7906715524694], [-73.9429509918006, 40.7906066987163], [-73.9427141761854, 40.7905067928258]]]}}, {"type": "Feature", "properties": {"zone_id": "02032WC9TW6JN8C8X8AOPF", "tract_id": "36061017000", "city": "NEW YORK, NY", "zone_code": "R7A", "zone_category": "Residential", "ev_permitted": false}, "geometry": {"type": "Polygon", "coordinates": [[[-73.9430837865268, 40.7904247994673], [-73.9429036457278, 40.7906715524694], [-73.9430725296639, 40.7907427668027], [-73.943252651518, 40.7904960388257], [-73.9430837865268, 40.7904247994673]]]}}, {"type": "Feature", "properties": {"zone_id": "0205FAX61H4UW0TX74F8LJ", "tract_id": "36061017000", "city": "NEW YORK, NY", "zone_code": "R7A", "zone_category": "Residential", "ev_permitted": false}, "geometry": {"type": "Polygon", "coordinates": [[[-73.9434149500231, 40.7902432091197], [-73.9432356217552, 40.7904888549646], [-73.9432908781584, 40.7905121659217], [-73.9434702072091, 40.7902665206948], [-73.9434149500231, 40.7902432091197]]]}}, {"type": "Feature", "properties": {"zone_id": "0203OTVCMWXVIPKCIVA0G9", "tract_id": "36061017000", "city": "NEW YORK, NY", "zone_code": "R7A", "zone_category": "Residential", "ev_permitted": false}, "geometry": {"type": "Polygon", "coordinates": [[[-73.9433346875762, 40.7902093482675], [-73.9432889011003, 40.7902717647493], [-73.9432870454511, 40.7902708791982], [-73.9431532769403, 40.7904541160531], [-73.9432356217552, 40.7904888549646], [-73.9434149500231, 40.7902432091197], [-73.9433346875762, 40.7902093482675]]]}}, {"type": "Feature", "properties": {"zone_id": "0207DFRJL5NC7B7Q34JIP6", "tract_id": "36061017000", "city": "NEW YORK, NY", "zone_code": "TA", "zone_category": "Other", "ev_permitted": false}, "geometry": {"type": "Polygon", "coordinates": [[[-73.9430263015436, 40.7900792493034], [-73.9429807906656, 40.790141589914], [-73.943057444665, 40.7901739279902], [-73.9430695708737, 40.7901820680481], [-73.9431858354064, 40.7902313345505], [-73.9431903901848, 40.7902251255337], [-73.9432916410439, 40.790268029749], [-73.9433346875762, 40.7902093482675], [-73.9430263015436, 40.7900792493034]]]}}, {"type": "Feature", "properties": {"zone_id": "02039WFYHR0LMWEUC1UYNA", "tract_id": "36061017000", "city": "NEW YORK, NY", "zone_code": "TA", "zone_category": "Other", "ev_permitted": false}, "geometry": {"type": "Polygon", "coordinates": [[[-73.9429807906656, 40.790141589914], [-73.9429374164259, 40.7902010036159], [-73.9432437540089, 40.7903301799279], [-73.9432870454511, 40.7902708791982], [-73.9432889011003, 40.7902717647493], [-73.9432916410439, 40.790268029749], [-73.9431903901848, 40.7902251255337], [-73.9431858354064, 40.7902313345505], [-73.9430695708737, 40.7901820680481], [-73.943057444665, 40.7901739279902], [-73.9429807906656, 40.790141589914]]]}}, {"type": "Feature", "properties": {"zone_id": "0200I4MT7UD7Q4OPXTC0JB", "tract_id": "36061017000", "city": "NEW YORK, NY", "zone_code": "TA", "zone_category": "Other", "ev_permitted": false}, "geometry": {"type": "Polygon", "coordinates": [[[-73.9429374164259, 40.7902010036159], [-73.9428938933206, 40.7902606202934], [-73.9432002310929, 40.7903897974226], [-73.9432437540089, 40.7903301799279], [-73.9429374164259, 40.7902010036159]]]}}, {"type": "Feature", "properties": {"zone_id": "0202YDFX53PY8L0ZNJMPNY", "tract_id": "36061017000", "city": "NEW YORK, NY", "zone_code": "TA", "zone_category": "Other", "ev_permitted": false}, "geometry": {"type": "Polygon", "coordinates": [[[-73.9428938933206, 40.7902606202934], [-73.9428022744375, 40.790386118978], [-73.9430390888311, 40.790486024689], [-73.9430837865268, 40.7904247994673], [-73.9431532769403, 40.7904541160531], [-73.9432002310929, 40.7903897974226], [-73.9428938933206, 40.7902606202934]]]}}, {"type": "Feature", "properties": {"zone_id": "0200C5UQQYJ0FSYUIXSGLE", "tract_id": "36061017000", "city": "NEW YORK, NY", "zone_code": "R7A", "zone_category": "Residential", "ev_permitted": false}, "geometry": {"type": "Polygon", "coordinates": [[[-73.9432136523975, 40.789822616849], [-73.94316629233, 40.7898874896822], [-73.9433324980541, 40.789956623178], [-73.9433395493693, 40.7899477465369], [-73.9434914003634, 40.7900118410587], [-73.9435315758942, 40.7899568073136], [-73.9432136523975, 40.789822616849]]]}}, {"type": "Feature", "properties": {"zone_id": "0204E8QDBMOOT758CC2025", "tract_id": "36061017000", "city": "NEW YORK, NY", "zone_code": "TA", "zone_category": "Other", "ev_permitted": false}, "geometry": {"type": "Polygon", "coordinates": [[[-73.94316629233, 40.7898874896822], [-73.9431240672994, 40.7899453307868], [-73.9433378049987, 40.7900355468842], [-73.9433872142343, 40.7899678657885], [-73.9433395493693, 40.7899477465369], [-73.9433324980541, 40.789956623178], [-73.94316629233, 40.7898874896822]]]}}, {"type": "Feature", "properties": {"zone_id": "0206620YVPLA4QV27PQQTC", "tract_id": "36061017000", "city": "NEW YORK, NY", "zone_code": "R7A", "zone_category": "Residential", "ev_permitted": false}, "geometry": {"type": "Polygon", "coordinates": [[[-73.9433872142343, 40.7899678657885], [-73.9433378049987, 40.7900355468842], [-73.9434419921255, 40.7900795221991], [-73.9434914003634, 40.7900118410587], [-73.9433872142343, 40.7899678657885]]]}}, {"type": "Feature", "properties": {"zone_id": "0202L5HRKQGODU07Y0AGAD", "tract_id": "36061017000", "city": "NEW YORK, NY", "zone_code": "R7A", "zone_category": "Residential", "ev_permitted": false}, "geometry": {"type": "Polygon", "coordinates": [[[-73.9421429179287, 40.7900321208638], [-73.9419624098933, 40.7902795116394], [-73.9421374845001, 40.7903535291256], [-73.9422757994737, 40.7901639648341], [-73.9425151655769, 40.7902651615663], [-73.9425573580451, 40.7902073347241], [-73.9421429179287, 40.7900321208638]]]}}, {"type": "Feature", "properties": {"zone_id": "0205DLP1VCAQA6PNDZ7PB2", "tract_id": "36061017000", "city": "NEW YORK, NY", "zone_code": "R7A", "zone_category": "Residential", "ev_permitted": false}, "geometry": {"type": "Polygon", "coordinates": [[[-73.9424049630141, 40.7898151082472], [-73.9422221740067, 40.7900656279064], [-73.9425573580451, 40.7902073347241], [-73.9427401461809, 40.7899568138361], [-73.9424049630141, 40.7898151082472]]]}}, {"type": "Feature", "properties": {"zone_id": "0201GKF3QV205R44OJPZ0F", "tract_id": "36061017000", "city": "NEW YORK, NY", "zone_code": "TA", "zone_category": "Other", "ev_permitted": false}, "geometry": {"type": "Polygon", "coordinates": [[[-73.9421858252247, 40.7902872772039], [-73.9421374845001, 40.7903535291256], [-73.942376851074, 40.7904547268447], [-73.9424251916345, 40.790388474121], [-73.9421858252247, 40.7902872772039]]]}}, {"type": "Feature", "properties": {"zone_id": "02031OKLSSPD02HQ7XC28Y", "tract_id": "36061017000", "city": "NEW YORK, NY", "zone_code": "TA", "zone_category": "Other", "ev_permitted": false}, "geometry": {"type": "Polygon", "coordinates": [[[-73.9422322748446, 40.7902236170968], [-73.9421858252247, 40.7902872772039], [-73.9424251916345, 40.790388474121], [-73.942471640171, 40.7903248146207], [-73.9422322748446, 40.7902236170968]]]}}, {"type": "Feature", "properties": {"zone_id": "0201ILAWSRRLJ3YAZPMWGL", "tract_id": "36061017000", "city": "NEW YORK, NY", "zone_code": "TA", "zone_category": "Other", "ev_permitted": false}, "geometry": {"type": "Polygon", "coordinates": [[[-73.9422757994737, 40.7901639648341], [-73.9422322748446, 40.7902236170968], [-73.942471640171, 40.7903248146207], [-73.9425151655769, 40.7902651615663], [-73.9422757994737, 40.7901639648341]]]}}, {"type": "Feature", "properties": {"zone_id": "0202CO8POLIC5DMBTX3WI7", "tract_id": "36061017000", "city": "NEW YORK, NY", "zone_code": "R7A", "zone_category": "Residential", "ev_permitted": false}, "geometry": {"type": "Polygon", "coordinates": [[[-73.9423257071431, 40.7897816006262], [-73.9421429179287, 40.7900321208638], [-73.9422221740067, 40.7900656279064], [-73.9424049630141, 40.7898151082472], [-73.9423257071431, 40.7897816006262]]]}}, {"type": "Feature", "properties": {"zone_id": "0207FRB76XQAC8AW4G1YSF", "tract_id": "36061017000", "city": "NEW YORK, NY", "zone_code": "R7A", "zone_category": "Residential", "ev_permitted": false}, "geometry": {"type": "Polygon", "coordinates": [[[-73.9419070973755, 40.7899324217886], [-73.9417265887341, 40.7901798121988], [-73.9418039946066, 40.7902125379471], [-73.9419845021247, 40.7899651474165], [-73.9419070973755, 40.7899324217886]]]}}, {"type": "Feature", "properties": {"zone_id": "0205NADLXTQYX7TGWXSFX9", "tract_id": "36061017000", "city": "NEW YORK, NY", "zone_code": "R7A", "zone_category": "Residential", "ev_permitted": false}, "geometry": {"type": "Polygon", "coordinates": [[[-73.9419845021247, 40.7899651474165], [-73.9418039946066, 40.7902125379471], [-73.9418836850845, 40.7902462295356], [-73.9420641933222, 40.789998838882], [-73.9419845021247, 40.7899651474165]]]}}, {"type": "Feature", "properties": {"zone_id": "0200RS0URO0JSGUUK4N5IH", "tract_id": "36061017000", "city": "NEW YORK, NY", "zone_code": "R7A", "zone_category": "Residential", "ev_permitted": false}, "geometry": {"type": "Polygon", "coordinates": [[[-73.9420641933222, 40.789998838882], [-73.9418836850845, 40.7902462295356], [-73.9419624098933, 40.7902795116394], [-73.9421429179287, 40.7900321208638], [-73.9420641933222, 40.789998838882]]]}}, {"type": "Feature", "properties": {"zone_id": "0207KEHMYCLK8161M7R4GQ", "tract_id": "36061017000", "city": "NEW YORK, NY", "zone_code": "R7A", "zone_category": "Residential", "ev_permitted": false}, "geometry": {"type": "Polygon", "coordinates": [[[-73.9417871999648, 40.7898817317487], [-73.9416053103212, 40.7901285387755], [-73.9417265887341, 40.7901798121988], [-73.9419070973755, 40.7899324217886], [-73.9417871999648, 40.7898817317487]]]}}, {"type": "Feature", "properties": {"zone_id": "0204KCS6A7IUEQE3L45UB8", "tract_id": "36061017000", "city": "NEW YORK, NY", "zone_code": "R7A", "zone_category": "Residential", "ev_permitted": false}, "geometry": {"type": "Polygon", "coordinates": [[[-73.9415150843428, 40.7897666823803], [-73.9413345746941, 40.7900140721829], [-73.941409406401, 40.7900457141013], [-73.9415899158574, 40.7897983241827], [-73.9415150843428, 40.7897666823803]]]}}, {"type": "Feature", "properties": {"zone_id": "0202RQLXSK81QR6YO97M7I", "tract_id": "36061017000", "city": "NEW YORK, NY", "zone_code": "R7A", "zone_category": "Residential", "ev_permitted": false}, "geometry": {"type": "Polygon", "coordinates": [[[-73.9415899158574, 40.7897983241827], [-73.941409406401, 40.7900457141013], [-73.9414874126642, 40.7900786940254], [-73.9416679219208, 40.7898313032833], [-73.9415899158574, 40.7897983241827]]]}}, {"type": "Feature", "properties": {"zone_id": "0201VYD5VRZVLIL1CBDQMC", "tract_id": "36061017000", "city": "NEW YORK, NY", "zone_code": "R7A", "zone_category": "Residential", "ev_permitted": false}, "geometry": {"type": "Polygon", "coordinates": [[[-73.9416679219208, 40.7898313032833], [-73.9414874126642, 40.7900786940254], [-73.9416053103212, 40.7901285387755], [-73.9417871999648, 40.7898817317487], [-73.9416679219208, 40.7898313032833]]]}}, {"type": "Feature", "properties": {"zone_id": "0200F8ZX3XZD4QJLNQ1K9L", "tract_id": "36061017000", "city": "NEW YORK, NY", "zone_code": "R7A", "zone_category": "Residential", "ev_permitted": false}, "geometry": {"type": "Polygon", "coordinates": [[[-73.9433048837652, 40.7896976460303], [-73.9432599599935, 40.7897591832102], [-73.9435778842045, 40.7898933742514], [-73.9436228077729, 40.7898318369489], [-73.9433048837652, 40.7896976460303]]]}}, {"type": "Feature", "properties": {"zone_id": "0205UPVEUBQRCNX4WQE7EE", "tract_id": "36061017000", "city": "NEW YORK, NY", "zone_code": "R7A", "zone_category": "Residential", "ev_permitted": false}, "geometry": {"type": "Polygon", "coordinates": [[[-73.9432599599935, 40.7897591832102], [-73.9432136523975, 40.789822616849], [-73.9435315758942, 40.7899568073136], [-73.9435778842045, 40.7898933742514], [-73.9432599599935, 40.7897591832102]]]}}, {"type": "Feature", "properties": {"zone_id": "0201BFKF46NW53YM2M5COS", "tract_id": "36061017000", "city": "NEW YORK, NY", "zone_code": "TA", "zone_category": "Other", "ev_permitted": false}, "geometry": {"type": "Polygon", "coordinates": [[[-73.9427644416615, 40.7894711616991], [-73.9427209187437, 40.7895309350093], [-73.9429752851371, 40.7896384768688], [-73.9430188078964, 40.7895787041662], [-73.9427644416615, 40.7894711616991]]]}}, {"type": "Feature", "properties": {"zone_id": "020687G942NRS08H0N5HTE", "tract_id": "36061017000", "city": "NEW YORK, NY", "zone_code": "EHC", "zone_category": "Other", "ev_permitted": false}, "geometry": {"type": "Polygon", "coordinates": [[[-73.9428540539016, 40.7893480903956], [-73.9428096296259, 40.7894091020679], [-73.9430639947727, 40.7895166437332], [-73.943108418887, 40.7894556319639], [-73.9428540539016, 40.7893480903956]]]}}, {"type": "Feature", "properties": {"zone_id": "0200OVVTFJKPHO2SU07KZI", "tract_id": "36061017000", "city": "NEW YORK, NY", "zone_code": "EHC", "zone_category": "Other", "ev_permitted": false}, "geometry": {"type": "Polygon", "coordinates": [[[-73.9428096296259, 40.7894091020679], [-73.9427644416615, 40.7894711616991], [-73.9430188078964, 40.7895787041662], [-73.9430639947727, 40.7895166437332], [-73.9428096296259, 40.7894091020679]]]}}, {"type": "Feature", "properties": {"zone_id": "0205JTEK28OOXCSRW2DROO", "tract_id": "36061017000", "city": "NEW YORK, NY", "zone_code": "TA", "zone_category": "Other", "ev_permitted": false}, "geometry": {"type": "Polygon", "coordinates": [[[-73.9427209187437, 40.7895309350093], [-73.9426781186322, 40.7895897158155], [-73.9429324842567, 40.7896972577681], [-73.9429752851371, 40.7896384768688], [-73.9427209187437, 40.7895309350093]]]}}, {"type": "Feature", "properties": {"zone_id": "02069KKJ7N7KIEQ9TVV1B7", "tract_id": "36061017000", "city": "NEW YORK, NY", "zone_code": "TA", "zone_category": "Other", "ev_permitted": false}, "geometry": {"type": "Polygon", "coordinates": [[[-73.9426327295687, 40.7896520521381], [-73.9425867674794, 40.7897151744238], [-73.9428411343607, 40.7898227158736], [-73.9428870953586, 40.7897595934871], [-73.9426327295687, 40.7896520521381]]]}}, {"type": "Feature", "properties": {"zone_id": "0207B0TPX727IXNI00IUTB", "tract_id": "36061017000", "city": "NEW YORK, NY", "zone_code": "TA", "zone_category": "Other", "ev_permitted": false}, "geometry": {"type": "Polygon", "coordinates": [[[-73.9426781186322, 40.7895897158155], [-73.9426327295687, 40.7896520521381], [-73.9428870953586, 40.7897595934871], [-73.9429324842567, 40.7896972577681], [-73.9426781186322, 40.7895897158155]]]}}, {"type": "Feature", "properties": {"zone_id": "0205NZ82M3804HYC7INJUZ", "tract_id": "36061017000", "city": "NEW YORK, NY", "zone_code": "R7A", "zone_category": "Residential", "ev_permitted": false}, "geometry": {"type": "Polygon", "coordinates": [[[-73.9422885753882, 40.7892699710099], [-73.9421108990738, 40.7895139837108], [-73.9421865059567, 40.7895459487361], [-73.9423641811542, 40.7893019366222], [-73.9422885753882, 40.7892699710099]]]}}, {"type": "Feature", "properties": {"zone_id": "020544ITJJC7ZLOM7T2DMR", "tract_id": "36061017000", "city": "NEW YORK, NY", "zone_code": "R7A", "zone_category": "Residential", "ev_permitted": false}, "geometry": {"type": "Polygon", "coordinates": [[[-73.9421672926756, 40.7897146274281], [-73.9419845021247, 40.7899651474165], [-73.9420641933222, 40.789998838882], [-73.9422469836665, 40.7897483180658], [-73.9421672926756, 40.7897146274281]]]}}, {"type": "Feature", "properties": {"zone_id": "0202X2UNVDRIH0MY5BUY0U", "tract_id": "36061017000", "city": "NEW YORK, NY", "zone_code": "R7A", "zone_category": "Residential", "ev_permitted": false}, "geometry": {"type": "Polygon", "coordinates": [[[-73.9422469836665, 40.7897483180658], [-73.9420641933222, 40.789998838882], [-73.9421429179287, 40.7900321208638], [-73.9423257071431, 40.7897816006262], [-73.9422469836665, 40.7897483180658]]]}}, {"type": "Feature", "properties": {"zone_id": "0206RUPXTLFMW75D2NGYXN", "tract_id": "36061017000", "city": "NEW YORK, NY", "zone_code": "R7A", "zone_category": "Residential", "ev_permitted": false}, "geometry": {"type": "Polygon", "coordinates": [[[-73.9426024990709, 40.7894026942094], [-73.9424248235535, 40.7896467066865], [-73.942501636764, 40.7896791815292], [-73.942679310237, 40.7894351696367], [-73.9426024990709, 40.7894026942094]]]}}, {"type": "Feature", "properties": {"zone_id": "02020C59TM5BHDJQNIO8T1", "tract_id": "36061017000", "city": "NEW YORK, NY", "zone_code": "TA", "zone_category": "Other", "ev_permitted": false}, "geometry": {"type": "Polygon", "coordinates": [[[-73.942679310237, 40.7894351696367], [-73.942501636764, 40.7896791815292], [-73.9425867674794, 40.7897151744238], [-73.9427644416615, 40.7894711616991], [-73.942679310237, 40.7894351696367]]]}}, {"type": "Feature", "properties": {"zone_id": "0207ICQSFDSITUU7D3HY1Y", "tract_id": "36061017000", "city": "NEW YORK, NY", "zone_code": "R7A", "zone_category": "Residential", "ev_permitted": false}, "geometry": {"type": "Polygon", "coordinates": [[[-73.9425236964274, 40.7893693773665], [-73.9423460207101, 40.7896133897234], [-73.9424248235535, 40.7896467066865], [-73.9426024990709, 40.7894026942094], [-73.9425236964274, 40.7893693773665]]]}}, {"type": "Feature", "properties": {"zone_id": "0201J3N88YG6NS3I9NMPYV", "tract_id": "36061017000", "city": "NEW YORK, NY", "zone_code": "R7A", "zone_category": "Residential", "ev_permitted": false}, "geometry": {"type": "Polygon", "coordinates": [[[-73.9423641811542, 40.7893019366222], [-73.9421865059567, 40.7895459487361], [-73.9422660202404, 40.7895795661973], [-73.9424436952362, 40.7893355539619], [-73.9423641811542, 40.7893019366222]]]}}, {"type": "Feature", "properties": {"zone_id": "0204RKWXUISEIA4EAW3MAJ", "tract_id": "36061017000", "city": "NEW YORK, NY", "zone_code": "R7A", "zone_category": "Residential", "ev_permitted": false}, "geometry": {"type": "Polygon", "coordinates": [[[-73.9424436952362, 40.7893355539619], [-73.9422660202404, 40.7895795661973], [-73.9423460207101, 40.7896133897234], [-73.9425236964274, 40.7893693773665], [-73.9424436952362, 40.7893355539619]]]}}, {"type": "Feature", "properties": {"zone_id": "020645JC2ECJI72GWXGEKF", "tract_id": "36061017000", "city": "NEW YORK, NY", "zone_code": "EHC", "zone_category": "Other", "ev_permitted": false}, "geometry": {"type": "Polygon", "coordinates": [[[-73.9429464545804, 40.7892211867345], [-73.9428967167188, 40.7892894949539], [-73.9431515517392, 40.7893963944375], [-73.9432012894204, 40.7893280847039], [-73.9429464545804, 40.7892211867345]]]}}, {"type": "Feature", "properties": {"zone_id": "020568E0OZ8H90VIFY4R8H", "tract_id": "36061017000", "city": "NEW YORK, NY", "zone_code": "R9A", "zone_category": "Residential", "ev_permitted": false}, "geometry": {"type": "Polygon", "coordinates": [[[-73.9428967167188, 40.7892894949539], [-73.9428540539016, 40.7893480903956], [-73.943108418887, 40.7894556319639], [-73.9431515517392, 40.7893963944375], [-73.9428967167188, 40.7892894949539]]]}}, {"type": "Feature", "properties": {"zone_id": "0206WT3V1LA8EN3RNMMDTV", "tract_id": "36061017000", "city": "NEW YORK, NY", "zone_code": "R7A", "zone_category": "Residential", "ev_permitted": false}, "geometry": {"type": "Polygon", "coordinates": [[[-73.9428611688031, 40.7891854097397], [-73.942679310237, 40.7894351696367], [-73.9427644416615, 40.7894711616991], [-73.9429464545804, 40.7892211867345], [-73.9428611688031, 40.7891854097397]]]}}, {"type": "Feature", "properties": {"zone_id": "0203SFJYZD30IWY8NWBBK7", "tract_id": "36061017000", "city": "NEW YORK, NY", "zone_code": "R7A", "zone_category": "Residential", "ev_permitted": false}, "geometry": {"type": "Polygon", "coordinates": [[[-73.942784215298, 40.7891531289961], [-73.9426024990709, 40.7894026942094], [-73.942679310237, 40.7894351696367], [-73.9428611688031, 40.7891854097397], [-73.942784215298, 40.7891531289961]]]}}, {"type": "Feature", "properties": {"zone_id": "0200KO5LEPY8T12OFQCRW5", "tract_id": "36061017000", "city": "NEW YORK, NY", "zone_code": "R7A", "zone_category": "Residential", "ev_permitted": false}, "geometry": {"type": "Polygon", "coordinates": [[[-73.9427052675434, 40.7891200110543], [-73.9425236964274, 40.7893693773665], [-73.9426024990709, 40.7894026942094], [-73.942784215298, 40.7891531289961], [-73.9427052675434, 40.7891200110543]]]}}, {"type": "Feature", "properties": {"zone_id": "02046UY1AHJ8MAJ5XUH4QM", "tract_id": "36061017000", "city": "NEW YORK, NY", "zone_code": "R7A", "zone_category": "Residential", "ev_permitted": false}, "geometry": {"type": "Polygon", "coordinates": [[[-73.9426251193918, 40.7890863900648], [-73.9424436952362, 40.7893355539619], [-73.9425236964274, 40.7893693773665], [-73.9427052675434, 40.7891200110543], [-73.9426251193918, 40.7890863900648]]]}}, {"type": "Feature", "properties": {"zone_id": "0203JB3GFJ9STS119KOR0F", "tract_id": "36061017000", "city": "NEW YORK, NY", "zone_code": "R7A", "zone_category": "Residential", "ev_permitted": false}, "geometry": {"type": "Polygon", "coordinates": [[[-73.9425454601979, 40.7890529737347], [-73.9423641811542, 40.7893019366222], [-73.9424436952362, 40.7893355539619], [-73.9426251193918, 40.7890863900648], [-73.9425454601979, 40.7890529737347]]]}}, {"type": "Feature", "properties": {"zone_id": "0205MMY8RQ0NT171DTU1QD", "tract_id": "36061017000", "city": "NEW YORK, NY", "zone_code": "R7A", "zone_category": "Residential", "ev_permitted": false}, "geometry": {"type": "Polygon", "coordinates": [[[-73.942209201934, 40.7892364126559], [-73.9420315263439, 40.7894804238308], [-73.9421108990738, 40.7895139837108], [-73.9422885753882, 40.7892699710099], [-73.942209201934, 40.7892364126559]]]}}, {"type": "Feature", "properties": {"zone_id": "0200CMMAMM9BSJSHFHX8U9", "tract_id": "36061017000", "city": "NEW YORK, NY", "zone_code": "R7A", "zone_category": "Residential", "ev_permitted": false}, "geometry": {"type": "Polygon", "coordinates": [[[-73.9423901953741, 40.7889878412436], [-73.942209201934, 40.7892364126559], [-73.9422885753882, 40.7892699710099], [-73.9424697157902, 40.7890211985895], [-73.9423901953741, 40.7889878412436]]]}}, {"type": "Feature", "properties": {"zone_id": "0205SVJHWA4A7JJ0IFEMV7", "tract_id": "36061017000", "city": "NEW YORK, NY", "zone_code": "R7A", "zone_category": "Residential", "ev_permitted": false}, "geometry": {"type": "Polygon", "coordinates": [[[-73.9424697157902, 40.7890211985895], [-73.9422885753882, 40.7892699710099], [-73.9423641811542, 40.7893019366222], [-73.9425454601979, 40.7890529737347], [-73.9424697157902, 40.7890211985895]]]}}, {"type": "Feature", "properties": {"zone_id": "02047OKS0H5XJ7793R2HQW", "tract_id": "36061017000", "city": "NEW YORK, NY", "zone_code": "R7A", "zone_category": "Residential", "ev_permitted": false}, "geometry": {"type": "Polygon", "coordinates": [[[-73.9420898881279, 40.7896819019216], [-73.9419070973755, 40.7899324217886], [-73.9419845021247, 40.7899651474165], [-73.9421672926756, 40.7897146274281], [-73.9420898881279, 40.7896819019216]]]}}, {"type": "Feature", "properties": {"zone_id": "020491S390CDHPIS8J331P", "tract_id": "36061017000", "city": "NEW YORK, NY", "zone_code": "R7A", "zone_category": "Residential", "ev_permitted": false}, "geometry": {"type": "Polygon", "coordinates": [[[-73.9419637132487, 40.7896285585078], [-73.941780922168, 40.7898790781767], [-73.9419070973755, 40.7899324217886], [-73.9420898881279, 40.7896819019216], [-73.9419637132487, 40.7896285585078]]]}}, {"type": "Feature", "properties": {"zone_id": "0204NRGDGIYYYQCYOIUKKT", "tract_id": "36061017000", "city": "NEW YORK, NY", "zone_code": "R7A", "zone_category": "Residential", "ev_permitted": false}, "geometry": {"type": "Polygon", "coordinates": [[[-73.9417073625234, 40.7895201779586], [-73.941524570775, 40.7897706979278], [-73.941780922168, 40.7898790781767], [-73.9419637132487, 40.7896285585078], [-73.9417073625234, 40.7895201779586]]]}}, {"type": "Feature", "properties": {"zone_id": "02019N3RNHN2O612C7J78E", "tract_id": "36061017000", "city": "NEW YORK, NY", "zone_code": "R7A", "zone_category": "Residential", "ev_permitted": false}, "geometry": {"type": "Polygon", "coordinates": [[[-73.9410643702986, 40.7892483295782], [-73.9408815787268, 40.7894988478365], [-73.941524570775, 40.7897706979278], [-73.9417073625234, 40.7895201779586], [-73.9410643702986, 40.7892483295782]]]}}, {"type": "Feature", "properties": {"zone_id": "0206ZKMTDHF652IA4Q1L8P", "tract_id": "36061017000", "city": "NEW YORK, NY", "zone_code": "R7A", "zone_category": "Residential", "ev_permitted": false}, "geometry": {"type": "Polygon", "coordinates": [[[-73.9411954119683, 40.7896315340645], [-73.9410149014981, 40.7898789233716], [-73.9410952990788, 40.7899129144961], [-73.9412758084179, 40.7896655250639], [-73.9411954119683, 40.7896315340645]]]}}, {"type": "Feature", "properties": {"zone_id": "0203CQ04Y6UCT1GILEO5CS", "tract_id": "36061017000", "city": "NEW YORK, NY", "zone_code": "R7A", "zone_category": "Residential", "ev_permitted": false}, "geometry": {"type": "Polygon", "coordinates": [[[-73.9412758084179, 40.7896655250639], [-73.9410952990788, 40.7899129144961], [-73.9411713522937, 40.7899450687241], [-73.9413518623619, 40.7896976791745], [-73.9412758084179, 40.7896655250639]]]}}, {"type": "Feature", "properties": {"zone_id": "0207CQ878LZK9EXODM4SH3", "tract_id": "36061017000", "city": "NEW YORK, NY", "zone_code": "R7A", "zone_category": "Residential", "ev_permitted": false}, "geometry": {"type": "Polygon", "coordinates": [[[-73.9413518623619, 40.7896976791745], [-73.9411713522937, 40.7899450687241], [-73.9412519903147, 40.7899791610434], [-73.9414325001757, 40.7897317713688], [-73.9413518623619, 40.7896976791745]]]}}, {"type": "Feature", "properties": {"zone_id": "0205CFQ3WQR0RZ60MGISCY", "tract_id": "36061017000", "city": "NEW YORK, NY", "zone_code": "R7A", "zone_category": "Residential", "ev_permitted": false}, "geometry": {"type": "Polygon", "coordinates": [[[-73.9414325001757, 40.7897317713688], [-73.9412519903147, 40.7899791610434], [-73.9413345746941, 40.7900140721829], [-73.9415150843428, 40.7897666823803], [-73.9414325001757, 40.7897317713688]]]}}, {"type": "Feature", "properties": {"zone_id": "02051FFNQ8G3JPQWP0HO6Q", "tract_id": "36061017000", "city": "NEW YORK, NY", "zone_code": "R7A", "zone_category": "Residential", "ev_permitted": false}, "geometry": {"type": "Polygon", "coordinates": [[[-73.9408951063776, 40.7895045680333], [-73.9407145951358, 40.7897519568749], [-73.9407959119391, 40.7897863365454], [-73.9409764220474, 40.7895389475773], [-73.9408951063776, 40.7895045680333]]]}}, {"type": "Feature", "properties": {"zone_id": "0200GI2TNY56FCB8NGAPFC", "tract_id": "36061017000", "city": "NEW YORK, NY", "zone_code": "R7A", "zone_category": "Residential", "ev_permitted": false}, "geometry": {"type": "Polygon", "coordinates": [[[-73.9409764220474, 40.7895389475773], [-73.9407959119391, 40.7897863365454], [-73.940934517862, 40.7898449378192], [-73.9411150285386, 40.7895975486367], [-73.9409764220474, 40.7895389475773]]]}}, {"type": "Feature", "properties": {"zone_id": "0201UCJ05850WG4K53SLQW", "tract_id": "36061017000", "city": "NEW YORK, NY", "zone_code": "R7A", "zone_category": "Residential", "ev_permitted": false}, "geometry": {"type": "Polygon", "coordinates": [[[-73.9411150285386, 40.7895975486367], [-73.940934517862, 40.7898449378192], [-73.9410149014981, 40.7898789233716], [-73.9411954119683, 40.7896315340645], [-73.9411150285386, 40.7895975486367]]]}}, {"type": "Feature", "properties": {"zone_id": "020015XGQMZX9O39B439N4", "tract_id": "36061017000", "city": "NEW YORK, NY", "zone_code": "R7A", "zone_category": "Residential", "ev_permitted": false}, "geometry": {"type": "Polygon", "coordinates": [[[-73.9408167129393, 40.7894714237882], [-73.9406362014961, 40.7897188125083], [-73.9407145951358, 40.7897519568749], [-73.9408951063776, 40.7895045680333], [-73.9408167129393, 40.7894714237882]]]}}, {"type": "Feature", "properties": {"zone_id": "0203KROUK4TH0OKPEWCLNM", "tract_id": "36061017000", "city": "NEW YORK, NY", "zone_code": "R7A", "zone_category": "Residential", "ev_permitted": false}, "geometry": {"type": "Polygon", "coordinates": [[[-73.9419090702358, 40.7887860111443], [-73.9415512826868, 40.7892773785163], [-73.9420315263439, 40.7894804238308], [-73.9423901953741, 40.7889878412436], [-73.9419090702358, 40.7887860111443]]]}}, {"type": "Feature", "properties": {"zone_id": "0201STAPH296LEWOHO2TH2", "tract_id": "36061017000", "city": "NEW YORK, NY", "zone_code": "R7A", "zone_category": "Residential", "ev_permitted": false}, "geometry": {"type": "Polygon", "coordinates": [[[-73.9416744580869, 40.7890103251568], [-73.9414967811403, 40.789254335516], [-73.9415512826868, 40.7892773785163], [-73.9417289594951, 40.789033368074], [-73.9416744580869, 40.7890103251568]]]}}, {"type": "Feature", "properties": {"zone_id": "0203VI3KC2EG0QA7YNS015", "tract_id": "36061017000", "city": "NEW YORK, NY", "zone_code": "R7A", "zone_category": "Residential", "ev_permitted": false}, "geometry": {"type": "Polygon", "coordinates": [[[-73.9418354630558, 40.7887551325384], [-73.9416554863381, 40.7890023039222], [-73.9417289594951, 40.789033368074], [-73.9419090702358, 40.7887860111443], [-73.9418354630558, 40.7887551325384]]]}}, {"type": "Feature", "properties": {"zone_id": "0206O6JAV0KZ2XVRBM9ADA", "tract_id": "36061017000", "city": "NEW YORK, NY", "zone_code": "R7A", "zone_category": "Residential", "ev_permitted": false}, "geometry": {"type": "Polygon", "coordinates": [[[-73.9417548213663, 40.7887213034102], [-73.9415749925371, 40.7889682709755], [-73.9416554863381, 40.7890023039222], [-73.9418354630558, 40.7887551325384], [-73.9417548213663, 40.7887213034102]]]}}, {"type": "Feature", "properties": {"zone_id": "0206EJTQGJ2TIWUD03L4XZ", "tract_id": "36061017000", "city": "NEW YORK, NY", "zone_code": "R7A", "zone_category": "Residential", "ev_permitted": false}, "geometry": {"type": "Polygon", "coordinates": [[[-73.9415578958975, 40.7889610425635], [-73.9413802195797, 40.7892050527453], [-73.9414967811403, 40.789254335516], [-73.9416744580869, 40.7890103251568], [-73.9415578958975, 40.7889610425635]]]}}, {"type": "Feature", "properties": {"zone_id": "0204NWQK2DS4QB6B7FB2L0", "tract_id": "36061017000", "city": "NEW YORK, NY", "zone_code": "R7A", "zone_category": "Residential", "ev_permitted": false}, "geometry": {"type": "Polygon", "coordinates": [[[-73.9409829347996, 40.7892138994422], [-73.9408001411669, 40.7894644175718], [-73.9408815787268, 40.7894988478365], [-73.9410643702986, 40.7892483295782], [-73.9409829347996, 40.7892138994422]]]}}, {"type": "Feature", "properties": {"zone_id": "02011D1WYHTUMW9IE599TS", "tract_id": "36061017000", "city": "NEW YORK, NY", "zone_code": "R8A", "zone_category": "Residential", "ev_permitted": false}, "geometry": {"type": "Polygon", "coordinates": [[[-73.940664119144, 40.7890791056196], [-73.9406155176835, 40.7891457130258], [-73.9409343492704, 40.7892805133133], [-73.9409829347996, 40.7892138994422], [-73.940664119144, 40.7890791056196]]]}}, {"type": "Feature", "properties": {"zone_id": "0201BVO1Q7AP6G8U3M44SL", "tract_id": "36061017000", "city": "NEW YORK, NY", "zone_code": "R8A", "zone_category": "Residential", "ev_permitted": false}, "geometry": {"type": "Polygon", "coordinates": [[[-73.9406155176835, 40.7891457130258], [-73.9405698318325, 40.7892083252329], [-73.9408886479161, 40.7893431193136], [-73.9409343492704, 40.7892805133133], [-73.9406155176835, 40.7891457130258]]]}}, {"type": "Feature", "properties": {"zone_id": "02001WCOU1G4D8W98I906J", "tract_id": "36061017000", "city": "NEW YORK, NY", "zone_code": "R7A", "zone_category": "Residential", "ev_permitted": false}, "geometry": {"type": "Polygon", "coordinates": [[[-73.9411807634571, 40.7888015891308], [-73.9411378180607, 40.7888605667431], [-73.941170948441, 40.7888745741525], [-73.9410362157016, 40.7890596068871], [-73.9411602456714, 40.7891120473199], [-73.9413379234723, 40.7888680367715], [-73.9411807634571, 40.7888015891308]]]}}, {"type": "Feature", "properties": {"zone_id": "0205ANO7N20WHIY5BQAKYU", "tract_id": "36061017000", "city": "NEW YORK, NY", "zone_code": "R7A", "zone_category": "Residential", "ev_permitted": false}, "geometry": {"type": "Polygon", "coordinates": [[[-73.9413379234723, 40.7888680367715], [-73.9411602456714, 40.7891120473199], [-73.9412687040148, 40.7891579042723], [-73.9414463815406, 40.7889138935585], [-73.9413379234723, 40.7888680367715]]]}}, {"type": "Feature", "properties": {"zone_id": "0203O1OCOP2T2ANHYBW691", "tract_id": "36061017000", "city": "NEW YORK, NY", "zone_code": "R7A", "zone_category": "Residential", "ev_permitted": false}, "geometry": {"type": "Polygon", "coordinates": [[[-73.9414463815406, 40.7889138935585], [-73.9412687040148, 40.7891579042723], [-73.9413802195797, 40.7892050527453], [-73.9415578958975, 40.7889610425635], [-73.9414463815406, 40.7889138935585]]]}}, {"type": "Feature", "properties": {"zone_id": "0204ZEDN4S5CXHPPU1H972", "tract_id": "36061017000", "city": "NEW YORK, NY", "zone_code": "R8A", "zone_category": "Residential", "ev_permitted": false}, "geometry": {"type": "Polygon", "coordinates": [[[-73.9408949584775, 40.788757883441], [-73.9408290977214, 40.7888480230208], [-73.9411052598328, 40.788964787052], [-73.941170948441, 40.7888745741525], [-73.9408949584775, 40.788757883441]]]}}, {"type": "Feature", "properties": {"zone_id": "02062CJEHCW7NFUWGBGYLR", "tract_id": "36061017000", "city": "NEW YORK, NY", "zone_code": "R8A", "zone_category": "Residential", "ev_permitted": false}, "geometry": {"type": "Polygon", "coordinates": [[[-73.9408290977214, 40.7888480230208], [-73.9407598749593, 40.7889427674169], [-73.9410362157016, 40.7890596068871], [-73.9411052598328, 40.788964787052], [-73.9408290977214, 40.7888480230208]]]}}, {"type": "Feature", "properties": {"zone_id": "02079M6R1BPXS930V6UQZI", "tract_id": "36061017000", "city": "NEW YORK, NY", "zone_code": "R7A", "zone_category": "Residential", "ev_permitted": false}, "geometry": {"type": "Polygon", "coordinates": [[[-73.9404813246817, 40.7893296232488], [-73.9403008123767, 40.7895770114491], [-73.9406362014961, 40.7897188125083], [-73.9408167129393, 40.7894714237882], [-73.9404813246817, 40.7893296232488]]]}}, {"type": "Feature", "properties": {"zone_id": "0206TCFWO5IIH78S1TU6J8", "tract_id": "36061017000", "city": "NEW YORK, NY", "zone_code": "R8A", "zone_category": "Residential", "ev_permitted": false}, "geometry": {"type": "Polygon", "coordinates": [[[-73.9405698318325, 40.7892083252329], [-73.9405262840843, 40.7892680077655], [-73.9408451003661, 40.7894028012627], [-73.9408886479161, 40.7893431193136], [-73.9405698318325, 40.7892083252329]]]}}, {"type": "Feature", "properties": {"zone_id": "020176XM1I0JXR1NW1I71F", "tract_id": "36061017000", "city": "NEW YORK, NY", "zone_code": "R8A", "zone_category": "Residential", "ev_permitted": false}, "geometry": {"type": "Polygon", "coordinates": [[[-73.9405262840843, 40.7892680077655], [-73.9404813246817, 40.7893296232488], [-73.9408001411669, 40.7894644175718], [-73.9408451003661, 40.7894028012627], [-73.9405262840843, 40.7892680077655]]]}}, {"type": "Feature", "properties": {"zone_id": "0203RCMHVB5HAK28W6XEAN", "tract_id": "36061017000", "city": "NEW YORK, NY", "zone_code": "R7A", "zone_category": "Residential", "ev_permitted": false}, "geometry": {"type": "Polygon", "coordinates": [[[-73.9416777377063, 40.7886889663496], [-73.9414980502958, 40.7889357392333], [-73.9415749925371, 40.7889682709755], [-73.9417548213663, 40.7887213034102], [-73.9416777377063, 40.7886889663496]]]}}, {"type": "Feature", "properties": {"zone_id": "02045SK8QPL2OGK88US4WT", "tract_id": "36061017000", "city": "NEW YORK, NY", "zone_code": "R7A", "zone_category": "Residential", "ev_permitted": false}, "geometry": {"type": "Polygon", "coordinates": [[[-73.9415173160283, 40.788621669415], [-73.9413379234723, 40.7888680367715], [-73.9414980502958, 40.7889357392333], [-73.9416777377063, 40.7886889663496], [-73.9415173160283, 40.788621669415]]]}}, {"type": "Feature", "properties": {"zone_id": "0205DTVRUY3N1FA4TF769L", "tract_id": "36061017000", "city": "NEW YORK, NY", "zone_code": "R7A", "zone_category": "Residential", "ev_permitted": false}, "geometry": {"type": "Polygon", "coordinates": [[[-73.9414378390779, 40.7885883282952], [-73.9412585925626, 40.7888344953481], [-73.9413379234723, 40.7888680367715], [-73.9415173160283, 40.788621669415], [-73.9414378390779, 40.7885883282952]]]}}, {"type": "Feature", "properties": {"zone_id": "0206LS94K2EPFKQJR3WJOO", "tract_id": "36061017000", "city": "NEW YORK, NY", "zone_code": "R8A", "zone_category": "Residential", "ev_permitted": false}, "geometry": {"type": "Polygon", "coordinates": [[[-73.9409821634965, 40.7886385279648], [-73.9409380149188, 40.7886989530527], [-73.9411807634571, 40.7888015891308], [-73.941224797289, 40.788741116112], [-73.9409821634965, 40.7886385279648]]]}}, {"type": "Feature", "properties": {"zone_id": "0203HEBP293CVYHFFRJ7W9", "tract_id": "36061017000", "city": "NEW YORK, NY", "zone_code": "R8A", "zone_category": "Residential", "ev_permitted": false}, "geometry": {"type": "Polygon", "coordinates": [[[-73.9413598667045, 40.7885556181643], [-73.9411807634571, 40.7888015891308], [-73.9412585925626, 40.7888344953481], [-73.9414378390779, 40.7885883282952], [-73.9413598667045, 40.7885556181643]]]}}, {"type": "Feature", "properties": {"zone_id": "0206UVQYMTO20LVMHT0URB", "tract_id": "36061017000", "city": "NEW YORK, NY", "zone_code": "R8A", "zone_category": "Residential", "ev_permitted": false}, "geometry": {"type": "Polygon", "coordinates": [[[-73.9409380149188, 40.7886989530527], [-73.9408949584775, 40.788757883441], [-73.9411378180607, 40.7888605667431], [-73.9411807634571, 40.7888015891308], [-73.9409380149188, 40.7886989530527]]]}}, {"type": "Feature", "properties": {"zone_id": "02038IW36IX7TMYNCTDQ81", "tract_id": "36061017000", "city": "NEW YORK, NY", "zone_code": "R8A", "zone_category": "Residential", "ev_permitted": false}, "geometry": {"type": "Polygon", "coordinates": [[[-73.9411171374856, 40.7884537912211], [-73.9409821634965, 40.7886385279648], [-73.941224797289, 40.788741116112], [-73.9413598667045, 40.7885556181643], [-73.9411171374856, 40.7884537912211]]]}}]}