{"type": "FeatureCollection", "features": [{"type": "Feature", "properties": {"zone_id": "0203S4GWPNZCTAV204SPLO", "tract_id": "26033980300", "city": "MI", "zone_code": "HEAVY INDUSTRIAL", "zone_category": "Industrial", "ev_permitted": true}, "geometry": {"type": "Polygon", "coordinates": [[[-84.4547325271099, 46.2449754348461], [-84.4547206693482, 46.2472494867009], [-84.4573219209164, 46.2472499836832], [-84.4573018884856, 46.2511079838274], [-84.4608210386111, 46.2496945230894], [-84.4601252934236, 46.2484273221495], [-84.4618699115369, 46.2477265255293], [-84.4660396215912, 46.2527221693314], [-84.4676393414491, 46.2521053481079], [-84.4677398629294, 46.2450008441145], [-84.4547325271099, 46.2449754348461]]]}}, {"type": "Feature", "properties": {"zone_id": "020167O8GHENDRBJJAHJJ6", "tract_id": "26033980300", "city": "MI", "zone_code": "INSTITUTIONAL", "zone_category": "Other", "ev_permitted": false}, "geometry": {"type": "Polygon", "coordinates": [[[-84.4469305690358, 46.2449592201234], [-84.4468748734882, 46.2521518739386], [-84.4546803349919, 46.2521608188201], [-84.4573018884856, 46.2511079838274], [-84.4573219209164, 46.2472499836832], [-84.4547206693482, 46.2472494867009], [-84.4547325271099, 46.2449754348461], [-84.4469305690358, 46.2449592201234]]]}}, {"type": "Feature", "properties": {"zone_id": "02011GSK1AD41RVVNX8F8F", "tract_id": "26033980300", "city": "KINCHELOE, MI", "zone_code": "HEAVY INDUSTRIAL", "zone_category": "Industrial", "ev_permitted": true}, "geometry": {"type": "Polygon", "coordinates": [[[-84.450432651171, 46.252158085662], [-84.4504123492456, 46.2549003685928], [-84.4468543918997, 46.254891858957], [-84.4467960912378, 46.2592532778965], [-84.4572540981125, 46.2592897359812], [-84.4572877849356, 46.2541010782137], [-84.4540975080356, 46.2541010782137], [-84.4530310281303, 46.2528231086999], [-84.4546803349919, 46.2521608188201], [-84.450432651171, 46.252158085662]], [[-84.4548349350523, 46.2589136016624], [-84.4557126789164, 46.2589216137974], [-84.455709714476, 46.2592243350044], [-84.4548319706119, 46.2592201736861], [-84.4548349350523, 46.2589136016624]]]}}, {"type": "Feature", "properties": {"zone_id": "02069S7ASB4CE3DKTT288F", "tract_id": "26033980300", "city": "MI", "zone_code": "HEAVY INDUSTRIAL", "zone_category": "Industrial", "ev_permitted": true}, "geometry": {"type": "Polygon", "coordinates": [[[-84.4567797876424, 46.2513176952119], [-84.4554523471471, 46.2518507908618], [-84.4565188270524, 46.2531287209167], [-84.4578462675478, 46.2525955755715], [-84.4567797876424, 46.2513176952119]]]}}, {"type": "Feature", "properties": {"zone_id": "0205TQT7LHS6O1CD83I1EG", "tract_id": "26033980300", "city": "MI", "zone_code": "INSTITUTIONAL", "zone_category": "Other", "ev_permitted": false}, "geometry": {"type": "Polygon", "coordinates": [[[-84.4554523471471, 46.2518507908618], [-84.4541733258456, 46.2523644387136], [-84.4552397159193, 46.2536423567999], [-84.4565188270524, 46.2531287209167], [-84.4554523471471, 46.2518507908618]]]}}, {"type": "Feature", "properties": {"zone_id": "02058EG36LBMWWJA131WC9", "tract_id": "26033980300", "city": "MI", "zone_code": "INSTITUTIONAL", "zone_category": "Other", "ev_permitted": false}, "geometry": {"type": "Polygon", "coordinates": [[[-84.4580900703159, 46.2507914274463], [-84.4567797876424, 46.2513176952119], [-84.4578462675478, 46.2525955755715], [-84.4591565502212, 46.2520693200678], [-84.4580900703159, 46.2507914274463]]]}}, {"type": "Feature", "properties": {"zone_id": "02045F66SV44857SQUAUOI", "tract_id": "26033980300", "city": "KINCHELOE, MI", "zone_code": "FOREST-RECREATION", "zone_category": "Other", "ev_permitted": false}, "geometry": {"type": "Polygon", "coordinates": [[[-84.4522703347477, 46.230629433963], [-84.4522156273469, 46.2342499332825], [-84.4548387079765, 46.2342655297954], [-84.4547805869776, 46.237886162049], [-84.4574007031668, 46.237901695395], [-84.4573386295807, 46.2415226469019], [-84.4547213880004, 46.2415071145809], [-84.4547047691677, 46.2449753727207], [-84.4677398629294, 46.2450008441145], [-84.4679565365759, 46.2343427666444], [-84.4653327372941, 46.2343274187032], [-84.4654023567286, 46.2307068623539], [-84.4522703347477, 46.230629433963]]]}}, {"type": "Feature", "properties": {"zone_id": "0205DG7A4UTEH81JXXKVMD", "tract_id": "26033980300", "city": "MI", "zone_code": "FOREST-RECREATION", "zone_category": "Other", "ev_permitted": false}, "geometry": {"type": "MultiPolygon", "coordinates": [[[[-84.4654023567286, 46.2307068623539], [-84.4653327372941, 46.2343274187032], [-84.4679565365759, 46.2343427666444], [-84.4680292102824, 46.2307222113076], [-84.4654023567286, 46.2307068623539]]], [[[-84.4470190530913, 46.2305983010078], [-84.4469212265569, 46.2378393134506], [-84.4468198965928, 46.2449589716218], [-84.4547047691677, 46.2449753727207], [-84.4547213880004, 46.2415071145809], [-84.4573386295807, 46.2415226469019], [-84.4574007031668, 46.237901695395], [-84.4547805869776, 46.237886162049], [-84.4548387079765, 46.2342655297954], [-84.4522156273469, 46.2342499332825], [-84.4522703347477, 46.230629433963], [-84.4470190530913, 46.2305983010078]]]]}}]}