{"type": "FeatureCollection", "features": [{"type": "Feature", "properties": {"zone_id": "02000YVZ2KV0040WRXXG9Z", "tract_id": "12086006719", "city": "MIAMI, FL", "zone_code": "", "zone_category": "Other", "ev_permitted": false}, "geometry": {"type": "Polygon", "coordinates": [[[-80.1951759471217, 25.7658601074733], [-80.1947524092342, 25.7658696862598], [-80.1947709241248, 25.7662769565669], [-80.1951892008265, 25.7662656435526], [-80.1951759471217, 25.7658601074733]]]}}, {"type": "Feature", "properties": {"zone_id": "0201VM0LJ2HZKKUEYG0TWO", "tract_id": "12086006719", "city": "MIAMI, FL", "zone_code": "", "zone_category": "Other", "ev_permitted": false}, "geometry": {"type": "Polygon", "coordinates": [[[-80.1951628467055, 25.7654593319463], [-80.194592309942, 25.7654787837364], [-80.1946092686813, 25.7658682570206], [-80.194610180635, 25.7658728646251], [-80.1951759471217, 25.7658601074733], [-80.1951628467055, 25.7654593319463]]]}}, {"type": "Feature", "properties": {"zone_id": "0206E5SR419T3IP7649L9N", "tract_id": "12086006719", "city": "MIAMI, FL", "zone_code": "", "zone_category": "Other", "ev_permitted": false}, "geometry": {"type": "Polygon", "coordinates": [[[-80.194592309942, 25.7654787837364], [-80.1933725313894, 25.7655203607992], [-80.1933851056699, 25.7659005945925], [-80.1935333552499, 25.7658979869433], [-80.193532779298, 25.7658787906086], [-80.1934306068035, 25.7658813043562], [-80.1934225318375, 25.765594082605], [-80.1934238979515, 25.7655853765082], [-80.1934298033289, 25.7655686514924], [-80.1934396711153, 25.7655535357534], [-80.1934530060542, 25.7655407872767], [-80.1934607706905, 25.7655355062194], [-80.1934780074339, 25.765527461534], [-80.1934967890568, 25.7655230918393], [-80.1935512046625, 25.7655212605787], [-80.1935509121926, 25.7655733951438], [-80.1935639742143, 25.7655736616516], [-80.1935642655403, 25.7655215269081], [-80.1937578309233, 25.7655162256921], [-80.1937702305273, 25.7655426972653], [-80.1937778731412, 25.7655553085053], [-80.1937958713914, 25.7655789982407], [-80.193815414648, 25.7655991504673], [-80.1938382031062, 25.7656173651885], [-80.1938640576806, 25.7656331377535], [-80.193877790133, 25.7656398315121], [-80.1939065668754, 25.7656506887448], [-80.1939081795434, 25.7657077019205], [-80.1937465758651, 25.7657088964529], [-80.193745078407, 25.7656559513477], [-80.1936840399792, 25.7656564021605], [-80.1936855694938, 25.765710501092], [-80.1936139281632, 25.7657110303585], [-80.1936125538775, 25.7656624329676], [-80.1935778997385, 25.7656625360502], [-80.1935796880992, 25.7657221345175], [-80.1936413137153, 25.7657206182994], [-80.1936422845424, 25.7657529602318], [-80.1936940686449, 25.765751685577], [-80.1936949465404, 25.7657809481332], [-80.1937345221813, 25.7657799739904], [-80.1937367289664, 25.7658534873403], [-80.1937438966368, 25.7658533112401], [-80.1937450814263, 25.7658927772649], [-80.1942937846213, 25.7658800543828], [-80.1944187686893, 25.7658752463559], [-80.1944170348414, 25.7658364587529], [-80.1944241062243, 25.7658361992037], [-80.1944214012208, 25.7657757211015], [-80.1944143258537, 25.7657759806285], [-80.1944114979441, 25.7657127522786], [-80.194418572358, 25.7657124927463], [-80.1944181064025, 25.7657020744846], [-80.1944305819828, 25.7657016163163], [-80.1944278771612, 25.7656411390738], [-80.1944219881995, 25.765641357364], [-80.1944177187906, 25.7655459388922], [-80.1944040585205, 25.7655464410578], [-80.1944019025794, 25.7654982779994], [-80.1945721530013, 25.765492032447], [-80.1945735518513, 25.7655232880975], [-80.1945588896113, 25.7655238270342], [-80.1945600355707, 25.7655494461344], [-80.1945949469686, 25.7655481653145], [-80.194592309942, 25.7654787837364]], [[-80.1943816431025, 25.7655033633923], [-80.1943843440044, 25.7656167151829], [-80.1943974982437, 25.765616459382], [-80.1943981802154, 25.7656450925282], [-80.1943400999964, 25.7656462280359], [-80.194339865402, 25.7656502606392], [-80.1943665979819, 25.7656497985076], [-80.1943676424262, 25.7656993111096], [-80.1942947361553, 25.7657005738061], [-80.1942935743092, 25.7656455588411], [-80.1942266210129, 25.7656467182678], [-80.194227738843, 25.7656996693523], [-80.1940757279822, 25.7657023012522], [-80.1940745241538, 25.7656452786475], [-80.1940888710955, 25.7656404769594], [-80.1941163526386, 25.7656283442807], [-80.1941418180737, 25.7656130230426], [-80.1941624981739, 25.7655968617856], [-80.1942015441839, 25.7656306133832], [-80.194249048215, 25.765629569329], [-80.1942487640106, 25.7656176319872], [-80.1942414419014, 25.7656164955818], [-80.1941829756158, 25.7655748548115], [-80.1941986450863, 25.7655535042238], [-80.1942053935476, 25.7655422303573], [-80.1942165972986, 25.765518687891], [-80.1942210123298, 25.7655065036705], [-80.1943816431025, 25.7655033633923]]]}}, {"type": "Feature", "properties": {"zone_id": "0206BU9CZEM20KNY88S9QP", "tract_id": "12086006719", "city": "MIAMI, FL", "zone_code": "", "zone_category": "Other", "ev_permitted": false}, "geometry": {"type": "Polygon", "coordinates": [[[-80.1947524092342, 25.7658696862598], [-80.1944537481825, 25.7658764391831], [-80.1944187686893, 25.7658752463559], [-80.1942937846213, 25.7658800543828], [-80.194154100054, 25.765883213025], [-80.1941727347938, 25.766293130599], [-80.1947709241248, 25.7662769565669], [-80.1947524092342, 25.7658696862598]]]}}, {"type": "Feature", "properties": {"zone_id": "0207JGAXTLX7933EKZLRFK", "tract_id": "12086006719", "city": "MIAMI, FL", "zone_code": "", "zone_category": "Other", "ev_permitted": false}, "geometry": {"type": "Polygon", "coordinates": [[[-80.194154100054, 25.765883213025], [-80.1935333552499, 25.7658979869433], [-80.1933851056699, 25.7659005945925], [-80.1933977809014, 25.7662838807899], [-80.194171517751, 25.7662663792958], [-80.194154100054, 25.765883213025]]]}}, {"type": "Feature", "properties": {"zone_id": "020745TB0CG53X964J74A7", "tract_id": "12086006719", "city": "MIAMI, FL", "zone_code": "", "zone_category": "Other", "ev_permitted": false}, "geometry": {"type": "Polygon", "coordinates": [[[-80.1945721530013, 25.765492032447], [-80.1944019025794, 25.7654982779994], [-80.1944040585205, 25.7655464410578], [-80.1944177187906, 25.7655459388922], [-80.1944219881995, 25.765641357364], [-80.1944278771612, 25.7656411390738], [-80.1944305819828, 25.7657016163163], [-80.1944181064025, 25.7657020744846], [-80.194418572358, 25.7657124927463], [-80.1944114979441, 25.7657127522786], [-80.1944143258537, 25.7657759806285], [-80.1944214012208, 25.7657757211015], [-80.1944241062243, 25.7658361992037], [-80.1944170348414, 25.7658364587529], [-80.1944187686893, 25.7658752463559], [-80.1944537481825, 25.7658764391831], [-80.194610180635, 25.7658728646251], [-80.1946092686813, 25.7658682570206], [-80.1945949469686, 25.7655481653145], [-80.1945600355707, 25.7655494461344], [-80.1945588896113, 25.7655238270342], [-80.1945735518513, 25.7655232880975], [-80.1945721530013, 25.765492032447]]]}}, {"type": "Feature", "properties": {"zone_id": "0206TMI70KJT94217Z8XIQ", "tract_id": "12086006719", "city": "MIAMI, FL", "zone_code": "", "zone_category": "Other", "ev_permitted": false}, "geometry": {"type": "Polygon", "coordinates": [[[-80.1941624981739, 25.7655968617856], [-80.1941418180737, 25.7656130230426], [-80.1941163526386, 25.7656283442807], [-80.1940888710955, 25.7656404769594], [-80.1940745241538, 25.7656452786475], [-80.1940757279822, 25.7657023012522], [-80.194227738843, 25.7656996693523], [-80.1942266210129, 25.7656467182678], [-80.1942935743092, 25.7656455588411], [-80.1942947361553, 25.7657005738061], [-80.1943676424262, 25.7656993111096], [-80.1943665979819, 25.7656497985076], [-80.194339865402, 25.7656502606392], [-80.1943395309637, 25.7656280129172], [-80.1942015441839, 25.7656306133832], [-80.1941624981739, 25.7655968617856]]]}}, {"type": "Feature", "properties": {"zone_id": "02017CDZW3BJELY5QET1N5", "tract_id": "12086006719", "city": "MIAMI, FL", "zone_code": "", "zone_category": "Other", "ev_permitted": false}, "geometry": {"type": "Polygon", "coordinates": [[[-80.1943816431025, 25.7655033633923], [-80.1942210123298, 25.7655065036705], [-80.1942165972986, 25.765518687891], [-80.1942053935476, 25.7655422303573], [-80.1941986450863, 25.7655535042238], [-80.1941829756158, 25.7655748548115], [-80.1942414419014, 25.7656164955818], [-80.1942487640106, 25.7656176319872], [-80.194249048215, 25.765629569329], [-80.1943395309637, 25.7656280129172], [-80.1943400999964, 25.7656462280359], [-80.1943981802154, 25.7656450925282], [-80.1943974982437, 25.765616459382], [-80.1943843440044, 25.7656167151829], [-80.1943816431025, 25.7655033633923]]]}}, {"type": "Feature", "properties": {"zone_id": "02043XT4CW93RO7LGEDG4T", "tract_id": "12086006719", "city": "MIAMI, FL", "zone_code": "", "zone_category": "Other", "ev_permitted": false}, "geometry": {"type": "Polygon", "coordinates": [[[-80.1937958713914, 25.7655789982407], [-80.1937105584938, 25.7656438324444], [-80.1936416437033, 25.7656455277262], [-80.1936421066903, 25.7656609565809], [-80.1936125538775, 25.7656624329676], [-80.1936139281632, 25.7657110303585], [-80.1936855694938, 25.765710501092], [-80.1936840399792, 25.7656564021605], [-80.193745078407, 25.7656559513477], [-80.1937465758651, 25.7657088964529], [-80.1939081795434, 25.7657077019205], [-80.1939065668754, 25.7656506887448], [-80.193877790133, 25.7656398315121], [-80.193850842646, 25.7656256379812], [-80.1938261936999, 25.7656083552729], [-80.1938052938158, 25.7655893519337], [-80.1937958713914, 25.7655789982407]]]}}, {"type": "Feature", "properties": {"zone_id": "0202SRLFHETN1IFKJENYXU", "tract_id": "12086006719", "city": "MIAMI, FL", "zone_code": "", "zone_category": "Other", "ev_permitted": false}, "geometry": {"type": "Polygon", "coordinates": [[[-80.1937578309233, 25.7655162256921], [-80.1935642655403, 25.7655215269081], [-80.1935639742143, 25.7655736616516], [-80.1935509121926, 25.7655733951438], [-80.1935512046625, 25.7655212605787], [-80.1934967890568, 25.7655230918393], [-80.1934780074339, 25.765527461534], [-80.1934607706905, 25.7655355062194], [-80.1934530060542, 25.7655407872767], [-80.1934396711153, 25.7655535357534], [-80.1934298033289, 25.7655686514924], [-80.193426332087, 25.765576863933], [-80.1934238979515, 25.7655853765082], [-80.1934222508197, 25.7656028722667], [-80.1934306068035, 25.7658813043562], [-80.193532779298, 25.7658787906086], [-80.1935333552499, 25.7658979869433], [-80.1937450814263, 25.7658927772649], [-80.1937438966368, 25.7658533112401], [-80.1937367289664, 25.7658534873403], [-80.1937345221813, 25.7657799739904], [-80.1936949465404, 25.7657809481332], [-80.1936940686449, 25.765751685577], [-80.1936422845424, 25.7657529602318], [-80.1936413137153, 25.7657206182994], [-80.1935796880992, 25.7657221345175], [-80.1935778997385, 25.7656625360502], [-80.1936125538775, 25.7656624329676], [-80.1936421066903, 25.7656609565809], [-80.1936416437033, 25.7656455277262], [-80.1937105584938, 25.7656438324444], [-80.1937958713914, 25.7655789982407], [-80.1937864328862, 25.765567427014], [-80.1937702305273, 25.7655426972653], [-80.1937578309233, 25.7655162256921]]]}}, {"type": "Feature", "properties": {"zone_id": "0201GNKTMRS3PKPUVH71SY", "tract_id": "12086006719", "city": "MIAMI, FL", "zone_code": "", "zone_category": "Other", "ev_permitted": false}, "geometry": {"type": "Polygon", "coordinates": [[[-80.19482098154, 25.7645183398037], [-80.1947038236836, 25.7645209808427], [-80.1947307878949, 25.7653246144758], [-80.1950830785015, 25.765315873798], [-80.1950914273339, 25.7653150758374], [-80.1951076407473, 25.7653112000312], [-80.1951153368032, 25.765308162695], [-80.1951295087134, 25.7653000461814], [-80.1951409287051, 25.7652889277555], [-80.1951456434228, 25.7652826380747], [-80.1951528385561, 25.7652689229731], [-80.1951552441411, 25.7652616398617], [-80.1951569284236, 25.7652452986203], [-80.1951404329199, 25.7646620991077], [-80.1950944678728, 25.7646626311176], [-80.1950943791583, 25.7646564410907], [-80.1950867835466, 25.7646565299463], [-80.1950870145802, 25.7646728159207], [-80.1950520755508, 25.7646732202538], [-80.19505200582, 25.7646681858725], [-80.1950337771334, 25.7646683956165], [-80.1950338871743, 25.7646761815079], [-80.1949502185049, 25.7646771513383], [-80.1949501017499, 25.764668897691], [-80.1949161654666, 25.7646692905139], [-80.194916282232, 25.7646775422697], [-80.1948293327958, 25.7646785506298], [-80.1948277426225, 25.7645659784255], [-80.1948398961491, 25.7645658381034], [-80.1948397794016, 25.7645575844561], [-80.1948215516759, 25.7645577950389], [-80.19482098154, 25.7645183398037]]]}}, {"type": "Feature", "properties": {"zone_id": "0202Q80SQPCWUC6XYK3WGW", "tract_id": "12086006719", "city": "MIAMI, FL", "zone_code": "", "zone_category": "Other", "ev_permitted": false}, "geometry": {"type": "Polygon", "coordinates": [[[-80.1950596473697, 25.7645128718852], [-80.19482098154, 25.7645183398037], [-80.1948215516759, 25.7645577950389], [-80.1948397794016, 25.7645575844561], [-80.1948398961491, 25.7645658381034], [-80.1948277426225, 25.7645659784255], [-80.1948293327958, 25.7646785506298], [-80.194916282232, 25.7646775422697], [-80.1949161654666, 25.7646692905139], [-80.1949501017499, 25.764668897691], [-80.1949502185049, 25.7646771513383], [-80.1950338871743, 25.7646761815079], [-80.1950337771334, 25.7646683956165], [-80.19505200582, 25.7646681858725], [-80.1950520755508, 25.7646732202538], [-80.1950870145802, 25.7646728159207], [-80.1950867835466, 25.7646565299463], [-80.1950943791583, 25.7646564410907], [-80.1950944678728, 25.7646626311176], [-80.1951404329199, 25.7646620991077], [-80.1951374880054, 25.7645798114264], [-80.1951348580523, 25.7645635979927], [-80.1951284200828, 25.7645495772569], [-80.1951189803393, 25.7645370273368], [-80.1951132524923, 25.7645314693596], [-80.1950998276987, 25.764522414923], [-80.1950844456399, 25.7645163704032], [-80.1950763254705, 25.7645144417277], [-80.1950596473697, 25.7645128718852]]]}}, {"type": "Feature", "properties": {"zone_id": "0203FVF9B491FIMCUF44W0", "tract_id": "12086006719", "city": "MIAMI, FL", "zone_code": "", "zone_category": "Other", "ev_permitted": false}, "geometry": {"type": "Polygon", "coordinates": [[[-80.1951206831384, 25.7640861189893], [-80.1946813714645, 25.7640946743386], [-80.1946859794224, 25.764201103457], [-80.1951236137157, 25.7641925794074], [-80.1951206831384, 25.7640861189893]]]}}, {"type": "Feature", "properties": {"zone_id": "0204U3NII0L9QDY6O66XVO", "tract_id": "12086006719", "city": "MIAMI, FL", "zone_code": "", "zone_category": "Other", "ev_permitted": false}, "geometry": {"type": "Polygon", "coordinates": [[[-80.1949367993124, 25.7641962174612], [-80.1948350405115, 25.764198200073], [-80.194839606555, 25.7643639241813], [-80.1949413592999, 25.7643616779278], [-80.1949367993124, 25.7641962174612]]]}}, {"type": "Feature", "properties": {"zone_id": "020710QB6D3Q85RP3ZOLGC", "tract_id": "12086006719", "city": "MIAMI, FL", "zone_code": "", "zone_category": "Other", "ev_permitted": false}, "geometry": {"type": "Polygon", "coordinates": [[[-80.1951236137157, 25.7641925794074], [-80.1949367993124, 25.7641962174612], [-80.1949413592999, 25.7643616779278], [-80.1951281622483, 25.7643575523159], [-80.1951236137157, 25.7641925794074]]]}}, {"type": "Feature", "properties": {"zone_id": "0200QKAE37ATABV8IB5VS6", "tract_id": "12086006719", "city": "MIAMI, FL", "zone_code": "", "zone_category": "Other", "ev_permitted": false}, "geometry": {"type": "Polygon", "coordinates": [[[-80.1948350405115, 25.764198200073], [-80.1947545430667, 25.7641997659688], [-80.1947591145939, 25.764365702129], [-80.194839606555, 25.7643639241813], [-80.1948350405115, 25.764198200073]]]}}, {"type": "Feature", "properties": {"zone_id": "0204OE7H92PQ24FZXJRCOM", "tract_id": "12086006719", "city": "MIAMI, FL", "zone_code": "", "zone_category": "Other", "ev_permitted": false}, "geometry": {"type": "Polygon", "coordinates": [[[-80.1947545430667, 25.7641997659688], [-80.1946859794224, 25.764201103457], [-80.1946931715985, 25.7643671590092], [-80.1947591145939, 25.764365702129], [-80.1947545430667, 25.7641997659688]]]}}, {"type": "Feature", "properties": {"zone_id": "0206JQCPMOH9X4TFTT16MS", "tract_id": "12086006719", "city": "MIAMI, FL", "zone_code": "", "zone_category": "Other", "ev_permitted": false}, "geometry": {"type": "Polygon", "coordinates": [[[-80.1951166163226, 25.7639385580258], [-80.1946751143755, 25.7639501758186], [-80.1946813714645, 25.7640946743386], [-80.1951206831384, 25.7640861189893], [-80.1951166163226, 25.7639385580258]]]}}, {"type": "Feature", "properties": {"zone_id": "0201BC54R7N6YBUC39P23Q", "tract_id": "12086006719", "city": "MIAMI, FL", "zone_code": "", "zone_category": "Other", "ev_permitted": false}, "geometry": {"type": "Polygon", "coordinates": [[[-80.1951129226969, 25.7638045363173], [-80.1946691845809, 25.7638131782561], [-80.1946751143755, 25.7639501758186], [-80.1951166163226, 25.7639385580258], [-80.1951129226969, 25.7638045363173]]]}}, {"type": "Feature", "properties": {"zone_id": "0205A2GV589TCF4IPB5H4F", "tract_id": "12086006719", "city": "MIAMI, FL", "zone_code": "", "zone_category": "Other", "ev_permitted": false}, "geometry": {"type": "Polygon", "coordinates": [[[-80.1948018199229, 25.763544054395], [-80.1946576890998, 25.7635476754388], [-80.1946691845809, 25.7638131782561], [-80.1948091587082, 25.7638104529716], [-80.1948018199229, 25.763544054395]]]}}, {"type": "Feature", "properties": {"zone_id": "02001GVWT4HPAV4X2VYA36", "tract_id": "12086006719", "city": "MIAMI, FL", "zone_code": "", "zone_category": "Other", "ev_permitted": false}, "geometry": {"type": "Polygon", "coordinates": [[[-80.1949536793673, 25.7635402365903], [-80.1948018199229, 25.763544054395], [-80.1948091587082, 25.7638104529716], [-80.1949610427037, 25.7638074938751], [-80.1949536793673, 25.7635402365903]]]}}, {"type": "Feature", "properties": {"zone_id": "0204RHGWZWL58GZECK8C6E", "tract_id": "12086006719", "city": "MIAMI, FL", "zone_code": "", "zone_category": "Other", "ev_permitted": false}, "geometry": {"type": "Polygon", "coordinates": [[[-80.1950413012193, 25.7635383184315], [-80.1949536793673, 25.7635402365903], [-80.1949610427037, 25.7638074938751], [-80.1951129226969, 25.7638045363173], [-80.1951068241636, 25.7635946044617], [-80.1951008491498, 25.7635780592261], [-80.1950905744659, 25.7635633468179], [-80.1950840115472, 25.7635569648541], [-80.1950766279261, 25.7635513664238], [-80.1950598619797, 25.7635428501284], [-80.1950413012193, 25.7635383184315]]]}}, {"type": "Feature", "properties": {"zone_id": "0201CQQKA0OYWSFQHQI9LC", "tract_id": "12086006719", "city": "MIAMI, FL", "zone_code": "", "zone_category": "Other", "ev_permitted": false}, "geometry": {"type": "Polygon", "coordinates": [[[-80.1947038236836, 25.7645209808427], [-80.1933325877809, 25.7645522255704], [-80.1933485849436, 25.7649603468486], [-80.1933637708668, 25.7649599192666], [-80.1933767083491, 25.7652899496298], [-80.193379449535, 25.7653049285505], [-80.1933854837672, 25.7653190943157], [-80.1933945607346, 25.7653318603738], [-80.1934069308486, 25.7653421128092], [-80.193413915157, 25.7653463315762], [-80.1934213373141, 25.7653498850663], [-80.1934371831729, 25.7653548550311], [-80.1934546991484, 25.7653562646268], [-80.1947307878949, 25.7653246144758], [-80.1947038236836, 25.7645209808427]]]}}, {"type": "Feature", "properties": {"zone_id": "0203URF27MNNXTS92A2I8V", "tract_id": "12086006719", "city": "MIAMI, FL", "zone_code": "", "zone_category": "Other", "ev_permitted": false}, "geometry": {"type": "Polygon", "coordinates": [[[-80.1937693052054, 25.7641116221336], [-80.1933163827648, 25.7641235353591], [-80.1933266946997, 25.7643973233386], [-80.1937812403161, 25.7643872903099], [-80.1937693052054, 25.7641116221336]]]}}, {"type": "Feature", "properties": {"zone_id": "02049RGB39N9X3BQT63WKR", "tract_id": "12086006719", "city": "MIAMI, FL", "zone_code": "", "zone_category": "Other", "ev_permitted": false}, "geometry": {"type": "Polygon", "coordinates": [[[-80.1946576890998, 25.7635476754388], [-80.1939015180304, 25.7635666807989], [-80.1939189805382, 25.7639700668262], [-80.1936079358943, 25.763978248803], [-80.1936019844694, 25.7638407835533], [-80.1933060269796, 25.763848569232], [-80.1933163827648, 25.7641235353591], [-80.1937693052054, 25.7641116221336], [-80.1937812403161, 25.7643872903099], [-80.1946931715985, 25.7643671590092], [-80.1946576890998, 25.7635476754388]]]}}, {"type": "Feature", "properties": {"zone_id": "0202AKKJBAZEP3JTN6Z1HS", "tract_id": "12086006719", "city": "MIAMI, FL", "zone_code": "", "zone_category": "Other", "ev_permitted": false}, "geometry": {"type": "Polygon", "coordinates": [[[-80.1939015180304, 25.7635666807989], [-80.1932959830137, 25.7635818946221], [-80.1933060269796, 25.763848569232], [-80.1936019844694, 25.7638407835533], [-80.1936079358943, 25.763978248803], [-80.1939189805382, 25.7639700668262], [-80.1939015180304, 25.7635666807989]]]}}]}