{"type": "FeatureCollection", "features": [{"type": "Feature", "properties": {"zone_id": "0206KJ6SNBIQT3PB8OHC9O", "tract_id": "06037267503", "city": "LOS ANGELES, CA", "zone_code": "R3-1", "zone_category": "Residential", "ev_permitted": false}, "geometry": {"type": "Polygon", "coordinates": [[[-118.454875535074, 34.0452167812481], [-118.454660641563, 34.0453451750085], [-118.454756879559, 34.0454567890481], [-118.454971839229, 34.045328394867], [-118.454875535074, 34.0452167812481]]]}}, {"type": "Feature", "properties": {"zone_id": "02006CNUG7CLTLYAPWFM5B", "tract_id": "06037267503", "city": "LOS ANGELES, CA", "zone_code": "R3-1", "zone_category": "Residential", "ev_permitted": false}, "geometry": {"type": "Polygon", "coordinates": [[[-118.455452168245, 34.0448723582142], [-118.455183972731, 34.0450325546566], [-118.455280244075, 34.045144168153], [-118.455548439613, 34.0449839440175], [-118.455452168245, 34.0448723582142]]]}}, {"type": "Feature", "properties": {"zone_id": "0205J7SO8P4EFCTVBVKOGU", "tract_id": "06037267503", "city": "LOS ANGELES, CA", "zone_code": "R3-1", "zone_category": "Residential", "ev_permitted": false}, "geometry": {"type": "Polygon", "coordinates": [[[-118.454843924961, 34.044897485818], [-118.454468166193, 34.0451219192226], [-118.454660641563, 34.0453451750085], [-118.455036466388, 34.0451206583186], [-118.454843924961, 34.044897485818]]]}}, {"type": "Feature", "properties": {"zone_id": "0205DMQ94444ZV4MR9YYAN", "tract_id": "06037267503", "city": "LOS ANGELES, CA", "zone_code": "R3-1", "zone_category": "Residential", "ev_permitted": false}, "geometry": {"type": "Polygon", "coordinates": [[[-118.455036466388, 34.0451206583186], [-118.454875535074, 34.0452167812481], [-118.454971839229, 34.045328394867], [-118.455132737637, 34.0452322719331], [-118.455036466388, 34.0451206583186]]]}}, {"type": "Feature", "properties": {"zone_id": "0203FSFUSM3Y3TOZMSFBX8", "tract_id": "06037267503", "city": "LOS ANGELES, CA", "zone_code": "R3-1", "zone_category": "Residential", "ev_permitted": false}, "geometry": {"type": "Polygon", "coordinates": [[[-118.455183972731, 34.0450325546566], [-118.455076707561, 34.0450966550001], [-118.455172978686, 34.045208241104], [-118.455280244075, 34.045144168153], [-118.455183972731, 34.0450325546566]]]}}, {"type": "Feature", "properties": {"zone_id": "0202KUVEXMHV08YCSXS25E", "tract_id": "06037267503", "city": "LOS ANGELES, CA", "zone_code": "R3-1", "zone_category": "Residential", "ev_permitted": false}, "geometry": {"type": "Polygon", "coordinates": [[[-118.455355896984, 34.0447607448565], [-118.454980436693, 34.04498506882], [-118.455076707561, 34.0450966550001], [-118.455452168245, 34.0448723582142], [-118.455355896984, 34.0447607448565]]]}}, {"type": "Feature", "properties": {"zone_id": "0204YMWZRQGEHGT1AAREVU", "tract_id": "06037267503", "city": "LOS ANGELES, CA", "zone_code": "R3-1", "zone_category": "Residential", "ev_permitted": false}, "geometry": {"type": "Polygon", "coordinates": [[[-118.45525962613, 34.0446491589009], [-118.454884165932, 34.0448734550855], [-118.454980436693, 34.04498506882], [-118.455355896984, 34.0447607448565], [-118.45525962613, 34.0446491589009]]]}}, {"type": "Feature", "properties": {"zone_id": "02013XT6PTOVWVGQESO33T", "tract_id": "06037267503", "city": "LOS ANGELES, CA", "zone_code": "R3-1", "zone_category": "Residential", "ev_permitted": false}, "geometry": {"type": "Polygon", "coordinates": [[[-118.455163355533, 34.0445375728692], [-118.454787895428, 34.0447618412749], [-118.454884165932, 34.0448734550855], [-118.45525962613, 34.0446491589009], [-118.455163355533, 34.0445375728692]]]}}, {"type": "Feature", "properties": {"zone_id": "0204236SFN5QK6KBP5ADLH", "tract_id": "06037267503", "city": "LOS ANGELES, CA", "zone_code": "R3-1", "zone_category": "Residential", "ev_permitted": false}, "geometry": {"type": "Polygon", "coordinates": [[[-118.454747654333, 34.0447858444969], [-118.454371928967, 34.0450103049548], [-118.454468166193, 34.0451219192226], [-118.454843924961, 34.044897485818], [-118.454747654333, 34.0447858444969]]]}}, {"type": "Feature", "properties": {"zone_id": "0206DW4OSIBIR4WGMQHB6M", "tract_id": "06037267503", "city": "LOS ANGELES, CA", "zone_code": "R3-1", "zone_category": "Residential", "ev_permitted": false}, "geometry": {"type": "Polygon", "coordinates": [[[-118.45694076479, 34.0439832058267], [-118.456565245918, 34.0442074800025], [-118.456661518155, 34.0443190923929], [-118.457037004261, 34.0440948180415], [-118.45694076479, 34.0439832058267]]]}}, {"type": "Feature", "properties": {"zone_id": "020114NVPMUORSJW076OHT", "tract_id": "06037267503", "city": "LOS ANGELES, CA", "zone_code": "R3-1", "zone_category": "Residential", "ev_permitted": false}, "geometry": {"type": "Polygon", "coordinates": [[[-118.456404318116, 34.044303604965], [-118.456028862387, 34.0445278772267], [-118.456125101268, 34.0446394901713], [-118.456500590249, 34.0444152174843], [-118.456404318116, 34.044303604965]]]}}, {"type": "Feature", "properties": {"zone_id": "0201A9EEI1W5H1FO5TMOL5", "tract_id": "06037267503", "city": "LOS ANGELES, CA", "zone_code": "R3-1", "zone_category": "Residential", "ev_permitted": false}, "geometry": {"type": "Polygon", "coordinates": [[[-118.45630807925, 34.0441919922448], [-118.455932623764, 34.044416264206], [-118.456028862387, 34.0445278772267], [-118.456404318116, 34.044303604965], [-118.45630807925, 34.0441919922448]]]}}, {"type": "Feature", "properties": {"zone_id": "0203CRJX1SLXV1S5PL6BTZ", "tract_id": "06037267503", "city": "LOS ANGELES, CA", "zone_code": "R3-1", "zone_category": "Residential", "ev_permitted": false}, "geometry": {"type": "Polygon", "coordinates": [[[-118.456171631368, 34.0441044087882], [-118.455843064599, 34.0443006414572], [-118.45593933598, 34.044412254424], [-118.456267839015, 34.0442160234509], [-118.456171631368, 34.0441044087882]]]}}, {"type": "Feature", "properties": {"zone_id": "02044U23NDVAHDGUU0K847", "tract_id": "06037267503", "city": "LOS ANGELES, CA", "zone_code": "R3-1", "zone_category": "Residential", "ev_permitted": false}, "geometry": {"type": "Polygon", "coordinates": [[[-118.457260380457, 34.0436232041627], [-118.456891600967, 34.0438434745521], [-118.457084112712, 34.0440666971399], [-118.457412659129, 34.0438704577239], [-118.457423882645, 34.0438611551525], [-118.457431011334, 34.0438494020796], [-118.457432796064, 34.0438429719314], [-118.457433323477, 34.0438363884062], [-118.45743258014, 34.0438298192039], [-118.457430584988, 34.0438234316594], [-118.457427388841, 34.0438173884805], [-118.457260380457, 34.0436232041627]]]}}, {"type": "Feature", "properties": {"zone_id": "0200SS4E3HVFMY3KCFOT9T", "tract_id": "06037267503", "city": "LOS ANGELES, CA", "zone_code": "R3-1", "zone_category": "Residential", "ev_permitted": false}, "geometry": {"type": "Polygon", "coordinates": [[[-118.456844492567, 34.0438715936608], [-118.456469006947, 34.0440958674111], [-118.456565245918, 34.0442074800025], [-118.45694076479, 34.0439832058267], [-118.456844492567, 34.0438715936608]]]}}, {"type": "Feature", "properties": {"zone_id": "02052WX15J5KV7ETUL5UMD", "tract_id": "06037267503", "city": "LOS ANGELES, CA", "zone_code": "R3-1", "zone_category": "Residential", "ev_permitted": false}, "geometry": {"type": "Polygon", "coordinates": [[[-118.457111985669, 34.043451143692], [-118.45696475345, 34.0435160290289], [-118.457126270132, 34.0437033182629], [-118.457260380457, 34.0436232041627], [-118.457111985669, 34.043451143692]]]}}, {"type": "Feature", "properties": {"zone_id": "0200IU3WN5Q86OAG0NPXWA", "tract_id": "06037267503", "city": "LOS ANGELES, CA", "zone_code": "R3-1", "zone_category": "Residential", "ev_permitted": false}, "geometry": {"type": "Polygon", "coordinates": [[[-118.45696475345, 34.0435160290289], [-118.456832240821, 34.0435744009608], [-118.457005583628, 34.0437753850542], [-118.457126270132, 34.0437033182629], [-118.45696475345, 34.0435160290289]]]}}, {"type": "Feature", "properties": {"zone_id": "0205TQPJD959JB75DJX4X5", "tract_id": "06037267503", "city": "LOS ANGELES, CA", "zone_code": "R3-1", "zone_category": "Residential", "ev_permitted": false}, "geometry": {"type": "Polygon", "coordinates": [[[-118.456832240821, 34.0435744009608], [-118.456699728008, 34.0436327727475], [-118.456884897066, 34.0438474792035], [-118.457005583628, 34.0437753850542], [-118.456832240821, 34.0435744009608]]]}}, {"type": "Feature", "properties": {"zone_id": "0200EF8ZW3F5KP8BRLLULN", "tract_id": "06037267503", "city": "LOS ANGELES, CA", "zone_code": "R3-1", "zone_category": "Residential", "ev_permitted": false}, "geometry": {"type": "Polygon", "coordinates": [[[-118.456655370427, 34.0436523131197], [-118.456243110934, 34.0438339680964], [-118.456469006947, 34.0440958674111], [-118.456844492567, 34.0438715936608], [-118.456655370427, 34.0436523131197]]]}}, {"type": "Feature", "properties": {"zone_id": "0206LGOS2Z4FL1ERSVVS5E", "tract_id": "06037267503", "city": "LOS ANGELES, CA", "zone_code": "R3-1", "zone_category": "Residential", "ev_permitted": false}, "geometry": {"type": "Polygon", "coordinates": [[[-118.456066436899, 34.0439117687321], [-118.455919202909, 34.0439766253174], [-118.456077728428, 34.0441604649077], [-118.456211873649, 34.0440803793238], [-118.456066436899, 34.0439117687321]]]}}, {"type": "Feature", "properties": {"zone_id": "02057O248DHTKQSMOYR32F", "tract_id": "06037267503", "city": "LOS ANGELES, CA", "zone_code": "R3-1", "zone_category": "Residential", "ev_permitted": false}, "geometry": {"type": "Polygon", "coordinates": [[[-118.455796013384, 34.0443287650917], [-118.455420555911, 34.0445530354623], [-118.455686281808, 34.0448610604562], [-118.455732332389, 34.0448673442004], [-118.456081007395, 34.0446590842927], [-118.455796013384, 34.0443287650917]]]}}, {"type": "Feature", "properties": {"zone_id": "02048TNN37A4MB9032RT06", "tract_id": "06037267503", "city": "LOS ANGELES, CA", "zone_code": "R3-1", "zone_category": "Residential", "ev_permitted": false}, "geometry": {"type": "Polygon", "coordinates": [[[-118.455919202909, 34.0439766253174], [-118.4556541747, 34.0440933942221], [-118.455836352387, 34.0443046512339], [-118.456077728428, 34.0441604649077], [-118.455919202909, 34.0439766253174]]]}}, {"type": "Feature", "properties": {"zone_id": "0206NTI3MZIM6991E88N21", "tract_id": "06037267503", "city": "LOS ANGELES, CA", "zone_code": "R3-1", "zone_category": "Residential", "ev_permitted": false}, "geometry": {"type": "Polygon", "coordinates": [[[-118.45560984964, 34.0441129340862], [-118.455506775473, 34.0441583333628], [-118.455702140877, 34.0443848190855], [-118.455796013384, 34.0443287650917], [-118.45560984964, 34.0441129340862]]]}}, {"type": "Feature", "properties": {"zone_id": "0206LYKSG6KXG3O89QLYPY", "tract_id": "06037267503", "city": "LOS ANGELES, CA", "zone_code": "R3-1", "zone_category": "Residential", "ev_permitted": false}, "geometry": {"type": "Polygon", "coordinates": [[[-118.455506775473, 34.0441583333628], [-118.455403701193, 34.0442037325516], [-118.455608301404, 34.0444409003603], [-118.455702140877, 34.0443848190855], [-118.455506775473, 34.0441583333628]]]}}, {"type": "Feature", "properties": {"zone_id": "02017EX1NL5GW0LY1L83QJ", "tract_id": "06037267503", "city": "LOS ANGELES, CA", "zone_code": "R3-1", "zone_category": "Residential", "ev_permitted": false}, "geometry": {"type": "Polygon", "coordinates": [[[-118.455403701193, 34.0442037325516], [-118.455197552299, 34.0442945306653], [-118.455420555911, 34.0445530354623], [-118.455608301404, 34.0444409003603], [-118.455403701193, 34.0442037325516]]]}}, {"type": "Feature", "properties": {"zone_id": "0205BCIKM6804VDZECQ31Y", "tract_id": "06037267503", "city": "LOS ANGELES, CA", "zone_code": "C2-1VL", "zone_category": "Commercial", "ev_permitted": true}, "geometry": {"type": "Polygon", "coordinates": [[[-118.45502084346, 34.0443723573758], [-118.454726372159, 34.0445020952984], [-118.454895160539, 34.0446977686674], [-118.455163355533, 34.0445375728692], [-118.45502084346, 34.0443723573758]]]}}, {"type": "Feature", "properties": {"zone_id": "0203T5LXHR5KXGG7YZKJD1", "tract_id": "06037267503", "city": "LOS ANGELES, CA", "zone_code": "C2-1VL", "zone_category": "Commercial", "ev_permitted": true}, "geometry": {"type": "Polygon", "coordinates": [[[-118.454726372159, 34.0445020952984], [-118.454608543861, 34.0445540069027], [-118.454787895428, 34.0447618412749], [-118.454895160539, 34.0446977686674], [-118.454726372159, 34.0445020952984]]]}}, {"type": "Feature", "properties": {"zone_id": "0206ICBDKX6H0ZN6LDTXON", "tract_id": "06037267503", "city": "LOS ANGELES, CA", "zone_code": "C2-1VL", "zone_category": "Commercial", "ev_permitted": true}, "geometry": {"type": "Polygon", "coordinates": [[[-118.456494429764, 34.0427354018764], [-118.456306755603, 34.0428475930537], [-118.45671137208, 34.0433167490629], [-118.456917549782, 34.043225920766], [-118.456494429764, 34.0427354018764]]]}}, {"type": "Feature", "properties": {"zone_id": "0206208PXLK8IHB8SXYIID", "tract_id": "06037267503", "city": "LOS ANGELES, CA", "zone_code": "C2-1VL", "zone_category": "Commercial", "ev_permitted": true}, "geometry": {"type": "Polygon", "coordinates": [[[-118.456306755603, 34.0428475930537], [-118.456119081088, 34.0429598114181], [-118.4565052598, 34.0434075492803], [-118.45671137208, 34.0433167490629], [-118.456306755603, 34.0428475930537]]]}}, {"type": "Feature", "properties": {"zone_id": "0204ZCSAMRMAPSHCWAG1X3", "tract_id": "06037267503", "city": "LOS ANGELES, CA", "zone_code": "C2-1VL", "zone_category": "Commercial", "ev_permitted": true}, "geometry": {"type": "Polygon", "coordinates": [[[-118.456078808683, 34.042983897641], [-118.455891100398, 34.0430960882983], [-118.456254888346, 34.0435178615189], [-118.45646100102, 34.04342703425], [-118.456078808683, 34.042983897641]]]}}, {"type": "Feature", "properties": {"zone_id": "0206QU27A5W7AMOGNRWGUK", "tract_id": "06037267503", "city": "LOS ANGELES, CA", "zone_code": "C2-1VL", "zone_category": "Commercial", "ev_permitted": true}, "geometry": {"type": "Polygon", "coordinates": [[[-118.456085335017, 34.0433212861454], [-118.4558940381, 34.0434292860925], [-118.456048709056, 34.0436086612073], [-118.456254888346, 34.0435178615189], [-118.456085335017, 34.0433212861454]]]}}, {"type": "Feature", "properties": {"zone_id": "0203Q3UP4YBB91MZRQMVSY", "tract_id": "06037267503", "city": "LOS ANGELES, CA", "zone_code": "R3-1", "zone_category": "Residential", "ev_permitted": false}, "geometry": {"type": "Polygon", "coordinates": [[[-118.456369291693, 34.0425902918035], [-118.455993976491, 34.0428147283081], [-118.456090180346, 34.0429263413955], [-118.456465561958, 34.0427019318193], [-118.456369291693, 34.0425902918035]]]}}, {"type": "Feature", "properties": {"zone_id": "0204J0UXO2E9KPE0GFZGYU", "tract_id": "06037267503", "city": "LOS ANGELES, CA", "zone_code": "R3-1", "zone_category": "Residential", "ev_permitted": false}, "geometry": {"type": "Polygon", "coordinates": [[[-118.456273021984, 34.0424787066681], [-118.455897706875, 34.0427031153939], [-118.455993976491, 34.0428147283081], [-118.456369291693, 34.0425902918035], [-118.456273021984, 34.0424787066681]]]}}, {"type": "Feature", "properties": {"zone_id": "02055J4T9TF27MLWG3ZU25", "tract_id": "06037267503", "city": "LOS ANGELES, CA", "zone_code": "R3-1", "zone_category": "Residential", "ev_permitted": false}, "geometry": {"type": "Polygon", "coordinates": [[[-118.456176752383, 34.0423670939783], [-118.455801404508, 34.0425915025282], [-118.455897706875, 34.0427031153939], [-118.456273021984, 34.0424787066681], [-118.456176752383, 34.0423670939783]]]}}, {"type": "Feature", "properties": {"zone_id": "0206MK9H0HFQ3TRFNLI3NJ", "tract_id": "06037267503", "city": "LOS ANGELES, CA", "zone_code": "C2-1VL", "zone_category": "Commercial", "ev_permitted": true}, "geometry": {"type": "Polygon", "coordinates": [[[-118.454982936533, 34.0427554589331], [-118.454972594953, 34.0427560854651], [-118.454962500363, 34.042758049701], [-118.454952903175, 34.0427613029146], [-118.454944041464, 34.0427657644043], [-118.454281578938, 34.043161811023], [-118.454275026307, 34.0431665082034], [-118.454269553486, 34.0431720740993], [-118.454265325606, 34.0431783407711], [-118.454262470235, 34.0431851191349], [-118.454261073526, 34.0431922046673], [-118.454261177624, 34.0431993835769], [-118.454262779387, 34.043206439255], [-118.454265830485, 34.0432131588111], [-118.454270238858, 34.0432193394965], [-118.455003218335, 34.0440692493172], [-118.455761091632, 34.0437353805806], [-118.455770552405, 34.0437302849155], [-118.45577883629, 34.0437239363486], [-118.455785704425, 34.0437165179388], [-118.455790958768, 34.0437082435934], [-118.455794447811, 34.0436993519006], [-118.45579607095, 34.0436900992496], [-118.455795781382, 34.0436807524378], [-118.455793587456, 34.0436715809778], [-118.455789552433, 34.043662849326], [-118.455783792663, 34.0436548092572], [-118.455404426131, 34.0432148748806], [-118.455120981389, 34.0428766893371], [-118.455036173373, 34.042778359794], [-118.45502951088, 34.0427717759847], [-118.455021683482, 34.0427661406494], [-118.45501288535, 34.0427615935819], [-118.455003334737, 34.0427582475801], [-118.454993268562, 34.0427561856472], [-118.454982936533, 34.0427554589331]]]}}, {"type": "Feature", "properties": {"zone_id": "020208KY8Y3PU5PZCPPWO7", "tract_id": "06037267503", "city": "LOS ANGELES, CA", "zone_code": "C2-1VL", "zone_category": "Commercial", "ev_permitted": true}, "geometry": {"type": "Polygon", "coordinates": [[[-118.455891100398, 34.0430960882983], [-118.455703424769, 34.0432083060181], [-118.4558940381, 34.0434292860925], [-118.456085335017, 34.0433212861454], [-118.455891100398, 34.0430960882983]]]}}, {"type": "Feature", "properties": {"zone_id": "0205XC943A8N1KGRK3DJPC", "tract_id": "06037267503", "city": "LOS ANGELES, CA", "zone_code": "R3-1", "zone_category": "Residential", "ev_permitted": false}, "geometry": {"type": "Polygon", "coordinates": [[[-118.455953671111, 34.0428388146138], [-118.455578287512, 34.0430632226002], [-118.455674556967, 34.0431748082927], [-118.456049907799, 34.0429504001305], [-118.455953671111, 34.0428388146138]]]}}, {"type": "Feature", "properties": {"zone_id": "02034WEH5TOX7PTF7YHL2M", "tract_id": "06037267503", "city": "LOS ANGELES, CA", "zone_code": "R3-1", "zone_category": "Residential", "ev_permitted": false}, "geometry": {"type": "Polygon", "coordinates": [[[-118.455857401521, 34.0427272016673], [-118.455482018165, 34.0429516093532], [-118.455578287512, 34.0430632226002], [-118.455953671111, 34.0428388146138], [-118.455857401521, 34.0427272016673]]]}}, {"type": "Feature", "properties": {"zone_id": "0203KM8E7THTPFP7OYRJZ1", "tract_id": "06037267503", "city": "LOS ANGELES, CA", "zone_code": "R3-1", "zone_category": "Residential", "ev_permitted": false}, "geometry": {"type": "Polygon", "coordinates": [[[-118.455761132188, 34.0426155886448], [-118.455385782083, 34.0428399959056], [-118.455482018165, 34.0429516093532], [-118.455857401521, 34.0427272016673], [-118.455761132188, 34.0426155886448]]]}}, {"type": "Feature", "properties": {"zone_id": "02068RRPYT3VZRAOC0HCDY", "tract_id": "06037267503", "city": "LOS ANGELES, CA", "zone_code": "R3-1", "zone_category": "Residential", "ev_permitted": false}, "geometry": {"type": "Polygon", "coordinates": [[[-118.456080516196, 34.0422555085661], [-118.455711847627, 34.0424759071712], [-118.455808116733, 34.0425875202322], [-118.456176752383, 34.0423670939783], [-118.456080516196, 34.0422555085661]]]}}, {"type": "Feature", "properties": {"zone_id": "0206IWW6Z8EE9CDFGNR6M6", "tract_id": "06037267503", "city": "LOS ANGELES, CA", "zone_code": "R3-1", "zone_category": "Residential", "ev_permitted": false}, "geometry": {"type": "Polygon", "coordinates": [[[-118.455664863112, 34.0425039755461], [-118.45528951325, 34.0427283825064], [-118.455385782083, 34.0428399959056], [-118.455761132188, 34.0426155886448], [-118.455664863112, 34.0425039755461]]]}}, {"type": "Feature", "properties": {"zone_id": "0207AEEHYP5K42A5VC0Z8D", "tract_id": "06037267503", "city": "LOS ANGELES, CA", "zone_code": "R3-1", "zone_category": "Residential", "ev_permitted": false}, "geometry": {"type": "Polygon", "coordinates": [[[-118.455568627451, 34.0423923897251], [-118.455193244523, 34.0426167415528], [-118.45528951325, 34.0427283825064], [-118.455664863112, 34.0425039755461], [-118.455568627451, 34.0423923897251]]]}}, {"type": "Feature", "properties": {"zone_id": "0206CTUHILMYW3MDESK89S", "tract_id": "06037267503", "city": "LOS ANGELES, CA", "zone_code": "R3-1", "zone_category": "Residential", "ev_permitted": false}, "geometry": {"type": "Polygon", "coordinates": [[[-118.454564415923, 34.0445734632029], [-118.454358232197, 34.0446642600097], [-118.454559907063, 34.0448980057409], [-118.454747654333, 34.0447858444969], [-118.454564415923, 34.0445734632029]]]}}, {"type": "Feature", "properties": {"zone_id": "02019UWYI8G09U1PBPGT45", "tract_id": "06037267503", "city": "LOS ANGELES, CA", "zone_code": "R3-1", "zone_category": "Residential", "ev_permitted": false}, "geometry": {"type": "Polygon", "coordinates": [[[-118.454463637112, 34.04478641915], [-118.454275691999, 34.0448986906108], [-118.454371928967, 34.0450103049548], [-118.454559907063, 34.0448980057409], [-118.454463637112, 34.04478641915]]]}}, {"type": "Feature", "properties": {"zone_id": "0206UR9ZZ79SXVSQT1RZYN", "tract_id": "06037267503", "city": "LOS ANGELES, CA", "zone_code": "C2-1VL", "zone_category": "Commercial", "ev_permitted": true}, "geometry": {"type": "Polygon", "coordinates": [[[-118.454358232197, 34.0446642600097], [-118.454151916583, 34.0447551668748], [-118.454275691999, 34.0448986906108], [-118.454463637112, 34.04478641915], [-118.454358232197, 34.0446642600097]]]}}, {"type": "Feature", "properties": {"zone_id": "0207KQFTKWW9MH19VWA5QR", "tract_id": "06037267503", "city": "LOS ANGELES, CA", "zone_code": "C2-1VL", "zone_category": "Commercial", "ev_permitted": true}, "geometry": {"type": "Polygon", "coordinates": [[[-118.454002553978, 34.0438867914629], [-118.453607056545, 34.0441232222306], [-118.453957650234, 34.0445298561121], [-118.454392015211, 34.0443385081737], [-118.454002553978, 34.0438867914629]]]}}, {"type": "Feature", "properties": {"zone_id": "02051L12I01GXH2TV6XB2Q", "tract_id": "06037267503", "city": "LOS ANGELES, CA", "zone_code": "C2-1VL", "zone_category": "Commercial", "ev_permitted": true}, "geometry": {"type": "Polygon", "coordinates": [[[-118.454392751864, 34.043653539408], [-118.454002553978, 34.0438867914629], [-118.454392015211, 34.0443385081737], [-118.454753764943, 34.0441791427894], [-118.45476324229, 34.0441740508972], [-118.454771542192, 34.0441677027594], [-118.454778424926, 34.0441602817265], [-118.454783691701, 34.0441520021367], [-118.454787190399, 34.044143103126], [-118.454788819969, 34.0441338417205], [-118.454788533344, 34.0441244854135], [-118.454786338803, 34.0441153044393], [-118.45478229973, 34.0441065639684], [-118.454776532784, 34.0440985164484], [-118.454392751864, 34.043653539408]]]}}, {"type": "Feature", "properties": {"zone_id": "02044F20XMJWA0H11W3QYG", "tract_id": "06037267503", "city": "LOS ANGELES, CA", "zone_code": "R3-1", "zone_category": "Residential", "ev_permitted": false}, "geometry": {"type": "Polygon", "coordinates": [[[-118.45427297939, 34.0435052469019], [-118.453897621304, 34.0437296495468], [-118.453993889433, 34.0438412640613], [-118.454369247762, 34.043616861116], [-118.45427297939, 34.0435052469019]]]}}, {"type": "Feature", "properties": {"zone_id": "0206Q6PU7Z9EONJOX06Q7S", "tract_id": "06037267503", "city": "LOS ANGELES, CA", "zone_code": "R3-1", "zone_category": "Residential", "ev_permitted": false}, "geometry": {"type": "Polygon", "coordinates": [[[-118.454176744285, 34.0433936324876], [-118.453801353432, 34.0436180349561], [-118.453897621304, 34.0437296495468], [-118.45427297939, 34.0435052469019], [-118.454176744285, 34.0433936324876]]]}}, {"type": "Feature", "properties": {"zone_id": "0206YXRTQSWJCMRM3YJFOW", "tract_id": "06037267503", "city": "LOS ANGELES, CA", "zone_code": "R3-1", "zone_category": "Residential", "ev_permitted": false}, "geometry": {"type": "Polygon", "coordinates": [[[-118.453857314879, 34.0437537351538], [-118.453481954564, 34.0439781365094], [-118.453578189415, 34.0440897514808], [-118.453953582982, 34.0438653497007], [-118.453857314879, 34.0437537351538]]]}}, {"type": "Feature", "properties": {"zone_id": "02046SSJ2YLDIOICPLH3O3", "tract_id": "06037267503", "city": "LOS ANGELES, CA", "zone_code": "R3-1", "zone_category": "Residential", "ev_permitted": false}, "geometry": {"type": "Polygon", "coordinates": [[[-118.453761080042, 34.0436421204068], [-118.453385719969, 34.043866521462], [-118.453481954564, 34.0439781365094], [-118.453857314879, 34.0437537351538], [-118.453761080042, 34.0436421204068]]]}}, {"type": "Feature", "properties": {"zone_id": "0202APTDM5532UZQW6OEVP", "tract_id": "06037267503", "city": "LOS ANGELES, CA", "zone_code": "R3-1", "zone_category": "Residential", "ev_permitted": false}, "geometry": {"type": "Polygon", "coordinates": [[[-118.453661986398, 34.0435389523406], [-118.453338909899, 34.0437321056762], [-118.453332357136, 34.0437368027872], [-118.453326884184, 34.0437423686328], [-118.453322656181, 34.0437486352727], [-118.4533198007, 34.0437554136212], [-118.453318403901, 34.0437624991529], [-118.453318507929, 34.0437696780735], [-118.453320109645, 34.043776733771], [-118.45332316072, 34.0437834533514], [-118.453327569094, 34.0437896340627], [-118.453391083203, 34.0438633137746], [-118.453754400793, 34.0436461299435], [-118.453661986398, 34.0435389523406]]]}}, {"type": "Feature", "properties": {"zone_id": "02019B8LU6I4DML4JFBKSK", "tract_id": "06037267503", "city": "LOS ANGELES, CA", "zone_code": "R3-1", "zone_category": "Residential", "ev_permitted": false}, "geometry": {"type": "Polygon", "coordinates": [[[-118.454080476427, 34.0432820181213], [-118.453705118826, 34.0435064201653], [-118.453801353432, 34.0436180349561], [-118.454176744285, 34.0433936324876], [-118.454080476427, 34.0432820181213]]]}}, {"type": "Feature", "properties": {"zone_id": "0202XN08GA83CL0QW9RINI", "tract_id": "06037267503", "city": "LOS ANGELES, CA", "zone_code": "R3-1", "zone_category": "Residential", "ev_permitted": false}, "geometry": {"type": "Polygon", "coordinates": [[[-118.453446431099, 34.0432889348209], [-118.453077817205, 34.0435093526256], [-118.453146261786, 34.0435879443882], [-118.453152133053, 34.0435921718962], [-118.453165897117, 34.0435980924983], [-118.453181198733, 34.0436001828272], [-118.453196528011, 34.0435982366195], [-118.45321037233, 34.0435924459174], [-118.453538811933, 34.0433961127115], [-118.453446431099, 34.0432889348209]]]}}, {"type": "Feature", "properties": {"zone_id": "0200WO1Z40R9CQSGY5ZBTI", "tract_id": "06037267503", "city": "LOS ANGELES, CA", "zone_code": "R3-1", "zone_category": "Residential", "ev_permitted": false}, "geometry": {"type": "Polygon", "coordinates": [[[-118.453356909585, 34.0431733101109], [-118.452981550383, 34.043397682426], [-118.453077817205, 34.0435093526256], [-118.453453143493, 34.0432849526557], [-118.453356909585, 34.0431733101109]]]}}, {"type": "Feature", "properties": {"zone_id": "02064IDGJ08PA7IGEA1KGM", "tract_id": "06037267503", "city": "LOS ANGELES, CA", "zone_code": "R3-1", "zone_category": "Residential", "ev_permitted": false}, "geometry": {"type": "Polygon", "coordinates": [[[-118.453868839586, 34.0430364107202], [-118.453493482519, 34.0432608121035], [-118.453589716561, 34.0433724270616], [-118.453965106879, 34.0431480252538], [-118.453868839586, 34.0430364107202]]]}}, {"type": "Feature", "properties": {"zone_id": "0203CPFLMTY5P37FYR91WZ", "tract_id": "06037267503", "city": "LOS ANGELES, CA", "zone_code": "R3-1", "zone_category": "Residential", "ev_permitted": false}, "geometry": {"type": "Polygon", "coordinates": [[[-118.453772605559, 34.0429247959864], [-118.453397248734, 34.0431491970693], [-118.453493482519, 34.0432608121035], [-118.453868839586, 34.0430364107202], [-118.453772605559, 34.0429247959864]]]}}, {"type": "Feature", "properties": {"zone_id": "02018QRW6B6RQ194Z8G91D", "tract_id": "06037267503", "city": "LOS ANGELES, CA", "zone_code": "R3-1", "zone_category": "Residential", "ev_permitted": false}, "geometry": {"type": "Polygon", "coordinates": [[[-118.454405088747, 34.042715831264], [-118.454029767565, 34.0429402341864], [-118.454125968944, 34.0430518488395], [-118.454501323378, 34.0428274454925], [-118.454405088747, 34.042715831264]]]}}, {"type": "Feature", "properties": {"zone_id": "0205M2DX1L3TN55ZK35RYM", "tract_id": "06037267503", "city": "LOS ANGELES, CA", "zone_code": "R3-1", "zone_category": "Residential", "ev_permitted": false}, "geometry": {"type": "Polygon", "coordinates": [[[-118.454308854373, 34.0426042169595], [-118.453933467416, 34.0428286198297], [-118.454029767565, 34.0429402341864], [-118.454405088747, 34.042715831264], [-118.454308854373, 34.0426042169595]]]}}, {"type": "Feature", "properties": {"zone_id": "0201NBE9UU295NZKY1912A", "tract_id": "06037267503", "city": "LOS ANGELES, CA", "zone_code": "R3-1", "zone_category": "Residential", "ev_permitted": false}, "geometry": {"type": "Polygon", "coordinates": [[[-118.454689668124, 34.0423765499747], [-118.45435307547, 34.0425777807659], [-118.454449342881, 34.0426893949108], [-118.454785902744, 34.0424881639745], [-118.454689668124, 34.0423765499747]]]}}, {"type": "Feature", "properties": {"zone_id": "0201CL2VAXRBO256MU0XUC", "tract_id": "06037267503", "city": "LOS ANGELES, CA", "zone_code": "R3-1", "zone_category": "Residential", "ev_permitted": false}, "geometry": {"type": "Polygon", "coordinates": [[[-118.454212620256, 34.0424926025788], [-118.45383726655, 34.0427170050245], [-118.453933467416, 34.0428286198297], [-118.454308854373, 34.0426042169595], [-118.454212620256, 34.0424926025788]]]}}, {"type": "Feature", "properties": {"zone_id": "02076V7EQGG4DKKLOER1TC", "tract_id": "06037267503", "city": "LOS ANGELES, CA", "zone_code": "R3-1", "zone_category": "Residential", "ev_permitted": false}, "geometry": {"type": "Polygon", "coordinates": [[[-118.454116353387, 34.0423809882463], [-118.453740966915, 34.0426053905155], [-118.45383726655, 34.0427170050245], [-118.454212620256, 34.0424926025788], [-118.454116353387, 34.0423809882463]]]}}, {"type": "Feature", "properties": {"zone_id": "0202Z1YL4NTRPMRYV0A40T", "tract_id": "06037267503", "city": "LOS ANGELES, CA", "zone_code": "R3-1", "zone_category": "Residential", "ev_permitted": false}, "geometry": {"type": "Polygon", "coordinates": [[[-118.453676371788, 34.0428131811766], [-118.453301015207, 34.043037581959], [-118.453397248734, 34.0431491970693], [-118.453772605559, 34.0429247959864], [-118.453676371788, 34.0428131811766]]]}}, {"type": "Feature", "properties": {"zone_id": "0200P5VX5ZFOMFVPGUK5O0", "tract_id": "06037267503", "city": "LOS ANGELES, CA", "zone_code": "R3-1", "zone_category": "Residential", "ev_permitted": false}, "geometry": {"type": "Polygon", "coordinates": [[[-118.453580138274, 34.0427015662908], [-118.453204748926, 34.0429259668966], [-118.453301015207, 34.043037581959], [-118.453676371788, 34.0428131811766], [-118.453580138274, 34.0427015662908]]]}}, {"type": "Feature", "properties": {"zone_id": "0200JCXKK6T9CRZYM9RSKV", "tract_id": "06037267503", "city": "LOS ANGELES, CA", "zone_code": "R3-1", "zone_category": "Residential", "ev_permitted": false}, "geometry": {"type": "Polygon", "coordinates": [[[-118.453483872008, 34.0425899514527], [-118.453115217829, 34.0428103437656], [-118.453211452911, 34.0429219590149], [-118.453580138274, 34.0427015662908], [-118.453483872008, 34.0425899514527]]]}}, {"type": "Feature", "properties": {"zone_id": "02051VBXELAHDGV2DR1379", "tract_id": "06037267503", "city": "LOS ANGELES, CA", "zone_code": "R3-1", "zone_category": "Residential", "ev_permitted": false}, "geometry": {"type": "Polygon", "coordinates": [[[-118.453387639008, 34.0424783364147], [-118.453012283154, 34.0427027362957], [-118.453108515912, 34.0428143516342], [-118.453483872008, 34.0425899514527], [-118.453387639008, 34.0424783364147]]]}}, {"type": "Feature", "properties": {"zone_id": "02013CD3VVA5Y0M58AZYPT", "tract_id": "06037267503", "city": "LOS ANGELES, CA", "zone_code": "R3-1", "zone_category": "Residential", "ev_permitted": false}, "geometry": {"type": "Polygon", "coordinates": [[[-118.453254095436, 34.0430656216706], [-118.452890647478, 34.04328288692], [-118.452986880741, 34.0433945023587], [-118.453350329083, 34.0431772642967], [-118.453254095436, 34.0430656216706]]]}}, {"type": "Feature", "properties": {"zone_id": "02076TSD0SDUUR8W6UXOS2", "tract_id": "06037267503", "city": "LOS ANGELES, CA", "zone_code": "R3-1", "zone_category": "Residential", "ev_permitted": false}, "geometry": {"type": "Polygon", "coordinates": [[[-118.453164409978, 34.0429501073519], [-118.45278905126, 34.043174479066], [-118.452885251254, 34.0432860947089], [-118.453260676083, 34.0430616949683], [-118.453164409978, 34.0429501073519]]]}}, {"type": "Feature", "properties": {"zone_id": "02066QT778E2OVSEI6EF9G", "tract_id": "06037267503", "city": "LOS ANGELES, CA", "zone_code": "R3-1", "zone_category": "Residential", "ev_permitted": false}, "geometry": {"type": "Polygon", "coordinates": [[[-118.453068176841, 34.0428384645789], [-118.452692818515, 34.0430628634709], [-118.45278905126, 34.043174479066], [-118.453164409978, 34.0429501073519], [-118.453068176841, 34.0428384645789]]]}}, {"type": "Feature", "properties": {"zone_id": "0200EKR5O1VASD32U38FTH", "tract_id": "06037267503", "city": "LOS ANGELES, CA", "zone_code": "R3-1", "zone_category": "Residential", "ev_permitted": false}, "geometry": {"type": "Polygon", "coordinates": [[[-118.453214407051, 34.0422774292041], [-118.452839051634, 34.0425018285443], [-118.453012283154, 34.0427027362957], [-118.453387639008, 34.0424783364147], [-118.453214407051, 34.0422774292041]]]}}, {"type": "Feature", "properties": {"zone_id": "02077DWORZWNIORSJQATDB", "tract_id": "06037267503", "city": "LOS ANGELES, CA", "zone_code": "R3-1", "zone_category": "Residential", "ev_permitted": false}, "geometry": {"type": "Polygon", "coordinates": [[[-118.452965363326, 34.0427307484162], [-118.452601949231, 34.0429480401475], [-118.452698181723, 34.0430596558144], [-118.453061596202, 34.0428423912706], [-118.452965363326, 34.0427307484162]]]}}, {"type": "Feature", "properties": {"zone_id": "0200V6FIAAN5QL1KXQM772", "tract_id": "06037267503", "city": "LOS ANGELES, CA", "zone_code": "R3-1", "zone_category": "Residential", "ev_permitted": false}, "geometry": {"type": "Polygon", "coordinates": [[[-118.452875711634, 34.0426152337613], [-118.452500353793, 34.0428396320525], [-118.452596586026, 34.0429512477997], [-118.452971944109, 34.0427268492081], [-118.452875711634, 34.0426152337613]]]}}, {"type": "Feature", "properties": {"zone_id": "0203JPRSDTOHV7G16DRMOV", "tract_id": "06037267503", "city": "LOS ANGELES, CA", "zone_code": "R3-1", "zone_category": "Residential", "ev_permitted": false}, "geometry": {"type": "Polygon", "coordinates": [[[-118.452779479267, 34.0425035907601], [-118.452404121669, 34.0427279887509], [-118.452500353793, 34.0428396320525], [-118.452875711634, 34.0426152337613], [-118.452779479267, 34.0425035907601]]]}}, {"type": "Feature", "properties": {"zone_id": "0201LW10O91DU0W53HG4M1", "tract_id": "06037267503", "city": "LOS ANGELES, CA", "zone_code": "R3-1", "zone_category": "Residential", "ev_permitted": false}, "geometry": {"type": "Polygon", "coordinates": [[[-118.452631413226, 34.0423433171912], [-118.452303097755, 34.0425397230279], [-118.452296696162, 34.0425442181332], [-118.452291294301, 34.0425495386795], [-118.452287044984, 34.0425555341533], [-118.452284068421, 34.0425620349482], [-118.452282448816, 34.0425688571625], [-118.452282231986, 34.0425758078021], [-118.452283424066, 34.0425826902398], [-118.452285991332, 34.0425893097779], [-118.452289861158, 34.0425954791558], [-118.452404121669, 34.0427279887509], [-118.452772933639, 34.0425075035654], [-118.452631413226, 34.0423433171912]]]}}, {"type": "Feature", "properties": {"zone_id": "02074M68LRGQU4KRN41SFM", "tract_id": "06037267503", "city": "LOS ANGELES, CA", "zone_code": "R3-1", "zone_category": "Residential", "ev_permitted": false}, "geometry": {"type": "Polygon", "coordinates": [[[-118.454400932795, 34.0420417076433], [-118.454060425446, 34.0422452880539], [-118.454349160114, 34.0425801312031], [-118.454689668124, 34.0423765499747], [-118.454400932795, 34.0420417076433]]]}}, {"type": "Feature", "properties": {"zone_id": "0206QT13ZTZXI10D8FVOC9", "tract_id": "06037267503", "city": "LOS ANGELES, CA", "zone_code": "R3-1", "zone_category": "Residential", "ev_permitted": false}, "geometry": {"type": "Polygon", "coordinates": [[[-118.454112199778, 34.0417068646272], [-118.453771693088, 34.04191044422], [-118.453964192073, 34.0421336734773], [-118.454304699202, 34.0419300933392], [-118.454112199778, 34.0417068646272]]]}}, {"type": "Feature", "properties": {"zone_id": "0206TMW8ZKE7WBGD1YALT3", "tract_id": "06037267503", "city": "LOS ANGELES, CA", "zone_code": "R3-1", "zone_category": "Residential", "ev_permitted": false}, "geometry": {"type": "Polygon", "coordinates": [[[-118.454304699202, 34.0419300933392], [-118.453964192073, 34.0421336734773], [-118.454060425446, 34.0422452880539], [-118.454400932795, 34.0420417076433], [-118.454304699202, 34.0419300933392]]]}}, {"type": "Feature", "properties": {"zone_id": "02047PD3GDP0VV9Y8YFOJ2", "tract_id": "06037267503", "city": "LOS ANGELES, CA", "zone_code": "R3-1", "zone_category": "Residential", "ev_permitted": false}, "geometry": {"type": "Polygon", "coordinates": [[[-118.453917174304, 34.0421617687742], [-118.45354850045, 34.0423821607729], [-118.453740966915, 34.0426053905155], [-118.454109641246, 34.0423849979266], [-118.453917174304, 34.0421617687742]]]}}, {"type": "Feature", "properties": {"zone_id": "0205C3J9GXN16FMY5VEZ64", "tract_id": "06037267503", "city": "LOS ANGELES, CA", "zone_code": "R3-1", "zone_category": "Residential", "ev_permitted": false}, "geometry": {"type": "Polygon", "coordinates": [[[-118.453731387504, 34.0419345297828], [-118.453356035011, 34.0421589307262], [-118.45354850045, 34.0423821607729], [-118.453923886436, 34.0421577591047], [-118.453731387504, 34.0419345297828]]]}}, {"type": "Feature", "properties": {"zone_id": "0203YUJ7E9FX07XSL9SX73", "tract_id": "06037267503", "city": "LOS ANGELES, CA", "zone_code": "R3-1", "zone_category": "Residential", "ev_permitted": false}, "geometry": {"type": "Polygon", "coordinates": [[[-118.453589579741, 34.0417700244535], [-118.453214294218, 34.0419945346196], [-118.453356035011, 34.0421589307262], [-118.453731387504, 34.0419345297828], [-118.453589579741, 34.0417700244535]]]}}, {"type": "Feature", "properties": {"zone_id": "02008ZCKQAXJK9WQ07W1XM", "tract_id": "06037267503", "city": "LOS ANGELES, CA", "zone_code": "R3-1", "zone_category": "Residential", "ev_permitted": false}, "geometry": {"type": "Polygon", "coordinates": [[[-118.454637474793, 34.0413123247876], [-118.454262194134, 34.0415368382054], [-118.454358427218, 34.041648452541], [-118.454733708119, 34.0414239388229], [-118.454637474793, 34.0413123247876]]]}}, {"type": "Feature", "properties": {"zone_id": "0204BEWXRB7EX2251BZIP9", "tract_id": "06037267503", "city": "LOS ANGELES, CA", "zone_code": "R3-1", "zone_category": "Residential", "ev_permitted": false}, "geometry": {"type": "Polygon", "coordinates": [[[-118.454541208715, 34.0412007108005], [-118.454165928298, 34.0414252239178], [-118.454262194134, 34.0415368382054], [-118.454637474793, 34.0413123247876], [-118.454541208715, 34.0412007108005]]]}}, {"type": "Feature", "properties": {"zone_id": "0203BXIIQXG7G6XT9F5HHR", "tract_id": "06037267503", "city": "LOS ANGELES, CA", "zone_code": "R3-1", "zone_category": "Residential", "ev_permitted": false}, "geometry": {"type": "Polygon", "coordinates": [[[-118.454005135721, 34.0415214550858], [-118.453629852428, 34.0417459665406], [-118.453771693088, 34.04191044422], [-118.454147043203, 34.0416860145091], [-118.454005135721, 34.0415214550858]]]}}, {"type": "Feature", "properties": {"zone_id": "0200BPD1XX4809BPY5FF72", "tract_id": "06037267503", "city": "LOS ANGELES, CA", "zone_code": "RD1.5-1", "zone_category": "Residential", "ev_permitted": false}, "geometry": {"type": "Polygon", "coordinates": [[[-118.453392671226, 34.0415063347871], [-118.452997282941, 34.0417428730703], [-118.453074922206, 34.0418320651263], [-118.45308078927, 34.0418362932343], [-118.453094546452, 34.0418422149205], [-118.453109842369, 34.0418443055499], [-118.453125165876, 34.0418423585808], [-118.4531390031, 34.0418365663621], [-118.4534941848, 34.0416240852467], [-118.453392671226, 34.0415063347871]]]}}, {"type": "Feature", "properties": {"zone_id": "0203V7JD35P1QLZKWU2CVD", "tract_id": "06037267503", "city": "LOS ANGELES, CA", "zone_code": "RD1.5-1", "zone_category": "Residential", "ev_permitted": false}, "geometry": {"type": "Polygon", "coordinates": [[[-118.453753180926, 34.0412906453499], [-118.453392671226, 34.0415063347871], [-118.453490331558, 34.041619620662], [-118.453810668061, 34.0414279885461], [-118.453820612479, 34.0413687341979], [-118.453753180926, 34.0412906453499]]]}}, {"type": "Feature", "properties": {"zone_id": "0201TZRMWPBY2E1JP5490D", "tract_id": "06037267503", "city": "LOS ANGELES, CA", "zone_code": "RD1.5-1", "zone_category": "Residential", "ev_permitted": false}, "geometry": {"type": "Polygon", "coordinates": [[[-118.453686576428, 34.041151989921], [-118.453291124929, 34.0413885843668], [-118.453392671226, 34.0415063347871], [-118.453788090135, 34.0412697676096], [-118.453686576428, 34.041151989921]]]}}, {"type": "Feature", "properties": {"zone_id": "0200L2LC5WCOGMHELR143X", "tract_id": "06037267503", "city": "LOS ANGELES, CA", "zone_code": "R3-1", "zone_category": "Residential", "ev_permitted": false}, "geometry": {"type": "Polygon", "coordinates": [[[-118.453053499601, 34.0420907920015], [-118.452678211202, 34.0423153005051], [-118.452839051634, 34.0425018285443], [-118.453214407051, 34.0422774292041], [-118.453053499601, 34.0420907920015]]]}}, {"type": "Feature", "properties": {"zone_id": "02027JDC592QOUP06Y2VTZ", "tract_id": "06037267503", "city": "LOS ANGELES, CA", "zone_code": "R3-1", "zone_category": "Residential", "ev_permitted": false}, "geometry": {"type": "Polygon", "coordinates": [[[-118.45283599016, 34.0418385274959], [-118.452460702308, 34.0420630353206], [-118.452562713495, 34.0421813617559], [-118.452938001604, 34.0419568536128], [-118.45283599016, 34.0418385274959]]]}}, {"type": "Feature", "properties": {"zone_id": "0204E7FBMD72KQ2X2TIEU1", "tract_id": "06037267503", "city": "LOS ANGELES, CA", "zone_code": "R3-1", "zone_category": "Residential", "ev_permitted": false}, "geometry": {"type": "Polygon", "coordinates": [[[-118.452734942343, 34.0417213243152], [-118.452359654894, 34.0419458593028], [-118.452460702308, 34.0420630353206], [-118.45283599016, 34.0418385274959], [-118.452734942343, 34.0417213243152]]]}}, {"type": "Feature", "properties": {"zone_id": "0201WM5LP8GTZPBVQ6JGLI", "tract_id": "06037267503", "city": "LOS ANGELES, CA", "zone_code": "R3-1", "zone_category": "Residential", "ev_permitted": false}, "geometry": {"type": "Polygon", "coordinates": [[[-118.452420429429, 34.0420871478006], [-118.452045106339, 34.0423116544601], [-118.45214715025, 34.0424299811244], [-118.452522440738, 34.0422055017484], [-118.452420429429, 34.0420871478006]]]}}, {"type": "Feature", "properties": {"zone_id": "0200AGWKV1UGPRROXOBUQC", "tract_id": "06037267503", "city": "LOS ANGELES, CA", "zone_code": "R3-1", "zone_category": "Residential", "ev_permitted": false}, "geometry": {"type": "Polygon", "coordinates": [[[-118.452319381894, 34.0419699442707], [-118.451944091918, 34.0421944230129], [-118.452045106339, 34.0423116544601], [-118.452420429429, 34.0420871478006], [-118.452319381894, 34.0419699442707]]]}}, {"type": "Feature", "properties": {"zone_id": "0205IK15B3PA1LCCJMJMW2", "tract_id": "06037267503", "city": "LOS ANGELES, CA", "zone_code": "R3-1", "zone_category": "Residential", "ev_permitted": false}, "geometry": {"type": "Polygon", "coordinates": [[[-118.452200032056, 34.0418315405548], [-118.451824775686, 34.0420560737576], [-118.451944091918, 34.0421944230129], [-118.452319381894, 34.0419699442707], [-118.452200032056, 34.0418315405548]]]}}, {"type": "Feature", "properties": {"zone_id": "02030Y4TQPHU0CUFYRV300", "tract_id": "06037267503", "city": "LOS ANGELES, CA", "zone_code": "R3-1", "zone_category": "Residential", "ev_permitted": false}, "geometry": {"type": "Polygon", "coordinates": [[[-118.45208267514, 34.0416953550504], [-118.451707352901, 34.0419198606555], [-118.451824775686, 34.0420560737576], [-118.452200032056, 34.0418315405548], [-118.45208267514, 34.0416953550504]]]}}, {"type": "Feature", "properties": {"zone_id": "0204ZS5BV0VAX3R5J9ZQ03", "tract_id": "06037267503", "city": "LOS ANGELES, CA", "zone_code": "RD1.5-1", "zone_category": "Residential", "ev_permitted": false}, "geometry": {"type": "Polygon", "coordinates": [[[-118.453291124929, 34.0413885843668], [-118.452895769773, 34.041625094714], [-118.452997282941, 34.0417428730703], [-118.453392671226, 34.0415063347871], [-118.453291124929, 34.0413885843668]]]}}, {"type": "Feature", "properties": {"zone_id": "0200BWQ6SAYOPYOH1LSMNI", "tract_id": "06037267503", "city": "LOS ANGELES, CA", "zone_code": "RD1.5-1", "zone_category": "Residential", "ev_permitted": false}, "geometry": {"type": "Polygon", "coordinates": [[[-118.453194893567, 34.041276969182], [-118.452799538816, 34.041513506691], [-118.452895769773, 34.041625094714], [-118.453291124929, 34.0413885843668], [-118.453194893567, 34.041276969182]]]}}, {"type": "Feature", "properties": {"zone_id": "02055OPWJIXX4WXORIQ5U9", "tract_id": "06037267503", "city": "LOS ANGELES, CA", "zone_code": "R3-1", "zone_category": "Residential", "ev_permitted": false}, "geometry": {"type": "Polygon", "coordinates": [[[-118.452652164594, 34.041625348689], [-118.452276910214, 34.0418498558162], [-118.452359654894, 34.0419458593028], [-118.452734942343, 34.0417213243152], [-118.452652164594, 34.041625348689]]]}}, {"type": "Feature", "properties": {"zone_id": "0201GOMXV8IYRWEZAS9YSC", "tract_id": "06037267503", "city": "LOS ANGELES, CA", "zone_code": "R3-1", "zone_category": "Residential", "ev_permitted": false}, "geometry": {"type": "Polygon", "coordinates": [[[-118.452575166745, 34.0415360561882], [-118.452206591732, 34.0417565536248], [-118.452283589391, 34.0418458463616], [-118.452652164594, 34.041625348689], [-118.452575166745, 34.0415360561882]]]}}, {"type": "Feature", "properties": {"zone_id": "0202FFUEYAOMWMVW7SQVXV", "tract_id": "06037267503", "city": "LOS ANGELES, CA", "zone_code": "R3-1", "zone_category": "Residential", "ev_permitted": false}, "geometry": {"type": "Polygon", "coordinates": [[[-118.45249816906, 34.0414467636388], [-118.452122915068, 34.0416712702854], [-118.45219991241, 34.0417605355968], [-118.452575166745, 34.0415360561882], [-118.45249816906, 34.0414467636388]]]}}, {"type": "Feature", "properties": {"zone_id": "0205M2O6FYIU90S88QKWEH", "tract_id": "06037267503", "city": "LOS ANGELES, CA", "zone_code": "R3-1", "zone_category": "Residential", "ev_permitted": false}, "geometry": {"type": "Polygon", "coordinates": [[[-118.451986379021, 34.0415837391479], [-118.451611123041, 34.0418082442055], [-118.451707352901, 34.0419198606555], [-118.45208267514, 34.0416953550504], [-118.451986379021, 34.0415837391479]]]}}, {"type": "Feature", "properties": {"zone_id": "0206M9YUYB4ERKK7R66T0E", "tract_id": "06037267503", "city": "LOS ANGELES, CA", "zone_code": "R3-1", "zone_category": "Residential", "ev_permitted": false}, "geometry": {"type": "Polygon", "coordinates": [[[-118.45240193869, 34.0413351478217], [-118.452026684939, 34.041559654168], [-118.452122915068, 34.0416712702854], [-118.45249816906, 34.0414467636388], [-118.45240193869, 34.0413351478217]]]}}, {"type": "Feature", "properties": {"zone_id": "02007HU9UQ9NU6K6W7PODA", "tract_id": "06037267503", "city": "LOS ANGELES, CA", "zone_code": "R3-1", "zone_category": "Residential", "ev_permitted": false}, "geometry": {"type": "Polygon", "coordinates": [[[-118.454785902744, 34.0424881639745], [-118.454445427374, 34.0426917178728], [-118.45454166203, 34.042803332069], [-118.454882170629, 34.0425997777738], [-118.454785902744, 34.0424881639745]]]}}, {"type": "Feature", "properties": {"zone_id": "0201RCGIYNOP51OGFU6YVG", "tract_id": "06037267503", "city": "LOS ANGELES, CA", "zone_code": "R3-1", "zone_category": "Residential", "ev_permitted": false}, "geometry": {"type": "Polygon", "coordinates": [[[-118.454733708119, 34.0414239388229], [-118.454358427218, 34.041648452541], [-118.455077907269, 34.0424827771069], [-118.455453256597, 34.0422583708073], [-118.455449407347, 34.0422539062695], [-118.455489776246, 34.0422297649349], [-118.45549362756, 34.0422342294637], [-118.455868974658, 34.0420098218746], [-118.455412249275, 34.0414802412628], [-118.454996565348, 34.0417287610136], [-118.454733708119, 34.0414239388229]]]}}, {"type": "Feature", "properties": {"zone_id": "0206XQ4Q9JGPQY5I54IKT3", "tract_id": "06037267503", "city": "LOS ANGELES, CA", "zone_code": "R3-1", "zone_category": "Residential", "ev_permitted": false}, "geometry": {"type": "Polygon", "coordinates": [[[-118.455984247108, 34.0421438957241], [-118.45560886671, 34.0423683037975], [-118.455705135555, 34.0424799169401], [-118.456080516196, 34.0422555085661], [-118.455984247108, 34.0421438957241]]]}}, {"type": "Feature", "properties": {"zone_id": "0203C14V0BCAJVBABLM8TH", "tract_id": "06037267503", "city": "LOS ANGELES, CA", "zone_code": "R3-1", "zone_category": "Residential", "ev_permitted": false}, "geometry": {"type": "Polygon", "coordinates": [[[-118.455317244208, 34.0413700795132], [-118.454941997974, 34.0415945674416], [-118.455036903328, 34.041704647426], [-118.455412249275, 34.0414802412628], [-118.455317244208, 34.0413700795132]]]}}, {"type": "Feature", "properties": {"zone_id": "0205MBJ9M9S90UBG1ZLHR1", "tract_id": "06037267503", "city": "LOS ANGELES, CA", "zone_code": "R3-1", "zone_category": "Residential", "ev_permitted": false}, "geometry": {"type": "Polygon", "coordinates": [[[-118.455221010166, 34.0412584659433], [-118.454845731016, 34.0414829262173], [-118.454941997974, 34.0415945674416], [-118.455317244208, 34.0413700795132], [-118.455221010166, 34.0412584659433]]]}}, {"type": "Feature", "properties": {"zone_id": "0202YVLEHPQA3FRUCZGJO2", "tract_id": "06037267503", "city": "LOS ANGELES, CA", "zone_code": "R3-1", "zone_category": "Residential", "ev_permitted": false}, "geometry": {"type": "Polygon", "coordinates": [[[-118.455124743371, 34.0411468524218], [-118.45474949777, 34.0413713672277], [-118.454845731016, 34.0414829262173], [-118.455221010166, 34.0412584659433], [-118.455124743371, 34.0411468524218]]]}}, {"type": "Feature", "properties": {"zone_id": "02010YPY7SSHCV4OSXWEMD", "tract_id": "06037267503", "city": "LOS ANGELES, CA", "zone_code": "R3-1", "zone_category": "Residential", "ev_permitted": false}, "geometry": {"type": "Polygon", "coordinates": [[[-118.454956791749, 34.0409520830839], [-118.454581513563, 34.04117659749], [-118.45474949777, 34.0413713672277], [-118.455124743371, 34.0411468524218], [-118.454956791749, 34.0409520830839]]]}}, {"type": "Feature", "properties": {"zone_id": "0206CMV86T5C8HZ0VN3GYW", "tract_id": "06037267503", "city": "LOS ANGELES, CA", "zone_code": "RD1.5-1", "zone_category": "Residential", "ev_permitted": false}, "geometry": {"type": "Polygon", "coordinates": [[[-118.454745059504, 34.0407065325777], [-118.454349613253, 34.0409431579629], [-118.454445812763, 34.0410547723497], [-118.454841292278, 34.0408181465237], [-118.454745059504, 34.0407065325777]]]}}, {"type": "Feature", "properties": {"zone_id": "0205NOR0TTQ1LL60D5EDBZ", "tract_id": "06037267503", "city": "LOS ANGELES, CA", "zone_code": "R3-1", "zone_category": "Residential", "ev_permitted": false}, "geometry": {"type": "Polygon", "coordinates": [[[-118.452307635081, 34.0412257505006], [-118.45193234856, 34.0414502566761], [-118.452026684939, 34.041559654168], [-118.45240193869, 34.0413351478217], [-118.452307635081, 34.0412257505006]]]}}, {"type": "Feature", "properties": {"zone_id": "0202RTXF8N75OBTHYPQOBT", "tract_id": "06037267503", "city": "LOS ANGELES, CA", "zone_code": "R3-1", "zone_category": "Residential", "ev_permitted": false}, "geometry": {"type": "Polygon", "coordinates": [[[-118.452213331868, 34.0411163805847], [-118.451838045585, 34.0413408864659], [-118.45193234856, 34.0414502566761], [-118.452307635081, 34.0412257505006], [-118.452213331868, 34.0411163805847]]]}}, {"type": "Feature", "properties": {"zone_id": "0202IAVGMBKDTR30YJ8ROL", "tract_id": "06037267503", "city": "LOS ANGELES, CA", "zone_code": "R3-1", "zone_category": "Residential", "ev_permitted": false}, "geometry": {"type": "Polygon", "coordinates": [[[-118.451797805734, 34.0413649711355], [-118.451422517221, 34.041589475728], [-118.451611123041, 34.0418082442055], [-118.451986379021, 34.0415837391479], [-118.451797805734, 34.0413649711355]]]}}, {"type": "Feature", "properties": {"zone_id": "02067MKS6PL13TPCSXLBV7", "tract_id": "06037267503", "city": "LOS ANGELES, CA", "zone_code": "R3-1", "zone_category": "Residential", "ev_permitted": false}, "geometry": {"type": "Polygon", "coordinates": [[[-118.451602520975, 34.0411501574151], [-118.451233912239, 34.04137067948], [-118.451422517221, 34.041589475728], [-118.451791126424, 34.0413689530848], [-118.451602520975, 34.0411501574151]]]}}, {"type": "Feature", "properties": {"zone_id": "02075BP9EKFYPOZ9QYTLRC", "tract_id": "06037267503", "city": "LOS ANGELES, CA", "zone_code": "R3-1", "zone_category": "Residential", "ev_permitted": false}, "geometry": {"type": "Polygon", "coordinates": [[[-118.454552561869, 34.04048333206], [-118.454157181548, 34.0407198466505], [-118.454349613253, 34.0409431579629], [-118.454745059504, 34.0407065325777], [-118.454552561869, 34.04048333206]]]}}, {"type": "Feature", "properties": {"zone_id": "0202SBKPAT9B4D83S2BVFB", "tract_id": "06037267503", "city": "LOS ANGELES, CA", "zone_code": "RD1.5-1", "zone_category": "Residential", "ev_permitted": false}, "geometry": {"type": "Polygon", "coordinates": [[[-118.454253314826, 34.0408315163944], [-118.453892808244, 34.0410471798413], [-118.454046806019, 34.0412257631091], [-118.454053462616, 34.041232353482], [-118.454061286257, 34.041237995246], [-118.454070082559, 34.041242548228], [-118.454079632971, 34.0412458993064], [-118.454089700208, 34.0412479652217], [-118.454100034142, 34.0412486946451], [-118.454110378022, 34.0412480694535], [-118.454120474845, 34.0412461051803], [-118.454130073751, 34.0412428506289], [-118.454138936248, 34.0412383866607], [-118.454445812763, 34.0410547723497], [-118.454253314826, 34.0408315163944]]]}}, {"type": "Feature", "properties": {"zone_id": "0201G44TDTSWU3GZW6A6JQ", "tract_id": "06037267503", "city": "LOS ANGELES, CA", "zone_code": "R3-1", "zone_category": "Residential", "ev_permitted": false}, "geometry": {"type": "Polygon", "coordinates": [[[-118.454157181548, 34.0407198466505], [-118.453796576473, 34.040935565138], [-118.453892808244, 34.0410471798413], [-118.454253314826, 34.0408315163944], [-118.454157181548, 34.0407198466505]]]}}, {"type": "Feature", "properties": {"zone_id": "020312GHW5WRK2H4ZOGGLZ", "tract_id": "06037267503", "city": "LOS ANGELES, CA", "zone_code": "RD1.5-1", "zone_category": "Residential", "ev_permitted": false}, "geometry": {"type": "Polygon", "coordinates": [[[-118.454060916792, 34.0406082322839], [-118.453705675274, 34.0408207977384], [-118.453801906643, 34.0409323850351], [-118.454157181548, 34.0407198466505], [-118.454060916792, 34.0406082322839]]]}}, {"type": "Feature", "properties": {"zone_id": "02075GN7ZHKGLIO46MARUC", "tract_id": "06037267503", "city": "LOS ANGELES, CA", "zone_code": "RD1.5-1", "zone_category": "Residential", "ev_permitted": false}, "geometry": {"type": "Polygon", "coordinates": [[[-118.453518830304, 34.0410188804139], [-118.453158321022, 34.04123454167], [-118.453291124929, 34.0413885843668], [-118.453651634384, 34.0411728952342], [-118.453518830304, 34.0410188804139]]]}}, {"type": "Feature", "properties": {"zone_id": "02022NAZJC4VQNPFXECQO3", "tract_id": "06037267503", "city": "LOS ANGELES, CA", "zone_code": "RD1.5-1", "zone_category": "Residential", "ev_permitted": false}, "geometry": {"type": "Polygon", "coordinates": [[[-118.453457508046, 34.04088636029], [-118.453062090014, 34.0411229263802], [-118.453158321022, 34.04123454167], [-118.453553739309, 34.0409979752633], [-118.453457508046, 34.04088636029]]]}}, {"type": "Feature", "properties": {"zone_id": "0204CH80IJK60MLR4YHYUG", "tract_id": "06037267503", "city": "LOS ANGELES, CA", "zone_code": "RD1.5-1", "zone_category": "Residential", "ev_permitted": false}, "geometry": {"type": "Polygon", "coordinates": [[[-118.454283066696, 34.0401708123542], [-118.453887654082, 34.0404073261826], [-118.454060916792, 34.0406082322839], [-118.454456296858, 34.04037171801], [-118.454283066696, 34.0401708123542]]]}}, {"type": "Feature", "properties": {"zone_id": "0207LWHZWHO27V4UJVGF78", "tract_id": "06037267503", "city": "LOS ANGELES, CA", "zone_code": "R3-1", "zone_category": "Residential", "ev_permitted": false}, "geometry": {"type": "Polygon", "coordinates": [[[-118.454456296858, 34.04037171801], [-118.454060916792, 34.0406082322839], [-118.454157181548, 34.0407198466505], [-118.454552561869, 34.04048333206], [-118.454456296858, 34.04037171801]]]}}, {"type": "Feature", "properties": {"zone_id": "0201KW2RTU1GOZPUSIWWGN", "tract_id": "06037267503", "city": "LOS ANGELES, CA", "zone_code": "RD1.5-1", "zone_category": "Residential", "ev_permitted": false}, "geometry": {"type": "Polygon", "coordinates": [[[-118.454196435349, 34.0400703457569], [-118.453801056121, 34.0403068866546], [-118.453887654082, 34.0404073261826], [-118.454283066696, 34.0401708123542], [-118.454196435349, 34.0400703457569]]]}}, {"type": "Feature", "properties": {"zone_id": "0205J4P5IL6TMXSB3ZSJEH", "tract_id": "06037267503", "city": "LOS ANGELES, CA", "zone_code": "RD1.5-1", "zone_category": "Residential", "ev_permitted": false}, "geometry": {"type": "Polygon", "coordinates": [[[-118.453974285258, 34.0405077655249], [-118.453613720102, 34.0407235348384], [-118.453700345107, 34.040823977837], [-118.454060916792, 34.0406082322839], [-118.453974285258, 34.0405077655249]]]}}, {"type": "Feature", "properties": {"zone_id": "0202ZNG0BZ006HJV062M06", "tract_id": "06037267503", "city": "", "zone_code": "RD1.5-1", "zone_category": "Residential", "ev_permitted": false}, "geometry": {"type": "Polygon", "coordinates": [[[-118.453887654082, 34.0404073261826], [-118.453527097201, 34.0406230608574], [-118.453613720102, 34.0407235348384], [-118.453974285258, 34.0405077655249], [-118.453887654082, 34.0404073261826]]]}}, {"type": "Feature", "properties": {"zone_id": "0201HLZSG0B3297H9HNX3K", "tract_id": "06037267503", "city": "LOS ANGELES, CA", "zone_code": "RD1.5-1", "zone_category": "Residential", "ev_permitted": false}, "geometry": {"type": "Polygon", "coordinates": [[[-118.453801056121, 34.0403068866546], [-118.453440464369, 34.040522619484], [-118.453527097201, 34.0406230608574], [-118.453887654082, 34.0404073261826], [-118.453801056121, 34.0403068866546]]]}}, {"type": "Feature", "properties": {"zone_id": "0200GHTZ2JAY9FKW4FAFAZ", "tract_id": "06037267503", "city": "LOS ANGELES, CA", "zone_code": "RD1.5-1", "zone_category": "Residential", "ev_permitted": false}, "geometry": {"type": "Polygon", "coordinates": [[[-118.453618194794, 34.0400948323484], [-118.453529495802, 34.0401478906294], [-118.453625726321, 34.0402595072584], [-118.453714425361, 34.0402064471891], [-118.453618194794, 34.0400948323484]]]}}, {"type": "Feature", "properties": {"zone_id": "02056AMA3Y1XQX7V9XL2SJ", "tract_id": "06037267503", "city": "LOS ANGELES, CA", "zone_code": "RD1.5-1", "zone_category": "Residential", "ev_permitted": false}, "geometry": {"type": "Polygon", "coordinates": [[[-118.453714425361, 34.0402064471891], [-118.453319011119, 34.040442986634], [-118.453405608791, 34.0405434539868], [-118.453801056121, 34.0403068866546], [-118.453714425361, 34.0402064471891]]]}}, {"type": "Feature", "properties": {"zone_id": "0201R2ZF6LSRAFMF75W1FF", "tract_id": "06037267503", "city": "LOS ANGELES, CA", "zone_code": "RD1.5-1", "zone_category": "Residential", "ev_permitted": false}, "geometry": {"type": "Polygon", "coordinates": [[[-118.453521931327, 34.0399831900775], [-118.453166723655, 34.0401956713805], [-118.453262986892, 34.0403073139359], [-118.453618194794, 34.0400948323484], [-118.453521931327, 34.0399831900775]]]}}, {"type": "Feature", "properties": {"zone_id": "0203RUQKN3V192VBTW4387", "tract_id": "06037267503", "city": "LOS ANGELES, CA", "zone_code": "RD1.5-1", "zone_category": "Residential", "ev_permitted": false}, "geometry": {"type": "Polygon", "coordinates": [[[-118.45336555435, 34.0402459601182], [-118.453262986892, 34.0403073139359], [-118.453359227545, 34.0404189290221], [-118.453461784763, 34.0403575768785], [-118.45336555435, 34.0402459601182]]]}}, {"type": "Feature", "properties": {"zone_id": "02026C74VHVCQLOIFBAAK2", "tract_id": "06037267503", "city": "LOS ANGELES, CA", "zone_code": "RD1.5-1", "zone_category": "Residential", "ev_permitted": false}, "geometry": {"type": "Polygon", "coordinates": [[[-118.453529495802, 34.0401478906294], [-118.453447525124, 34.0401969254016], [-118.45354375559, 34.0403085420962], [-118.453625726321, 34.0402595072584], [-118.453529495802, 34.0401478906294]]]}}, {"type": "Feature", "properties": {"zone_id": "0205FMJBPSTMF5KEFFZ9AM", "tract_id": "06037267503", "city": "LOS ANGELES, CA", "zone_code": "RD1.5-1", "zone_category": "Residential", "ev_permitted": false}, "geometry": {"type": "Polygon", "coordinates": [[[-118.453447525124, 34.0401969254016], [-118.45336555435, 34.0402459601182], [-118.453461784763, 34.0403575768785], [-118.45354375559, 34.0403085420962], [-118.453447525124, 34.0401969254016]]]}}, {"type": "Feature", "properties": {"zone_id": "0206X31SUTMGF109EF4RKM", "tract_id": "06037267503", "city": "LOS ANGELES, CA", "zone_code": "R3-1", "zone_category": "Residential", "ev_permitted": false}, "geometry": {"type": "Polygon", "coordinates": [[[-118.452730947128, 34.0407388597003], [-118.452335560599, 34.0409753958074], [-118.452799538816, 34.041513506691], [-118.453194893567, 34.041276969182], [-118.452730947128, 34.0407388597003]]]}}, {"type": "Feature", "properties": {"zone_id": "0201IMQJH08PWREZK5XAFO", "tract_id": "06037267503", "city": "LOS ANGELES, CA", "zone_code": "RD1.5-1", "zone_category": "Residential", "ev_permitted": false}, "geometry": {"type": "Polygon", "coordinates": [[[-118.453265013283, 34.0406631302393], [-118.452869595762, 34.0408996956964], [-118.452965859264, 34.0410113110145], [-118.45336127704, 34.0407747452407], [-118.453265013283, 34.0406631302393]]]}}, {"type": "Feature", "properties": {"zone_id": "0203GLG0U7F7FA82BAJDN3", "tract_id": "06037267503", "city": "LOS ANGELES, CA", "zone_code": "RD1.5-1", "zone_category": "Residential", "ev_permitted": false}, "geometry": {"type": "Polygon", "coordinates": [[[-118.45316878279, 34.0405515150379], [-118.452773365525, 34.0407880801785], [-118.452869595762, 34.0408996956964], [-118.453265013283, 34.0406631302393], [-118.45316878279, 34.0405515150379]]]}}, {"type": "Feature", "properties": {"zone_id": "0200AWFE4L0ZWYQB7IE9SO", "tract_id": "06037267503", "city": "LOS ANGELES, CA", "zone_code": "RD1.5-1", "zone_category": "Residential", "ev_permitted": false}, "geometry": {"type": "Polygon", "coordinates": [[[-118.45336127704, 34.0407747452407], [-118.452965859264, 34.0410113110145], [-118.453062090014, 34.0411229263802], [-118.453457508046, 34.04088636029], [-118.45336127704, 34.0407747452407]]]}}, {"type": "Feature", "properties": {"zone_id": "0202TS0ECSLRUPK4PG9A9R", "tract_id": "06037267503", "city": "LOS ANGELES, CA", "zone_code": "R3-1", "zone_category": "Residential", "ev_permitted": false}, "geometry": {"type": "Polygon", "coordinates": [[[-118.452557720349, 34.0405379515655], [-118.45216233428, 34.0407744871029], [-118.452335560599, 34.0409753958074], [-118.452730947128, 34.0407388597003], [-118.452557720349, 34.0405379515655]]]}}, {"type": "Feature", "properties": {"zone_id": "0204QA5G5XH39RFRLDKO2S", "tract_id": "06037267503", "city": "LOS ANGELES, CA", "zone_code": "R3-1", "zone_category": "Residential", "ev_permitted": false}, "geometry": {"type": "Polygon", "coordinates": [[[-118.452024692877, 34.040897585701], [-118.451649407068, 34.0411220909932], [-118.451743742707, 34.0412314887043], [-118.452118995745, 34.0410069832412], [-118.452024692877, 34.040897585701]]]}}, {"type": "Feature", "properties": {"zone_id": "0205U45JNXS3H5BOJWZ6FH", "tract_id": "06037267503", "city": "LOS ANGELES, CA", "zone_code": "R3-1", "zone_category": "Residential", "ev_permitted": false}, "geometry": {"type": "Polygon", "coordinates": [[[-118.452118995745, 34.0410069832412], [-118.451743742707, 34.0412314887043], [-118.451838045585, 34.0413408864659], [-118.452213331868, 34.0411163805847], [-118.452118995745, 34.0410069832412]]]}}, {"type": "Feature", "properties": {"zone_id": "0200T7W3JH9XOH5O68LKVT", "tract_id": "06037267503", "city": "LOS ANGELES, CA", "zone_code": "R3-1", "zone_category": "Residential", "ev_permitted": false}, "geometry": {"type": "Polygon", "coordinates": [[[-118.451821506131, 34.0406619454611], [-118.451687494665, 34.0407421080945], [-118.451890681377, 34.0409777760392], [-118.452024692877, 34.040897585701], [-118.451821506131, 34.0406619454611]]]}}, {"type": "Feature", "properties": {"zone_id": "02060CZBMZIZ9IHWOJE64H", "tract_id": "06037267503", "city": "LOS ANGELES, CA", "zone_code": "RD1.5-1", "zone_category": "Residential", "ev_permitted": false}, "geometry": {"type": "Polygon", "coordinates": [[[-118.45307241963, 34.040439735386], [-118.452677002621, 34.0406763002096], [-118.452773365525, 34.0407880801785], [-118.45316878279, 34.0405515150379], [-118.45307241963, 34.040439735386]]]}}, {"type": "Feature", "properties": {"zone_id": "0206PK91EDT4NR2VU00ZKK", "tract_id": "06037267503", "city": "LOS ANGELES, CA", "zone_code": "RD1.5-1", "zone_category": "Residential", "ev_permitted": false}, "geometry": {"type": "Polygon", "coordinates": [[[-118.452941313641, 34.0403489974131], [-118.452580772897, 34.0405646845394], [-118.452677002621, 34.0406763002096], [-118.453037576456, 34.0404605851925], [-118.452941313641, 34.0403489974131]]]}}, {"type": "Feature", "properties": {"zone_id": "0201ZHEDUEIM5VUQJT8NGU", "tract_id": "06037267503", "city": "LOS ANGELES, CA", "zone_code": "RD1.5-1", "zone_category": "Residential", "ev_permitted": false}, "geometry": {"type": "Polygon", "coordinates": [[[-118.452773101376, 34.0400926184208], [-118.45237768516, 34.04032918226], [-118.452484510423, 34.0404530689169], [-118.452879926922, 34.0402165047264], [-118.452773101376, 34.0400926184208]]]}}, {"type": "Feature", "properties": {"zone_id": "0204MT171SSUETF2ZX9MCE", "tract_id": "06037267503", "city": "LOS ANGELES, CA", "zone_code": "RD1.5-1", "zone_category": "Residential", "ev_permitted": false}, "geometry": {"type": "Polygon", "coordinates": [[[-118.452879926922, 34.0402165047264], [-118.452484510423, 34.0404530689169], [-118.452580772897, 34.0405646845394], [-118.452976156644, 34.0403281201562], [-118.452879926922, 34.0402165047264]]]}}, {"type": "Feature", "properties": {"zone_id": "0203URGS2QYUCFHUAT15WY", "tract_id": "06037267503", "city": "LOS ANGELES, CA", "zone_code": "RD1.5-1", "zone_category": "Residential", "ev_permitted": false}, "geometry": {"type": "Polygon", "coordinates": [[[-118.45237768516, 34.04032918226], [-118.451982365584, 34.0405657169581], [-118.452075671994, 34.0406740465828], [-118.452471090842, 34.0404375112067], [-118.45237768516, 34.04032918226]]]}}, {"type": "Feature", "properties": {"zone_id": "0205QL791IL7JR9M9VF4BH", "tract_id": "06037267503", "city": "LOS ANGELES, CA", "zone_code": "RD1.5-1", "zone_category": "Residential", "ev_permitted": false}, "geometry": {"type": "Polygon", "coordinates": [[[-118.452471090842, 34.0404375112067], [-118.452075671994, 34.0406740465828], [-118.45216233428, 34.0407744871029], [-118.452557720349, 34.0405379515655], [-118.452471090842, 34.0404375112067]]]}}, {"type": "Feature", "properties": {"zone_id": "0206790LZBIPXU2FM8I2VY", "tract_id": "06037267503", "city": "LOS ANGELES, CA", "zone_code": "RD1.5-1", "zone_category": "Residential", "ev_permitted": false}, "geometry": {"type": "Polygon", "coordinates": [[[-118.454109804359, 34.0399699065763], [-118.453714425361, 34.0402064471891], [-118.453801056121, 34.0403068866546], [-118.454196435349, 34.0400703457569], [-118.454109804359, 34.0399699065763]]]}}, {"type": "Feature", "properties": {"zone_id": "0204NOSLRZJBRXMOZQ4TIG", "tract_id": "06037267503", "city": "LOS ANGELES, CA", "zone_code": "RD1.5-1", "zone_category": "Residential", "ev_permitted": false}, "geometry": {"type": "Polygon", "coordinates": [[[-118.454013573537, 34.0398582920521], [-118.453618194794, 34.0400948323484], [-118.453714425361, 34.0402064471891], [-118.454109804359, 34.0399699065763], [-118.454013573537, 34.0398582920521]]]}}, {"type": "Feature", "properties": {"zone_id": "02017F6BDJ3DLMBGE3OK3P", "tract_id": "06037267503", "city": "LOS ANGELES, CA", "zone_code": "RD1.5-1", "zone_category": "Residential", "ev_permitted": false}, "geometry": {"type": "Polygon", "coordinates": [[[-118.453767752653, 34.0399207481845], [-118.453570063028, 34.0400390112225], [-118.453618194794, 34.0400948323484], [-118.453815884445, 34.0399765623618], [-118.453767752653, 34.0399207481845]]]}}, {"type": "Feature", "properties": {"zone_id": "0204VW6Z736VEOIOIYS549", "tract_id": "06037267503", "city": "LOS ANGELES, CA", "zone_code": "RD1.5-1", "zone_category": "Residential", "ev_permitted": false}, "geometry": {"type": "Polygon", "coordinates": [[[-118.453965441718, 34.0398024848236], [-118.453767752653, 34.0399207481845], [-118.453815884445, 34.0399765623618], [-118.454013573537, 34.0398582920521], [-118.453965441718, 34.0398024848236]]]}}, {"type": "Feature", "properties": {"zone_id": "0206587AEXGT696V3JX5JE", "tract_id": "06037267503", "city": "LOS ANGELES, CA", "zone_code": "RD1.5-1", "zone_category": "Residential", "ev_permitted": false}, "geometry": {"type": "Polygon", "coordinates": [[[-118.453719620925, 34.0398649339882], [-118.453521931327, 34.0399831900775], [-118.453570063028, 34.0400390112225], [-118.453767752653, 34.0399207481845], [-118.453719620925, 34.0398649339882]]]}}, {"type": "Feature", "properties": {"zone_id": "0201JL13PU12H2E5IXFYD8", "tract_id": "06037267503", "city": "LOS ANGELES, CA", "zone_code": "RD1.5-1", "zone_category": "Residential", "ev_permitted": false}, "geometry": {"type": "Polygon", "coordinates": [[[-118.453425568499, 34.0398714381889], [-118.453066577515, 34.0400862141505], [-118.453163071845, 34.0401979108746], [-118.453521931327, 34.0399831900775], [-118.453425568499, 34.0398714381889]]]}}, {"type": "Feature", "properties": {"zone_id": "0206OMHCGYP7LNYT6B0QJR", "tract_id": "06037267503", "city": "LOS ANGELES, CA", "zone_code": "RD1.5-1", "zone_category": "Residential", "ev_permitted": false}, "geometry": {"type": "Polygon", "coordinates": [[[-118.453724683671, 34.0395232838977], [-118.453329305695, 34.0397598232439], [-118.453425568499, 34.0398714381889], [-118.453821046796, 34.0396350905021], [-118.453724683671, 34.0395232838977]]]}}, {"type": "Feature", "properties": {"zone_id": "0206M4G8IRGWGJGL4U9XAM", "tract_id": "06037267503", "city": "LOS ANGELES, CA", "zone_code": "RD1.5-1", "zone_category": "Residential", "ev_permitted": false}, "geometry": {"type": "Polygon", "coordinates": [[[-118.453821046796, 34.0396350905021], [-118.453425568499, 34.0398714381889], [-118.453521931327, 34.0399831900775], [-118.453917309964, 34.039746677576], [-118.453821046796, 34.0396350905021]]]}}, {"type": "Feature", "properties": {"zone_id": "02041E0B6RGXY2QXSIIUNH", "tract_id": "06037267503", "city": "LOS ANGELES, CA", "zone_code": "RD1.5-1", "zone_category": "Residential", "ev_permitted": false}, "geometry": {"type": "Polygon", "coordinates": [[[-118.453917309964, 34.039746677576], [-118.453719620925, 34.0398649339882], [-118.453767752653, 34.0399207481845], [-118.453965441718, 34.0398024848236], [-118.453917309964, 34.039746677576]]]}}, {"type": "Feature", "properties": {"zone_id": "0205G9LQU4M3EU8D1ELOPQ", "tract_id": "06037267503", "city": "LOS ANGELES, CA", "zone_code": "RD1.5-1", "zone_category": "Residential", "ev_permitted": false}, "geometry": {"type": "Polygon", "coordinates": [[[-118.453329305695, 34.0397598232439], [-118.452933925632, 34.0399963887767], [-118.453030155173, 34.0401080041622], [-118.453425568499, 34.0398714381889], [-118.453329305695, 34.0397598232439]]]}}, {"type": "Feature", "properties": {"zone_id": "0204RTU0B6AQHT4OY5706P", "tract_id": "06037267503", "city": "LOS ANGELES, CA", "zone_code": "R3-1", "zone_category": "Residential", "ev_permitted": false}, "geometry": {"type": "Polygon", "coordinates": [[[-118.451508122006, 34.0410289713966], [-118.45113286723, 34.0412534749615], [-118.451233912239, 34.04137067948], [-118.451609167269, 34.0411461755997], [-118.451508122006, 34.0410289713966]]]}}, {"type": "Feature", "properties": {"zone_id": "0200W8T8SPEVRTMC2MJ4JQ", "tract_id": "06037267503", "city": "LOS ANGELES, CA", "zone_code": "R3-1", "zone_category": "Residential", "ev_permitted": false}, "geometry": {"type": "Polygon", "coordinates": [[[-118.451403188051, 34.0409190085913], [-118.451074753901, 34.041115473355], [-118.451068210672, 34.0411201718313], [-118.451062746549, 34.0411257371325], [-118.451058526172, 34.0411320015691], [-118.451055676707, 34.0411387763856], [-118.451054284011, 34.0411458574483], [-118.451054390049, 34.0411530313956], [-118.451055991625, 34.0411600820677], [-118.451059040482, 34.0411667970189], [-118.451063444754, 34.0411729739196], [-118.45113286723, 34.0412534749615], [-118.451501409849, 34.0410329809316], [-118.451403188051, 34.0409190085913]]]}}, {"type": "Feature", "properties": {"zone_id": "0204P3PH8WC54ME8Z9FVB1", "tract_id": "06037267503", "city": "LOS ANGELES, CA", "zone_code": "R3-1", "zone_category": "Residential", "ev_permitted": false}, "geometry": {"type": "Polygon", "coordinates": [[[-118.451687494665, 34.0407421080945], [-118.451446220834, 34.0408864501192], [-118.451649407068, 34.0411220909932], [-118.451890681377, 34.0409777760392], [-118.451687494665, 34.0407421080945]]]}}]}