{"type": "FeatureCollection", "features": [{"type": "Feature", "properties": {"zone_id": "0203MGAD9GLRLE8LQQCRJZ", "tract_id": "36081071303", "city": "FLUSHING, NY", "zone_code": "R7-1", "zone_category": "Residential", "ev_permitted": false}, "geometry": {"type": "Polygon", "coordinates": [[[-73.8528858081928, 40.7269687592681], [-73.8527981694813, 40.7271165421544], [-73.852875234758, 40.7272815813336], [-73.8533488867657, 40.7271375362562], [-73.8528858081928, 40.7269687592681]]]}}, {"type": "Feature", "properties": {"zone_id": "0202QG2I7NHMCAHIV3Q9X1", "tract_id": "36081071303", "city": "FLUSHING, NY", "zone_code": "R7-1", "zone_category": "Residential", "ev_permitted": false}, "geometry": {"type": "Polygon", "coordinates": [[[-73.8512119640189, 40.7274787862466], [-73.8499360293315, 40.7278582890235], [-73.8500694839779, 40.7281210766054], [-73.8513433575194, 40.7277375055195], [-73.8512119640189, 40.7274787862466]]]}}, {"type": "Feature", "properties": {"zone_id": "020739CPGN37PI11RL3UIV", "tract_id": "36081071303", "city": "FLUSHING, NY", "zone_code": "R7-1", "zone_category": "Residential", "ev_permitted": false}, "geometry": {"type": "Polygon", "coordinates": [[[-73.8510830360214, 40.7272249204548], [-73.8497367326574, 40.7276253521433], [-73.8498656563009, 40.7278792194287], [-73.8512119640189, 40.7274787862466], [-73.8510830360214, 40.7272249204548]]]}}, {"type": "Feature", "properties": {"zone_id": "020707WYCLCMH6Q7K0SV7Z", "tract_id": "36081071303", "city": "", "zone_code": "R7-1", "zone_category": "Residential", "ev_permitted": false}, "geometry": {"type": "Polygon", "coordinates": [[[-73.8524546857491, 40.7268116264746], [-73.8520951980063, 40.7269194836154], [-73.8521046934866, 40.726984134789], [-73.8520427968076, 40.7273613717248], [-73.8519497140204, 40.7275630373679], [-73.852875234758, 40.7272815813336], [-73.8527981694813, 40.7271165421544], [-73.8528858081928, 40.7269687592681], [-73.8524546857491, 40.7268116264746]]]}}, {"type": "Feature", "properties": {"zone_id": "0202GD5SSTADBTH0VXMPU1", "tract_id": "36081071303", "city": "FLUSHING, NY", "zone_code": "R7-1", "zone_category": "Residential", "ev_permitted": false}, "geometry": {"type": "Polygon", "coordinates": [[[-73.851918849428, 40.7269763142472], [-73.8510830360214, 40.7272249204548], [-73.8513433575194, 40.7277375055195], [-73.8516886958766, 40.7276335189115], [-73.8518440050955, 40.7273228345673], [-73.8519195093253, 40.7269777843552], [-73.851918849428, 40.7269763142472]]]}}, {"type": "Feature", "properties": {"zone_id": "0201G0EPSHRM9PUA27Q8BS", "tract_id": "36081071303", "city": "FLUSHING, NY", "zone_code": "R7-1", "zone_category": "Residential", "ev_permitted": false}, "geometry": {"type": "Polygon", "coordinates": [[[-73.8518497688792, 40.7267007417225], [-73.8514923377716, 40.7268073067374], [-73.851544440818, 40.7269090900954], [-73.8518793431906, 40.726809242167], [-73.8518665870869, 40.7267526996756], [-73.8518497688792, 40.7267007417225]]]}}, {"type": "Feature", "properties": {"zone_id": "0202VGX6V6G13VDD1GYFEV", "tract_id": "36081071303", "city": "FLUSHING, NY", "zone_code": "R7-1", "zone_category": "Residential", "ev_permitted": false}, "geometry": {"type": "Polygon", "coordinates": [[[-73.8517688600699, 40.7265518348546], [-73.8514154925757, 40.7266571885613], [-73.8514923377716, 40.7268073067374], [-73.8518497688792, 40.7267007417225], [-73.8518332216237, 40.7266615247229], [-73.8518058697314, 40.7266078281802], [-73.8517688600699, 40.7265518348546]]]}}, {"type": "Feature", "properties": {"zone_id": "02051GKPN3XQ5P6MKMKR88", "tract_id": "36081071303", "city": "FLUSHING, NY", "zone_code": "R7-1", "zone_category": "Residential", "ev_permitted": false}, "geometry": {"type": "Polygon", "coordinates": [[[-73.851631568804, 40.7264110377492], [-73.851263597996, 40.7265207448182], [-73.851316745151, 40.7266245687483], [-73.8517295269791, 40.7265015019539], [-73.8516840592113, 40.726455344065], [-73.851631568804, 40.7264110377492]]]}}, {"type": "Feature", "properties": {"zone_id": "0207A2HL2FQXSVUWY8WKRU", "tract_id": "36081071303", "city": "FLUSHING, NY", "zone_code": "R7-1", "zone_category": "Residential", "ev_permitted": false}, "geometry": {"type": "Polygon", "coordinates": [[[-73.8517295269791, 40.7265015019539], [-73.851316745151, 40.7266245687483], [-73.8513443078405, 40.7266784111299], [-73.8517688600699, 40.7265518348546], [-73.8517295269791, 40.7265015019539]]]}}, {"type": "Feature", "properties": {"zone_id": "0202WKXP86JW5H6RCKTEKL", "tract_id": "36081071303", "city": "FLUSHING, NY", "zone_code": "R7-1", "zone_category": "Residential", "ev_permitted": false}, "geometry": {"type": "Polygon", "coordinates": [[[-73.8513144700755, 40.7266867511066], [-73.8499983757656, 40.7270791182994], [-73.8501275668397, 40.7273315037518], [-73.8514436653733, 40.7269391350959], [-73.8513144700755, 40.7266867511066]]]}}, {"type": "Feature", "properties": {"zone_id": "0200TXCWF5GC8YZGOM4Z1A", "tract_id": "36081071303", "city": "FLUSHING, NY", "zone_code": "R7-1", "zone_category": "Residential", "ev_permitted": false}, "geometry": {"type": "Polygon", "coordinates": [[[-73.8512112197958, 40.72641842414], [-73.849997740261, 40.7267808276085], [-73.8501302964417, 40.7270397894194], [-73.8513144700755, 40.7266867511066], [-73.8514436653733, 40.7269391350959], [-73.851544440818, 40.7269090900954], [-73.8514154925757, 40.7266571885613], [-73.8513443078405, 40.7266784111299], [-73.8512112197958, 40.72641842414]]]}}, {"type": "Feature", "properties": {"zone_id": "0203HDRGH4JT5I0Q128CAQ", "tract_id": "36081071303", "city": "FLUSHING, NY", "zone_code": "R7-1", "zone_category": "Residential", "ev_permitted": false}, "geometry": {"type": "Polygon", "coordinates": [[[-73.8509572596225, 40.7259645786455], [-73.8505740805517, 40.7260781966103], [-73.8506021655295, 40.7261306478855], [-73.8507264576835, 40.7260937937261], [-73.8508622295777, 40.7263473638717], [-73.8513140197624, 40.7262134023613], [-73.8510247408124, 40.7260153108091], [-73.8509572596225, 40.7259645786455]]]}}, {"type": "Feature", "properties": {"zone_id": "0207IO8VVW1IYUIVGP0VM0", "tract_id": "36081071303", "city": "FLUSHING, NY", "zone_code": "R7-1", "zone_category": "Residential", "ev_permitted": false}, "geometry": {"type": "Polygon", "coordinates": [[[-73.851509110613, 40.7263294572005], [-73.8512112197958, 40.72641842414], [-73.851263597996, 40.7265207448182], [-73.851631568804, 40.7264110377492], [-73.8515714353018, 40.7263680755801], [-73.851509110613, 40.7263294572005]]]}}, {"type": "Feature", "properties": {"zone_id": "02061WQCOBWVYETZA5GXLY", "tract_id": "36081071303", "city": "FLUSHING, NY", "zone_code": "R7-1", "zone_category": "Residential", "ev_permitted": false}, "geometry": {"type": "Polygon", "coordinates": [[[-73.8507264576835, 40.7260937937261], [-73.850058505662, 40.7262918464319], [-73.8501942754166, 40.726545418061], [-73.8508622295777, 40.7263473638717], [-73.8507264576835, 40.7260937937261]]]}}, {"type": "Feature", "properties": {"zone_id": "02011DWZLPW1ETIG11PTD9", "tract_id": "36081071303", "city": "FLUSHING, NY", "zone_code": "R7-1", "zone_category": "Residential", "ev_permitted": false}, "geometry": {"type": "Polygon", "coordinates": [[[-73.8507403441306, 40.7257923914842], [-73.8504649160964, 40.7258743154613], [-73.8505740805517, 40.7260781966103], [-73.8509572596225, 40.7259645786455], [-73.8508741574307, 40.7259014882258], [-73.8508283360263, 40.725865220161], [-73.8507403441306, 40.7257923914842]]]}}, {"type": "Feature", "properties": {"zone_id": "0204M38A700DS7JOZH6BBN", "tract_id": "36081071303", "city": "FLUSHING, NY", "zone_code": "R7-1", "zone_category": "Residential", "ev_permitted": false}, "geometry": {"type": "Polygon", "coordinates": [[[-73.8504470788241, 40.7255259358355], [-73.850107918243, 40.7256266277971], [-73.8501900681424, 40.7257841752567], [-73.8505855491292, 40.7256641634719], [-73.8504470788241, 40.7255259358355]]]}}, {"type": "Feature", "properties": {"zone_id": "0200QW1VA9S356QILB34TQ", "tract_id": "36081071303", "city": "FLUSHING, NY", "zone_code": "R7-1", "zone_category": "Residential", "ev_permitted": false}, "geometry": {"type": "Polygon", "coordinates": [[[-73.8503575363703, 40.7254365495027], [-73.8500555548761, 40.7255262037756], [-73.850107918243, 40.7256266277971], [-73.8504470788241, 40.7255259358355], [-73.8503575363703, 40.7254365495027]]]}}, {"type": "Feature", "properties": {"zone_id": "0200IASQNBUFAP537H97Q2", "tract_id": "36081071303", "city": "FOREST HILLS, NY", "zone_code": "R7-1", "zone_category": "Residential", "ev_permitted": false}, "geometry": {"type": "Polygon", "coordinates": [[[-73.8497367326574, 40.7276253521433], [-73.8492805403952, 40.7277610330445], [-73.8493010822686, 40.7278312084501], [-73.8493260781296, 40.7279503361764], [-73.8493522046421, 40.7280837532346], [-73.8493717251559, 40.7282262491264], [-73.8493834350125, 40.7283276426192], [-73.8500694839779, 40.7281210766054], [-73.8499360293315, 40.7278582890235], [-73.8498656563009, 40.7278792194287], [-73.8497367326574, 40.7276253521433]]]}}, {"type": "Feature", "properties": {"zone_id": "0201NGOIZZNKPZ1BWS1CKF", "tract_id": "36081071303", "city": "FLUSHING, NY", "zone_code": "R7-1", "zone_category": "Residential", "ev_permitted": false}, "geometry": {"type": "Polygon", "coordinates": [[[-73.849997740261, 40.7267808276085], [-73.8493937424165, 40.7269612042658], [-73.8495265154691, 40.7272205935655], [-73.8497297260288, 40.72716001292], [-73.8498585594458, 40.7274117004658], [-73.8499929282821, 40.7273716427659], [-73.8498637376401, 40.7271192571638], [-73.8501302964417, 40.7270397894194], [-73.849997740261, 40.7267808276085]]]}}, {"type": "Feature", "properties": {"zone_id": "0202MZMV48VY48MS2WAU23", "tract_id": "36081071303", "city": "FOREST HILLS, NY", "zone_code": "R7-1", "zone_category": "Residential", "ev_permitted": false}, "geometry": {"type": "Polygon", "coordinates": [[[-73.8493937424165, 40.7269612042658], [-73.849051066815, 40.7270635383513], [-73.8491189876939, 40.7272303675785], [-73.8491450552222, 40.7273018101249], [-73.8492044671515, 40.7274772069071], [-73.8492217753598, 40.7275362950599], [-73.8492362669835, 40.7275972155688], [-73.8498585594458, 40.7274117004658], [-73.8497297260288, 40.72716001292], [-73.8495265154691, 40.7272205935655], [-73.8493937424165, 40.7269612042658]]]}}, {"type": "Feature", "properties": {"zone_id": "0203SNG421Z2DOYMAJD95U", "tract_id": "36081071303", "city": "FLUSHING, NY", "zone_code": "R7-1", "zone_category": "Residential", "ev_permitted": false}, "geometry": {"type": "Polygon", "coordinates": [[[-73.8499318825397, 40.7270989414917], [-73.8498637376401, 40.7271192571638], [-73.8499929282821, 40.7273716427659], [-73.8500610734005, 40.727351327018], [-73.8499318825397, 40.7270989414917]]]}}, {"type": "Feature", "properties": {"zone_id": "0200K6ZVI28KWGMXT8WLAO", "tract_id": "36081071303", "city": "FLUSHING, NY", "zone_code": "R7-1", "zone_category": "Residential", "ev_permitted": false}, "geometry": {"type": "Polygon", "coordinates": [[[-73.8499983757656, 40.7270791182994], [-73.8499318825397, 40.7270989414917], [-73.8500610734005, 40.727351327018], [-73.8501275668397, 40.7273315037518], [-73.8499983757656, 40.7270791182994]]]}}, {"type": "Feature", "properties": {"zone_id": "0205MZEZMUZK57186F9QGQ", "tract_id": "36081071303", "city": "FLUSHING, NY", "zone_code": "R7-1", "zone_category": "Residential", "ev_permitted": false}, "geometry": {"type": "Polygon", "coordinates": [[[-73.850058505662, 40.7262918464319], [-73.8493188693353, 40.7265111489518], [-73.849454636724, 40.7267647207427], [-73.8501942754166, 40.726545418061], [-73.850058505662, 40.7262918464319]]]}}, {"type": "Feature", "properties": {"zone_id": "02015T5YE88Y12X8JVHQLL", "tract_id": "36081071303", "city": "FLUSHING, NY", "zone_code": "R7-1", "zone_category": "Residential", "ev_permitted": false}, "geometry": {"type": "Polygon", "coordinates": [[[-73.8494524683266, 40.7261754521128], [-73.8487215832384, 40.7263928355517], [-73.8487745430881, 40.7264821694844], [-73.8488593382789, 40.726635111208], [-73.8489128988099, 40.7267391335378], [-73.8489353705689, 40.7267847683848], [-73.8489904439903, 40.7269023504609], [-73.849454636724, 40.7267647207427], [-73.8493188693353, 40.7265111489518], [-73.8495892794482, 40.7264309728915], [-73.8494524683266, 40.7261754521128]]]}}, {"type": "Feature", "properties": {"zone_id": "0206F8XRDSHVGFIW1WVX4R", "tract_id": "36081071303", "city": "FLUSHING, NY", "zone_code": "R7-1", "zone_category": "Residential", "ev_permitted": false}, "geometry": {"type": "Polygon", "coordinates": [[[-73.8504649160964, 40.7258743154613], [-73.8494524683266, 40.7261754521128], [-73.8495892794482, 40.7264309728915], [-73.8506021655295, 40.7261306478855], [-73.8504649160964, 40.7258743154613]]]}}, {"type": "Feature", "properties": {"zone_id": "02048L8EQ96DXHASQTVK9R", "tract_id": "36081071303", "city": "FLUSHING, NY", "zone_code": "R7-1", "zone_category": "Residential", "ev_permitted": false}, "geometry": {"type": "Polygon", "coordinates": [[[-73.8491144606883, 40.725805593835], [-73.8488455745227, 40.7258854194556], [-73.8489836648301, 40.7261502577948], [-73.8492517554989, 40.726068906745], [-73.8491144606883, 40.725805593835]]]}}, {"type": "Feature", "properties": {"zone_id": "0200PS9VO2E70O7W46S1DL", "tract_id": "36081071303", "city": "FLUSHING, NY", "zone_code": "R7-1", "zone_category": "Residential", "ev_permitted": false}, "geometry": {"type": "Polygon", "coordinates": [[[-73.8497846161976, 40.7253043395286], [-73.8491128089834, 40.7255046716985], [-73.8492489030655, 40.7257656818423], [-73.8499211125417, 40.7255661167103], [-73.8497846161976, 40.7253043395286]]]}}, {"type": "Feature", "properties": {"zone_id": "02064LRNUAEKHUGPNY5079", "tract_id": "36081071303", "city": "FLUSHING, NY", "zone_code": "R7-1", "zone_category": "Residential", "ev_permitted": false}, "geometry": {"type": "Polygon", "coordinates": [[[-73.8499211125417, 40.7255661167103], [-73.8491144606883, 40.725805593835], [-73.8492517554989, 40.726068906745], [-73.850056024497, 40.7258248519543], [-73.8499211125417, 40.7255661167103]]]}}, {"type": "Feature", "properties": {"zone_id": "0205FY7AMWVKER4WHA10RD", "tract_id": "36081071303", "city": "FLUSHING, NY", "zone_code": "R7-1", "zone_category": "Residential", "ev_permitted": false}, "geometry": {"type": "Polygon", "coordinates": [[[-73.8500555548761, 40.7255262037756], [-73.8499211125417, 40.7255661167103], [-73.850056024497, 40.7258248519543], [-73.8501900681424, 40.7257841752567], [-73.8500555548761, 40.7255262037756]]]}}, {"type": "Feature", "properties": {"zone_id": "0200DLOWF8YAIPA1AFU45P", "tract_id": "36081071303", "city": "FOREST HILLS, NY", "zone_code": "R7-1", "zone_category": "Residential", "ev_permitted": false}, "geometry": {"type": "Polygon", "coordinates": [[[-73.8491128089834, 40.7255046716985], [-73.8482638770053, 40.7257578153014], [-73.8486213569492, 40.726260195732], [-73.8489836648301, 40.7261502577948], [-73.8488455745227, 40.7258854194556], [-73.8492489030655, 40.7257656818423], [-73.8491128089834, 40.7255046716985]]]}}, {"type": "Feature", "properties": {"zone_id": "0204S5XHHD7321NVUW9XUY", "tract_id": "36081071303", "city": "FLUSHING, NY", "zone_code": "R7-1", "zone_category": "Residential", "ev_permitted": false}, "geometry": {"type": "Polygon", "coordinates": [[[-73.84953661801, 40.7249187808764], [-73.8485818748206, 40.7252018011814], [-73.8487158429379, 40.7254566637194], [-73.8496705873576, 40.7251736444189], [-73.84953661801, 40.7249187808764]]]}}, {"type": "Feature", "properties": {"zone_id": "0202L6VVPSHNBQ9MQ2XVIT", "tract_id": "36081071303", "city": "FLUSHING, NY", "zone_code": "R7-1", "zone_category": "Residential", "ev_permitted": false}, "geometry": {"type": "Polygon", "coordinates": [[[-73.8493958829508, 40.7246510517681], [-73.8484422263212, 40.7249361276197], [-73.8485818748206, 40.7252018011814], [-73.84953661801, 40.7249187808764], [-73.8493958829508, 40.7246510517681]]]}}, {"type": "Feature", "properties": {"zone_id": "0205R2EA13YZ5D0VRSLTN3", "tract_id": "36081071303", "city": "FLUSHING, NY", "zone_code": "R7-1", "zone_category": "Residential", "ev_permitted": false}, "geometry": {"type": "Polygon", "coordinates": [[[-73.8501237775588, 40.725203200221], [-73.8497846161976, 40.7253043395286], [-73.8499211125417, 40.7255661167103], [-73.8503575363703, 40.7254365495027], [-73.8501237775588, 40.725203200221]]]}}, {"type": "Feature", "properties": {"zone_id": "02074VJWXCO1GUSWR9EB3G", "tract_id": "36081071303", "city": "FLUSHING, NY", "zone_code": "R7-1", "zone_category": "Residential", "ev_permitted": false}, "geometry": {"type": "Polygon", "coordinates": [[[-73.8495617163581, 40.724601478148], [-73.8493958829508, 40.7246510517681], [-73.8496705873576, 40.7251736444189], [-73.8500208689118, 40.7250698048575], [-73.8495617163581, 40.724601478148]]]}}, {"type": "Feature", "properties": {"zone_id": "0201GPADB4OB2DIA3KHBTO", "tract_id": "36081071303", "city": "FLUSHING, NY", "zone_code": "R7-1", "zone_category": "Residential", "ev_permitted": false}, "geometry": {"type": "Polygon", "coordinates": [[[-73.8491653800138, 40.7242566750062], [-73.8479828894983, 40.7246052653574], [-73.8481126986771, 40.7248650719582], [-73.849431486325, 40.7244762107379], [-73.8491653800138, 40.7242566750062]]]}}, {"type": "Feature", "properties": {"zone_id": "0206XVCBZJL45WLLGNEYIB", "tract_id": "36081071303", "city": "FOREST HILLS, NY", "zone_code": "R7-1", "zone_category": "Residential", "ev_permitted": false}, "geometry": {"type": "Polygon", "coordinates": [[[-73.8478556942344, 40.7243506891339], [-73.8470551604578, 40.7245876106991], [-73.8471066568549, 40.7246397257445], [-73.847169871062, 40.7246990564669], [-73.8475623546945, 40.7250273425579], [-73.8481126986771, 40.7248650719582], [-73.8478556942344, 40.7243506891339]]]}}, {"type": "Feature", "properties": {"zone_id": "0205ESCNB631D2TWQ3H7BY", "tract_id": "36081071303", "city": "FOREST HILLS, NY", "zone_code": "R7-1", "zone_category": "Residential", "ev_permitted": false}, "geometry": {"type": "Polygon", "coordinates": [[[-73.8484422263212, 40.7249361276197], [-73.8477139128445, 40.7251538355094], [-73.8481628484147, 40.7256205863518], [-73.8487158429379, 40.7254566637194], [-73.8484422263212, 40.7249361276197]]]}}, {"type": "Feature", "properties": {"zone_id": "0205NW931CNZ6DL6YTXEJX", "tract_id": "36081071303", "city": "FLUSHING, NY", "zone_code": "R7-1", "zone_category": "Residential", "ev_permitted": false}, "geometry": {"type": "Polygon", "coordinates": [[[-73.8488732918503, 40.724049514914], [-73.8478556942344, 40.7243506891339], [-73.8479828894983, 40.7246052653574], [-73.8491653800138, 40.7242566750062], [-73.8488732918503, 40.724049514914]]]}}, {"type": "Feature", "properties": {"zone_id": "0204O0SJOG935WPHNVDINP", "tract_id": "36081071303", "city": "FLUSHING, NY", "zone_code": "R7-1", "zone_category": "Residential", "ev_permitted": false}, "geometry": {"type": "Polygon", "coordinates": [[[-73.8480004453178, 40.7235402057422], [-73.8475177324686, 40.7236829043039], [-73.8477753372859, 40.7242014695508], [-73.8486889622564, 40.7239288089635], [-73.8485396467313, 40.7238355728589], [-73.848355282809, 40.7237276371519], [-73.84817908411, 40.723631380973], [-73.8480004453178, 40.7235402057422]]]}}, {"type": "Feature", "properties": {"zone_id": "0205Q3PLIWTX05TJQ9RZEH", "tract_id": "36081071303", "city": "FLUSHING, NY", "zone_code": "R7-1", "zone_category": "Residential", "ev_permitted": false}, "geometry": {"type": "Polygon", "coordinates": [[[-73.8475177324686, 40.7236829043039], [-73.8466725740487, 40.7239327415247], [-73.8466832560334, 40.7239745787176], [-73.8466986689948, 40.724026700002], [-73.8467241011805, 40.7240992440561], [-73.8467578877237, 40.7241796261421], [-73.8467926867847, 40.7242502868717], [-73.8468343200796, 40.724323937361], [-73.8468804769786, 40.7243956812124], [-73.8469236011615, 40.724455650772], [-73.8477753372859, 40.7242014695508], [-73.8475177324686, 40.7236829043039]]]}}, {"type": "Feature", "properties": {"zone_id": "0206MBC8BX2J5YSCDQNVAN", "tract_id": "36081071303", "city": "FLUSHING, NY", "zone_code": "R7-1", "zone_category": "Residential", "ev_permitted": false}, "geometry": {"type": "Polygon", "coordinates": [[[-73.8470702074925, 40.7231194372692], [-73.8470116454398, 40.7231573037646], [-73.8469257181497, 40.7232239730891], [-73.8468530494685, 40.7232942913276], [-73.8467929932164, 40.7233669254037], [-73.846760432483, 40.7234147373723], [-73.8467230011573, 40.7234816481482], [-73.8466947547063, 40.7235469732945], [-73.8466775151136, 40.7235995893406], [-73.8466669339764, 40.7236424023201], [-73.8466598144104, 40.7236820031353], [-73.8466557350125, 40.7237156937175], [-73.8466529185824, 40.7237740809341], [-73.8477838779008, 40.723433899627], [-73.8470702074925, 40.7231194372692]]]}}]}