{"type": "FeatureCollection", "features": [{"type": "Feature", "properties": {"zone_id": "0203V7NGR16OZT3GTV0P24", "tract_id": "36061008800", "city": "NEW YORK, NY", "zone_code": "MID", "zone_category": "Other", "ev_permitted": false}, "geometry": {"type": "Polygon", "coordinates": [[[-73.9732632484685, 40.7512283873488], [-73.9729002024437, 40.7517262925812], [-73.9733964310581, 40.7519341138541], [-73.9737589605052, 40.7514369103135], [-73.9732632484685, 40.7512283873488]]]}}, {"type": "Feature", "properties": {"zone_id": "0205WDISVSYVCP35LPH2OM", "tract_id": "36061008800", "city": "NEW YORK, NY", "zone_code": "MID", "zone_category": "Other", "ev_permitted": false}, "geometry": {"type": "Polygon", "coordinates": [[[-73.9731066062682, 40.7511624945133], [-73.9727433976463, 40.7516606219601], [-73.9729002024437, 40.7517262925812], [-73.9732632484685, 40.7512283873488], [-73.9731066062682, 40.7511624945133]]]}}, {"type": "Feature", "properties": {"zone_id": "02053ETPNSUVJVQ4X39KIK", "tract_id": "36061008800", "city": "NEW YORK, NY", "zone_code": "MID", "zone_category": "Other", "ev_permitted": false}, "geometry": {"type": "Polygon", "coordinates": [[[-73.9739530646608, 40.7507103321698], [-73.973769025324, 40.750962736908], [-73.9736883254593, 40.7509287711147], [-73.9735164098009, 40.7511645456564], [-73.9738539674915, 40.7513066125478], [-73.9742099681305, 40.7508183684313], [-73.9739530646608, 40.7507103321698]]]}}, {"type": "Feature", "properties": {"zone_id": "0201KQYVRMYSVFHTI0EWJH", "tract_id": "36061008800", "city": "NEW YORK, NY", "zone_code": "MID", "zone_category": "Other", "ev_permitted": false}, "geometry": {"type": "Polygon", "coordinates": [[[-73.9744075244468, 40.7491620105103], [-73.9740581087747, 40.7496457373544], [-73.9748370151379, 40.7499755026334], [-73.9751886168196, 40.7494887461785], [-73.9744075244468, 40.7491620105103]]]}}, {"type": "Feature", "properties": {"zone_id": "0204HL4X0F6IYPZZJID3UP", "tract_id": "36061008800", "city": "NEW YORK, NY", "zone_code": "MID", "zone_category": "Other", "ev_permitted": false}, "geometry": {"type": "Polygon", "coordinates": [[[-73.974392684253, 40.7499623711529], [-73.9741823094047, 40.7502536099979], [-73.9742305937146, 40.7503284304235], [-73.9741162184183, 40.750486768549], [-73.9743856294611, 40.750600402477], [-73.9747407357908, 40.7501087977804], [-73.974392684253, 40.7499623711529]]]}}, {"type": "Feature", "properties": {"zone_id": "0200UHJK1DM4ZF2M7BNJHI", "tract_id": "36061008800", "city": "NEW YORK, NY", "zone_code": "MID", "zone_category": "Other", "ev_permitted": false}, "geometry": {"type": "Polygon", "coordinates": [[[-73.9739189655492, 40.7497630732856], [-73.9735643458851, 40.75025399401], [-73.9740377841369, 40.7504536860423], [-73.974392684253, 40.7499623711529], [-73.9739189655492, 40.7497630732856]]]}}, {"type": "Feature", "properties": {"zone_id": "0204OBQE4UZOWRXCV6JQOY", "tract_id": "36061008800", "city": "NEW YORK, NY", "zone_code": "MID", "zone_category": "Other", "ev_permitted": false}, "geometry": {"type": "Polygon", "coordinates": [[[-73.9741823094047, 40.7502536099979], [-73.9740377841369, 40.7504536860423], [-73.9741162184183, 40.750486768549], [-73.9742305937146, 40.7503284304235], [-73.9741823094047, 40.7502536099979]]]}}, {"type": "Feature", "properties": {"zone_id": "0203IC59I8V82P0W3WC46Y", "tract_id": "36061008800", "city": "NEW YORK, NY", "zone_code": "TA", "zone_category": "Other", "ev_permitted": false}, "geometry": {"type": "Polygon", "coordinates": [[[-73.9722767390003, 40.7500053784923], [-73.9720911287749, 40.7502565119051], [-73.9723415008708, 40.7503619003432], [-73.9721678017666, 40.750596917812], [-73.9726328180439, 40.750792644274], [-73.9729885799033, 40.7503047404101], [-73.9722767390003, 40.7500053784923]]]}}, {"type": "Feature", "properties": {"zone_id": "0203Z4MTC34XF35CFPZ9N2", "tract_id": "36061008800", "city": "NEW YORK, NY", "zone_code": "C5-2", "zone_category": "Commercial", "ev_permitted": true}, "geometry": {"type": "Polygon", "coordinates": [[[-73.9726337623237, 40.7509635864924], [-73.9722700612698, 40.7514623833803], [-73.9727433976463, 40.7516606219601], [-73.9731066062682, 40.7511624945133], [-73.9726337623237, 40.7509635864924]]]}}, {"type": "Feature", "properties": {"zone_id": "0204Z835TKF9PHY7N1GTMJ", "tract_id": "36061008800", "city": "NEW YORK, NY", "zone_code": "C5-2", "zone_category": "Commercial", "ev_permitted": true}, "geometry": {"type": "Polygon", "coordinates": [[[-73.9723676367661, 40.7508516356336], [-73.9721818520679, 40.7511064208204], [-73.972448254752, 40.7512179941419], [-73.9726337623237, 40.7509635864924], [-73.9723676367661, 40.7508516356336]]]}}, {"type": "Feature", "properties": {"zone_id": "0205SP33PGXYOJ8FSU451T", "tract_id": "36061008800", "city": "NEW YORK, NY", "zone_code": "MID", "zone_category": "Other", "ev_permitted": false}, "geometry": {"type": "Polygon", "coordinates": [[[-73.9734008108858, 40.7504780971109], [-73.9732168838074, 40.7507303450121], [-73.9733768923383, 40.7507976915714], [-73.9732049759161, 40.7510334649501], [-73.9735164098009, 40.7511645456564], [-73.9736883254593, 40.7509287711147], [-73.973769025324, 40.750962736908], [-73.9739530646608, 40.7507103321698], [-73.9734008108858, 40.7504780971109]]]}}, {"type": "Feature", "properties": {"zone_id": "0202ZSEN69OD6WOJ5UEQA3", "tract_id": "36061008800", "city": "NEW YORK, NY", "zone_code": "MID", "zone_category": "Other", "ev_permitted": false}, "geometry": {"type": "Polygon", "coordinates": [[[-73.9729885799033, 40.7503047404101], [-73.9726328180439, 40.750792644274], [-73.9732049759161, 40.7510334649501], [-73.9733768923383, 40.7507976915714], [-73.9732168838074, 40.7507303450121], [-73.9734008108858, 40.7504780971109], [-73.9729885799033, 40.7503047404101]]]}}, {"type": "Feature", "properties": {"zone_id": "0204HO1EFSKDUG8USWNKD9", "tract_id": "36061008800", "city": "NEW YORK, NY", "zone_code": "C5-2", "zone_category": "Commercial", "ev_permitted": true}, "geometry": {"type": "Polygon", "coordinates": [[[-73.9720381645801, 40.7510462422462], [-73.971859970977, 40.7512906301537], [-73.9722700612698, 40.7514623833803], [-73.972448254752, 40.7512179941419], [-73.9720381645801, 40.7510462422462]]]}}, {"type": "Feature", "properties": {"zone_id": "0201E2CV7BRAAAADCJVLS5", "tract_id": "36061008800", "city": "NEW YORK, NY", "zone_code": "TA", "zone_category": "Other", "ev_permitted": false}, "geometry": {"type": "Polygon", "coordinates": [[[-73.9720792838175, 40.7507303334557], [-73.9718956256136, 40.750982201276], [-73.9719615809161, 40.7510098253806], [-73.9717809612439, 40.7512575396497], [-73.971859970977, 40.7512906301537], [-73.9720381645801, 40.7510462422462], [-73.9720231371786, 40.7510399484267], [-73.9722090859326, 40.7507849379805], [-73.9720792838175, 40.7507303334557]]]}}, {"type": "Feature", "properties": {"zone_id": "02056JF275MQH64B7U3OK0", "tract_id": "36061008800", "city": "NEW YORK, NY", "zone_code": "C5-2", "zone_category": "Commercial", "ev_permitted": true}, "geometry": {"type": "Polygon", "coordinates": [[[-73.9722090859326, 40.7507849379805], [-73.9720231371786, 40.7510399484267], [-73.9721818520679, 40.7511064208204], [-73.9723676367661, 40.7508516356336], [-73.9722090859326, 40.7507849379805]]]}}, {"type": "Feature", "properties": {"zone_id": "0203A04IFH3ESKV2I1QNC8", "tract_id": "36061008800", "city": "NEW YORK, NY", "zone_code": "TA", "zone_category": "Other", "ev_permitted": false}, "geometry": {"type": "Polygon", "coordinates": [[[-73.9718441117732, 40.7510377785702], [-73.9717065881285, 40.7512263902615], [-73.9717809612439, 40.7512575396497], [-73.9719184847423, 40.7510689278704], [-73.9718441117732, 40.7510377785702]]]}}, {"type": "Feature", "properties": {"zone_id": "0202N5HSRIUEM6354O5SWG", "tract_id": "36061008800", "city": "NEW YORK, NY", "zone_code": "TA", "zone_category": "Other", "ev_permitted": false}, "geometry": {"type": "Polygon", "coordinates": [[[-73.971591800506, 40.7509321047106], [-73.9715567770622, 40.7509794908733], [-73.9718094487339, 40.7510853152653], [-73.9718441117732, 40.7510377785702], [-73.971591800506, 40.7509321047106]]]}}, {"type": "Feature", "properties": {"zone_id": "0206SXAO0WPW49OPHUEEU6", "tract_id": "36061008800", "city": "NEW YORK, NY", "zone_code": "TA", "zone_category": "Other", "ev_permitted": false}, "geometry": {"type": "Polygon", "coordinates": [[[-73.9715567770622, 40.7509794908733], [-73.9715271886667, 40.7510195222699], [-73.9717801643721, 40.7511254746839], [-73.9718094487339, 40.7510853152653], [-73.9715567770622, 40.7509794908733]]]}}, {"type": "Feature", "properties": {"zone_id": "0202NRULMC4CM2AR5AFBMD", "tract_id": "36061008800", "city": "NEW YORK, NY", "zone_code": "TA", "zone_category": "Other", "ev_permitted": false}, "geometry": {"type": "Polygon", "coordinates": [[[-73.9715271886667, 40.7510195222699], [-73.9714916945629, 40.7510675456043], [-73.9717450352941, 40.7511736506612], [-73.9717801643721, 40.7511254746839], [-73.9715271886667, 40.7510195222699]]]}}, {"type": "Feature", "properties": {"zone_id": "0205PFYSHJ2Q6HGH2DIR2F", "tract_id": "36061008800", "city": "NEW YORK, NY", "zone_code": "TA", "zone_category": "Other", "ev_permitted": false}, "geometry": {"type": "Polygon", "coordinates": [[[-73.9714916945629, 40.7510675456043], [-73.9714528675785, 40.7511201262265], [-73.9717065881285, 40.7512263902615], [-73.9717450352941, 40.7511736506612], [-73.9714916945629, 40.7510675456043]]]}}, {"type": "Feature", "properties": {"zone_id": "0202GRVQ1XB8JPXFX3XVH1", "tract_id": "36061008800", "city": "NEW YORK, NY", "zone_code": "TA", "zone_category": "Other", "ev_permitted": false}, "geometry": {"type": "Polygon", "coordinates": [[[-73.9718211804587, 40.7506217553176], [-73.971591800506, 40.7509321047106], [-73.9719184847423, 40.7510689278704], [-73.9719615809161, 40.7510098253806], [-73.9718956256136, 40.750982201276], [-73.9720792838175, 40.7507303334557], [-73.9718211804587, 40.7506217553176]]]}}, {"type": "Feature", "properties": {"zone_id": "0203SSOBGTPPG9YCY8IBGW", "tract_id": "36061008800", "city": "NEW YORK, NY", "zone_code": "TA", "zone_category": "Other", "ev_permitted": false}, "geometry": {"type": "Polygon", "coordinates": [[[-73.9720911287749, 40.7502565119051], [-73.9719174364571, 40.7504915212724], [-73.9721678017666, 40.750596917812], [-73.9723415008708, 40.7503619003432], [-73.9720911287749, 40.7502565119051]]]}}, {"type": "Feature", "properties": {"zone_id": "0201YEW86O1Y3QOO6HZ1Z8", "tract_id": "36061008800", "city": "NEW YORK, NY", "zone_code": "TA", "zone_category": "Other", "ev_permitted": false}, "geometry": {"type": "Polygon", "coordinates": [[[-73.971185426065, 40.7503603577839], [-73.9709961353501, 40.7506197496193], [-73.9713254458164, 40.7507600947298], [-73.9715159106699, 40.7504991132426], [-73.971185426065, 40.7503603577839]]]}}, {"type": "Feature", "properties": {"zone_id": "0202H3ARDKM30E76CL1600", "tract_id": "36061008800", "city": "NEW YORK, NY", "zone_code": "TA", "zone_category": "Other", "ev_permitted": false}, "geometry": {"type": "Polygon", "coordinates": [[[-73.9709961353501, 40.7506197496193], [-73.9709175707977, 40.750727408233], [-73.9709792804452, 40.7507537087292], [-73.9708853697594, 40.7508823981424], [-73.9711529703768, 40.7509964438977], [-73.9713254458164, 40.7507600947298], [-73.9709961353501, 40.7506197496193]]]}}, {"type": "Feature", "properties": {"zone_id": "0202TIKFWZSIMZYBCIVL0Y", "tract_id": "36061008800", "city": "NEW YORK, NY", "zone_code": "TA", "zone_category": "Other", "ev_permitted": false}, "geometry": {"type": "Polygon", "coordinates": [[[-73.9727959044315, 40.7492905791405], [-73.9724380786096, 40.749778931685], [-73.9735643458851, 40.75025399401], [-73.9739189655492, 40.7497630732856], [-73.9727959044315, 40.7492905791405]]]}}, {"type": "Feature", "properties": {"zone_id": "020293645LWAUIY5IU89UT", "tract_id": "36061008800", "city": "NEW YORK, NY", "zone_code": "TA", "zone_category": "Other", "ev_permitted": false}, "geometry": {"type": "Polygon", "coordinates": [[[-73.9717246698279, 40.7497466895715], [-73.9715351657015, 40.7500063815934], [-73.9715335398149, 40.7500057818265], [-73.9713532520373, 40.7502535173246], [-73.9716146777993, 40.7503637450633], [-73.9719849293558, 40.7498563646074], [-73.9717246698279, 40.7497466895715]]]}}, {"type": "Feature", "properties": {"zone_id": "020646FAPBZWQI3I9BQUEC", "tract_id": "36061008800", "city": "NEW YORK, NY", "zone_code": "TA", "zone_category": "Other", "ev_permitted": false}, "geometry": {"type": "Polygon", "coordinates": [[[-73.9710834702889, 40.7494764809113], [-73.9707133323142, 40.7499836962139], [-73.9713532520373, 40.7502535173246], [-73.9715335398149, 40.7500057818265], [-73.9715351657015, 40.7500063815934], [-73.9717246698279, 40.7497466895715], [-73.9710834702889, 40.7494764809113]]]}}, {"type": "Feature", "properties": {"zone_id": "0202HK17XF3X71HX20Y7RP", "tract_id": "36061008800", "city": "NEW YORK, NY", "zone_code": "TA", "zone_category": "Other", "ev_permitted": false}, "geometry": {"type": "Polygon", "coordinates": [[[-73.9722655415775, 40.7490691667589], [-73.9722218884765, 40.7491292213424], [-73.9722189573578, 40.7491279755299], [-73.9719098297551, 40.7495532425288], [-73.9721308640024, 40.7496471688855], [-73.9724836435947, 40.7491618473363], [-73.9722655415775, 40.7490691667589]]]}}, {"type": "Feature", "properties": {"zone_id": "0205BTOYYW8RZ8HOBTU2DH", "tract_id": "36061008800", "city": "NEW YORK, NY", "zone_code": "R10", "zone_category": "Residential", "ev_permitted": false}, "geometry": {"type": "Polygon", "coordinates": [[[-73.9717567451204, 40.7491697638757], [-73.971579904001, 40.7494130422534], [-73.9718080725308, 40.7495100015448], [-73.9719849130744, 40.7492667228201], [-73.9717567451204, 40.7491697638757]]]}}, {"type": "Feature", "properties": {"zone_id": "02000WJK08LGWA3YSLO9E7", "tract_id": "36061008800", "city": "NEW YORK, NY", "zone_code": "MID", "zone_category": "Other", "ev_permitted": false}, "geometry": {"type": "Polygon", "coordinates": [[[-73.9748560341526, 40.7485310067358], [-73.9746528708217, 40.7488199568884], [-73.9746257184363, 40.7488502241219], [-73.974490541332, 40.749036250249], [-73.9752857838488, 40.7493711369175], [-73.9756526212042, 40.7488664589359], [-73.9748560341526, 40.7485310067358]]]}}, {"type": "Feature", "properties": {"zone_id": "0202UOG3Z3F11ZVDF6Y9PY", "tract_id": "36061008800", "city": "NEW YORK, NY", "zone_code": "MID", "zone_category": "Other", "ev_permitted": false}, "geometry": {"type": "Polygon", "coordinates": [[[-73.9740628343579, 40.7490178215697], [-73.9738949028606, 40.7492503028849], [-73.9739518245345, 40.7492741140111], [-73.9737711448756, 40.7495242443651], [-73.9740581087747, 40.7496457373544], [-73.9744075244468, 40.7491620105103], [-73.9740628343579, 40.7490178215697]]]}}, {"type": "Feature", "properties": {"zone_id": "0203CP1L77O51EZEMHQYZM", "tract_id": "36061008800", "city": "NEW YORK, NY", "zone_code": "C1-9", "zone_category": "Commercial", "ev_permitted": true}, "geometry": {"type": "Polygon", "coordinates": [[[-73.9745047976359, 40.7483830941273], [-73.9743863139981, 40.7485460965851], [-73.974400823733, 40.7485522065905], [-73.974152464957, 40.7488938792274], [-73.974490541332, 40.749036250249], [-73.9746257184363, 40.7488502241219], [-73.9746528708217, 40.7488199568884], [-73.9748560341526, 40.7485310067358], [-73.9745047976359, 40.7483830941273]]]}}, {"type": "Feature", "properties": {"zone_id": "020310TTWYCDQL5XPMH1V9", "tract_id": "36061008800", "city": "NEW YORK, NY", "zone_code": "C1-9", "zone_category": "Commercial", "ev_permitted": true}, "geometry": {"type": "Polygon", "coordinates": [[[-73.9744216285129, 40.7483480693859], [-73.9743228745072, 40.7484839276551], [-73.9743184542504, 40.7484820653349], [-73.9742987226279, 40.7485092094377], [-73.9743863139981, 40.7485460965851], [-73.9745047976359, 40.7483830941273], [-73.9744216285129, 40.7483480693859]]]}}, {"type": "Feature", "properties": {"zone_id": "0205GKSD8Z06ZO73769GVK", "tract_id": "36061008800", "city": "NEW YORK, NY", "zone_code": "C1-9", "zone_category": "Commercial", "ev_permitted": true}, "geometry": {"type": "Polygon", "coordinates": [[[-73.9742406653042, 40.748484760215], [-73.9741801095464, 40.7485680689609], [-73.974204026985, 40.7485781398611], [-73.9740162234608, 40.7488365041513], [-73.974152464957, 40.7488938792274], [-73.974400823733, 40.7485522065905], [-73.9742406653042, 40.748484760215]]]}}, {"type": "Feature", "properties": {"zone_id": "02078BCEESPO61PKLQ8Q80", "tract_id": "36061008800", "city": "NEW YORK, NY", "zone_code": "C1-9", "zone_category": "Commercial", "ev_permitted": true}, "geometry": {"type": "Polygon", "coordinates": [[[-73.9741480157943, 40.7485545532086], [-73.9739602121197, 40.7488129167056], [-73.9740162234608, 40.7488365041513], [-73.974204026985, 40.7485781398611], [-73.9741480157943, 40.7485545532086]]]}}, {"type": "Feature", "properties": {"zone_id": "02024MRQKLKKR978T5TB12", "tract_id": "36061008800", "city": "NEW YORK, NY", "zone_code": "C1-9", "zone_category": "Commercial", "ev_permitted": true}, "geometry": {"type": "Polygon", "coordinates": [[[-73.9740475379171, 40.7485122391787], [-73.9738597339722, 40.7487706025135], [-73.9739602121197, 40.7488129167056], [-73.9741480157943, 40.7485545532086], [-73.9740475379171, 40.7485122391787]]]}}, {"type": "Feature", "properties": {"zone_id": "02044612F1XY66C86XZW3T", "tract_id": "36061008800", "city": "NEW YORK, NY", "zone_code": "C1-9", "zone_category": "Commercial", "ev_permitted": true}, "geometry": {"type": "Polygon", "coordinates": [[[-73.9739864396259, 40.7484865096067], [-73.9737986364405, 40.7487448728431], [-73.9738597339722, 40.7487706025135], [-73.9740475379171, 40.7485122391787], [-73.9739864396259, 40.7484865096067]]]}}, {"type": "Feature", "properties": {"zone_id": "0200DL6TZSZ9BKQL5YI0JE", "tract_id": "36061008800", "city": "NEW YORK, NY", "zone_code": "C1-9", "zone_category": "Commercial", "ev_permitted": true}, "geometry": {"type": "Polygon", "coordinates": [[[-73.9743018328711, 40.748297620857], [-73.9741227930814, 40.7485439311215], [-73.9741801095464, 40.7485680689609], [-73.974359150113, 40.7483217586084], [-73.9743018328711, 40.748297620857]]]}}, {"type": "Feature", "properties": {"zone_id": "0200LC7RPNWY606P9B7U0G", "tract_id": "36061008800", "city": "NEW YORK, NY", "zone_code": "C1-9", "zone_category": "Commercial", "ev_permitted": true}, "geometry": {"type": "Polygon", "coordinates": [[[-73.9742364696314, 40.7482700944775], [-73.9740574287501, 40.7485164046412], [-73.9741227930814, 40.7485439311215], [-73.9743018328711, 40.748297620857], [-73.9742364696314, 40.7482700944775]]]}}, {"type": "Feature", "properties": {"zone_id": "0202HHCB9XEVMFGS49XMST", "tract_id": "36061008800", "city": "NEW YORK, NY", "zone_code": "C1-9", "zone_category": "Commercial", "ev_permitted": true}, "geometry": {"type": "Polygon", "coordinates": [[[-73.9741467374095, 40.7482323066323], [-73.9739676972222, 40.7484786159554], [-73.9740574287501, 40.7485164046412], [-73.9742364696314, 40.7482700944775], [-73.9741467374095, 40.7482323066323]]]}}, {"type": "Feature", "properties": {"zone_id": "02022CXC408RY1P7OXWTTO", "tract_id": "36061008800", "city": "NEW YORK, NY", "zone_code": "C1-9", "zone_category": "Commercial", "ev_permitted": true}, "geometry": {"type": "Polygon", "coordinates": [[[-73.974359150113, 40.7483217586084], [-73.9742406653042, 40.748484760215], [-73.9742987226279, 40.7485092094377], [-73.9743184542504, 40.7484820653349], [-73.9743228745072, 40.7484839276551], [-73.9744216285129, 40.7483480693859], [-73.974359150113, 40.7483217586084]]]}}, {"type": "Feature", "properties": {"zone_id": "0200FTFJADQ0OWS78HU9J8", "tract_id": "36061008800", "city": "NEW YORK, NY", "zone_code": "C1-9", "zone_category": "Commercial", "ev_permitted": true}, "geometry": {"type": "Polygon", "coordinates": [[[-73.9740587308886, 40.7481952449488], [-73.9738796904756, 40.7484415541364], [-73.9739676972222, 40.7484786159554], [-73.9741467374095, 40.7482323066323], [-73.9740587308886, 40.7481952449488]]]}}, {"type": "Feature", "properties": {"zone_id": "020164YRILHJOKATHW9H82", "tract_id": "36061008800", "city": "NEW YORK, NY", "zone_code": "C1-9", "zone_category": "Commercial", "ev_permitted": true}, "geometry": {"type": "Polygon", "coordinates": [[[-73.9739664788324, 40.7481563939799], [-73.9737861273511, 40.7484045057413], [-73.973854554683, 40.7484333217418], [-73.973855862741, 40.7484315204297], [-73.9738796904756, 40.7484415541364], [-73.9740587308886, 40.7481952449488], [-73.9739664788324, 40.7481563939799]]]}}, {"type": "Feature", "properties": {"zone_id": "0206H7YM2MRHW7F9E2UW8S", "tract_id": "36061008800", "city": "NEW YORK, NY", "zone_code": "C1-9", "zone_category": "Commercial", "ev_permitted": true}, "geometry": {"type": "Polygon", "coordinates": [[[-73.9736842869577, 40.7480375543503], [-73.9734596768528, 40.7483465504302], [-73.9738102942389, 40.7484942073334], [-73.973854554683, 40.7484333217418], [-73.9737861273511, 40.7484045057413], [-73.9739664788324, 40.7481563939799], [-73.9736842869577, 40.7480375543503]]]}}, {"type": "Feature", "properties": {"zone_id": "02050U3IUDUBEIKPL2PPNJ", "tract_id": "36061008800", "city": "NEW YORK, NY", "zone_code": "MID", "zone_category": "Other", "ev_permitted": false}, "geometry": {"type": "Polygon", "coordinates": [[[-73.9737466045523, 40.7488855375564], [-73.973572707796, 40.7491262781677], [-73.973416002918, 40.7490600533615], [-73.9733688082402, 40.7491253880184], [-73.9733561894539, 40.749120055458], [-73.9732298378804, 40.7492950646777], [-73.9737711448756, 40.7495242443651], [-73.9739518245345, 40.7492741140111], [-73.9738949028606, 40.7492503028849], [-73.9740628343579, 40.7490178215697], [-73.9737466045523, 40.7488855375564]]]}}, {"type": "Feature", "properties": {"zone_id": "0200MYS0F38V6MK7D6OTGW", "tract_id": "36061008800", "city": "NEW YORK, NY", "zone_code": "C1-9", "zone_category": "Commercial", "ev_permitted": true}, "geometry": {"type": "Polygon", "coordinates": [[[-73.9732460926821, 40.7486761610218], [-73.9729685208396, 40.7490549933847], [-73.9732201214651, 40.7491602446076], [-73.9731478489513, 40.7492603519772], [-73.9732298378804, 40.7492950646777], [-73.9733561894539, 40.749120055458], [-73.9733688082402, 40.7491253880184], [-73.973416002918, 40.7490600533615], [-73.973572707796, 40.7491262781677], [-73.9737466045523, 40.7488855375564], [-73.9732460926821, 40.7486761610218]]]}}, {"type": "Feature", "properties": {"zone_id": "02010U2JFXVFZ6RCW6VHGC", "tract_id": "36061008800", "city": "NEW YORK, NY", "zone_code": "C1-9", "zone_category": "Commercial", "ev_permitted": true}, "geometry": {"type": "Polygon", "coordinates": [[[-73.9729685208396, 40.7490549933847], [-73.9728961395751, 40.7491537802827], [-73.9731478489513, 40.7492603519772], [-73.9732201214651, 40.7491602446076], [-73.9729685208396, 40.7490549933847]]]}}, {"type": "Feature", "properties": {"zone_id": "0200UHIFYQWL1KPG2MAI8T", "tract_id": "36061008800", "city": "NEW YORK, NY", "zone_code": "C1-9", "zone_category": "Commercial", "ev_permitted": true}, "geometry": {"type": "Polygon", "coordinates": [[[-73.9724342597193, 40.7487881169346], [-73.9723367185159, 40.7489223070847], [-73.9725847792691, 40.7490268702451], [-73.9726766809749, 40.7489004379747], [-73.9724510218979, 40.7488053170345], [-73.9724342597193, 40.7487881169346]]]}}, {"type": "Feature", "properties": {"zone_id": "0201P75BPSTPLT6A025VHT", "tract_id": "36061008800", "city": "NEW YORK, NY", "zone_code": "C1-9", "zone_category": "Commercial", "ev_permitted": true}, "geometry": {"type": "Polygon", "coordinates": [[[-73.9734596768528, 40.7483465504302], [-73.9733174401794, 40.748542226123], [-73.9737986364405, 40.7487448728431], [-73.9739864396259, 40.7484865096067], [-73.973855862741, 40.7484315204297], [-73.9738102942389, 40.7484942073334], [-73.9734596768528, 40.7483465504302]]]}}, {"type": "Feature", "properties": {"zone_id": "0200NCUCJEYLJIZQ51F6GJ", "tract_id": "36061008800", "city": "NEW YORK, NY", "zone_code": "R10", "zone_category": "Residential", "ev_permitted": false}, "geometry": {"type": "Polygon", "coordinates": [[[-73.9722306254285, 40.7482376027115], [-73.9720847522623, 40.7484382838356], [-73.9720838054085, 40.7484378844977], [-73.9720488840583, 40.7484859271317], [-73.9721770143396, 40.7485399382642], [-73.9724342597193, 40.7487881169346], [-73.9724510218979, 40.7488053170345], [-73.9726766809749, 40.7489004379747], [-73.9729384360356, 40.7485403311735], [-73.9722306254285, 40.7482376027115]]]}}, {"type": "Feature", "properties": {"zone_id": "0203I7EY92L32BZJV69OMI", "tract_id": "36061008800", "city": "NEW YORK, NY", "zone_code": "TA", "zone_category": "Other", "ev_permitted": false}, "geometry": {"type": "Polygon", "coordinates": [[[-73.9720018477189, 40.748957111615], [-73.9718259057219, 40.7491991532196], [-73.9719849130744, 40.7492667228201], [-73.9718080725308, 40.7495100015448], [-73.9719098297551, 40.7495532425288], [-73.9722189573578, 40.7491279755299], [-73.9722218884765, 40.7491292213424], [-73.9722655415775, 40.7490691667589], [-73.9720018477189, 40.748957111615]]]}}, {"type": "Feature", "properties": {"zone_id": "0200IUB2H9LCJXHVEPK4OZ", "tract_id": "36061008800", "city": "NEW YORK, NY", "zone_code": "R10", "zone_category": "Residential", "ev_permitted": false}, "geometry": {"type": "Polygon", "coordinates": [[[-73.971514515942, 40.7487500207146], [-73.9713385736452, 40.7489920615822], [-73.9718259057219, 40.7491991532196], [-73.9720018477189, 40.748957111615], [-73.971514515942, 40.7487500207146]]]}}, {"type": "Feature", "properties": {"zone_id": "0200KT3EE2EDOYH9XSXLWQ", "tract_id": "36061008800", "city": "NEW YORK, NY", "zone_code": "R10", "zone_category": "Residential", "ev_permitted": false}, "geometry": {"type": "Polygon", "coordinates": [[[-73.9713802787325, 40.7490097837906], [-73.9712034357388, 40.7492530622983], [-73.971579904001, 40.7494130422534], [-73.9717567451204, 40.7491697638757], [-73.9713802787325, 40.7490097837906]]]}}, {"type": "Feature", "properties": {"zone_id": "0200AB5SF1ZUVKH4P87GKK", "tract_id": "36061008800", "city": "NEW YORK, NY", "zone_code": "R10", "zone_category": "Residential", "ev_permitted": false}, "geometry": {"type": "Polygon", "coordinates": [[[-73.9712748201103, 40.7486481611494], [-73.9710988772116, 40.7488902016544], [-73.9713385736452, 40.7489920615822], [-73.971514515942, 40.7487500207146], [-73.9712748201103, 40.7486481611494]]]}}, {"type": "Feature", "properties": {"zone_id": "0200ZN8VKK76S5RUIZ1E1K", "tract_id": "36061008800", "city": "NEW YORK, NY", "zone_code": "R10", "zone_category": "Residential", "ev_permitted": false}, "geometry": {"type": "Polygon", "coordinates": [[[-73.9710688421165, 40.7488774381053], [-73.9709181918467, 40.7490846835534], [-73.9712296282081, 40.7492170303446], [-73.9713802787325, 40.7490097837906], [-73.9710688421165, 40.7488774381053]]]}}, {"type": "Feature", "properties": {"zone_id": "0202MINSHFDIPYFMAS2D69", "tract_id": "36061008800", "city": "NEW YORK, NY", "zone_code": "R10", "zone_category": "Residential", "ev_permitted": false}, "geometry": {"type": "Polygon", "coordinates": [[[-73.9719395275376, 40.7484398302254], [-73.9717642310321, 40.7486809865647], [-73.9723367185159, 40.7489223070847], [-73.9724342597193, 40.7487881169346], [-73.9721770143396, 40.7485399382642], [-73.9719395275376, 40.7484398302254]]]}}, {"type": "Feature", "properties": {"zone_id": "0203HT871W7L1NUHBK30GF", "tract_id": "36061008800", "city": "NEW YORK, NY", "zone_code": "R10", "zone_category": "Residential", "ev_permitted": false}, "geometry": {"type": "Polygon", "coordinates": [[[-73.9712186344765, 40.7486242849401], [-73.9710426923607, 40.7488663253603], [-73.9710988772116, 40.7488902016544], [-73.9712748201103, 40.7486481611494], [-73.9712186344765, 40.7486242849401]]]}}, {"type": "Feature", "properties": {"zone_id": "0206FNLVQW0S1ZF1Z928Y0", "tract_id": "36061008800", "city": "NEW YORK, NY", "zone_code": "C5-2", "zone_category": "Commercial", "ev_permitted": true}, "geometry": {"type": "Polygon", "coordinates": [[[-73.9726303409446, 40.7475991923867], [-73.9722671476961, 40.7480807464529], [-73.9730501500978, 40.7484088954232], [-73.9733956838237, 40.7479217543427], [-73.9726303409446, 40.7475991923867]]]}}, {"type": "Feature", "properties": {"zone_id": "020727RBAWQLEZ7VOXX0NE", "tract_id": "36061008800", "city": "NEW YORK, NY", "zone_code": "C5-2", "zone_category": "Commercial", "ev_permitted": true}, "geometry": {"type": "Polygon", "coordinates": [[[-73.9718479014624, 40.7472694161194], [-73.9714926681155, 40.7477561623378], [-73.9722671476961, 40.7480807464529], [-73.9726303409446, 40.7475991923867], [-73.9718479014624, 40.7472694161194]]]}}, {"type": "Feature", "properties": {"zone_id": "0206NF6F7L2MVKJJ5REQ0Z", "tract_id": "36061008800", "city": "NEW YORK, NY", "zone_code": "R10", "zone_category": "Residential", "ev_permitted": false}, "geometry": {"type": "Polygon", "coordinates": [[[-73.9714485067521, 40.7479030851301], [-73.9710897264468, 40.7483966568885], [-73.9717642310321, 40.7486809865647], [-73.9719395275376, 40.7484398302254], [-73.9720488840583, 40.7484859271317], [-73.9720838054085, 40.7484378844977], [-73.9720847522623, 40.7484382838356], [-73.9722306254285, 40.7482376027115], [-73.9714485067521, 40.7479030851301]]]}}, {"type": "Feature", "properties": {"zone_id": "0205OXH8YQQJCE7KZ9JO1Y", "tract_id": "36061008800", "city": "", "zone_code": "C5-2", "zone_category": "Commercial", "ev_permitted": true}, "geometry": {"type": "Polygon", "coordinates": [[[-73.9713299165018, 40.7470510954763], [-73.9709739936592, 40.7475387807952], [-73.9714926681155, 40.7477561623378], [-73.9718479014624, 40.7472694161194], [-73.9713299165018, 40.7470510954763]]]}}, {"type": "Feature", "properties": {"zone_id": "02011V7RQC1U50DKNYA6LW", "tract_id": "36061008800", "city": "NEW YORK, NY", "zone_code": "R10", "zone_category": "Residential", "ev_permitted": false}, "geometry": {"type": "Polygon", "coordinates": [[[-73.9707907236564, 40.7501946389742], [-73.9706028232622, 40.7504521256234], [-73.9709961353501, 40.7506197496193], [-73.971185426065, 40.7503603577839], [-73.9707907236564, 40.7501946389742]]]}}, {"type": "Feature", "properties": {"zone_id": "02054GDPCPDH1K3F8MHCW0", "tract_id": "36061008800", "city": "NEW YORK, NY", "zone_code": "U", "zone_category": "Other", "ev_permitted": false}, "geometry": {"type": "Polygon", "coordinates": [[[-73.970293763108, 40.7503204073542], [-73.9701212851462, 40.7505567556948], [-73.9706719203144, 40.7507914295235], [-73.9708443969298, 40.750555081069], [-73.970293763108, 40.7503204073542]]]}}, {"type": "Feature", "properties": {"zone_id": "0205LN2VZPX36R27IQAQ6B", "tract_id": "36061008800", "city": "NEW YORK, NY", "zone_code": "TA", "zone_category": "Other", "ev_permitted": false}, "geometry": {"type": "Polygon", "coordinates": [[[-73.9708443969298, 40.750555081069], [-73.9706719203144, 40.7507914295235], [-73.9708853697594, 40.7508823981424], [-73.9709792804452, 40.7507537087292], [-73.9709175707977, 40.750727408233], [-73.9709961353501, 40.7506197496193], [-73.9708443969298, 40.750555081069]]]}}, {"type": "Feature", "properties": {"zone_id": "0203I6IRMQKSCS2W0BG0SA", "tract_id": "36061008800", "city": "NEW YORK, NY", "zone_code": "R10", "zone_category": "Residential", "ev_permitted": false}, "geometry": {"type": "Polygon", "coordinates": [[[-73.9703942255496, 40.7500281643967], [-73.9702077191869, 40.7502837367328], [-73.9706028232622, 40.7504521256234], [-73.9707907236564, 40.7501946389742], [-73.9703942255496, 40.7500281643967]]]}}, {"type": "Feature", "properties": {"zone_id": "0201I4Y9KY7KR4RFEO42XK", "tract_id": "36061008800", "city": "NEW YORK, NY", "zone_code": "U", "zone_category": "Other", "ev_permitted": false}, "geometry": {"type": "Polygon", "coordinates": [[[-73.969688609501, 40.7497318959137], [-73.9695549507238, 40.749915047159], [-73.9696303658976, 40.7499471896646], [-73.9695799997621, 40.7500162045427], [-73.9702077191869, 40.7502837367328], [-73.9703942255496, 40.7500281643967], [-73.969688609501, 40.7497318959137]]]}}, {"type": "Feature", "properties": {"zone_id": "0200YCB91QCJ59ZPLLOSW7", "tract_id": "36061008800", "city": "NEW YORK, NY", "zone_code": "U", "zone_category": "Other", "ev_permitted": false}, "geometry": {"type": "Polygon", "coordinates": [[[-73.9695799997621, 40.7500162045427], [-73.9694075200559, 40.7502525511222], [-73.9701212851462, 40.7505567556948], [-73.970293763108, 40.7503204073542], [-73.9695799997621, 40.7500162045427]]]}}, {"type": "Feature", "properties": {"zone_id": "0204JFZX9DKTHVPXSLV4SR", "tract_id": "36061008800", "city": "NEW YORK, NY", "zone_code": "R10", "zone_category": "Residential", "ev_permitted": false}, "geometry": {"type": "Polygon", "coordinates": [[[-73.9706895215063, 40.7493575334832], [-73.9705278363562, 40.7495790872856], [-73.9708954732074, 40.7497341029493], [-73.9710572000421, 40.7495124797862], [-73.9706895215063, 40.7493575334832]]]}}, {"type": "Feature", "properties": {"zone_id": "0202NM32UEITT4C3EED6BH", "tract_id": "36061008800", "city": "NEW YORK, NY", "zone_code": "R10", "zone_category": "Residential", "ev_permitted": false}, "geometry": {"type": "Polygon", "coordinates": [[[-73.970430457712, 40.7492483582171], [-73.9700853094125, 40.7497188859655], [-73.9703457009762, 40.7498286820841], [-73.9706895215063, 40.7493575334832], [-73.970430457712, 40.7492483582171]]]}}, {"type": "Feature", "properties": {"zone_id": "0207NIDU3IQQRLGAIYKWGZ", "tract_id": "36061008800", "city": "NEW YORK, NY", "zone_code": "R10", "zone_category": "Residential", "ev_permitted": false}, "geometry": {"type": "Polygon", "coordinates": [[[-73.9706849202443, 40.7496453224369], [-73.9705027898902, 40.7498949202932], [-73.9707133323142, 40.7499836962139], [-73.9708954732074, 40.7497341029493], [-73.9706849202443, 40.7496453224369]]]}}, {"type": "Feature", "properties": {"zone_id": "02079UHK8OOBEBM3YKLAUO", "tract_id": "36061008800", "city": "NEW YORK, NY", "zone_code": "R10", "zone_category": "Residential", "ev_permitted": false}, "geometry": {"type": "Polygon", "coordinates": [[[-73.9705278363562, 40.7495790872856], [-73.9703457009762, 40.7498286820841], [-73.9703992389475, 40.7498512574193], [-73.9705813797316, 40.7496016639437], [-73.9705278363562, 40.7495790872856]]]}}, {"type": "Feature", "properties": {"zone_id": "0205DPS55OQ0U79FWT8LRQ", "tract_id": "36061008800", "city": "NEW YORK, NY", "zone_code": "R10", "zone_category": "Residential", "ev_permitted": false}, "geometry": {"type": "Polygon", "coordinates": [[[-73.9706351623991, 40.7496243418202], [-73.9704530217545, 40.74987393538], [-73.9705027898902, 40.7498949202932], [-73.9706849202443, 40.7496453224369], [-73.9706351623991, 40.7496243418202]]]}}, {"type": "Feature", "properties": {"zone_id": "0204S3AF8B69F1EN4YEG6X", "tract_id": "36061008800", "city": "NEW YORK, NY", "zone_code": "R10", "zone_category": "Residential", "ev_permitted": false}, "geometry": {"type": "Polygon", "coordinates": [[[-73.9705813797316, 40.7496016639437], [-73.9703992389475, 40.7498512574193], [-73.9704530217545, 40.74987393538], [-73.9706351623991, 40.7496243418202], [-73.9705813797316, 40.7496016639437]]]}}, {"type": "Feature", "properties": {"zone_id": "0203VUNXTSUFH8TF7Z8EE6", "tract_id": "36061008800", "city": "NEW YORK, NY", "zone_code": "R10", "zone_category": "Residential", "ev_permitted": false}, "geometry": {"type": "Polygon", "coordinates": [[[-73.9700864837426, 40.7490563292035], [-73.9697153528608, 40.7495593890818], [-73.9698995577403, 40.7496367329835], [-73.9702705268005, 40.7491338902989], [-73.9700864837426, 40.7490563292035]]]}}, {"type": "Feature", "properties": {"zone_id": "02069I4IZ6RF0JB73T9P8J", "tract_id": "36061008800", "city": "NEW YORK, NY", "zone_code": "U", "zone_category": "Other", "ev_permitted": false}, "geometry": {"type": "Polygon", "coordinates": [[[-73.9691702260775, 40.7499891283799], [-73.9690791380552, 40.7501125935501], [-73.9694075200559, 40.7502525511222], [-73.969497855715, 40.7501287657875], [-73.9691702260775, 40.7499891283799]]]}}, {"type": "Feature", "properties": {"zone_id": "0205MXEX9ODTQZ41HG6QK0", "tract_id": "36061008800", "city": "NEW YORK, NY", "zone_code": "U", "zone_category": "Other", "ev_permitted": false}, "geometry": {"type": "Polygon", "coordinates": [[[-73.9693038398454, 40.7498080230007], [-73.9691702260775, 40.7499891283799], [-73.969497855715, 40.7501287657875], [-73.9696303658976, 40.7499471896646], [-73.9693038398454, 40.7498080230007]]]}}, {"type": "Feature", "properties": {"zone_id": "0206R726DZZ3BNC3PDG3ZY", "tract_id": "36061008800", "city": "NEW YORK, NY", "zone_code": "U", "zone_category": "Other", "ev_permitted": false}, "geometry": {"type": "Polygon", "coordinates": [[[-73.9694377219202, 40.7496265535576], [-73.9693893004288, 40.7496921855854], [-73.969639705253, 40.7497989093393], [-73.969688609501, 40.7497318959137], [-73.9694377219202, 40.7496265535576]]]}}, {"type": "Feature", "properties": {"zone_id": "02046IQTVAGX0K6TDG0TNH", "tract_id": "36061008800", "city": "NEW YORK, NY", "zone_code": "U", "zone_category": "Other", "ev_permitted": false}, "geometry": {"type": "Polygon", "coordinates": [[[-73.9693893004288, 40.7496921855854], [-73.9693038398454, 40.7498080230007], [-73.9695549507238, 40.749915047159], [-73.969639705253, 40.7497989093393], [-73.9693893004288, 40.7496921855854]]]}}, {"type": "Feature", "properties": {"zone_id": "0205OP8RG6AL722ESWKMT2", "tract_id": "36061008800", "city": "NEW YORK, NY", "zone_code": "R10", "zone_category": "Residential", "ev_permitted": false}, "geometry": {"type": "Polygon", "coordinates": [[[-73.9699329749062, 40.7489916357895], [-73.9695616999266, 40.7494948890729], [-73.9697153528608, 40.7495593890818], [-73.9700864837426, 40.7490563292035], [-73.9699329749062, 40.7489916357895]]]}}, {"type": "Feature", "properties": {"zone_id": "0206G9QXMX7H1I2E3GSG5Y", "tract_id": "36061008800", "city": "NEW YORK, NY", "zone_code": "R10", "zone_category": "Residential", "ev_permitted": false}, "geometry": {"type": "Polygon", "coordinates": [[[-73.9709566567778, 40.7485129550727], [-73.970630062191, 40.7489622401714], [-73.9709181918467, 40.7490846835534], [-73.9710688421165, 40.7488774381053], [-73.9710426923607, 40.7488663253603], [-73.9712186344765, 40.7486242849401], [-73.9709566567778, 40.7485129550727]]]}}, {"type": "Feature", "properties": {"zone_id": "0206MPGXCXXWPPLRF52J5F", "tract_id": "36061008800", "city": "NEW YORK, NY", "zone_code": "R10", "zone_category": "Residential", "ev_permitted": false}, "geometry": {"type": "Polygon", "coordinates": [[[-73.970582722475, 40.7483540466606], [-73.9702373251852, 40.7488425045216], [-73.970438990024, 40.7489282045458], [-73.9707843862791, 40.7484397467887], [-73.970582722475, 40.7483540466606]]]}}, {"type": "Feature", "properties": {"zone_id": "0203RJ7FRA6OHGZCSKIZLZ", "tract_id": "36061008800", "city": "NEW YORK, NY", "zone_code": "PARK", "zone_category": "Other", "ev_permitted": false}, "geometry": {"type": "Polygon", "coordinates": [[[-73.9705165516231, 40.7483259270304], [-73.9701711549181, 40.7488143839926], [-73.9702373251852, 40.7488425045216], [-73.970582722475, 40.7483540466606], [-73.9705165516231, 40.7483259270304]]]}}, {"type": "Feature", "properties": {"zone_id": "020428NZAGYL9IFH22FJ0I", "tract_id": "36061008800", "city": "NEW YORK, NY", "zone_code": "R10", "zone_category": "Residential", "ev_permitted": false}, "geometry": {"type": "Polygon", "coordinates": [[[-73.9708887120377, 40.7476636521045], [-73.9705159556753, 40.7481547859663], [-73.9708779728697, 40.7483073936853], [-73.9712299560731, 40.7478096084616], [-73.9708887120377, 40.7476636521045]]]}}]}