{"type": "FeatureCollection", "features": [{"type": "Feature", "properties": {"zone_id": "0202BUC68SZYPMKUST2LLD", "tract_id": "36005005600", "city": "BRONX, NY", "zone_code": "C8-1", "zone_category": "Commercial", "ev_permitted": true}, "geometry": {"type": "Polygon", "coordinates": [[[-73.8823452009609, 40.8315291851222], [-73.881029736309, 40.8331875932775], [-73.8807986279149, 40.8334074074965], [-73.8804570349479, 40.8338354036329], [-73.8804110918824, 40.8338931950814], [-73.8799491556371, 40.8345488615202], [-73.8798599726266, 40.8346459931854], [-73.880177129147, 40.8347558896458], [-73.880260845139, 40.8346562773398], [-73.8802704762994, 40.8346415226221], [-73.8806673372219, 40.8342223252159], [-73.8809587393258, 40.8337801998621], [-73.8809411033248, 40.8337738416748], [-73.8816666612308, 40.8328549599164], [-73.8817022444434, 40.8328677895142], [-73.8826663832615, 40.8316467096604], [-73.8823452009609, 40.8315291851222]]]}}, {"type": "Feature", "properties": {"zone_id": "0204XVZ2CLKXJ7TVOKQZV3", "tract_id": "36005005600", "city": "BRONX, NY", "zone_code": "C8-1", "zone_category": "Commercial", "ev_permitted": true}, "geometry": {"type": "Polygon", "coordinates": [[[-73.880162002353, 40.8335433226294], [-73.8801164813391, 40.833600971062], [-73.8805026326073, 40.8337782722958], [-73.8805485120528, 40.8337207892061], [-73.880162002353, 40.8335433226294]]]}}, {"type": "Feature", "properties": {"zone_id": "020066SBEFN4QO7UJTM52C", "tract_id": "36005005600", "city": "BRONX, NY", "zone_code": "R6", "zone_category": "Residential", "ev_permitted": false}, "geometry": {"type": "Polygon", "coordinates": [[[-73.8802104152823, 40.8334820128786], [-73.880162002353, 40.8335433226294], [-73.8805485120528, 40.8337207892061], [-73.8805973055858, 40.8336596539455], [-73.8802104152823, 40.8334820128786]]]}}, {"type": "Feature", "properties": {"zone_id": "0200EDW80TWN5KRYHDNTCO", "tract_id": "36005005600", "city": "BRONX, NY", "zone_code": "C8-1", "zone_category": "Commercial", "ev_permitted": true}, "geometry": {"type": "Polygon", "coordinates": [[[-73.8803949247264, 40.8332483473204], [-73.8803517861293, 40.8333029790452], [-73.8807397886789, 40.8334811309157], [-73.8807832672336, 40.8334266539814], [-73.8803949247264, 40.8332483473204]]]}}, {"type": "Feature", "properties": {"zone_id": "0201NG4EA5SEYP06EGNK70", "tract_id": "36005005600", "city": "BRONX, NY", "zone_code": "C8-1", "zone_category": "Commercial", "ev_permitted": true}, "geometry": {"type": "Polygon", "coordinates": [[[-73.8804406891145, 40.8331903898627], [-73.8803949247264, 40.8332483473204], [-73.8807832672336, 40.8334266539814], [-73.8807986279149, 40.8334074074965], [-73.8808359750692, 40.8333718858339], [-73.8804406891145, 40.8331903898627]]]}}, {"type": "Feature", "properties": {"zone_id": "0205VHBTKHI0YD0NV1YU55", "tract_id": "36005005600", "city": "BRONX, NY", "zone_code": "C8-1", "zone_category": "Commercial", "ev_permitted": true}, "geometry": {"type": "Polygon", "coordinates": [[[-73.8802572824524, 40.833422659779], [-73.8802104152823, 40.8334820128786], [-73.8805973055858, 40.8336596539455], [-73.880644541349, 40.83360047041], [-73.8802572824524, 40.833422659779]]]}}, {"type": "Feature", "properties": {"zone_id": "0204YT9R1VAVTDKERSM26G", "tract_id": "36005005600", "city": "BRONX, NY", "zone_code": "C8-1", "zone_category": "Commercial", "ev_permitted": true}, "geometry": {"type": "Polygon", "coordinates": [[[-73.8803033113359, 40.8333643681918], [-73.8802572824524, 40.833422659779], [-73.880644541349, 40.83360047041], [-73.8806909323608, 40.833542344167], [-73.8803033113359, 40.8333643681918]]]}}, {"type": "Feature", "properties": {"zone_id": "020286H0AJKDNS3WXYXIE0", "tract_id": "36005005600", "city": "BRONX, NY", "zone_code": "C8-1", "zone_category": "Commercial", "ev_permitted": true}, "geometry": {"type": "Polygon", "coordinates": [[[-73.8803517861293, 40.8333029790452], [-73.8803033113359, 40.8333643681918], [-73.8806909323608, 40.833542344167], [-73.8807397886789, 40.8334811309157], [-73.8803517861293, 40.8333029790452]]]}}, {"type": "Feature", "properties": {"zone_id": "0207N1BU3QO29LMCYE8Z4V", "tract_id": "36005005600", "city": "BRONX, NY", "zone_code": "C8-1", "zone_category": "Commercial", "ev_permitted": true}, "geometry": {"type": "Polygon", "coordinates": [[[-73.8804909179322, 40.8331267800021], [-73.8804406891145, 40.8331903898627], [-73.8808359750692, 40.8333718858339], [-73.8808974334859, 40.8333134314788], [-73.8804909179322, 40.8331267800021]]]}}, {"type": "Feature", "properties": {"zone_id": "0202DDJ8WOX4RS6KVNON3E", "tract_id": "36005005600", "city": "BRONX, NY", "zone_code": "R6", "zone_category": "Residential", "ev_permitted": false}, "geometry": {"type": "Polygon", "coordinates": [[[-73.8805337772106, 40.8330725020686], [-73.8804909179322, 40.8331267800021], [-73.8808974334859, 40.8333134314788], [-73.8809498742856, 40.8332635527225], [-73.8805337772106, 40.8330725020686]]]}}, {"type": "Feature", "properties": {"zone_id": "0200SVQENBBJTYRXQ99EL6", "tract_id": "36005005600", "city": "BRONX, NY", "zone_code": "C8-1", "zone_category": "Commercial", "ev_permitted": true}, "geometry": {"type": "Polygon", "coordinates": [[[-73.880582928439, 40.833010255591], [-73.8805337772106, 40.8330725020686], [-73.8809498742856, 40.8332635527225], [-73.8810100138416, 40.8332063518726], [-73.880582928439, 40.833010255591]]]}}, {"type": "Feature", "properties": {"zone_id": "0204BBIMZDFFI7HO0W2VAN", "tract_id": "36005005600", "city": "BRONX, NY", "zone_code": "C8-1", "zone_category": "Commercial", "ev_permitted": true}, "geometry": {"type": "Polygon", "coordinates": [[[-73.880627357326, 40.8329539886482], [-73.880582928439, 40.833010255591], [-73.8810100138416, 40.8332063518726], [-73.881029736309, 40.8331875932775], [-73.8810581454119, 40.8331517840732], [-73.880627357326, 40.8329539886482]]]}}, {"type": "Feature", "properties": {"zone_id": "02000KE21JZXU4IRYOO6I2", "tract_id": "36005005600", "city": "BRONX, NY", "zone_code": "R6", "zone_category": "Residential", "ev_permitted": false}, "geometry": {"type": "Polygon", "coordinates": [[[-73.880813772013, 40.8327179065659], [-73.8807703309095, 40.8327729224867], [-73.8812016127681, 40.8329709455506], [-73.8812452043119, 40.8329159984838], [-73.880813772013, 40.8327179065659]]]}}, {"type": "Feature", "properties": {"zone_id": "0206DX0HX9YKQH6X6G6CKL", "tract_id": "36005005600", "city": "BRONX, NY", "zone_code": "R6", "zone_category": "Residential", "ev_permitted": false}, "geometry": {"type": "Polygon", "coordinates": [[[-73.8808607577153, 40.8326584015652], [-73.880813772013, 40.8327179065659], [-73.8812452043119, 40.8329159984838], [-73.8812923533783, 40.8328565672557], [-73.8808607577153, 40.8326584015652]]]}}, {"type": "Feature", "properties": {"zone_id": "0205Z2FVDJNZ612IFK2SGN", "tract_id": "36005005600", "city": "BRONX, NY", "zone_code": "C8-1", "zone_category": "Commercial", "ev_permitted": true}, "geometry": {"type": "Polygon", "coordinates": [[[-73.8809042960252, 40.832603262044], [-73.8808607577153, 40.8326584015652], [-73.8812923533783, 40.8328565672557], [-73.8813360421264, 40.8328014972904], [-73.8809042960252, 40.832603262044]]]}}, {"type": "Feature", "properties": {"zone_id": "0203S5LG8AEVNRS1QYFU9W", "tract_id": "36005005600", "city": "BRONX, NY", "zone_code": "R6", "zone_category": "Residential", "ev_permitted": false}, "geometry": {"type": "Polygon", "coordinates": [[[-73.8809527585858, 40.832541885273], [-73.8809042960252, 40.832603262044], [-73.8813360421264, 40.8328014972904], [-73.8813846735872, 40.8327401978052], [-73.8809527585858, 40.832541885273]]]}}, {"type": "Feature", "properties": {"zone_id": "02020SMM30UHAKLVKFK1U2", "tract_id": "36005005600", "city": "BRONX, NY", "zone_code": "R6", "zone_category": "Residential", "ev_permitted": false}, "geometry": {"type": "Polygon", "coordinates": [[[-73.880998314307, 40.8324841929732], [-73.8809527585858, 40.832541885273], [-73.8813846735872, 40.8327401978052], [-73.8814303852812, 40.8326825778701], [-73.880998314307, 40.8324841929732]]]}}, {"type": "Feature", "properties": {"zone_id": "02007Q5XM617FITMIOU4VS", "tract_id": "36005005600", "city": "BRONX, NY", "zone_code": "R6", "zone_category": "Residential", "ev_permitted": false}, "geometry": {"type": "Polygon", "coordinates": [[[-73.8810453794176, 40.8324245867961], [-73.880998314307, 40.8324841929732], [-73.8814303852812, 40.8326825778701], [-73.8814776137537, 40.8326230461673], [-73.8810453794176, 40.8324245867961]]]}}, {"type": "Feature", "properties": {"zone_id": "020017FESJVXZRA6X5HL13", "tract_id": "36005005600", "city": "BRONX, NY", "zone_code": "R6", "zone_category": "Residential", "ev_permitted": false}, "geometry": {"type": "Polygon", "coordinates": [[[-73.8806752928175, 40.8328932810739], [-73.880627357326, 40.8329539886482], [-73.8810581454119, 40.8331517840732], [-73.8811062470337, 40.8330911530819], [-73.8806752928175, 40.8328932810739]]]}}, {"type": "Feature", "properties": {"zone_id": "02023RC7H5WHK6PJBYGVAN", "tract_id": "36005005600", "city": "BRONX, NY", "zone_code": "C8-1", "zone_category": "Commercial", "ev_permitted": true}, "geometry": {"type": "Polygon", "coordinates": [[[-73.8807192208586, 40.8328376487695], [-73.8806752928175, 40.8328932810739], [-73.8811062470337, 40.8330911530819], [-73.8811503264355, 40.8330355910361], [-73.8807192208586, 40.8328376487695]]]}}, {"type": "Feature", "properties": {"zone_id": "0201I7A78VDXPUYAUA0H73", "tract_id": "36005005600", "city": "BRONX, NY", "zone_code": "R6", "zone_category": "Residential", "ev_permitted": false}, "geometry": {"type": "Polygon", "coordinates": [[[-73.8807703309095, 40.8327729224867], [-73.8807192208586, 40.8328376487695], [-73.8811503264355, 40.8330355910361], [-73.8812016127681, 40.8329709455506], [-73.8807703309095, 40.8327729224867]]]}}, {"type": "Feature", "properties": {"zone_id": "0201ZFOGGTJ18BSZO1EC3I", "tract_id": "36005005600", "city": "BRONX, NY", "zone_code": "R6", "zone_category": "Residential", "ev_permitted": false}, "geometry": {"type": "Polygon", "coordinates": [[[-73.8806100786201, 40.8324620187964], [-73.8801927424501, 40.8325175153062], [-73.8802085580814, 40.8325867305207], [-73.8805465111858, 40.8325417898347], [-73.8806100786201, 40.8324620187964]]]}}, {"type": "Feature", "properties": {"zone_id": "0204K9L5ZY75XN9Z8JLJWU", "tract_id": "36005005600", "city": "BRONX, NY", "zone_code": "R6", "zone_category": "Residential", "ev_permitted": false}, "geometry": {"type": "Polygon", "coordinates": [[[-73.8805465111858, 40.8325417898347], [-73.8802085580814, 40.8325867305207], [-73.8802242663461, 40.8326554811709], [-73.8804833701028, 40.8326210258619], [-73.8805465111858, 40.8325417898347]]]}}, {"type": "Feature", "properties": {"zone_id": "0205TQEGT4UBPYY8ER2OCZ", "tract_id": "36005005600", "city": "BRONX, NY", "zone_code": "R6", "zone_category": "Residential", "ev_permitted": false}, "geometry": {"type": "Polygon", "coordinates": [[[-73.8804833701028, 40.8326210258619], [-73.8802242663461, 40.8326554811709], [-73.880275888004, 40.832881392916], [-73.8804833701028, 40.8326210258619]]]}}, {"type": "Feature", "properties": {"zone_id": "02009KR4NXGGQRUJ5KAAAT", "tract_id": "36005005600", "city": "BRONX, NY", "zone_code": "C8-1", "zone_category": "Commercial", "ev_permitted": true}, "geometry": {"type": "Polygon", "coordinates": [[[-73.8796978705042, 40.8341310967854], [-73.8794923067986, 40.8343914172953], [-73.8799491556371, 40.8345488615202], [-73.8801100414565, 40.8343203454516], [-73.8796978705042, 40.8341310967854]]]}}, {"type": "Feature", "properties": {"zone_id": "02053F05GAOQU5I4BGC8W8", "tract_id": "36005005600", "city": "BRONX, NY", "zone_code": "C8-1", "zone_category": "Commercial", "ev_permitted": true}, "geometry": {"type": "Polygon", "coordinates": [[[-73.8797915815547, 40.8340124225891], [-73.879744267554, 40.8340723399566], [-73.8801526373422, 40.8342598433504], [-73.8801960743814, 40.8341981462017], [-73.8797915815547, 40.8340124225891]]]}}, {"type": "Feature", "properties": {"zone_id": "0205HDWVGXM9J9XD8X9ADY", "tract_id": "36005005600", "city": "BRONX, NY", "zone_code": "R6", "zone_category": "Residential", "ev_permitted": false}, "geometry": {"type": "Polygon", "coordinates": [[[-73.879744267554, 40.8340723399566], [-73.8796978705042, 40.8341310967854], [-73.8801100414565, 40.8343203454516], [-73.8801526373422, 40.8342598433504], [-73.879744267554, 40.8340723399566]]]}}, {"type": "Feature", "properties": {"zone_id": "0200MI5VZY1U1VVM9T5XPZ", "tract_id": "36005005600", "city": "BRONX, NY", "zone_code": "R6", "zone_category": "Residential", "ev_permitted": false}, "geometry": {"type": "Polygon", "coordinates": [[[-73.8789832827129, 40.8339888122215], [-73.8789374075337, 40.8340476810143], [-73.8792576314903, 40.8341971029071], [-73.8793035064892, 40.8341382339885], [-73.8789832827129, 40.8339888122215]]]}}, {"type": "Feature", "properties": {"zone_id": "0202KTTF19QKL5MXPNFIDC", "tract_id": "36005005600", "city": "BRONX, NY", "zone_code": "C8-1", "zone_category": "Commercial", "ev_permitted": true}, "geometry": {"type": "Polygon", "coordinates": [[[-73.8799327775544, 40.8338336139477], [-73.87989089367, 40.8338866546039], [-73.8802872508116, 40.8340686418869], [-73.8803257023865, 40.8340140257061], [-73.8799327775544, 40.8338336139477]]]}}, {"type": "Feature", "properties": {"zone_id": "0202H9MYFPT3N4VO9O2F9V", "tract_id": "36005005600", "city": "BRONX, NY", "zone_code": "R6", "zone_category": "Residential", "ev_permitted": false}, "geometry": {"type": "Polygon", "coordinates": [[[-73.87989089367, 40.8338866546039], [-73.8798419117577, 40.83394868454], [-73.8802404045073, 40.8341351809834], [-73.8802872508116, 40.8340686418869], [-73.87989089367, 40.8338866546039]]]}}, {"type": "Feature", "properties": {"zone_id": "0201MRSRQO17G2TGLXKZIN", "tract_id": "36005005600", "city": "BRONX, NY", "zone_code": "R6", "zone_category": "Residential", "ev_permitted": false}, "geometry": {"type": "Polygon", "coordinates": [[[-73.8798419117577, 40.83394868454], [-73.8797915815547, 40.8340124225891], [-73.8801960743814, 40.8341981462017], [-73.8802404045073, 40.8341351809834], [-73.8798419117577, 40.83394868454]]]}}, {"type": "Feature", "properties": {"zone_id": "0200XYIAS28PRRZIVCTP3L", "tract_id": "36005005600", "city": "BRONX, NY", "zone_code": "R6", "zone_category": "Residential", "ev_permitted": false}, "geometry": {"type": "Polygon", "coordinates": [[[-73.8800267270006, 40.8337146313414], [-73.8799792446585, 40.8337747678586], [-73.8803683628031, 40.8339534315426], [-73.8804110918824, 40.8338931950814], [-73.8800267270006, 40.8337146313414]]]}}, {"type": "Feature", "properties": {"zone_id": "0202N6SS2VUQH1NXWX3JAN", "tract_id": "36005005600", "city": "BRONX, NY", "zone_code": "C8-1", "zone_category": "Commercial", "ev_permitted": true}, "geometry": {"type": "Polygon", "coordinates": [[[-73.8799792446585, 40.8337747678586], [-73.8799327775544, 40.8338336139477], [-73.8803257023865, 40.8340140257061], [-73.8803683628031, 40.8339534315426], [-73.8799792446585, 40.8337747678586]]]}}, {"type": "Feature", "properties": {"zone_id": "0204KFN6OLKI44PWCHWDIS", "tract_id": "36005005600", "city": "BRONX, NY", "zone_code": "C8-1", "zone_category": "Commercial", "ev_permitted": true}, "geometry": {"type": "Polygon", "coordinates": [[[-73.8801164813391, 40.833600971062], [-73.8800712402677, 40.8336582649305], [-73.8804570349479, 40.8338354036329], [-73.8805026326073, 40.8337782722958], [-73.8801164813391, 40.833600971062]]]}}, {"type": "Feature", "properties": {"zone_id": "0200MGBT47H6S01K0QE0JY", "tract_id": "36005005600", "city": "BRONX, NY", "zone_code": "R6", "zone_category": "Residential", "ev_permitted": false}, "geometry": {"type": "Polygon", "coordinates": [[[-73.8800712402677, 40.8336582649305], [-73.8800267270006, 40.8337146313414], [-73.8804110918824, 40.8338931950814], [-73.8804570349479, 40.8338354036329], [-73.8800712402677, 40.8336582649305]]]}}, {"type": "Feature", "properties": {"zone_id": "0204HRGZT3O3VTDGWYJNW8", "tract_id": "36005005600", "city": "BRONX, NY", "zone_code": "R6", "zone_category": "Residential", "ev_permitted": false}, "geometry": {"type": "Polygon", "coordinates": [[[-73.8791615385489, 40.8337566977487], [-73.879116311173, 40.8338161258977], [-73.8794366028177, 40.8339655789902], [-73.8794818309342, 40.8339061507181], [-73.8791615385489, 40.8337566977487]]]}}, {"type": "Feature", "properties": {"zone_id": "0202A334ZYRB3I0NPQVZNS", "tract_id": "36005005600", "city": "BRONX, NY", "zone_code": "R6", "zone_category": "Residential", "ev_permitted": false}, "geometry": {"type": "Polygon", "coordinates": [[[-73.8790728799453, 40.8338731936129], [-73.8790272253707, 40.8339324231316], [-73.8793474489755, 40.8340818440753], [-73.8793931726922, 40.8340226468256], [-73.8790728799453, 40.8338731936129]]]}}, {"type": "Feature", "properties": {"zone_id": "02046UCCDTVMN70O3NEAMN", "tract_id": "36005005600", "city": "BRONX, NY", "zone_code": "R6", "zone_category": "Residential", "ev_permitted": false}, "geometry": {"type": "Polygon", "coordinates": [[[-73.879116311173, 40.8338161258977], [-73.8790728799453, 40.8338731936129], [-73.8793931726922, 40.8340226468256], [-73.8794366028177, 40.8339655789902], [-73.879116311173, 40.8338161258977]]]}}, {"type": "Feature", "properties": {"zone_id": "0200V1QH9MUSEJJI7QW3WY", "tract_id": "36005005600", "city": "BRONX, NY", "zone_code": "C2-2", "zone_category": "Other", "ev_permitted": false}, "geometry": {"type": "Polygon", "coordinates": [[[-73.8790272253707, 40.8339324231316], [-73.8789832827129, 40.8339888122215], [-73.8793035064892, 40.8341382339885], [-73.8793474489755, 40.8340818440753], [-73.8790272253707, 40.8339324231316]]]}}, {"type": "Feature", "properties": {"zone_id": "0203R998PIKO8DYD08G7EC", "tract_id": "36005005600", "city": "BRONX, NY", "zone_code": "C2-2", "zone_category": "Other", "ev_permitted": false}, "geometry": {"type": "Polygon", "coordinates": [[[-73.8793019244702, 40.8335722313091], [-73.8792548881471, 40.8336340367833], [-73.8795751792265, 40.8337834894956], [-73.8796222153577, 40.8337216838924], [-73.8793019244702, 40.8335722313091]]]}}, {"type": "Feature", "properties": {"zone_id": "02039XP9PS3JP10YSOSTGL", "tract_id": "36005005600", "city": "BRONX, NY", "zone_code": "R6", "zone_category": "Residential", "ev_permitted": false}, "geometry": {"type": "Polygon", "coordinates": [[[-73.8792548881471, 40.8336340367833], [-73.8792096609367, 40.8336934656727], [-73.8795299522006, 40.8338429185091], [-73.8795751792265, 40.8337834894956], [-73.8792548881471, 40.8336340367833]]]}}, {"type": "Feature", "properties": {"zone_id": "0204DNL31S2A69K4ISWN1U", "tract_id": "36005005600", "city": "BRONX, NY", "zone_code": "R6", "zone_category": "Residential", "ev_permitted": false}, "geometry": {"type": "Polygon", "coordinates": [[[-73.8792096609367, 40.8336934656727], [-73.8791615385489, 40.8337566977487], [-73.8794818309342, 40.8339061507181], [-73.8795299522006, 40.8338429185091], [-73.8792096609367, 40.8336934656727]]]}}, {"type": "Feature", "properties": {"zone_id": "02039KQJREWC3YQY4YHTV0", "tract_id": "36005005600", "city": "BRONX, NY", "zone_code": "C2-2", "zone_category": "Other", "ev_permitted": false}, "geometry": {"type": "Polygon", "coordinates": [[[-73.8792972427708, 40.8335700467988], [-73.8785350618891, 40.8336768878863], [-73.8786558319884, 40.8341019055796], [-73.8791818658628, 40.8342875912245], [-73.8792576314903, 40.8341971029071], [-73.8789374075337, 40.8340476810143], [-73.8790728799453, 40.8338731936129], [-73.8793019244702, 40.8335722313091], [-73.8792972427708, 40.8335700467988]]]}}, {"type": "Feature", "properties": {"zone_id": "020340MM3XHAE3IY90OMWM", "tract_id": "36005005600", "city": "BRONX, NY", "zone_code": "R6", "zone_category": "Residential", "ev_permitted": false}, "geometry": {"type": "Polygon", "coordinates": [[[-73.8783495703749, 40.8336996801758], [-73.8778134989797, 40.8337727473659], [-73.8778235905869, 40.8338173009513], [-73.8784227968014, 40.8340229426331], [-73.8783495703749, 40.8336996801758]]]}}, {"type": "Feature", "properties": {"zone_id": "020367GATG67M6180YG51B", "tract_id": "36005005600", "city": "BRONX, NY", "zone_code": "R6", "zone_category": "Residential", "ev_permitted": false}, "geometry": {"type": "Polygon", "coordinates": [[[-73.879777454774, 40.8332144427058], [-73.8794132642094, 40.8332647134976], [-73.8794449808597, 40.833400267574], [-73.8797598746089, 40.8335433362121], [-73.8799565537003, 40.8332958151979], [-73.879777454774, 40.8332144427058]]]}}, {"type": "Feature", "properties": {"zone_id": "0200XAIJUO3UQZBHJ5IY88", "tract_id": "36005005600", "city": "BRONX, NY", "zone_code": "R6", "zone_category": "Residential", "ev_permitted": false}, "geometry": {"type": "Polygon", "coordinates": [[[-73.8801044017098, 40.8330170497766], [-73.8797429421983, 40.8330669436143], [-73.879777454774, 40.8332144427058], [-73.8799565537003, 40.8332958151979], [-73.880121155724, 40.8330886627014], [-73.8801044017098, 40.8330170497766]]]}}, {"type": "Feature", "properties": {"zone_id": "0200ET5QSMPAE2UIXEI1OG", "tract_id": "36005005600", "city": "BRONX, NY", "zone_code": "R6", "zone_category": "Residential", "ev_permitted": false}, "geometry": {"type": "Polygon", "coordinates": [[[-73.8797269413378, 40.8329985607847], [-73.879362751918, 40.8330488307162], [-73.8793787524163, 40.8331172135957], [-73.8797429421983, 40.8330669436143], [-73.8797269413378, 40.8329985607847]]]}}, {"type": "Feature", "properties": {"zone_id": "0205JVF7XV4RL2WKK66L20", "tract_id": "36005005600", "city": "BRONX, NY", "zone_code": "R6", "zone_category": "Residential", "ev_permitted": false}, "geometry": {"type": "Polygon", "coordinates": [[[-73.8797600731638, 40.8331401548036], [-73.8793958820689, 40.8331904248376], [-73.8794132642094, 40.8332647134976], [-73.879777454774, 40.8332144427058], [-73.8797600731638, 40.8331401548036]]]}}, {"type": "Feature", "properties": {"zone_id": "0201Y7QQJBZARZQHRS15X2", "tract_id": "36005005600", "city": "BRONX, NY", "zone_code": "R6", "zone_category": "Residential", "ev_permitted": false}, "geometry": {"type": "Polygon", "coordinates": [[[-73.8797429421983, 40.8330669436143], [-73.8793787524163, 40.8331172135957], [-73.8793958820689, 40.8331904248376], [-73.8797600731638, 40.8331401548036], [-73.8797429421983, 40.8330669436143]]]}}, {"type": "Feature", "properties": {"zone_id": "02038EO2KDQO06SGS374QC", "tract_id": "36005005600", "city": "BRONX, NY", "zone_code": "R6", "zone_category": "Residential", "ev_permitted": false}, "geometry": {"type": "Polygon", "coordinates": [[[-73.8800884032665, 40.8329486662968], [-73.8797269413378, 40.8329985607847], [-73.8797429421983, 40.8330669436143], [-73.8801044017098, 40.8330170497766], [-73.8800884032665, 40.8329486662968]]]}}, {"type": "Feature", "properties": {"zone_id": "0201ERSRBLVA0J4YVFK7BI", "tract_id": "36005005600", "city": "BRONX, NY", "zone_code": "R6", "zone_category": "Residential", "ev_permitted": false}, "geometry": {"type": "Polygon", "coordinates": [[[-73.8800725976428, 40.8328811058141], [-73.8797111332928, 40.8329310009527], [-73.8797269413378, 40.8329985607847], [-73.8800884032665, 40.8329486662968], [-73.8800725976428, 40.8328811058141]]]}}, {"type": "Feature", "properties": {"zone_id": "0200D0M1R4S83O8JKI4NWE", "tract_id": "36005005600", "city": "BRONX, NY", "zone_code": "R6", "zone_category": "Residential", "ev_permitted": false}, "geometry": {"type": "Polygon", "coordinates": [[[-73.8800567856211, 40.8328135200264], [-73.8796953197763, 40.8328634151142], [-73.8797111332928, 40.8329310009527], [-73.8800725976428, 40.8328811058141], [-73.8800567856211, 40.8328135200264]]]}}, {"type": "Feature", "properties": {"zone_id": "0203QE3Y8O7I44KT97XD6V", "tract_id": "36005005600", "city": "BRONX, NY", "zone_code": "R6", "zone_category": "Residential", "ev_permitted": false}, "geometry": {"type": "Polygon", "coordinates": [[[-73.8800414372348, 40.8327479140747], [-73.8796799689583, 40.8327978098146], [-73.8796953197763, 40.8328634151142], [-73.8800567856211, 40.8328135200264], [-73.8800414372348, 40.8327479140747]]]}}, {"type": "Feature", "properties": {"zone_id": "020150QTU2WV98KPB1F87T", "tract_id": "36005005600", "city": "BRONX, NY", "zone_code": "R6", "zone_category": "Residential", "ev_permitted": false}, "geometry": {"type": "Polygon", "coordinates": [[[-73.8800253654811, 40.8326792157208], [-73.8796638892387, 40.8327291121049], [-73.8796799689583, 40.8327978098146], [-73.8800414372348, 40.8327479140747], [-73.8800253654811, 40.8326792157208]]]}}, {"type": "Feature", "properties": {"zone_id": "0207I6TRV9AO7R83WYZX16", "tract_id": "36005005600", "city": "BRONX, NY", "zone_code": "R6", "zone_category": "Residential", "ev_permitted": false}, "geometry": {"type": "Polygon", "coordinates": [[[-73.8800098344714, 40.8326128289324], [-73.8796483622784, 40.8326627252723], [-73.8796638892387, 40.8327291121049], [-73.8800253654811, 40.8326792157208], [-73.8800098344714, 40.8326128289324]]]}}, {"type": "Feature", "properties": {"zone_id": "0206DIYE9GP3G37A65K1OU", "tract_id": "36005005600", "city": "BRONX, NY", "zone_code": "R6", "zone_category": "Residential", "ev_permitted": false}, "geometry": {"type": "Polygon", "coordinates": [[[-73.8799935700008, 40.832543306167], [-73.8796320944729, 40.8325932024527], [-73.8796483622784, 40.8326627252723], [-73.8800098344714, 40.8326128289324], [-73.8799935700008, 40.832543306167]]]}}, {"type": "Feature", "properties": {"zone_id": "0202FITW7Z8AP7TZ5P1HQ6", "tract_id": "36005005600", "city": "BRONX, NY", "zone_code": "R6", "zone_category": "Residential", "ev_permitted": false}, "geometry": {"type": "Polygon", "coordinates": [[[-73.8799777654947, 40.8324757456677], [-73.8796162875455, 40.8325256426041], [-73.8796320944729, 40.8325932024527], [-73.8799935700008, 40.832543306167], [-73.8799777654947, 40.8324757456677]]]}}, {"type": "Feature", "properties": {"zone_id": "0205636RG132SNUWN5J26T", "tract_id": "36005005600", "city": "BRONX, NY", "zone_code": "R6", "zone_category": "Residential", "ev_permitted": false}, "geometry": {"type": "Polygon", "coordinates": [[[-73.8797111332928, 40.8329310009527], [-73.8793469442308, 40.8329812708349], [-73.879362751918, 40.8330488307162], [-73.8797269413378, 40.8329985607847], [-73.8797111332928, 40.8329310009527]]]}}, {"type": "Feature", "properties": {"zone_id": "0206BJHKXF93XTK04LUTRF", "tract_id": "36005005600", "city": "BRONX, NY", "zone_code": "R6", "zone_category": "Residential", "ev_permitted": false}, "geometry": {"type": "Polygon", "coordinates": [[[-73.8796953197763, 40.8328634151142], [-73.8793311310723, 40.832913684947], [-73.8793469442308, 40.8329812708349], [-73.8797111332928, 40.8329310009527], [-73.8796953197763, 40.8328634151142]]]}}, {"type": "Feature", "properties": {"zone_id": "0201VG55AY71PDROI9QCBX", "tract_id": "36005005600", "city": "BRONX, NY", "zone_code": "R6", "zone_category": "Residential", "ev_permitted": false}, "geometry": {"type": "Polygon", "coordinates": [[[-73.8796799689583, 40.8327978098146], [-73.8793157806018, 40.8328480795995], [-73.8793311310723, 40.832913684947], [-73.8796953197763, 40.8328634151142], [-73.8796799689583, 40.8327978098146]]]}}, {"type": "Feature", "properties": {"zone_id": "0205ML2DORW0U785EXHLS2", "tract_id": "36005005600", "city": "BRONX, NY", "zone_code": "R6", "zone_category": "Residential", "ev_permitted": false}, "geometry": {"type": "Polygon", "coordinates": [[[-73.8796638892387, 40.8327291121049], [-73.8792996517181, 40.832779146401], [-73.8793157806018, 40.8328480795995], [-73.8796799689583, 40.8327978098146], [-73.8796638892387, 40.8327291121049]]]}}, {"type": "Feature", "properties": {"zone_id": "0205SBN20H65RFKA77UU5K", "tract_id": "36005005600", "city": "BRONX, NY", "zone_code": "R6", "zone_category": "Residential", "ev_permitted": false}, "geometry": {"type": "Polygon", "coordinates": [[[-73.8796483622784, 40.8326627252723], [-73.8792841737125, 40.8327129949576], [-73.8792996517181, 40.832779146401], [-73.8796638892387, 40.8327291121049], [-73.8796483622784, 40.8326627252723]]]}}, {"type": "Feature", "properties": {"zone_id": "0201JQU316BOJ6ENA7DJ5M", "tract_id": "36005005600", "city": "BRONX, NY", "zone_code": "R6", "zone_category": "Residential", "ev_permitted": false}, "geometry": {"type": "Polygon", "coordinates": [[[-73.8796320944729, 40.8325932024527], [-73.8792679072003, 40.8326434720881], [-73.8792841737125, 40.8327129949576], [-73.8796483622784, 40.8326627252723], [-73.8796320944729, 40.8325932024527]]]}}, {"type": "Feature", "properties": {"zone_id": "0200AHS1PMRGSY0A7N5OEH", "tract_id": "36005005600", "city": "BRONX, NY", "zone_code": "R6", "zone_category": "Residential", "ev_permitted": false}, "geometry": {"type": "Polygon", "coordinates": [[[-73.8796162875455, 40.8325256426041], [-73.8792520997044, 40.8325759128918], [-73.8792679072003, 40.8326434720881], [-73.8796320944729, 40.8325932024527], [-73.8796162875455, 40.8325256426041]]]}}, {"type": "Feature", "properties": {"zone_id": "0204178550RMZW3O68GPF5", "tract_id": "36005005600", "city": "BRONX, NY", "zone_code": "R6", "zone_category": "Residential", "ev_permitted": false}, "geometry": {"type": "Polygon", "coordinates": [[[-73.8796003557969, 40.8324575528263], [-73.8792361692428, 40.8325078223627], [-73.8792520997044, 40.8325759128918], [-73.8796162875455, 40.8325256426041], [-73.8796003557969, 40.8324575528263]]]}}, {"type": "Feature", "properties": {"zone_id": "0202GM6COF2Y0TY97IYIT3", "tract_id": "36005005600", "city": "BRONX, NY", "zone_code": "C8-1", "zone_category": "Commercial", "ev_permitted": true}, "geometry": {"type": "Polygon", "coordinates": [[[-73.8818432463461, 40.8314141046276], [-73.8816486474357, 40.8316605623333], [-73.8820829703653, 40.8318599807211], [-73.8823046972742, 40.8315804841101], [-73.8818432463461, 40.8314141046276]]]}}, {"type": "Feature", "properties": {"zone_id": "020325G35KJ4HN6EQA44BN", "tract_id": "36005005600", "city": "BRONX, NY", "zone_code": "C8-1", "zone_category": "Commercial", "ev_permitted": true}, "geometry": {"type": "Polygon", "coordinates": [[[-73.8816486474357, 40.8316605623333], [-73.8816021832835, 40.8317194098187], [-73.882036344702, 40.8319187530307], [-73.8820829703653, 40.8318599807211], [-73.8816486474357, 40.8316605623333]]]}}, {"type": "Feature", "properties": {"zone_id": "0200J2I5MNMBXWDJ368KEM", "tract_id": "36005005600", "city": "BRONX, NY", "zone_code": "C8-1", "zone_category": "Commercial", "ev_permitted": true}, "geometry": {"type": "Polygon", "coordinates": [[[-73.8816021832835, 40.8317194098187], [-73.8815558859423, 40.831778044554], [-73.8819898876951, 40.8319773146995], [-73.882036344702, 40.8319187530307], [-73.8816021832835, 40.8317194098187]]]}}, {"type": "Feature", "properties": {"zone_id": "0203ZXDCQ4Q8CUCHL2FLXA", "tract_id": "36005005600", "city": "BRONX, NY", "zone_code": "C8-1", "zone_category": "Commercial", "ev_permitted": true}, "geometry": {"type": "Polygon", "coordinates": [[[-73.8815558859423, 40.831778044554], [-73.8815094216272, 40.8318368912982], [-73.8819432627911, 40.832036087674], [-73.8819898876951, 40.8319773146995], [-73.8815558859423, 40.831778044554]]]}}, {"type": "Feature", "properties": {"zone_id": "02000DHD5ETY7MZ6V1U3HG", "tract_id": "36005005600", "city": "BRONX, NY", "zone_code": "R6", "zone_category": "Residential", "ev_permitted": false}, "geometry": {"type": "Polygon", "coordinates": [[[-73.8815094216272, 40.8318368912982], [-73.8814643146143, 40.8318940186355], [-73.8818979979535, 40.8320931433472], [-73.8819432627911, 40.832036087674], [-73.8815094216272, 40.8318368912982]]]}}, {"type": "Feature", "properties": {"zone_id": "0205HQC6IDP0HI1HS2GN61", "tract_id": "36005005600", "city": "BRONX, NY", "zone_code": "C8-1", "zone_category": "Commercial", "ev_permitted": true}, "geometry": {"type": "Polygon", "coordinates": [[[-73.8812748689518, 40.8321339463723], [-73.8812320155181, 40.8321882189734], [-73.8816648959094, 40.832386974834], [-73.8817078979359, 40.8323327703833], [-73.8812748689518, 40.8321339463723]]]}}, {"type": "Feature", "properties": {"zone_id": "0204TLVRIB5PJS5TC2WYCB", "tract_id": "36005005600", "city": "BRONX, NY", "zone_code": "C8-1", "zone_category": "Commercial", "ev_permitted": true}, "geometry": {"type": "Polygon", "coordinates": [[[-73.8812320155181, 40.8321882189734], [-73.88118587051, 40.8322466597826], [-73.8816185912333, 40.832445342575], [-73.8816648959094, 40.832386974834], [-73.8812320155181, 40.8321882189734]]]}}, {"type": "Feature", "properties": {"zone_id": "0205MVJNQC04KYT9OLFRMN", "tract_id": "36005005600", "city": "BRONX, NY", "zone_code": "C8-1", "zone_category": "Commercial", "ev_permitted": true}, "geometry": {"type": "Polygon", "coordinates": [[[-73.88118587051, 40.8322466597826], [-73.8811394064654, 40.832305506374], [-73.8815719656734, 40.8325041153947], [-73.8816185912333, 40.832445342575], [-73.88118587051, 40.8322466597826]]]}}, {"type": "Feature", "properties": {"zone_id": "02035L8GGAWARQIS7961QV", "tract_id": "36005005600", "city": "BRONX, NY", "zone_code": "C8-1", "zone_category": "Commercial", "ev_permitted": true}, "geometry": {"type": "Polygon", "coordinates": [[[-73.8811394064654, 40.832305506374], [-73.8810890731891, 40.8323692499198], [-73.8815214588869, 40.8325677788468], [-73.8815719656734, 40.8325041153947], [-73.8811394064654, 40.832305506374]]]}}, {"type": "Feature", "properties": {"zone_id": "0202G5NG4SEWI4RKL4J2OE", "tract_id": "36005005600", "city": "BRONX, NY", "zone_code": "C8-1", "zone_category": "Commercial", "ev_permitted": true}, "geometry": {"type": "Polygon", "coordinates": [[[-73.8810890731891, 40.8323692499198], [-73.8810453794176, 40.8324245867961], [-73.8814776137537, 40.8326230461673], [-73.8815214588869, 40.8325677788468], [-73.8810890731891, 40.8323692499198]]]}}, {"type": "Feature", "properties": {"zone_id": "0202CJI38ZMKWHX1Q1FG0A", "tract_id": "36005005600", "city": "BRONX, NY", "zone_code": "C8-1", "zone_category": "Commercial", "ev_permitted": true}, "geometry": {"type": "Polygon", "coordinates": [[[-73.8814643146143, 40.8318940186355], [-73.8814166781863, 40.8319543495325], [-73.8818501972472, 40.8321533976642], [-73.8818979979535, 40.8320931433472], [-73.8814643146143, 40.8318940186355]]]}}, {"type": "Feature", "properties": {"zone_id": "0202HCN3CI2ML4TCMZ8VOV", "tract_id": "36005005600", "city": "BRONX, NY", "zone_code": "R6", "zone_category": "Residential", "ev_permitted": false}, "geometry": {"type": "Polygon", "coordinates": [[[-73.8814166781863, 40.8319543495325], [-73.881369158498, 40.8320145315682], [-73.8818025132759, 40.8322135052273], [-73.8818501972472, 40.8321533976642], [-73.8814166781863, 40.8319543495325]]]}}, {"type": "Feature", "properties": {"zone_id": "0202Q972HAF2XUEEYKFC6P", "tract_id": "36005005600", "city": "BRONX, NY", "zone_code": "C8-1", "zone_category": "Commercial", "ev_permitted": true}, "geometry": {"type": "Polygon", "coordinates": [[[-73.881369158498, 40.8320145315682], [-73.8813245695389, 40.8320710017046], [-73.881757772037, 40.8322699051083], [-73.8818025132759, 40.8322135052273], [-73.881369158498, 40.8320145315682]]]}}, {"type": "Feature", "properties": {"zone_id": "02013602W4485UKUZA00TI", "tract_id": "36005005600", "city": "BRONX, NY", "zone_code": "C8-1", "zone_category": "Commercial", "ev_permitted": true}, "geometry": {"type": "Polygon", "coordinates": [[[-73.8813245695389, 40.8320710017046], [-73.8812748689518, 40.8321339463723], [-73.8817078979359, 40.8323327703833], [-73.881757772037, 40.8322699051083], [-73.8813245695389, 40.8320710017046]]]}}, {"type": "Feature", "properties": {"zone_id": "0201DGFZ1PC20N1QO1K11V", "tract_id": "36005005600", "city": "BRONX, NY", "zone_code": "R6", "zone_category": "Residential", "ev_permitted": false}, "geometry": {"type": "Polygon", "coordinates": [[[-73.8808553720055, 40.8321520327217], [-73.8804957753592, 40.8321998531179], [-73.8805575847708, 40.832468999344], [-73.8806100786201, 40.8324620187964], [-73.8808557612404, 40.832153708937], [-73.8808553720055, 40.8321520327217]]]}}, {"type": "Feature", "properties": {"zone_id": "0200CHMWKGTFX0AMM14KY6", "tract_id": "36005005600", "city": "BRONX, NY", "zone_code": "R6", "zone_category": "Residential", "ev_permitted": false}, "geometry": {"type": "Polygon", "coordinates": [[[-73.8805424300048, 40.8324030086055], [-73.8801776611335, 40.8324515154618], [-73.8801927424501, 40.8325175153062], [-73.8805575847708, 40.832468999344], [-73.8805424300048, 40.8324030086055]]]}}, {"type": "Feature", "properties": {"zone_id": "020135W7I6VXCCPM3TQ5OL", "tract_id": "36005005600", "city": "BRONX, NY", "zone_code": "R6", "zone_category": "Residential", "ev_permitted": false}, "geometry": {"type": "Polygon", "coordinates": [[[-73.8805267125914, 40.8323345664485], [-73.8801620199575, 40.8323830642001], [-73.8801776611335, 40.8324515154618], [-73.8805424300048, 40.8324030086055], [-73.8805267125914, 40.8323345664485]]]}}, {"type": "Feature", "properties": {"zone_id": "0201IPY7WVO8S0N3MX9YMG", "tract_id": "36005005600", "city": "BRONX, NY", "zone_code": "R6", "zone_category": "Residential", "ev_permitted": false}, "geometry": {"type": "Polygon", "coordinates": [[[-73.8805109438042, 40.8322659021988], [-73.8801463283376, 40.8323143887386], [-73.8801620199575, 40.8323830642001], [-73.8805267125914, 40.8323345664485], [-73.8805109438042, 40.8322659021988]]]}}, {"type": "Feature", "properties": {"zone_id": "0203VN54J2BMI8C97P4VMC", "tract_id": "36005005600", "city": "BRONX, NY", "zone_code": "R6", "zone_category": "Residential", "ev_permitted": false}, "geometry": {"type": "Polygon", "coordinates": [[[-73.8804957753592, 40.8321998531179], [-73.8801312342669, 40.8322483305528], [-73.8801463283376, 40.8323143887386], [-73.8805109438042, 40.8322659021988], [-73.8804957753592, 40.8321998531179]]]}}, {"type": "Feature", "properties": {"zone_id": "020775VUND0HDT92STY7BA", "tract_id": "36005005600", "city": "BRONX, NY", "zone_code": "R6", "zone_category": "Residential", "ev_permitted": false}, "geometry": {"type": "Polygon", "coordinates": [[[-73.880836590516, 40.8320716719499], [-73.8804773107452, 40.8321194504573], [-73.8804957753592, 40.8321998531179], [-73.8808553720055, 40.8321520327217], [-73.880836590516, 40.8320716719499]]]}}, {"type": "Feature", "properties": {"zone_id": "0202IV2N175CX06KIIPUYL", "tract_id": "36005005600", "city": "BRONX, NY", "zone_code": "R6", "zone_category": "Residential", "ev_permitted": false}, "geometry": {"type": "Polygon", "coordinates": [[[-73.8808072221572, 40.8319460097102], [-73.8804484371578, 40.8319937218879], [-73.8804631474735, 40.8320577770928], [-73.8808221844907, 40.8320100314029], [-73.8808072221572, 40.8319460097102]]]}}, {"type": "Feature", "properties": {"zone_id": "020084FTHNC728QCUEYQVL", "tract_id": "36005005600", "city": "BRONX, NY", "zone_code": "R6", "zone_category": "Residential", "ev_permitted": false}, "geometry": {"type": "Polygon", "coordinates": [[[-73.8808221844907, 40.8320100314029], [-73.8804631474735, 40.8320577770928], [-73.8804773107452, 40.8321194504573], [-73.880836590516, 40.8320716719499], [-73.8808221844907, 40.8320100314029]]]}}, {"type": "Feature", "properties": {"zone_id": "02047TULGFJOPG6156DV0D", "tract_id": "36005005600", "city": "BRONX, NY", "zone_code": "R6", "zone_category": "Residential", "ev_permitted": false}, "geometry": {"type": "Polygon", "coordinates": [[[-73.8809569484611, 40.8317160987285], [-73.8810132654498, 40.8319556281084], [-73.8811631997, 40.8317663574801], [-73.8809569484611, 40.8317160987285]]]}}, {"type": "Feature", "properties": {"zone_id": "0206HX5FX251HAPA8KK4IA", "tract_id": "36005005600", "city": "BRONX, NY", "zone_code": "R6", "zone_category": "Residential", "ev_permitted": false}, "geometry": {"type": "Polygon", "coordinates": [[[-73.8809392962959, 40.831641018121], [-73.8809569484611, 40.8317160987285], [-73.8811631997, 40.8317663574801], [-73.8812101970515, 40.8317070301102], [-73.8809392962959, 40.831641018121]]]}}, {"type": "Feature", "properties": {"zone_id": "0201LAZM5DXOKU315ZZORB", "tract_id": "36005005600", "city": "BRONX, NY", "zone_code": "R6", "zone_category": "Residential", "ev_permitted": false}, "geometry": {"type": "Polygon", "coordinates": [[[-73.880920675584, 40.8315618189976], [-73.8809392962959, 40.831641018121], [-73.8812101970515, 40.8317070301102], [-73.8812597709208, 40.8316444493068], [-73.880920675584, 40.8315618189976]]]}}, {"type": "Feature", "properties": {"zone_id": "0202RB1YVOCJP5UHJMXRKC", "tract_id": "36005005600", "city": "BRONX, NY", "zone_code": "R6", "zone_category": "Residential", "ev_permitted": false}, "geometry": {"type": "Polygon", "coordinates": [[[-73.8809038075434, 40.8314900753609], [-73.880920675584, 40.8315618189976], [-73.8812597709208, 40.8316444493068], [-73.881304679194, 40.8315877588891], [-73.8809038075434, 40.8314900753609]]]}}, {"type": "Feature", "properties": {"zone_id": "020240PQ0X4KZG83K3DJZ1", "tract_id": "36005005600", "city": "BRONX, NY", "zone_code": "R6", "zone_category": "Residential", "ev_permitted": false}, "geometry": {"type": "Polygon", "coordinates": [[[-73.8807910627208, 40.8318768665882], [-73.8804325501222, 40.8319245424605], [-73.8804484371578, 40.8319937218879], [-73.8808072221572, 40.8319460097102], [-73.8807910627208, 40.8318768665882]]]}}, {"type": "Feature", "properties": {"zone_id": "0202VJIJPOSBE6RHQS5LSG", "tract_id": "36005005600", "city": "BRONX, NY", "zone_code": "R6", "zone_category": "Residential", "ev_permitted": false}, "geometry": {"type": "Polygon", "coordinates": [[[-73.8807746352545, 40.8318065736552], [-73.8804163987626, 40.8318542132254], [-73.8804325501222, 40.8319245424605], [-73.8807910627208, 40.8318768665882], [-73.8807746352545, 40.8318065736552]]]}}, {"type": "Feature", "properties": {"zone_id": "0206SW1BKR249IIU71ATJX", "tract_id": "36005005600", "city": "BRONX, NY", "zone_code": "R6", "zone_category": "Residential", "ev_permitted": false}, "geometry": {"type": "Polygon", "coordinates": [[[-73.8807590762822, 40.8317400007282], [-73.8804011029234, 40.8317876053907], [-73.8804163987626, 40.8318542132254], [-73.8807746352545, 40.8318065736552], [-73.8807590762822, 40.8317400007282]]]}}, {"type": "Feature", "properties": {"zone_id": "0205J4IV05OEX2B8NKFWJM", "tract_id": "36005005600", "city": "BRONX, NY", "zone_code": "R6", "zone_category": "Residential", "ev_permitted": false}, "geometry": {"type": "Polygon", "coordinates": [[[-73.8807430362917, 40.8316713678422], [-73.8803853325542, 40.8317189361971], [-73.8804011029234, 40.8317876053907], [-73.8807590762822, 40.8317400007282], [-73.8807430362917, 40.8316713678422]]]}}, {"type": "Feature", "properties": {"zone_id": "0201BRIW55MDEJ4ASFFIPA", "tract_id": "36005005600", "city": "BRONX, NY", "zone_code": "R6", "zone_category": "Residential", "ev_permitted": false}, "geometry": {"type": "Polygon", "coordinates": [[[-73.8807276123362, 40.8316053712196], [-73.8803701689511, 40.8316529053672], [-73.8803853325542, 40.8317189361971], [-73.8807430362917, 40.8316713678422], [-73.8807276123362, 40.8316053712196]]]}}, {"type": "Feature", "properties": {"zone_id": "0204LME7S2W20KL76M92C7", "tract_id": "36005005600", "city": "BRONX, NY", "zone_code": "R6", "zone_category": "Residential", "ev_permitted": false}, "geometry": {"type": "Polygon", "coordinates": [[[-73.8807125124789, 40.8315407605496], [-73.8803553248133, 40.8315882604861], [-73.8803701689511, 40.8316529053672], [-73.8807276123362, 40.8316053712196], [-73.8807125124789, 40.8315407605496]]]}}, {"type": "Feature", "properties": {"zone_id": "02054EHWTUA7ZC4IVMQ0GC", "tract_id": "36005005600", "city": "BRONX, NY", "zone_code": "R6", "zone_category": "Residential", "ev_permitted": false}, "geometry": {"type": "Polygon", "coordinates": [[[-73.8806968765218, 40.8314738544767], [-73.8803399510639, 40.8315213195046], [-73.8803553248133, 40.8315882604861], [-73.8807125124789, 40.8315407605496], [-73.8806968765218, 40.8314738544767]]]}}, {"type": "Feature", "properties": {"zone_id": "0205NE5WY6O1D1644JSBNZ", "tract_id": "36005005600", "city": "BRONX, NY", "zone_code": "R6", "zone_category": "Residential", "ev_permitted": false}, "geometry": {"type": "Polygon", "coordinates": [[[-73.880525250481, 40.8311344802145], [-73.8804374049847, 40.8311461620291], [-73.8805024232857, 40.8314307101726], [-73.8805902700713, 40.83141902831], [-73.880525250481, 40.8311344802145]]]}}, {"type": "Feature", "properties": {"zone_id": "0203T49JRT62ZXR2VK5PZ3", "tract_id": "36005005600", "city": "BRONX, NY", "zone_code": "R6", "zone_category": "Residential", "ev_permitted": false}, "geometry": {"type": "Polygon", "coordinates": [[[-73.8804374049847, 40.8311461620291], [-73.8803446322679, 40.831158499153], [-73.8804096501842, 40.8314430473483], [-73.8805024232857, 40.8314307101726], [-73.8804374049847, 40.8311461620291]]]}}, {"type": "Feature", "properties": {"zone_id": "0200S3Y8U2RX968IXWODFX", "tract_id": "36005005600", "city": "BRONX, NY", "zone_code": "R6", "zone_category": "Residential", "ev_permitted": false}, "geometry": {"type": "Polygon", "coordinates": [[[-73.8813762894326, 40.8312972423077], [-73.8812686362329, 40.8315789759392], [-73.881304679194, 40.8315877588891], [-73.8815091649676, 40.831329621275], [-73.8813762894326, 40.8312972423077]]]}}, {"type": "Feature", "properties": {"zone_id": "0202V18ZLWN0X64RZHVH8A", "tract_id": "36005005600", "city": "BRONX, NY", "zone_code": "R6", "zone_category": "Residential", "ev_permitted": false}, "geometry": {"type": "Polygon", "coordinates": [[[-73.8812902347929, 40.8312762724926], [-73.8811825812614, 40.8315580067475], [-73.8812686362329, 40.8315789759392], [-73.8813762894326, 40.8312972423077], [-73.8812902347929, 40.8312762724926]]]}}, {"type": "Feature", "properties": {"zone_id": "0205BTXOTG2OTY43EOEBDP", "tract_id": "36005005600", "city": "BRONX, NY", "zone_code": "R6", "zone_category": "Residential", "ev_permitted": false}, "geometry": {"type": "Polygon", "coordinates": [[[-73.8811986478969, 40.8312539548584], [-73.8810909940136, 40.8315356890288], [-73.8811825812614, 40.8315580067475], [-73.8812902347929, 40.8312762724926], [-73.8811986478969, 40.8312539548584]]]}}, {"type": "Feature", "properties": {"zone_id": "0202ZBZWVT23Q7KO5M268Y", "tract_id": "36005005600", "city": "BRONX, NY", "zone_code": "R6", "zone_category": "Residential", "ev_permitted": false}, "geometry": {"type": "Polygon", "coordinates": [[[-73.8811104601523, 40.8312324655633], [-73.8810028059318, 40.8315141989497], [-73.8810909940136, 40.8315356890288], [-73.8811986478969, 40.8312539548584], [-73.8811104601523, 40.8312324655633]]]}}, {"type": "Feature", "properties": {"zone_id": "02066SK0ND6F4A0YG9TO02", "tract_id": "36005005600", "city": "BRONX, NY", "zone_code": "R6", "zone_category": "Residential", "ev_permitted": false}, "geometry": {"type": "Polygon", "coordinates": [[[-73.8810270335926, 40.8312121362644], [-73.8809189906885, 40.8314937750181], [-73.8810028059318, 40.8315141989497], [-73.8811104601523, 40.8312324655633], [-73.8810270335926, 40.8312121362644]]]}}, {"type": "Feature", "properties": {"zone_id": "0205NQ44VRNWOKOXYY6LS0", "tract_id": "36005005600", "city": "BRONX, NY", "zone_code": "R6", "zone_category": "Residential", "ev_permitted": false}, "geometry": {"type": "Polygon", "coordinates": [[[-73.8808271958308, 40.8311634388485], [-73.8809038075434, 40.8314900753609], [-73.8809189906885, 40.8314937750181], [-73.8810270335926, 40.8312121362644], [-73.8808271958308, 40.8311634388485]]]}}, {"type": "Feature", "properties": {"zone_id": "02018EI67KZI2BE08QXDUT", "tract_id": "36005005600", "city": "BRONX, NY", "zone_code": "R6", "zone_category": "Residential", "ev_permitted": false}, "geometry": {"type": "Polygon", "coordinates": [[[-73.8806812360024, 40.83140693083], [-73.8803245736768, 40.8314543609504], [-73.8803399510639, 40.8315213195046], [-73.8806968765218, 40.8314738544767], [-73.8806812360024, 40.83140693083]]]}}, {"type": "Feature", "properties": {"zone_id": "02019VVRQVEVHKEYV24E6D", "tract_id": "36005005600", "city": "BRONX, NY", "zone_code": "R6", "zone_category": "Residential", "ev_permitted": false}, "geometry": {"type": "Polygon", "coordinates": [[[-73.8803446322679, 40.831158499153], [-73.8802592387368, 40.8311698552397], [-73.8803245736768, 40.8314543609504], [-73.8804096501842, 40.8314430473483], [-73.8803446322679, 40.831158499153]]]}}, {"type": "Feature", "properties": {"zone_id": "02033SWRA8YKCFV2J8GSJX", "tract_id": "36005005600", "city": "BRONX, NY", "zone_code": "R6", "zone_category": "Residential", "ev_permitted": false}, "geometry": {"type": "Polygon", "coordinates": [[[-73.8806147809053, 40.8311225738249], [-73.880525250481, 40.8311344802145], [-73.8805902700713, 40.83141902831], [-73.8806812360024, 40.83140693083], [-73.8806147809053, 40.8311225738249]]]}}, {"type": "Feature", "properties": {"zone_id": "0204NZOBKNWTKE0RU6AWNG", "tract_id": "36005005600", "city": "BRONX, NY", "zone_code": "R6", "zone_category": "Residential", "ev_permitted": false}, "geometry": {"type": "Polygon", "coordinates": [[[-73.8787679555488, 40.8313817382581], [-73.8778363537874, 40.831510548352], [-73.8780790095826, 40.8325538526078], [-73.8773837299488, 40.8326489409123], [-73.877613076747, 40.8336350366937], [-73.8792389109112, 40.8334126764417], [-73.8787679555488, 40.8313817382581]]]}}, {"type": "Feature", "properties": {"zone_id": "0205PKO0DOCEH1URLMEBWO", "tract_id": "36005005600", "city": "BRONX, NY", "zone_code": "R6", "zone_category": "Residential", "ev_permitted": false}, "geometry": {"type": "Polygon", "coordinates": [[[-73.8799145422374, 40.832205505743], [-73.8795530564555, 40.8322554038791], [-73.8795688375593, 40.8323228491811], [-73.8799303209193, 40.8322729516959], [-73.8799145422374, 40.832205505743]]]}}, {"type": "Feature", "properties": {"zone_id": "0207JS5OBIXMWF62WA9V8J", "tract_id": "36005005600", "city": "BRONX, NY", "zone_code": "R6", "zone_category": "Residential", "ev_permitted": false}, "geometry": {"type": "Polygon", "coordinates": [[[-73.8799303209193, 40.8322729516959], [-73.8795688375593, 40.8323228491811], [-73.879584671937, 40.8323905228962], [-73.8799461538012, 40.8323406260625], [-73.8799303209193, 40.8322729516959]]]}}, {"type": "Feature", "properties": {"zone_id": "0206WP5BWTFHXS8UH73XDA", "tract_id": "36005005600", "city": "BRONX, NY", "zone_code": "R6", "zone_category": "Residential", "ev_permitted": false}, "geometry": {"type": "Polygon", "coordinates": [[[-73.8799461538012, 40.8323406260625], [-73.879584671937, 40.8323905228962], [-73.8796003557969, 40.8324575528263], [-73.8799618352396, 40.8324076552386], [-73.8799461538012, 40.8323406260625]]]}}, {"type": "Feature", "properties": {"zone_id": "0206JY2670D8RCVQUE56G8", "tract_id": "36005005600", "city": "BRONX, NY", "zone_code": "R6", "zone_category": "Residential", "ev_permitted": false}, "geometry": {"type": "Polygon", "coordinates": [[[-73.8799618352396, 40.8324076552386], [-73.8796003557969, 40.8324575528263], [-73.8796162875455, 40.8325256426041], [-73.8799777654947, 40.8324757456677], [-73.8799618352396, 40.8324076552386]]]}}, {"type": "Feature", "properties": {"zone_id": "0206CHAW0A7MQ4C86ZGHPM", "tract_id": "36005005600", "city": "BRONX, NY", "zone_code": "R6", "zone_category": "Residential", "ev_permitted": false}, "geometry": {"type": "Polygon", "coordinates": [[[-73.8804612630136, 40.8320495731403], [-73.8800968911252, 40.8320980281578], [-73.8801124715915, 40.8321662130654], [-73.8804769197152, 40.8321177489435], [-73.8804612630136, 40.8320495731403]]]}}, {"type": "Feature", "properties": {"zone_id": "0207IPSWWID1MHLED18NZE", "tract_id": "36005005600", "city": "BRONX, NY", "zone_code": "R6", "zone_category": "Residential", "ev_permitted": false}, "geometry": {"type": "Polygon", "coordinates": [[[-73.8804437815566, 40.831973450612], [-73.8800794942778, 40.8320218930147], [-73.8800968911252, 40.8320980281578], [-73.8804612630136, 40.8320495731403], [-73.8804437815566, 40.831973450612]]]}}, {"type": "Feature", "properties": {"zone_id": "0205JF8UQH51SCAUOTB3F3", "tract_id": "36005005600", "city": "BRONX, NY", "zone_code": "R6", "zone_category": "Residential", "ev_permitted": false}, "geometry": {"type": "Polygon", "coordinates": [[[-73.8804769197152, 40.8321177489435], [-73.8801124715915, 40.8321662130654], [-73.8801312342669, 40.8322483305528], [-73.8804957753592, 40.8321998531179], [-73.8804769197152, 40.8321177489435]]]}}, {"type": "Feature", "properties": {"zone_id": "0206LOZRC700RPJDYBFQ0I", "tract_id": "36005005600", "city": "BRONX, NY", "zone_code": "R6", "zone_category": "Residential", "ev_permitted": false}, "geometry": {"type": "Polygon", "coordinates": [[[-73.8798671705832, 40.8320030139498], [-73.8795056784641, 40.8320529126341], [-73.8795214420289, 40.8321202841487], [-73.8798829317257, 40.8320703861154], [-73.8798671705832, 40.8320030139498]]]}}, {"type": "Feature", "properties": {"zone_id": "0204HXXY2TPP8T0IJ9I3RD", "tract_id": "36005005600", "city": "BRONX, NY", "zone_code": "R6", "zone_category": "Residential", "ev_permitted": false}, "geometry": {"type": "Polygon", "coordinates": [[[-73.8798829317257, 40.8320703861154], [-73.8795214420289, 40.8321202841487], [-73.879537373616, 40.8321883739412], [-73.8798988608955, 40.8321384758556], [-73.8798829317257, 40.8320703861154]]]}}, {"type": "Feature", "properties": {"zone_id": "0202QE3IBR7JAFW7D4BOZT", "tract_id": "36005005600", "city": "BRONX, NY", "zone_code": "R6", "zone_category": "Residential", "ev_permitted": false}, "geometry": {"type": "Polygon", "coordinates": [[[-73.8798988608955, 40.8321384758556], [-73.879537373616, 40.8321883739412], [-73.8795530564555, 40.8322554038791], [-73.8799145422374, 40.832205505743], [-73.8798988608955, 40.8321384758556]]]}}, {"type": "Feature", "properties": {"zone_id": "0200PEPKINIBRKXXJRX00M", "tract_id": "36005005600", "city": "BRONX, NY", "zone_code": "R6", "zone_category": "Residential", "ev_permitted": false}, "geometry": {"type": "Polygon", "coordinates": [[[-73.879584671937, 40.8323905228962], [-73.879220486663, 40.8324407923846], [-73.8792361692428, 40.8325078223627], [-73.8796003557969, 40.8324575528263], [-73.879584671937, 40.8323905228962]]]}}, {"type": "Feature", "properties": {"zone_id": "02061HPDL7YATECJ786FS2", "tract_id": "36005005600", "city": "BRONX, NY", "zone_code": "R6", "zone_category": "Residential", "ev_permitted": false}, "geometry": {"type": "Polygon", "coordinates": [[[-73.8795688375593, 40.8323228491811], [-73.8792046517188, 40.8323731186192], [-73.879220486663, 40.8324407923846], [-73.879584671937, 40.8323905228962], [-73.8795688375593, 40.8323228491811]]]}}, {"type": "Feature", "properties": {"zone_id": "02055QM192P91KCOZTNZNB", "tract_id": "36005005600", "city": "BRONX, NY", "zone_code": "R6", "zone_category": "Residential", "ev_permitted": false}, "geometry": {"type": "Polygon", "coordinates": [[[-73.8795530564555, 40.8322554038791], [-73.8791888709735, 40.8323056725653], [-73.8792046517188, 40.8323731186192], [-73.8795688375593, 40.8323228491811], [-73.8795530564555, 40.8322554038791]]]}}, {"type": "Feature", "properties": {"zone_id": "0206D204DZ57F9PTCMCPXC", "tract_id": "36005005600", "city": "BRONX, NY", "zone_code": "R6", "zone_category": "Residential", "ev_permitted": false}, "geometry": {"type": "Polygon", "coordinates": [[[-73.8795214420289, 40.8321202841487], [-73.8791572572612, 40.8321705534388], [-73.8791731875626, 40.8322386432801], [-73.879537373616, 40.8321883739412], [-73.8795214420289, 40.8321202841487]]]}}, {"type": "Feature", "properties": {"zone_id": "0203ZG7XI11ENUAOMR0DY4", "tract_id": "36005005600", "city": "BRONX, NY", "zone_code": "R6", "zone_category": "Residential", "ev_permitted": false}, "geometry": {"type": "Polygon", "coordinates": [[[-73.8795056784641, 40.8320529126341], [-73.8791414940533, 40.8321031818749], [-73.8791572572612, 40.8321705534388], [-73.8795214420289, 40.8321202841487], [-73.8795056784641, 40.8320529126341]]]}}, {"type": "Feature", "properties": {"zone_id": "0203FV5RX42QQZMGJYIOAS", "tract_id": "36005005600", "city": "BRONX, NY", "zone_code": "R6", "zone_category": "Residential", "ev_permitted": false}, "geometry": {"type": "Polygon", "coordinates": [[[-73.8794898268056, 40.8319851644056], [-73.8791256427524, 40.8320354342996], [-73.8791414940533, 40.8321031818749], [-73.8795056784641, 40.8320529126341], [-73.8794898268056, 40.8319851644056]]]}}, {"type": "Feature", "properties": {"zone_id": "0205K1CC0IFCEG4MZOEM9O", "tract_id": "36005005600", "city": "BRONX, NY", "zone_code": "R6", "zone_category": "Residential", "ev_permitted": false}, "geometry": {"type": "Polygon", "coordinates": [[[-73.879537373616, 40.8321883739412], [-73.8791731875626, 40.8322386432801], [-73.8791888709735, 40.8323056725653], [-73.8795530564555, 40.8322554038791], [-73.879537373616, 40.8321883739412]]]}}, {"type": "Feature", "properties": {"zone_id": "0203XSL6Y7QZK3WQJRTZDH", "tract_id": "36005005600", "city": "BRONX, NY", "zone_code": "R6", "zone_category": "Residential", "ev_permitted": false}, "geometry": {"type": "Polygon", "coordinates": [[[-73.8804272437384, 40.8319014381386], [-73.8800630373429, 40.8319498700337], [-73.8800794942778, 40.8320218930147], [-73.8804437815566, 40.831973450612], [-73.8804272437384, 40.8319014381386]]]}}, {"type": "Feature", "properties": {"zone_id": "02078YML6HPHU3QQPOJNAF", "tract_id": "36005005600", "city": "BRONX, NY", "zone_code": "R6", "zone_category": "Residential", "ev_permitted": false}, "geometry": {"type": "Polygon", "coordinates": [[[-73.8804100156973, 40.8318264197245], [-73.8800458939026, 40.8318748404111], [-73.8800630373429, 40.8319498700337], [-73.8804272437384, 40.8319014381386], [-73.8804100156973, 40.8318264197245]]]}}, {"type": "Feature", "properties": {"zone_id": "02071EM7LRU8USBG6CDYM3", "tract_id": "36005005600", "city": "BRONX, NY", "zone_code": "R6", "zone_category": "Residential", "ev_permitted": false}, "geometry": {"type": "Polygon", "coordinates": [[[-73.8803936284904, 40.8317550608624], [-73.8800295866489, 40.8318034717436], [-73.8800458939026, 40.8318748404111], [-73.8804100156973, 40.8318264197245], [-73.8803936284904, 40.8317550608624]]]}}, {"type": "Feature", "properties": {"zone_id": "020684RX4RP2XVNCG6J5SE", "tract_id": "36005005600", "city": "BRONX, NY", "zone_code": "R6", "zone_category": "Residential", "ev_permitted": false}, "geometry": {"type": "Polygon", "coordinates": [[[-73.8803761884959, 40.8316791168353], [-73.8800122312609, 40.8317275158046], [-73.8800295866489, 40.8318034717436], [-73.8803936284904, 40.8317550608624], [-73.8803761884959, 40.8316791168353]]]}}, {"type": "Feature", "properties": {"zone_id": "0204J58P74GSB3U3C13NKM", "tract_id": "36005005600", "city": "BRONX, NY", "zone_code": "R6", "zone_category": "Residential", "ev_permitted": false}, "geometry": {"type": "Polygon", "coordinates": [[[-73.8798359127729, 40.8318694018499], [-73.8794744167296, 40.8319193011351], [-73.8794898268056, 40.8319851644056], [-73.8798513213437, 40.8319352657733], [-73.8798359127729, 40.8318694018499]]]}}, {"type": "Feature", "properties": {"zone_id": "0207AYIJ7MWIZZBDLV06DK", "tract_id": "36005005600", "city": "BRONX, NY", "zone_code": "R6", "zone_category": "Residential", "ev_permitted": false}, "geometry": {"type": "Polygon", "coordinates": [[[-73.8797881661401, 40.8316653047755], [-73.8794266545898, 40.8317151645472], [-73.8794744167296, 40.8319193011351], [-73.8798359127729, 40.8318694018499], [-73.8797881661401, 40.8316653047755]]]}}, {"type": "Feature", "properties": {"zone_id": "0203G51L5XXWKZ3BXG2SIZ", "tract_id": "36005005600", "city": "BRONX, NY", "zone_code": "R6", "zone_category": "Residential", "ev_permitted": false}, "geometry": {"type": "Polygon", "coordinates": [[[-73.8798513213437, 40.8319352657733], [-73.8794898268056, 40.8319851644056], [-73.8795056784641, 40.8320529126341], [-73.8798671705832, 40.8320030139498], [-73.8798513213437, 40.8319352657733]]]}}, {"type": "Feature", "properties": {"zone_id": "020311ZS87VDM9JTSABR7T", "tract_id": "36005005600", "city": "BRONX, NY", "zone_code": "R6", "zone_category": "Residential", "ev_permitted": false}, "geometry": {"type": "Polygon", "coordinates": [[[-73.8803601262917, 40.8316091748403], [-73.8799962471531, 40.8316575633006], [-73.8800122312609, 40.8317275158046], [-73.8803761884959, 40.8316791168353], [-73.8803601262917, 40.8316091748403]]]}}, {"type": "Feature", "properties": {"zone_id": "0202Z45QC2D58G0TK8PPRR", "tract_id": "36005005600", "city": "BRONX, NY", "zone_code": "R6", "zone_category": "Residential", "ev_permitted": false}, "geometry": {"type": "Polygon", "coordinates": [[[-73.88034336102, 40.8315361699766], [-73.8799795636955, 40.8315845472269], [-73.8799962471531, 40.8316575633006], [-73.8803601262917, 40.8316091748403], [-73.88034336102, 40.8315361699766]]]}}, {"type": "Feature", "properties": {"zone_id": "02075DRWM1W36FBMRZBAX8", "tract_id": "36005005600", "city": "BRONX, NY", "zone_code": "R6", "zone_category": "Residential", "ev_permitted": false}, "geometry": {"type": "Polygon", "coordinates": [[[-73.8803245736768, 40.8314543609504], [-73.8799608683888, 40.8315027269952], [-73.8799795636955, 40.8315845472269], [-73.88034336102, 40.8315361699766], [-73.8803245736768, 40.8314543609504]]]}}, {"type": "Feature", "properties": {"zone_id": "0203ZI7GNYUDWY9XO1P3JX", "tract_id": "36005005600", "city": "BRONX, NY", "zone_code": "R6", "zone_category": "Residential", "ev_permitted": false}, "geometry": {"type": "Polygon", "coordinates": [[[-73.8794744167296, 40.8319193011351], [-73.8791102321028, 40.8319695695747], [-73.8791256427524, 40.8320354342996], [-73.8794898268056, 40.8319851644056], [-73.8794744167296, 40.8319193011351]]]}}, {"type": "Feature", "properties": {"zone_id": "02021EYYFYZQPUYPM1KG54", "tract_id": "36005005600", "city": "BRONX, NY", "zone_code": "R6", "zone_category": "Residential", "ev_permitted": false}, "geometry": {"type": "Polygon", "coordinates": [[[-73.8794579666134, 40.831848996045], [-73.8790937832841, 40.8318992644343], [-73.8791102321028, 40.8319695695747], [-73.8794744167296, 40.8319193011351], [-73.8794579666134, 40.831848996045]]]}}, {"type": "Feature", "properties": {"zone_id": "02010KSN2CG1KZFC9RMJRF", "tract_id": "36005005600", "city": "BRONX, NY", "zone_code": "R6", "zone_category": "Residential", "ev_permitted": false}, "geometry": {"type": "Polygon", "coordinates": [[[-73.8794425373204, 40.8317830519442], [-73.8790783543403, 40.8318333202853], [-73.8790937832841, 40.8318992644343], [-73.8794579666134, 40.831848996045], [-73.8794425373204, 40.8317830519442]]]}}, {"type": "Feature", "properties": {"zone_id": "02019WKSXVN1K84151FQR1", "tract_id": "36005005600", "city": "BRONX, NY", "zone_code": "R6", "zone_category": "Residential", "ev_permitted": false}, "geometry": {"type": "Polygon", "coordinates": [[[-73.8794266545898, 40.8317151645472], [-73.8790624609399, 40.8317653934789], [-73.8790783543403, 40.8318333202853], [-73.8794425373204, 40.8317830519442], [-73.8794266545898, 40.8317151645472]]]}}, {"type": "Feature", "properties": {"zone_id": "0202EOWZL5A6NVUACFG7R1", "tract_id": "36005005600", "city": "BRONX, NY", "zone_code": "R6", "zone_category": "Residential", "ev_permitted": false}, "geometry": {"type": "Polygon", "coordinates": [[[-73.8797571509994, 40.8315327264932], [-73.8793956428475, 40.8315826269251], [-73.8794266545898, 40.8317151645472], [-73.8797881661401, 40.8316653047755], [-73.8797571509994, 40.8315327264932]]]}}, {"type": "Feature", "properties": {"zone_id": "0200P0E1PBJ3JT66J58RCW", "tract_id": "36005005600", "city": "BRONX, NY", "zone_code": "R6", "zone_category": "Residential", "ev_permitted": false}, "geometry": {"type": "Polygon", "coordinates": [[[-73.8794109251736, 40.8316479427144], [-73.8790467429092, 40.8316982109568], [-73.8790624609399, 40.8317653934789], [-73.8794266545898, 40.8317151645472], [-73.8794109251736, 40.8316479427144]]]}}, {"type": "Feature", "properties": {"zone_id": "0207DEZFB8EPK6R8UNZG0E", "tract_id": "36005005600", "city": "BRONX, NY", "zone_code": "R6", "zone_category": "Residential", "ev_permitted": false}, "geometry": {"type": "Polygon", "coordinates": [[[-73.8793956428475, 40.8315826269251], [-73.8790314600027, 40.8316328958216], [-73.8790467429092, 40.8316982109568], [-73.8794109251736, 40.8316479427144], [-73.8793956428475, 40.8315826269251]]]}}, {"type": "Feature", "properties": {"zone_id": "0206SP7VO63BXELK5EPYGR", "tract_id": "36005005600", "city": "BRONX, NY", "zone_code": "R6", "zone_category": "Residential", "ev_permitted": false}, "geometry": {"type": "Polygon", "coordinates": [[[-73.8790468225272, 40.831334332567], [-73.8789642730844, 40.8313457265128], [-73.8790314600027, 40.8316328958216], [-73.8791140107153, 40.8316215018293], [-73.8790468225272, 40.831334332567]]]}}, {"type": "Feature", "properties": {"zone_id": "0200H7MYC3DOKXJDQCLU85", "tract_id": "36005005600", "city": "BRONX, NY", "zone_code": "R6", "zone_category": "Residential", "ev_permitted": false}, "geometry": {"type": "Polygon", "coordinates": [[[-73.8778363537874, 40.831510548352], [-73.8771413192045, 40.8316066437588], [-73.8773837299488, 40.8326489409123], [-73.8780790095826, 40.8325538526078], [-73.8778363537874, 40.831510548352]]]}}, {"type": "Feature", "properties": {"zone_id": "0203YYNAA6QW07PG77NW7D", "tract_id": "36005005600", "city": "BRONX, NY", "zone_code": "R6", "zone_category": "Residential", "ev_permitted": false}, "geometry": {"type": "Polygon", "coordinates": [[[-73.8801710600419, 40.8311815807723], [-73.880081461912, 40.8311934958815], [-73.8801464796621, 40.8314780442244], [-73.8802360800124, 40.8314661297698], [-73.8801710600419, 40.8311815807723]]]}}, {"type": "Feature", "properties": {"zone_id": "0206FDT8QZZ7C2ZVUQ1NFQ", "tract_id": "36005005600", "city": "BRONX, NY", "zone_code": "R6", "zone_category": "Residential", "ev_permitted": false}, "geometry": {"type": "Polygon", "coordinates": [[[-73.8802592387368, 40.8311698552397], [-73.8801710600419, 40.8311815807723], [-73.8802360800124, 40.8314661297698], [-73.8803245736768, 40.8314543609504], [-73.8802592387368, 40.8311698552397]]]}}, {"type": "Feature", "properties": {"zone_id": "0205BSBE6ULNPF447DHJIZ", "tract_id": "36005005600", "city": "BRONX, NY", "zone_code": "R6", "zone_category": "Residential", "ev_permitted": false}, "geometry": {"type": "Polygon", "coordinates": [[[-73.8799898604862, 40.8312056772477], [-73.8798958523347, 40.8312181778472], [-73.8799608683888, 40.8315027269952], [-73.8800548769326, 40.831490224938], [-73.8799898604862, 40.8312056772477]]]}}, {"type": "Feature", "properties": {"zone_id": "0205UKCHTM4U0ZAHNTDTYO", "tract_id": "36005005600", "city": "BRONX, NY", "zone_code": "R6", "zone_category": "Residential", "ev_permitted": false}, "geometry": {"type": "Polygon", "coordinates": [[[-73.880081461912, 40.8311934958815], [-73.8799898604862, 40.8312056772477], [-73.8800548769326, 40.831490224938], [-73.8801464796621, 40.8314780442244], [-73.880081461912, 40.8311934958815]]]}}, {"type": "Feature", "properties": {"zone_id": "0200QQBSUZE8IA580H33PJ", "tract_id": "36005005600", "city": "BRONX, NY", "zone_code": "R6", "zone_category": "Residential", "ev_permitted": false}, "geometry": {"type": "Polygon", "coordinates": [[[-73.8796899703035, 40.8312455562067], [-73.8795831993693, 40.8312602945179], [-73.8796503897976, 40.8315474634712], [-73.8797571509994, 40.8315327264932], [-73.8796899703035, 40.8312455562067]]]}}, {"type": "Feature", "properties": {"zone_id": "020679K459U3BWOZJ6NUY5", "tract_id": "36005005600", "city": "BRONX, NY", "zone_code": "R6", "zone_category": "Residential", "ev_permitted": false}, "geometry": {"type": "Polygon", "coordinates": [[[-73.8793179725402, 40.8312969048509], [-73.8792285537148, 40.8313092473973], [-73.8792957426618, 40.8315964165549], [-73.8793851627858, 40.8315840739579], [-73.8793179725402, 40.8312969048509]]]}}, {"type": "Feature", "properties": {"zone_id": "02068G6LZ7V4GKP6EWXMLK", "tract_id": "36005005600", "city": "BRONX, NY", "zone_code": "R6", "zone_category": "Residential", "ev_permitted": false}, "geometry": {"type": "Polygon", "coordinates": [[[-73.8794048504427, 40.8312849130097], [-73.8793179725402, 40.8312969048509], [-73.8793851627858, 40.8315840739579], [-73.879472040126, 40.8315720820657], [-73.8794048504427, 40.8312849130097]]]}}, {"type": "Feature", "properties": {"zone_id": "0206L2X1FLDCB8L3MXBITB", "tract_id": "36005005600", "city": "BRONX, NY", "zone_code": "R6", "zone_category": "Residential", "ev_permitted": false}, "geometry": {"type": "Polygon", "coordinates": [[[-73.8795831993693, 40.8312602945179], [-73.8794957404394, 40.8312723666908], [-73.8795629314274, 40.8315595356954], [-73.8796503897976, 40.8315474634712], [-73.8795831993693, 40.8312602945179]]]}}, {"type": "Feature", "properties": {"zone_id": "0207D9N1V4IDI2KO49QQNC", "tract_id": "36005005600", "city": "BRONX, NY", "zone_code": "R6", "zone_category": "Residential", "ev_permitted": false}, "geometry": {"type": "Polygon", "coordinates": [[[-73.8794957404394, 40.8312723666908], [-73.8794048504427, 40.8312849130097], [-73.879472040126, 40.8315720820657], [-73.8795629314274, 40.8315595356954], [-73.8794957404394, 40.8312723666908]]]}}, {"type": "Feature", "properties": {"zone_id": "0205NKHCHM5WSUMX1ST57B", "tract_id": "36005005600", "city": "BRONX, NY", "zone_code": "R6", "zone_category": "Residential", "ev_permitted": false}, "geometry": {"type": "Polygon", "coordinates": [[[-73.8792285537148, 40.8313092473973], [-73.8791402045099, 40.8313214427368], [-73.879207393088, 40.8316086119453], [-73.8792957426618, 40.8315964165549], [-73.8792285537148, 40.8313092473973]]]}}, {"type": "Feature", "properties": {"zone_id": "02052RQ6E8LX4MTYXLNKYG", "tract_id": "36005005600", "city": "BRONX, NY", "zone_code": "R6", "zone_category": "Residential", "ev_permitted": false}, "geometry": {"type": "Polygon", "coordinates": [[[-73.8791402045099, 40.8313214427368], [-73.8790468225272, 40.831334332567], [-73.8791140107153, 40.8316215018293], [-73.879207393088, 40.8316086119453], [-73.8791402045099, 40.8313214427368]]]}}, {"type": "Feature", "properties": {"zone_id": "0207FOHFQJ9CKF7GC7CJXQ", "tract_id": "36005005600", "city": "BRONX, NY", "zone_code": "R6", "zone_category": "Residential", "ev_permitted": false}, "geometry": {"type": "Polygon", "coordinates": [[[-73.8772146218815, 40.8329223111404], [-73.8768524114984, 40.8329711369355], [-73.8769308231632, 40.8333090174686], [-73.8765748287144, 40.8333570044425], [-73.8766708922901, 40.8337692693593], [-73.8773886302207, 40.8336720969027], [-73.8772146218815, 40.8329223111404]]]}}, {"type": "Feature", "properties": {"zone_id": "0205KPUD13FQH1PM60WOKN", "tract_id": "36005005600", "city": "BRONX, NY", "zone_code": "R6", "zone_category": "Residential", "ev_permitted": false}, "geometry": {"type": "Polygon", "coordinates": [[[-73.8768207335455, 40.8328346328958], [-73.8764643047999, 40.8328826787908], [-73.8765748287144, 40.8333570044425], [-73.8769308231632, 40.8333090174686], [-73.8768207335455, 40.8328346328958]]]}}, {"type": "Feature", "properties": {"zone_id": "02017GPXHDUBIBQ7LCD6X1", "tract_id": "36005005600", "city": "BRONX, NY", "zone_code": "R6", "zone_category": "Residential", "ev_permitted": false}, "geometry": {"type": "Polygon", "coordinates": [[[-73.8771829432087, 40.832785807199], [-73.8768207335455, 40.8328346328958], [-73.8768524114984, 40.8329711369355], [-73.8772146218815, 40.8329223111404], [-73.8771829432087, 40.832785807199]]]}}, {"type": "Feature", "properties": {"zone_id": "0201YWCK7QP8095FC36UGY", "tract_id": "36005005600", "city": "BRONX, NY", "zone_code": "R6", "zone_category": "Residential", "ev_permitted": false}, "geometry": {"type": "Polygon", "coordinates": [[[-73.8771350491487, 40.8325794302085], [-73.8767728414991, 40.8326282557576], [-73.8767894393532, 40.8326997804746], [-73.8771516483052, 40.8326509548751], [-73.8771350491487, 40.8325794302085]]]}}, {"type": "Feature", "properties": {"zone_id": "0205G38QUZ2IZA0IAYFCGK", "tract_id": "36005005600", "city": "BRONX, NY", "zone_code": "R6", "zone_category": "Residential", "ev_permitted": false}, "geometry": {"type": "Polygon", "coordinates": [[[-73.8771516483052, 40.8326509548751], [-73.8767894393532, 40.8326997804746], [-73.8768207335455, 40.8328346328958], [-73.8771829432087, 40.832785807199], [-73.8771516483052, 40.8326509548751]]]}}, {"type": "Feature", "properties": {"zone_id": "02078HJHDNBSM3QT0OCYZR", "tract_id": "36005005600", "city": "BRONX, NY", "zone_code": "R6", "zone_category": "Residential", "ev_permitted": false}, "geometry": {"type": "Polygon", "coordinates": [[[-73.8771194752008, 40.8325123206599], [-73.8767572669799, 40.8325611461596], [-73.8767728414991, 40.8326282557576], [-73.8771350491487, 40.8325794302085], [-73.8771194752008, 40.8325123206599]]]}}, {"type": "Feature", "properties": {"zone_id": "0204162T6AO0SJTE9L64BQ", "tract_id": "36005005600", "city": "BRONX, NY", "zone_code": "R6", "zone_category": "Residential", "ev_permitted": false}, "geometry": {"type": "Polygon", "coordinates": [[[-73.8768078048722, 40.832778922365], [-73.8764513255225, 40.8328269751925], [-73.8764643047999, 40.8328826787908], [-73.8768207335455, 40.8328346328958], [-73.8768078048722, 40.832778922365]]]}}, {"type": "Feature", "properties": {"zone_id": "02078MU1L3RVB1B1B3WZ91", "tract_id": "36005005600", "city": "BRONX, NY", "zone_code": "R6", "zone_category": "Residential", "ev_permitted": false}, "geometry": {"type": "Polygon", "coordinates": [[[-73.8767825166088, 40.8326699527384], [-73.8764259378898, 40.8327180187318], [-73.8764381948322, 40.8327706221841], [-73.8767947257064, 40.8327225631283], [-73.8767825166088, 40.8326699527384]]]}}, {"type": "Feature", "properties": {"zone_id": "0204RV93WL3972PUI7VGMF", "tract_id": "36005005600", "city": "BRONX, NY", "zone_code": "R6", "zone_category": "Residential", "ev_permitted": false}, "geometry": {"type": "Polygon", "coordinates": [[[-73.8767700927782, 40.8326164139206], [-73.8764134643706, 40.8326644861462], [-73.8764259378898, 40.8327180187318], [-73.8767825166088, 40.8326699527384], [-73.8767700927782, 40.8326164139206]]]}}, {"type": "Feature", "properties": {"zone_id": "0204LQ4DK56S1JAACVPULW", "tract_id": "36005005600", "city": "BRONX, NY", "zone_code": "R6", "zone_category": "Residential", "ev_permitted": false}, "geometry": {"type": "Polygon", "coordinates": [[[-73.8767572669799, 40.8325611461596], [-73.8764005879662, 40.832609225318], [-73.8764134643706, 40.8326644861462], [-73.8767700927782, 40.8326164139206], [-73.8767572669799, 40.8325611461596]]]}}, {"type": "Feature", "properties": {"zone_id": "02005SF1751KIB0JPHKQ9E", "tract_id": "36005005600", "city": "BRONX, NY", "zone_code": "R6", "zone_category": "Residential", "ev_permitted": false}, "geometry": {"type": "Polygon", "coordinates": [[[-73.876744612824, 40.8325066184674], [-73.8763878841256, 40.83255470456], [-73.8764005879662, 40.832609225318], [-73.8767572669799, 40.8325611461596], [-73.876744612824, 40.8325066184674]]]}}, {"type": "Feature", "properties": {"zone_id": "0207LBNB6ZLNG68I8JZ1YE", "tract_id": "36005005600", "city": "BRONX, NY", "zone_code": "R6", "zone_category": "Residential", "ev_permitted": false}, "geometry": {"type": "Polygon", "coordinates": [[[-73.8767947257064, 40.8327225631283], [-73.8764381948322, 40.8327706221841], [-73.8764513255225, 40.8328269751925], [-73.8768078048722, 40.832778922365], [-73.8767947257064, 40.8327225631283]]]}}, {"type": "Feature", "properties": {"zone_id": "0205ZXU4LTFRP44X3DXM1D", "tract_id": "36005005600", "city": "BRONX, NY", "zone_code": "R6", "zone_category": "Residential", "ev_permitted": false}, "geometry": {"type": "Polygon", "coordinates": [[[-73.8771039857214, 40.8324455744669], [-73.8767417778512, 40.8324944006211], [-73.8767572669799, 40.8325611461596], [-73.8771194752008, 40.8325123206599], [-73.8771039857214, 40.8324455744669]]]}}, {"type": "Feature", "properties": {"zone_id": "02003AUUVTEBHGV5TSDE6K", "tract_id": "36005005600", "city": "BRONX, NY", "zone_code": "R6", "zone_category": "Residential", "ev_permitted": false}, "geometry": {"type": "Polygon", "coordinates": [[[-73.8770566373067, 40.8322415497727], [-73.8766944305138, 40.8322903750772], [-73.8767102692155, 40.8323586267709], [-73.8770724763684, 40.8323098014171], [-73.8770566373067, 40.8322415497727]]]}}, {"type": "Feature", "properties": {"zone_id": "0202XE31WM4MNHDSIY0HHR", "tract_id": "36005005600", "city": "BRONX, NY", "zone_code": "R6", "zone_category": "Residential", "ev_permitted": false}, "geometry": {"type": "Polygon", "coordinates": [[[-73.8770724763684, 40.8323098014171], [-73.8767102692155, 40.8323586267709], [-73.8767268605129, 40.8324301226848], [-73.8770890689692, 40.8323812965779], [-73.8770724763684, 40.8323098014171]]]}}, {"type": "Feature", "properties": {"zone_id": "02057WJNVO716RR0LKMW3I", "tract_id": "36005005600", "city": "BRONX, NY", "zone_code": "R6", "zone_category": "Residential", "ev_permitted": false}, "geometry": {"type": "Polygon", "coordinates": [[[-73.8770890689692, 40.8323812965779], [-73.8767268605129, 40.8324301226848], [-73.8767417778512, 40.8324944006211], [-73.8771039857214, 40.8324455744669], [-73.8770890689692, 40.8323812965779]]]}}, {"type": "Feature", "properties": {"zone_id": "0202VMPBPOCO88OCHC252Z", "tract_id": "36005005600", "city": "BRONX, NY", "zone_code": "R6", "zone_category": "Residential", "ev_permitted": false}, "geometry": {"type": "Polygon", "coordinates": [[[-73.8767328828799, 40.8324560715541], [-73.8763761063288, 40.8325041631805], [-73.8763878841256, 40.83255470456], [-73.876744612824, 40.8325066184674], [-73.8767328828799, 40.8324560715541]]]}}, {"type": "Feature", "properties": {"zone_id": "0205LVR45M0UP52ZWD6O0G", "tract_id": "36005005600", "city": "BRONX, NY", "zone_code": "R6", "zone_category": "Residential", "ev_permitted": false}, "geometry": {"type": "Polygon", "coordinates": [[[-73.8767196469008, 40.8323990375968], [-73.8763628197518, 40.8324471368573], [-73.8763761063288, 40.8325041631805], [-73.8767328828799, 40.8324560715541], [-73.8767196469008, 40.8323990375968]]]}}, {"type": "Feature", "properties": {"zone_id": "0205DASSK730TMTWRBJ2JC", "tract_id": "36005005600", "city": "BRONX, NY", "zone_code": "R6", "zone_category": "Residential", "ev_permitted": false}, "geometry": {"type": "Polygon", "coordinates": [[[-73.8767075407139, 40.8323468685684], [-73.8763506657196, 40.832394974064], [-73.8763628197518, 40.8324471368573], [-73.8767196469008, 40.8323990375968], [-73.8767075407139, 40.8323468685684]]]}}, {"type": "Feature", "properties": {"zone_id": "0206DSEGJ7LMTBNRC2GAWR", "tract_id": "36005005600", "city": "BRONX, NY", "zone_code": "R6", "zone_category": "Residential", "ev_permitted": false}, "geometry": {"type": "Polygon", "coordinates": [[[-73.876694946304, 40.8322925924802], [-73.8763380216239, 40.8323407049102], [-73.8763506657196, 40.832394974064], [-73.8767075407139, 40.8323468685684], [-73.876694946304, 40.8322925924802]]]}}, {"type": "Feature", "properties": {"zone_id": "0205E0U0UHL9FJ0CZPE1Q3", "tract_id": "36005005600", "city": "BRONX, NY", "zone_code": "R6", "zone_category": "Residential", "ev_permitted": false}, "geometry": {"type": "Polygon", "coordinates": [[[-73.8766838753752, 40.8322448905801], [-73.8763269074535, 40.8322930085508], [-73.8763380216239, 40.8323407049102], [-73.876694946304, 40.8322925924802], [-73.8766838753752, 40.8322448905801]]]}}, {"type": "Feature", "properties": {"zone_id": "02061LGQIM6ZPBH54DXU2O", "tract_id": "36005005600", "city": "BRONX, NY", "zone_code": "R6", "zone_category": "Residential", "ev_permitted": false}, "geometry": {"type": "Polygon", "coordinates": [[[-73.8769951949448, 40.8319767865543], [-73.8766329895469, 40.8320256123708], [-73.8766481030981, 40.8320907393313], [-73.8770103088395, 40.832041913468], [-73.8769951949448, 40.8319767865543]]]}}, {"type": "Feature", "properties": {"zone_id": "0203S0PGKKDMY27OBNQZNU", "tract_id": "36005005600", "city": "BRONX, NY", "zone_code": "R6", "zone_category": "Residential", "ev_permitted": false}, "geometry": {"type": "Polygon", "coordinates": [[[-73.8770103088395, 40.832041913468], [-73.8766481030981, 40.8320907393313], [-73.8766647383143, 40.8321624250193], [-73.8770269444337, 40.8321135991043], [-73.8770103088395, 40.832041913468]]]}}, {"type": "Feature", "properties": {"zone_id": "0200D5GRSOL5C9Z73RHMUU", "tract_id": "36005005600", "city": "BRONX, NY", "zone_code": "R6", "zone_category": "Residential", "ev_permitted": false}, "geometry": {"type": "Polygon", "coordinates": [[[-73.8770269444337, 40.8321135991043], [-73.8766647383143, 40.8321624250193], [-73.8766800345598, 40.8322283398369], [-73.8770422410255, 40.832179514577], [-73.8770269444337, 40.8321135991043]]]}}, {"type": "Feature", "properties": {"zone_id": "0201M22B92HT8W2DDIAV10", "tract_id": "36005005600", "city": "BRONX, NY", "zone_code": "R6", "zone_category": "Residential", "ev_permitted": false}, "geometry": {"type": "Polygon", "coordinates": [[[-73.8770422410255, 40.832179514577], [-73.8766800345598, 40.8322283398369], [-73.8766944305138, 40.8322903750772], [-73.8770566373067, 40.8322415497727], [-73.8770422410255, 40.832179514577]]]}}, {"type": "Feature", "properties": {"zone_id": "0202U9J1SUYBGFLYSJZZQ3", "tract_id": "36005005600", "city": "BRONX, NY", "zone_code": "R6", "zone_category": "Residential", "ev_permitted": false}, "geometry": {"type": "Polygon", "coordinates": [[[-73.8766724768352, 40.8321957703863], [-73.8763154629028, 40.8322438945963], [-73.8763269074535, 40.8322930085508], [-73.8766838753752, 40.8322448905801], [-73.8766724768352, 40.8321957703863]]]}}, {"type": "Feature", "properties": {"zone_id": "0206H0KGRCWBMC5QULB39M", "tract_id": "36005005600", "city": "BRONX, NY", "zone_code": "R6", "zone_category": "Residential", "ev_permitted": false}, "geometry": {"type": "Polygon", "coordinates": [[[-73.8766501203208, 40.8320994318283], [-73.876293018984, 40.8321475678206], [-73.8763048957616, 40.8321985407433], [-73.8766619501724, 40.832150410988], [-73.8766501203208, 40.8320994318283]]]}}, {"type": "Feature", "properties": {"zone_id": "02001330CDE9Y5PFM03W4E", "tract_id": "36005005600", "city": "BRONX, NY", "zone_code": "R6", "zone_category": "Residential", "ev_permitted": false}, "geometry": {"type": "Polygon", "coordinates": [[[-73.8766390457951, 40.832051708839], [-73.8762819002892, 40.8320998517761], [-73.876293018984, 40.8321475678206], [-73.8766501203208, 40.8320994318283], [-73.8766390457951, 40.832051708839]]]}}, {"type": "Feature", "properties": {"zone_id": "0205Q77CFH1SB602E01SX5", "tract_id": "36005005600", "city": "BRONX, NY", "zone_code": "R6", "zone_category": "Residential", "ev_permitted": false}, "geometry": {"type": "Polygon", "coordinates": [[[-73.8766281162952, 40.832004607846], [-73.8762709266211, 40.8320527556206], [-73.8762819002892, 40.8320998517761], [-73.8766390457951, 40.832051708839], [-73.8766281162952, 40.832004607846]]]}}, {"type": "Feature", "properties": {"zone_id": "02044RGRB64Q2SJM4D6WPM", "tract_id": "36005005600", "city": "BRONX, NY", "zone_code": "R6", "zone_category": "Residential", "ev_permitted": false}, "geometry": {"type": "Polygon", "coordinates": [[[-73.8766162415157, 40.831953440324], [-73.8762590058418, 40.8320015943365], [-73.8762709266211, 40.8320527556206], [-73.8766281162952, 40.832004607846], [-73.8766162415157, 40.831953440324]]]}}, {"type": "Feature", "properties": {"zone_id": "02032RZ4HGCZ0GJ74C413I", "tract_id": "36005005600", "city": "BRONX, NY", "zone_code": "R6", "zone_category": "Residential", "ev_permitted": false}, "geometry": {"type": "Polygon", "coordinates": [[[-73.8766619501724, 40.832150410988], [-73.8763048957616, 40.8321985407433], [-73.8763154629028, 40.8322438945963], [-73.8766724768352, 40.8321957703863], [-73.8766619501724, 40.832150410988]]]}}, {"type": "Feature", "properties": {"zone_id": "0205DWI9I274GEGTPN6KQL", "tract_id": "36005005600", "city": "BRONX, NY", "zone_code": "R6", "zone_category": "Residential", "ev_permitted": false}, "geometry": {"type": "Polygon", "coordinates": [[[-73.8769784465318, 40.8319046152623], [-73.8766162415157, 40.831953440324], [-73.8766329895469, 40.8320256123708], [-73.8769951949448, 40.8319767865543], [-73.8769784465318, 40.8319046152623]]]}}, {"type": "Feature", "properties": {"zone_id": "02053T67IFQ1J11TAT38SX", "tract_id": "36005005600", "city": "BRONX, NY", "zone_code": "R6", "zone_category": "Residential", "ev_permitted": false}, "geometry": {"type": "Polygon", "coordinates": [[[-73.8769125820888, 40.831620795692], [-73.8765527214572, 40.8316693047579], [-73.8766162415157, 40.831953440324], [-73.8769784465318, 40.8319046152623], [-73.8769125820888, 40.831620795692]]]}}, {"type": "Feature", "properties": {"zone_id": "02018SSPKK6CLGODH2LYTM", "tract_id": "36005005600", "city": "BRONX, NY", "zone_code": "R6", "zone_category": "Residential", "ev_permitted": false}, "geometry": {"type": "Polygon", "coordinates": [[[-73.8765527214572, 40.8316693047579], [-73.8761928834343, 40.8317178092122], [-73.8762590058418, 40.8320015943365], [-73.8766162415157, 40.831953440324], [-73.8765527214572, 40.8316693047579]]]}}]}