{"type": "FeatureCollection", "features": [{"type": "Feature", "properties": {"zone_id": "0202D288DQQPFJWPMJLRVS", "tract_id": "06075012203", "city": "SAN FRANCISCO, CA", "zone_code": "NORTH OF MARKET RESIDENTIAL 1", "zone_category": "Residential", "ev_permitted": false}, "geometry": {"type": "Polygon", "coordinates": [[[-122.418090041, 37.7867219500001], [-122.417797713, 37.786759825], [-122.417846458, 37.786996995], [-122.418136645, 37.786959396], [-122.418090041, 37.7867219500001]]]}}, {"type": "Feature", "properties": {"zone_id": "0204RR7CFRNB2USW9L5OEW", "tract_id": "06075012203", "city": "SAN FRANCISCO, CA", "zone_code": "NORTH OF MARKET RESIDENTIAL 1", "zone_category": "Residential", "ev_permitted": false}, "geometry": {"type": "Polygon", "coordinates": [[[-122.418063409, 37.786586265], [-122.417769861, 37.786624299], [-122.417797713, 37.786759825], [-122.418090041, 37.7867219500001], [-122.418063409, 37.786586265]]]}}, {"type": "Feature", "properties": {"zone_id": "0201GUDNITICBU1KZZ3NVM", "tract_id": "06075012203", "city": "SAN FRANCISCO, CA", "zone_code": "WITHIN 1/4 MILE EXISTING FRINGE FINANCIAL SERVICE", "zone_category": "Other", "ev_permitted": false}, "geometry": {"type": "Polygon", "coordinates": [[[-122.418045034, 37.786492643], [-122.417844563, 37.7865186180001], [-122.417863782, 37.786612131], [-122.418063409, 37.786586265], [-122.418045034, 37.786492643]]]}}, {"type": "Feature", "properties": {"zone_id": "0202R218V0K9KGZKXJQPR3", "tract_id": "06075012203", "city": "SAN FRANCISCO, CA", "zone_code": "PRIORITY EQUITY GEOGRAPHIES SUD", "zone_category": "Other", "ev_permitted": false}, "geometry": {"type": "Polygon", "coordinates": [[[-122.418032784, 37.7864302290001], [-122.417831751, 37.786456276], [-122.417844563, 37.7865186180001], [-122.418045034, 37.786492643], [-122.418032784, 37.7864302290001]]]}}, {"type": "Feature", "properties": {"zone_id": "0201I0WKSV5948Z04BBDK7", "tract_id": "06075012203", "city": "SAN FRANCISCO, CA", "zone_code": "WITHIN 1/4 MILE EXISTING FRINGE FINANCIAL SERVICE", "zone_category": "Other", "ev_permitted": false}, "geometry": {"type": "Polygon", "coordinates": [[[-122.417989379, 37.7862090880001], [-122.417829032, 37.786229792], [-122.417874441, 37.786450744], [-122.418032784, 37.7864302290001], [-122.417989379, 37.7862090880001]]]}}, {"type": "Feature", "properties": {"zone_id": "0204LW7L3LQKHR1UNYNE75", "tract_id": "06075012203", "city": "SAN FRANCISCO, CA", "zone_code": "NORTH OF MARKET RESIDENTIAL 2", "zone_category": "Residential", "ev_permitted": false}, "geometry": {"type": "Polygon", "coordinates": [[[-122.417175729, 37.786932237], [-122.417080101, 37.786944627], [-122.417110459, 37.7870923500001], [-122.417206088, 37.7870799610001], [-122.417175729, 37.786932237]]]}}, {"type": "Feature", "properties": {"zone_id": "0202Q7845NP99O24YSZT4R", "tract_id": "06075012203", "city": "SAN FRANCISCO, CA", "zone_code": "NORTH OF MARKET RESIDENTIAL 2", "zone_category": "Residential", "ev_permitted": false}, "geometry": {"type": "Polygon", "coordinates": [[[-122.417080101, 37.786944627], [-122.416984473, 37.786957016], [-122.417014832, 37.7871047400001], [-122.417110459, 37.7870923500001], [-122.417080101, 37.786944627]]]}}, {"type": "Feature", "properties": {"zone_id": "0200Y1M9U6C0LAP74EAXQG", "tract_id": "06075012203", "city": "SAN FRANCISCO, CA", "zone_code": "NORTH OF MARKET RESIDENTIAL 2", "zone_category": "Residential", "ev_permitted": false}, "geometry": {"type": "Polygon", "coordinates": [[[-122.416908801, 37.787023864], [-122.416785851, 37.7870397930001], [-122.416804789, 37.787131951], [-122.41692774, 37.7871160220001], [-122.416908801, 37.787023864]]]}}, {"type": "Feature", "properties": {"zone_id": "02057WKADP8CQTIIP42M4U", "tract_id": "06075012203", "city": "SAN FRANCISCO, CA", "zone_code": "NORTH OF MARKET RESIDENTIAL 2", "zone_category": "Residential", "ev_permitted": false}, "geometry": {"type": "Polygon", "coordinates": [[[-122.416785294, 37.787037083], [-122.416716988, 37.7870459320001], [-122.416736484, 37.7871408010001], [-122.416804789, 37.787131951], [-122.416785294, 37.787037083]]]}}, {"type": "Feature", "properties": {"zone_id": "02005PCIMN7O4GASN0DSUO", "tract_id": "06075012203", "city": "SAN FRANCISCO, CA", "zone_code": "NORTH OF MARKET RESIDENTIAL 1", "zone_category": "Residential", "ev_permitted": false}, "geometry": {"type": "Polygon", "coordinates": [[[-122.417769861, 37.786624299], [-122.417428333, 37.7866685480001], [-122.417504927, 37.7870412440001], [-122.417846458, 37.786996995], [-122.417769861, 37.786624299]]]}}, {"type": "Feature", "properties": {"zone_id": "02058IBCKDSPTME0O2ULKE", "tract_id": "06075012203", "city": "SAN FRANCISCO, CA", "zone_code": "NORTH OF MARKET RESIDENTIAL 2", "zone_category": "Residential", "ev_permitted": false}, "geometry": {"type": "Polygon", "coordinates": [[[-122.417359391, 37.786290428], [-122.41720569, 37.786310272], [-122.417292932, 37.786734788], [-122.417438082, 37.786715982], [-122.417428333, 37.7866685480001], [-122.417436872, 37.7866674410001], [-122.417359391, 37.786290428]]]}}, {"type": "Feature", "properties": {"zone_id": "0206PKCCNP333TGPPZE9QK", "tract_id": "06075012203", "city": "SAN FRANCISCO, CA", "zone_code": "NORTH OF MARKET RESIDENTIAL 1", "zone_category": "Residential", "ev_permitted": false}, "geometry": {"type": "Polygon", "coordinates": [[[-122.417438082, 37.786715982], [-122.417361237, 37.7867259380001], [-122.417428083, 37.7870512000001], [-122.417504927, 37.7870412440001], [-122.417438082, 37.786715982]]]}}, {"type": "Feature", "properties": {"zone_id": "02061469IARRDBIF7S0DEL", "tract_id": "06075012203", "city": "SAN FRANCISCO, CA", "zone_code": "PRIORITY EQUITY GEOGRAPHIES SUD", "zone_category": "Other", "ev_permitted": false}, "geometry": {"type": "Polygon", "coordinates": [[[-122.417214878, 37.786696202], [-122.417129495, 37.786707264], [-122.417206088, 37.7870799610001], [-122.417428083, 37.7870512000001], [-122.417361237, 37.7867259380001], [-122.417224626, 37.786743636], [-122.417214878, 37.786696202]]]}}, {"type": "Feature", "properties": {"zone_id": "02040GGC4DJ88AUE1IZR4Z", "tract_id": "06075012203", "city": "SAN FRANCISCO, CA", "zone_code": "PRIORITY EQUITY GEOGRAPHIES SUD", "zone_category": "Other", "ev_permitted": false}, "geometry": {"type": "Polygon", "coordinates": [[[-122.41752163, 37.786269481], [-122.417359391, 37.786290428], [-122.417436872, 37.7866674410001], [-122.417599097, 37.786646424], [-122.41752163, 37.786269481]]]}}, {"type": "Feature", "properties": {"zone_id": "0203I4KRQ79EUT3QL23628", "tract_id": "06075012203", "city": "SAN FRANCISCO, CA", "zone_code": "NORTH OF MARKET RESIDENTIAL 2", "zone_category": "Residential", "ev_permitted": false}, "geometry": {"type": "Polygon", "coordinates": [[[-122.41720569, 37.786310272], [-122.417051988, 37.7863301150001], [-122.417129495, 37.786707264], [-122.417214878, 37.786696202], [-122.417224626, 37.786743636], [-122.417292932, 37.786734788], [-122.41720569, 37.786310272]]]}}, {"type": "Feature", "properties": {"zone_id": "02057S7OMKPH1NVO1LCYG5", "tract_id": "06075012203", "city": "SAN FRANCISCO, CA", "zone_code": "NORTH OF MARKET RESIDENTIAL 1", "zone_category": "Residential", "ev_permitted": false}, "geometry": {"type": "Polygon", "coordinates": [[[-122.417051989, 37.786330116], [-122.41688121, 37.7863521640001], [-122.416944806, 37.7866616250001], [-122.416645968, 37.786700341], [-122.416659894, 37.786768104], [-122.417129496, 37.786707264], [-122.417051989, 37.786330116]]]}}, {"type": "Feature", "properties": {"zone_id": "0204JGHIJL70H02KM91K3C", "tract_id": "06075012203", "city": "SAN FRANCISCO, CA", "zone_code": "WITHIN 1/4 MILE EXISTING FRINGE FINANCIAL SERVICE", "zone_category": "Other", "ev_permitted": false}, "geometry": {"type": "Polygon", "coordinates": [[[-122.417164589, 37.7868780270001], [-122.416973333, 37.7869028060001], [-122.416984473, 37.786957016], [-122.417175729, 37.786932237], [-122.417164589, 37.7868780270001]]]}}, {"type": "Feature", "properties": {"zone_id": "0203E0GFVWKQV8MCHUNCF7", "tract_id": "06075012203", "city": "SAN FRANCISCO, CA", "zone_code": "PRIORITY EQUITY GEOGRAPHIES SUD", "zone_category": "Other", "ev_permitted": false}, "geometry": {"type": "Polygon", "coordinates": [[[-122.417129495, 37.786707264], [-122.416938239, 37.786732043], [-122.416973333, 37.7869028060001], [-122.417164589, 37.7868780270001], [-122.417129495, 37.786707264]]]}}, {"type": "Feature", "properties": {"zone_id": "0203VPTXUW9RYQ0E21VOX3", "tract_id": "06075012203", "city": "SAN FRANCISCO, CA", "zone_code": "NORTH OF MARKET RESIDENTIAL 2", "zone_category": "Residential", "ev_permitted": false}, "geometry": {"type": "Polygon", "coordinates": [[[-122.416886521, 37.786915444], [-122.416695265, 37.786940222], [-122.416716988, 37.7870459320001], [-122.416785294, 37.787037083], [-122.416785851, 37.7870397930001], [-122.416908801, 37.787023864], [-122.416886521, 37.786915444]]]}}, {"type": "Feature", "properties": {"zone_id": "0201M0GORYGUQMJ31YKC7C", "tract_id": "06075012203", "city": "SAN FRANCISCO, CA", "zone_code": "PRIORITY EQUITY GEOGRAPHIES SUD", "zone_category": "Other", "ev_permitted": false}, "geometry": {"type": "Polygon", "coordinates": [[[-122.416875381, 37.7868612340001], [-122.416684123, 37.786886012], [-122.416695265, 37.786940222], [-122.416886521, 37.786915444], [-122.416875381, 37.7868612340001]]]}}, {"type": "Feature", "properties": {"zone_id": "02007XICSLOJSEFN15OGBX", "tract_id": "06075012203", "city": "SAN FRANCISCO, CA", "zone_code": "NORTH OF MARKET RESIDENTIAL 2", "zone_category": "Residential", "ev_permitted": false}, "geometry": {"type": "Polygon", "coordinates": [[[-122.41686424, 37.7868070230001], [-122.416672983, 37.7868318010001], [-122.416684123, 37.786886012], [-122.416875381, 37.7868612340001], [-122.41686424, 37.7868070230001]]]}}, {"type": "Feature", "properties": {"zone_id": "0202A2KNBL41N8WXOR2DEG", "tract_id": "06075012203", "city": "SAN FRANCISCO, CA", "zone_code": "NORTH OF MARKET RESIDENTIAL 2", "zone_category": "Residential", "ev_permitted": false}, "geometry": {"type": "Polygon", "coordinates": [[[-122.41685115, 37.7867433260001], [-122.416659894, 37.786768104], [-122.416672983, 37.7868318010001], [-122.41686424, 37.7868070230001], [-122.41685115, 37.7867433260001]]]}}, {"type": "Feature", "properties": {"zone_id": "02066N0Y2551WJG4Q8U9M7", "tract_id": "06075012203", "city": "SAN FRANCISCO, CA", "zone_code": "WITHIN 1/4 MILE EXISTING FRINGE FINANCIAL SERVICE", "zone_category": "Other", "ev_permitted": false}, "geometry": {"type": "Polygon", "coordinates": [[[-122.41693088, 37.7865938620001], [-122.416632042, 37.786632578], [-122.416645968, 37.786700341], [-122.416944806, 37.7866616250001], [-122.41693088, 37.7865938620001]]]}}, {"type": "Feature", "properties": {"zone_id": "0204FGV9JYF6M73XBZQ8E8", "tract_id": "06075012203", "city": "SAN FRANCISCO, CA", "zone_code": "PRIORITY EQUITY GEOGRAPHIES SUD", "zone_category": "Other", "ev_permitted": false}, "geometry": {"type": "Polygon", "coordinates": [[[-122.416778743, 37.786365394], [-122.416582346, 37.7863907490001], [-122.416632042, 37.786632578], [-122.416828422, 37.786607136], [-122.416778743, 37.786365394]]]}}, {"type": "Feature", "properties": {"zone_id": "0201F9J97BCCI49A4QHS1M", "tract_id": "06075012203", "city": "SAN FRANCISCO, CA", "zone_code": "PRIORITY EQUITY GEOGRAPHIES SUD", "zone_category": "Other", "ev_permitted": false}, "geometry": {"type": "Polygon", "coordinates": [[[-122.41688121, 37.7863521640001], [-122.416778743, 37.786365394], [-122.416828422, 37.786607136], [-122.41693088, 37.7865938620001], [-122.41688121, 37.7863521640001]]]}}, {"type": "Feature", "properties": {"zone_id": "02027CI76672O8O0FESF6N", "tract_id": "06075012203", "city": "SAN FRANCISCO, CA", "zone_code": "PRIORITY EQUITY GEOGRAPHIES SUD", "zone_category": "Other", "ev_permitted": false}, "geometry": {"type": "Polygon", "coordinates": [[[-122.417406574, 37.785711034], [-122.417124809, 37.785747536], [-122.41719797, 37.7861203100001], [-122.41747976, 37.786083928], [-122.417406574, 37.785711034]]]}}, {"type": "Feature", "properties": {"zone_id": "02014GCRA3T965J8YRT4I7", "tract_id": "06075012203", "city": "SAN FRANCISCO, CA", "zone_code": "PRIORITY EQUITY GEOGRAPHIES SUD", "zone_category": "Other", "ev_permitted": false}, "geometry": {"type": "Polygon", "coordinates": [[[-122.417829032, 37.786229792], [-122.417692409, 37.786247431], [-122.417769861, 37.786624299], [-122.417863782, 37.786612131], [-122.417831751, 37.786456276], [-122.417874441, 37.786450744], [-122.417829032, 37.786229792]]]}}, {"type": "Feature", "properties": {"zone_id": "0204R3HGUBNZH0SKCWHL0G", "tract_id": "06075012203", "city": "SAN FRANCISCO, CA", "zone_code": "NORTH OF MARKET RESIDENTIAL 1", "zone_category": "Residential", "ev_permitted": false}, "geometry": {"type": "Polygon", "coordinates": [[[-122.417692409, 37.786247431], [-122.41752163, 37.786269481], [-122.417599097, 37.786646424], [-122.417769861, 37.786624299], [-122.417692409, 37.786247431]]]}}, {"type": "Feature", "properties": {"zone_id": "0202TFX56GIGJEZBQLAUC0", "tract_id": "06075012203", "city": "SAN FRANCISCO, CA", "zone_code": "NORTH OF MARKET RESIDENTIAL 1", "zone_category": "Residential", "ev_permitted": false}, "geometry": {"type": "Polygon", "coordinates": [[[-122.417715753, 37.78585881], [-122.417442525, 37.7858942070001], [-122.41747976, 37.786083928], [-122.417753011, 37.7860486480001], [-122.417715753, 37.78585881]]]}}, {"type": "Feature", "properties": {"zone_id": "0202MI27GU962VR1IKQEF8", "tract_id": "06075012203", "city": "SAN FRANCISCO, CA", "zone_code": "NORTH OF MARKET RESIDENTIAL 2", "zone_category": "Residential", "ev_permitted": false}, "geometry": {"type": "Polygon", "coordinates": [[[-122.416963594, 37.7859075550001], [-122.416809904, 37.785927465], [-122.416856405, 37.786164408], [-122.41701011, 37.786144565], [-122.416963594, 37.7859075550001]]]}}, {"type": "Feature", "properties": {"zone_id": "0203DX1LNGVYW7SBOJ86F3", "tract_id": "06075012203", "city": "SAN FRANCISCO, CA", "zone_code": "NORTH OF MARKET RESIDENTIAL 2", "zone_category": "Residential", "ev_permitted": false}, "geometry": {"type": "Polygon", "coordinates": [[[-122.417124809, 37.785747536], [-122.416936966, 37.7857718710001], [-122.41701011, 37.786144565], [-122.41719797, 37.7861203100001], [-122.417124809, 37.785747536]]]}}, {"type": "Feature", "properties": {"zone_id": "0202IKZ59WXGWH3KFHW4D3", "tract_id": "06075012203", "city": "SAN FRANCISCO, CA", "zone_code": "WITHIN 1/4 MILE EXISTING FRINGE FINANCIAL SERVICE", "zone_category": "Other", "ev_permitted": false}, "geometry": {"type": "Polygon", "coordinates": [[[-122.416579367, 37.78595733], [-122.416496587, 37.785968053], [-122.41654349, 37.786204807], [-122.416625849, 37.786194175], [-122.416579367, 37.78595733]]]}}, {"type": "Feature", "properties": {"zone_id": "0204871EEO6EQS3HZKSMM6", "tract_id": "06075012203", "city": "SAN FRANCISCO, CA", "zone_code": "NORTH OF MARKET RESIDENTIAL 2", "zone_category": "Residential", "ev_permitted": false}, "geometry": {"type": "Polygon", "coordinates": [[[-122.416733059, 37.785937419], [-122.416579367, 37.78595733], [-122.416625849, 37.786194175], [-122.416779553, 37.7861743300001], [-122.416733059, 37.785937419]]]}}, {"type": "Feature", "properties": {"zone_id": "0202BD3TDRHUWPQ0I5YF8A", "tract_id": "06075012203", "city": "SAN FRANCISCO, CA", "zone_code": "WITHIN 1/4 MILE EXISTING FRINGE FINANCIAL SERVICE", "zone_category": "Other", "ev_permitted": false}, "geometry": {"type": "Polygon", "coordinates": [[[-122.416809904, 37.785927465], [-122.416733059, 37.785937419], [-122.416779553, 37.7861743300001], [-122.416856405, 37.786164408], [-122.416809904, 37.785927465]]]}}, {"type": "Feature", "properties": {"zone_id": "0200603C0D5E5ONB75LBZG", "tract_id": "06075012203", "city": "SAN FRANCISCO, CA", "zone_code": "WITHIN 1/4 MILE EXISTING FRINGE FINANCIAL SERVICE", "zone_category": "Other", "ev_permitted": false}, "geometry": {"type": "Polygon", "coordinates": [[[-122.417852882, 37.7855314710001], [-122.417540379, 37.7855719560001], [-122.41756368, 37.7856906810001], [-122.417406574, 37.785711034], [-122.417442525, 37.7858942070001], [-122.417715753, 37.78585881], [-122.417753011, 37.7860486480001], [-122.417949411, 37.7860232900001], [-122.417852882, 37.7855314710001]]]}}, {"type": "Feature", "properties": {"zone_id": "020205W7MMV15ENHD7T5H0", "tract_id": "06075012203", "city": "SAN FRANCISCO, CA", "zone_code": "PRIORITY EQUITY GEOGRAPHIES SUD", "zone_category": "Other", "ev_permitted": false}, "geometry": {"type": "Polygon", "coordinates": [[[-122.417826251, 37.785395786], [-122.41751375, 37.785436272], [-122.417540379, 37.7855719560001], [-122.417852882, 37.7855314710001], [-122.417826251, 37.785395786]]]}}, {"type": "Feature", "properties": {"zone_id": "0203K6I8CJKAE37CAMGRUB", "tract_id": "06075012203", "city": "SAN FRANCISCO, CA", "zone_code": "WITHIN 1/4 MILE EXISTING FRINGE FINANCIAL SERVICE", "zone_category": "Other", "ev_permitted": false}, "geometry": {"type": "Polygon", "coordinates": [[[-122.417333344, 37.785337901], [-122.41709854, 37.7853683210001], [-122.41717177, 37.785741452], [-122.417406574, 37.785711034], [-122.417333344, 37.785337901]]]}}, {"type": "Feature", "properties": {"zone_id": "0206HTFULO1NMSOLX8KJFB", "tract_id": "06075012203", "city": "SAN FRANCISCO, CA", "zone_code": "PRIORITY EQUITY GEOGRAPHIES SUD", "zone_category": "Other", "ev_permitted": false}, "geometry": {"type": "Polygon", "coordinates": [[[-122.417490447, 37.7853175480001], [-122.417333344, 37.785337901], [-122.417406574, 37.785711034], [-122.41756368, 37.7856906810001], [-122.417490447, 37.7853175480001]]]}}, {"type": "Feature", "properties": {"zone_id": "0207JIHK11RRNZEM8TQ180", "tract_id": "06075012203", "city": "SAN FRANCISCO, CA", "zone_code": "NORTH OF MARKET RESIDENTIAL 2", "zone_category": "Residential", "ev_permitted": false}, "geometry": {"type": "Polygon", "coordinates": [[[-122.416721338, 37.7856546400001], [-122.416678647, 37.7856601710001], [-122.41667847, 37.785659267], [-122.416441676, 37.7856908680001], [-122.416456278, 37.785764574], [-122.416735807, 37.785728363], [-122.416721338, 37.7856546400001]]]}}, {"type": "Feature", "properties": {"zone_id": "0205DQGAA4HL8BP42714AK", "tract_id": "06075012203", "city": "SAN FRANCISCO, CA", "zone_code": "NORTH OF MARKET RESIDENTIAL 2", "zone_category": "Residential", "ev_permitted": false}, "geometry": {"type": "Polygon", "coordinates": [[[-122.416923651, 37.785704029], [-122.416456278, 37.785764574], [-122.416476432, 37.785866314], [-122.416943623, 37.7858057920001], [-122.416923651, 37.785704029]]]}}, {"type": "Feature", "properties": {"zone_id": "0202RNQXJYITOYUW1QV7NC", "tract_id": "06075012203", "city": "SAN FRANCISCO, CA", "zone_code": "NORTH OF MARKET RESIDENTIAL 2", "zone_category": "Residential", "ev_permitted": false}, "geometry": {"type": "Polygon", "coordinates": [[[-122.416943623, 37.7858057920001], [-122.416476432, 37.785866314], [-122.416496587, 37.785968053], [-122.416963594, 37.7859075550001], [-122.416943623, 37.7858057920001]]]}}, {"type": "Feature", "properties": {"zone_id": "02005DURDKRXM3036Z2I4O", "tract_id": "06075012203", "city": "SAN FRANCISCO, CA", "zone_code": "NORTH OF MARKET RESIDENTIAL 2", "zone_category": "Residential", "ev_permitted": false}, "geometry": {"type": "Polygon", "coordinates": [[[-122.416933751, 37.785389669], [-122.416769815, 37.785410906], [-122.416829729, 37.7857161960001], [-122.416923651, 37.785704029], [-122.416936966, 37.7857718710001], [-122.417006979, 37.7857628], [-122.416933751, 37.785389669]]]}}, {"type": "Feature", "properties": {"zone_id": "0206HVC2WEWER0EW4JIPV3", "tract_id": "06075012203", "city": "SAN FRANCISCO, CA", "zone_code": "PRIORITY EQUITY GEOGRAPHIES SUD", "zone_category": "Other", "ev_permitted": false}, "geometry": {"type": "Polygon", "coordinates": [[[-122.41709854, 37.7853683210001], [-122.416933751, 37.785389669], [-122.417006979, 37.7857628], [-122.41717177, 37.785741452], [-122.41709854, 37.7853683210001]]]}}, {"type": "Feature", "properties": {"zone_id": "02046DWKVL3K5KALXRV0WQ", "tract_id": "06075012203", "city": "SAN FRANCISCO, CA", "zone_code": "RC-4", "zone_category": "Residential", "ev_permitted": false}, "geometry": {"type": "Polygon", "coordinates": [[[-122.416675893, 37.7854230730001], [-122.416581971, 37.78543524], [-122.416627239, 37.785665904], [-122.416721338, 37.7856546400001], [-122.416675893, 37.7854230730001]]]}}, {"type": "Feature", "properties": {"zone_id": "02033Z08CJ00MMIYMIJ1OB", "tract_id": "06075012203", "city": "SAN FRANCISCO, CA", "zone_code": "RC-4", "zone_category": "Residential", "ev_permitted": false}, "geometry": {"type": "Polygon", "coordinates": [[[-122.416769815, 37.785410906], [-122.416675893, 37.7854230730001], [-122.416735807, 37.785728363], [-122.416829729, 37.7857161960001], [-122.416769815, 37.785410906]]]}}, {"type": "Feature", "properties": {"zone_id": "0207AU04DEOUUK6Z1GLQ0G", "tract_id": "06075012203", "city": "SAN FRANCISCO, CA", "zone_code": "NORTH OF MARKET RESIDENTIAL 2", "zone_category": "Residential", "ev_permitted": false}, "geometry": {"type": "Polygon", "coordinates": [[[-122.41780295, 37.7852770630001], [-122.417490447, 37.7853175480001], [-122.41751375, 37.785436272], [-122.417826251, 37.785395786], [-122.41780295, 37.7852770630001]]]}}, {"type": "Feature", "properties": {"zone_id": "0206MG250AIOGHTTWM54OI", "tract_id": "06075012203", "city": "SAN FRANCISCO, CA", "zone_code": "NORTH OF MARKET RESIDENTIAL 1", "zone_category": "Residential", "ev_permitted": false}, "geometry": {"type": "Polygon", "coordinates": [[[-122.417717899, 37.784850057], [-122.417641034, 37.7848599170001], [-122.417692782, 37.7851009440001], [-122.417769626, 37.785090989], [-122.417717899, 37.784850057]]]}}, {"type": "Feature", "properties": {"zone_id": "0202T6G7F83728EZZZCMX3", "tract_id": "06075012203", "city": "SAN FRANCISCO, CA", "zone_code": "NORTH OF MARKET RESIDENTIAL 2", "zone_category": "Residential", "ev_permitted": false}, "geometry": {"type": "Polygon", "coordinates": [[[-122.417641034, 37.7848599170001], [-122.417562462, 37.7848699950001], [-122.41761423, 37.7851111210001], [-122.417692782, 37.7851009440001], [-122.417641034, 37.7848599170001]]]}}, {"type": "Feature", "properties": {"zone_id": "0204SDR0OPFEBWPV60KTX2", "tract_id": "06075012203", "city": "SAN FRANCISCO, CA", "zone_code": "PRIORITY EQUITY GEOGRAPHIES SUD", "zone_category": "Other", "ev_permitted": false}, "geometry": {"type": "Polygon", "coordinates": [[[-122.417377706, 37.78476155], [-122.417299134, 37.784771628], [-122.417378574, 37.7851416510001], [-122.417457126, 37.7851314750001], [-122.417377706, 37.78476155]]]}}, {"type": "Feature", "properties": {"zone_id": "0204C1XRYX9HLAHQCXAO51", "tract_id": "06075012203", "city": "SAN FRANCISCO, CA", "zone_code": "NORTH OF MARKET RESIDENTIAL 2", "zone_category": "Residential", "ev_permitted": false}, "geometry": {"type": "Polygon", "coordinates": [[[-122.417715719, 37.7848399050001], [-122.417403135, 37.7848799990001], [-122.417405316, 37.7848901520001], [-122.417717899, 37.784850057], [-122.417715719, 37.7848399050001]]]}}, {"type": "Feature", "properties": {"zone_id": "0202FUHLQUIM7O17MNAITL", "tract_id": "06075012203", "city": "SAN FRANCISCO, CA", "zone_code": "RC-4", "zone_category": "Residential", "ev_permitted": false}, "geometry": {"type": "Polygon", "coordinates": [[[-122.417299134, 37.784771628], [-122.417134872, 37.784792698], [-122.417214355, 37.7851629250001], [-122.417378574, 37.7851416510001], [-122.417299134, 37.784771628]]]}}, {"type": "Feature", "properties": {"zone_id": "02044AVVX30NU9KLP3ZDRF", "tract_id": "06075012203", "city": "SAN FRANCISCO, CA", "zone_code": "NORTH OF MARKET RESIDENTIAL 2", "zone_category": "Residential", "ev_permitted": false}, "geometry": {"type": "Polygon", "coordinates": [[[-122.417562462, 37.7848699950001], [-122.417405316, 37.7848901520001], [-122.417457126, 37.7851314750001], [-122.41761423, 37.7851111210001], [-122.417562462, 37.7848699950001]]]}}, {"type": "Feature", "properties": {"zone_id": "0204YK1FVXGO9F7ZAFIMPU", "tract_id": "06075012203", "city": "SAN FRANCISCO, CA", "zone_code": "NORTH OF MARKET RESIDENTIAL 2", "zone_category": "Residential", "ev_permitted": false}, "geometry": {"type": "Polygon", "coordinates": [[[-122.417134872, 37.784792698], [-122.416964345, 37.78481457], [-122.417043874, 37.7851850110001], [-122.417214355, 37.7851629250001], [-122.417134872, 37.784792698]]]}}, {"type": "Feature", "properties": {"zone_id": "0204ONGFHYXM84CSJT2E7E", "tract_id": "06075012203", "city": "SAN FRANCISCO, CA", "zone_code": "NORTH OF MARKET RESIDENTIAL 2", "zone_category": "Residential", "ev_permitted": false}, "geometry": {"type": "Polygon", "coordinates": [[[-122.416964345, 37.78481457], [-122.41687894, 37.784825525], [-122.416958491, 37.7851960730001], [-122.417043874, 37.7851850110001], [-122.416964345, 37.78481457]]]}}, {"type": "Feature", "properties": {"zone_id": "0207G6JATVOJ9HRVZA3UKF", "tract_id": "06075012203", "city": "SAN FRANCISCO, CA", "zone_code": "WITHIN 1/4 MILE EXISTING FRINGE FINANCIAL SERVICE", "zone_category": "Other", "ev_permitted": false}, "geometry": {"type": "Polygon", "coordinates": [[[-122.41687894, 37.784825525], [-122.416750832, 37.784841956], [-122.416830417, 37.785212664], [-122.416958491, 37.7851960730001], [-122.41687894, 37.784825525]]]}}, {"type": "Feature", "properties": {"zone_id": "0202LSFT8Z9FI8WARHP5B7", "tract_id": "06075012203", "city": "SAN FRANCISCO, CA", "zone_code": "NORTH OF MARKET RESIDENTIAL 2", "zone_category": "Residential", "ev_permitted": false}, "geometry": {"type": "Polygon", "coordinates": [[[-122.416750832, 37.784841956], [-122.416580021, 37.784863865], [-122.416659652, 37.785234786], [-122.416830417, 37.785212664], [-122.416750832, 37.784841956]]]}}, {"type": "Feature", "properties": {"zone_id": "0207JD818L661CAF2ABQ02", "tract_id": "06075012203", "city": "SAN FRANCISCO, CA", "zone_code": "NORTH OF MARKET RESIDENTIAL 2", "zone_category": "Residential", "ev_permitted": false}, "geometry": {"type": "Polygon", "coordinates": [[[-122.416581971, 37.78543524], [-122.416395813, 37.7854593550001], [-122.416441676, 37.7856908680001], [-122.416585306, 37.785672262], [-122.416585128, 37.785671359], [-122.416627239, 37.785665904], [-122.416581971, 37.78543524]]]}}, {"type": "Feature", "properties": {"zone_id": "0206KJN5ZWKCEQ0R2WBQ8X", "tract_id": "06075012203", "city": "SAN FRANCISCO, CA", "zone_code": "NORTH OF MARKET RESIDENTIAL 2", "zone_category": "Residential", "ev_permitted": false}, "geometry": {"type": "Polygon", "coordinates": [[[-122.416645121, 37.7851671020001], [-122.416347741, 37.7852056260001], [-122.416361489, 37.785273411], [-122.416659652, 37.785234786], [-122.416645121, 37.7851671020001]]]}}, {"type": "Feature", "properties": {"zone_id": "0204N6K9ZBEYZK5CDAZNVD", "tract_id": "06075012203", "city": "SAN FRANCISCO, CA", "zone_code": "PRIORITY EQUITY GEOGRAPHIES SUD", "zone_category": "Other", "ev_permitted": false}, "geometry": {"type": "Polygon", "coordinates": [[[-122.4166303, 37.7850980630001], [-122.416333718, 37.785136483], [-122.416347741, 37.7852056260001], [-122.416645121, 37.7851671020001], [-122.4166303, 37.7850980630001]]]}}, {"type": "Feature", "properties": {"zone_id": "0201EJFDVJCNODH4L2JFDB", "tract_id": "06075012203", "city": "SAN FRANCISCO, CA", "zone_code": "PRIORITY EQUITY GEOGRAPHIES SUD", "zone_category": "Other", "ev_permitted": false}, "geometry": {"type": "Polygon", "coordinates": [[[-122.416591067, 37.784915315], [-122.416296598, 37.784953461], [-122.416308972, 37.785014469], [-122.416604145, 37.7849762320001], [-122.416591067, 37.784915315]]]}}, {"type": "Feature", "properties": {"zone_id": "0204W8FP3IMAYNIAL8W5MO", "tract_id": "06075012203", "city": "SAN FRANCISCO, CA", "zone_code": "NORTH OF MARKET RESIDENTIAL 2", "zone_category": "Residential", "ev_permitted": false}, "geometry": {"type": "Polygon", "coordinates": [[[-122.416580021, 37.784863865], [-122.416286074, 37.7849015670001], [-122.416296598, 37.784953461], [-122.416591067, 37.784915315], [-122.416580021, 37.784863865]]]}}, {"type": "Feature", "properties": {"zone_id": "02022PWACHHJABVNTP9DEM", "tract_id": "06075012203", "city": "SAN FRANCISCO, CA", "zone_code": "NORTH OF MARKET RESIDENTIAL 2", "zone_category": "Residential", "ev_permitted": false}, "geometry": {"type": "Polygon", "coordinates": [[[-122.416604145, 37.7849762320001], [-122.416308972, 37.785014469], [-122.416333718, 37.785136483], [-122.4166303, 37.7850980630001], [-122.416604145, 37.7849762320001]]]}}, {"type": "Feature", "properties": {"zone_id": "0203LRACKRGUD0PLTD4ENH", "tract_id": "06075012203", "city": "SAN FRANCISCO, CA", "zone_code": "WITHIN 1/4 MILE EXISTING FRINGE FINANCIAL SERVICE", "zone_category": "Other", "ev_permitted": false}, "geometry": {"type": "Polygon", "coordinates": [[[-122.417375502, 37.7843793120001], [-122.417023207, 37.7844245000001], [-122.417103129, 37.784796769], [-122.417455425, 37.7847515810001], [-122.417375502, 37.7843793120001]]]}}, {"type": "Feature", "properties": {"zone_id": "02039DFISSJOZ6HPOPORNB", "tract_id": "06075012203", "city": "SAN FRANCISCO, CA", "zone_code": "PRIORITY EQUITY GEOGRAPHIES SUD", "zone_category": "Other", "ev_permitted": false}, "geometry": {"type": "Polygon", "coordinates": [[[-122.417675757, 37.78465377], [-122.417440893, 37.784683896], [-122.417455425, 37.7847515810001], [-122.417690289, 37.7847214550001], [-122.417675757, 37.78465377]]]}}, {"type": "Feature", "properties": {"zone_id": "0202W1HWDTR7SHVNTNSVIN", "tract_id": "06075012203", "city": "SAN FRANCISCO, CA", "zone_code": "NORTH OF MARKET RESIDENTIAL 2", "zone_category": "Residential", "ev_permitted": false}, "geometry": {"type": "Polygon", "coordinates": [[[-122.417690289, 37.7847214550001], [-122.417377706, 37.78476155], [-122.417403135, 37.7848799990001], [-122.417715719, 37.7848399050001], [-122.417690289, 37.7847214550001]]]}}, {"type": "Feature", "properties": {"zone_id": "0207CB3B1U59YCF4VU1NHE", "tract_id": "06075012203", "city": "SAN FRANCISCO, CA", "zone_code": "WITHIN 1/4 MILE EXISTING FRINGE FINANCIAL SERVICE", "zone_category": "Other", "ev_permitted": false}, "geometry": {"type": "Polygon", "coordinates": [[[-122.417661225, 37.7845860840001], [-122.417426362, 37.78461621], [-122.417440893, 37.784683896], [-122.417675757, 37.78465377], [-122.417661225, 37.7845860840001]]]}}, {"type": "Feature", "properties": {"zone_id": "0203OVMYSYRTSY111T6UBR", "tract_id": "06075012203", "city": "SAN FRANCISCO, CA", "zone_code": "PRIORITY EQUITY GEOGRAPHIES SUD", "zone_category": "Other", "ev_permitted": false}, "geometry": {"type": "Polygon", "coordinates": [[[-122.417646693, 37.784518399], [-122.417411829, 37.784548525], [-122.417426362, 37.78461621], [-122.417661225, 37.7845860840001], [-122.417646693, 37.784518399]]]}}, {"type": "Feature", "properties": {"zone_id": "0200PMNXGXI29GZAF4ORV6", "tract_id": "06075012203", "city": "SAN FRANCISCO, CA", "zone_code": "PRIORITY EQUITY GEOGRAPHIES SUD", "zone_category": "Other", "ev_permitted": false}, "geometry": {"type": "Polygon", "coordinates": [[[-122.417610364, 37.784349186], [-122.417375502, 37.7843793120001], [-122.417411829, 37.784548525], [-122.417646693, 37.784518399], [-122.417610364, 37.784349186]]]}}, {"type": "Feature", "properties": {"zone_id": "02032OOTM0WI2GZLKA6FS0", "tract_id": "06075012203", "city": "SAN FRANCISCO, CA", "zone_code": "PRIORITY EQUITY GEOGRAPHIES SUD", "zone_category": "Other", "ev_permitted": false}, "geometry": {"type": "Polygon", "coordinates": [[[-122.417023207, 37.7844245000001], [-122.416905775, 37.784439562], [-122.416985696, 37.7848118320001], [-122.417103129, 37.784796769], [-122.417023207, 37.7844245000001]]]}}, {"type": "Feature", "properties": {"zone_id": "02071TFG4BFT364XHE4XBC", "tract_id": "06075012203", "city": "SAN FRANCISCO, CA", "zone_code": "NORTH OF MARKET RESIDENTIAL 2", "zone_category": "Residential", "ev_permitted": false}, "geometry": {"type": "Polygon", "coordinates": [[[-122.416905775, 37.784439562], [-122.416788344, 37.7844546250001], [-122.416868265, 37.7848268930001], [-122.416985696, 37.7848118320001], [-122.416905775, 37.784439562]]]}}, {"type": "Feature", "properties": {"zone_id": "0200Z1YCKIY2L0VC7I3QQU", "tract_id": "06075012203", "city": "SAN FRANCISCO, CA", "zone_code": "NORTH OF MARKET RESIDENTIAL 2", "zone_category": "Residential", "ev_permitted": false}, "geometry": {"type": "Polygon", "coordinates": [[[-122.416670912, 37.7844696860001], [-122.416585508, 37.7844806410001], [-122.416636365, 37.784717539], [-122.41672177, 37.784706585], [-122.416670912, 37.7844696860001]]]}}, {"type": "Feature", "properties": {"zone_id": "0200VSZVX6DWVCI7F52ECV", "tract_id": "06075012203", "city": "SAN FRANCISCO, CA", "zone_code": "NORTH OF MARKET RESIDENTIAL 2", "zone_category": "Residential", "ev_permitted": false}, "geometry": {"type": "Polygon", "coordinates": [[[-122.416788344, 37.7844546250001], [-122.416670912, 37.7844696860001], [-122.416750832, 37.784841956], [-122.416868265, 37.7848268930001], [-122.416788344, 37.7844546250001]]]}}, {"type": "Feature", "properties": {"zone_id": "0206SRPTEC3Q7FEHMEL1XA", "tract_id": "06075012203", "city": "SAN FRANCISCO, CA", "zone_code": "NORTH OF MARKET RESIDENTIAL 2", "zone_category": "Residential", "ev_permitted": false}, "geometry": {"type": "Polygon", "coordinates": [[[-122.416585508, 37.7844806410001], [-122.416500103, 37.7844915950001], [-122.41655096, 37.784728493], [-122.416636365, 37.784717539], [-122.416585508, 37.7844806410001]]]}}, {"type": "Feature", "properties": {"zone_id": "0205IL1P945WOC3JT1B2UH", "tract_id": "06075012203", "city": "SAN FRANCISCO, CA", "zone_code": "NORTH OF MARKET RESIDENTIAL 2", "zone_category": "Residential", "ev_permitted": false}, "geometry": {"type": "Polygon", "coordinates": [[[-122.416500103, 37.7844915950001], [-122.416414698, 37.784502548], [-122.416465555, 37.784739448], [-122.41655096, 37.784728493], [-122.416500103, 37.7844915950001]]]}}, {"type": "Feature", "properties": {"zone_id": "02015PDF2HPP5FAOMBFEDS", "tract_id": "06075012203", "city": "SAN FRANCISCO, CA", "zone_code": "WITHIN 1/4 MILE EXISTING FRINGE FINANCIAL SERVICE", "zone_category": "Other", "ev_permitted": false}, "geometry": {"type": "Polygon", "coordinates": [[[-122.41672177, 37.784706585], [-122.416258578, 37.7847659940001], [-122.416286074, 37.7849015670001], [-122.416750832, 37.784841956], [-122.41672177, 37.784706585]]]}}, {"type": "Feature", "properties": {"zone_id": "0203MCG8NLMW6JRCGKRHOE", "tract_id": "06075012203", "city": "SAN FRANCISCO, CA", "zone_code": "NORTH OF MARKET RESIDENTIAL 2", "zone_category": "Residential", "ev_permitted": false}, "geometry": {"type": "Polygon", "coordinates": [[[-122.416451024, 37.7846717620001], [-122.41624483, 37.784698209], [-122.416258578, 37.7847659940001], [-122.416465555, 37.784739448], [-122.416451024, 37.7846717620001]]]}}, {"type": "Feature", "properties": {"zone_id": "0206ZVDLPFJLQIP8XDSFOM", "tract_id": "06075012203", "city": "SAN FRANCISCO, CA", "zone_code": "PRIORITY EQUITY GEOGRAPHIES SUD", "zone_category": "Other", "ev_permitted": false}, "geometry": {"type": "Polygon", "coordinates": [[[-122.416414698, 37.784502548], [-122.416210461, 37.7845287440001], [-122.41624483, 37.784698209], [-122.416451024, 37.7846717620001], [-122.416414698, 37.784502548]]]}}]}