{"type": "FeatureCollection", "features": [{"type": "Feature", "properties": {"zone_id": "0202JT835B2K2DDD42LFWH", "tract_id": "36061013601", "city": "NEW YORK, NY", "zone_code": "R10A", "zone_category": "Residential", "ev_permitted": false}, "geometry": {"type": "Polygon", "coordinates": [[[-73.9454898858517, 40.7731749692879], [-73.9454438972276, 40.7732380289114], [-73.9457240310541, 40.7733577000715], [-73.9457700176483, 40.7732946389311], [-73.9454898858517, 40.7731749692879]]]}}, {"type": "Feature", "properties": {"zone_id": "02071978N0G4UJMD2MCVID", "tract_id": "36061013601", "city": "NEW YORK, NY", "zone_code": "R10A", "zone_category": "Residential", "ev_permitted": false}, "geometry": {"type": "Polygon", "coordinates": [[[-73.9454438972276, 40.7732380289114], [-73.9453472431987, 40.7733705618092], [-73.9456301579567, 40.7734864191076], [-73.9457240310541, 40.7733577000715], [-73.9454438972276, 40.7732380289114]]]}}, {"type": "Feature", "properties": {"zone_id": "02018ED3EM4WCHPZOM1GDX", "tract_id": "36061013601", "city": "NEW YORK, NY", "zone_code": "R10A", "zone_category": "Residential", "ev_permitted": false}, "geometry": {"type": "Polygon", "coordinates": [[[-73.9453584610702, 40.772720584145], [-73.9451803158897, 40.7729648598203], [-73.9455331817561, 40.7731156022203], [-73.9454898858517, 40.7731749692879], [-73.9457700176483, 40.7732946389311], [-73.9459914578874, 40.7729909944131], [-73.9453584610702, 40.772720584145]]]}}, {"type": "Feature", "properties": {"zone_id": "0205FXDRZNQJD5LN2GKCPU", "tract_id": "36061013601", "city": "NEW YORK, NY", "zone_code": "R10A", "zone_category": "Residential", "ev_permitted": false}, "geometry": {"type": "Polygon", "coordinates": [[[-73.9450607472149, 40.7725934014738], [-73.9450186111016, 40.7726371833713], [-73.9449646976018, 40.7726848242209], [-73.944918528732, 40.7727320654246], [-73.9448750750377, 40.7727929920794], [-73.9448343852141, 40.7728322284341], [-73.9447979843391, 40.7728631530365], [-73.9447592917051, 40.7729046823757], [-73.944742622324, 40.7729150743527], [-73.9447159116541, 40.7729411629977], [-73.9446771006517, 40.7729882144034], [-73.9446508804655, 40.773026830872], [-73.9446372158233, 40.7730349961636], [-73.9446220682266, 40.7730459024935], [-73.9446029841186, 40.7730657727834], [-73.9449908750084, 40.7732246219163], [-73.9453584610702, 40.772720584145], [-73.9450607472149, 40.7725934014738]]]}}, {"type": "Feature", "properties": {"zone_id": "0203SGLPWFRB4Q9V0XCMEP", "tract_id": "36061013601", "city": "NEW YORK, NY", "zone_code": "R10A", "zone_category": "Residential", "ev_permitted": false}, "geometry": {"type": "Polygon", "coordinates": [[[-73.9452646835353, 40.7730009024716], [-73.9450760793662, 40.7732595155631], [-73.9453472431987, 40.7733705618092], [-73.9455331817561, 40.7731156022203], [-73.9452646835353, 40.7730009024716]]]}}, {"type": "Feature", "properties": {"zone_id": "0203G9I9M8LRP3BQ9I97HC", "tract_id": "36061013601", "city": "NEW YORK, NY", "zone_code": "R10A", "zone_category": "Residential", "ev_permitted": false}, "geometry": {"type": "Polygon", "coordinates": [[[-73.9451803158897, 40.7729648598203], [-73.9449908750084, 40.7732246219163], [-73.9450760793662, 40.7732595155631], [-73.9452646835353, 40.7730009024716], [-73.9451803158897, 40.7729648598203]]]}}, {"type": "Feature", "properties": {"zone_id": "0205WPWHG5WVP1LKICWHZY", "tract_id": "36061013601", "city": "NEW YORK, NY", "zone_code": "R10A", "zone_category": "Residential", "ev_permitted": false}, "geometry": {"type": "Polygon", "coordinates": [[[-73.9461384881191, 40.7722182564317], [-73.9459103494974, 40.7725376263114], [-73.945767203533, 40.7724578500442], [-73.9456267029247, 40.772654533052], [-73.9460919000703, 40.7728532602965], [-73.9464501535329, 40.7723517427989], [-73.9461384881191, 40.7722182564317]]]}}, {"type": "Feature", "properties": {"zone_id": "0205ZVLOKH21KKYR63JJAD", "tract_id": "36061013601", "city": "NEW YORK, NY", "zone_code": "R10A", "zone_category": "Residential", "ev_permitted": false}, "geometry": {"type": "Polygon", "coordinates": [[[-73.9457434578562, 40.7720490619083], [-73.945582555026, 40.7721554035686], [-73.9454290523819, 40.7722693954832], [-73.9459103494974, 40.7725376263114], [-73.9461384881191, 40.7722182564317], [-73.9457434578562, 40.7720490619083]]]}}, {"type": "Feature", "properties": {"zone_id": "02067HFPKGM6YRINIWN5T0", "tract_id": "36061013601", "city": "NEW YORK, NY", "zone_code": "R10A", "zone_category": "Residential", "ev_permitted": false}, "geometry": {"type": "Polygon", "coordinates": [[[-73.9454395720571, 40.7722752577824], [-73.9454231299468, 40.772293982731], [-73.9453193860622, 40.772371715853], [-73.9452558850547, 40.7724077571067], [-73.9451886231747, 40.7724673867131], [-73.9456267029247, 40.772654533052], [-73.945767203533, 40.7724578500442], [-73.9454395720571, 40.7722752577824]]]}}, {"type": "Feature", "properties": {"zone_id": "0200QU2CIL6EVQ9AIH2GLS", "tract_id": "36061013601", "city": "NEW YORK, NY", "zone_code": "R10A", "zone_category": "Residential", "ev_permitted": false}, "geometry": {"type": "Polygon", "coordinates": [[[-73.9453057943144, 40.7722126148305], [-73.9450694298397, 40.7724164678708], [-73.9451886231747, 40.7724673867131], [-73.9452558850547, 40.7724077571067], [-73.9453193860622, 40.772371715853], [-73.9454231299468, 40.772293982731], [-73.9454395720571, 40.7722752577824], [-73.9454290523819, 40.7722693954832], [-73.9453057943144, 40.7722126148305]]]}}, {"type": "Feature", "properties": {"zone_id": "02036KM1VCDSIW7YNWA4KC", "tract_id": "36061013601", "city": "NEW YORK, NY", "zone_code": "R10A", "zone_category": "Residential", "ev_permitted": false}, "geometry": {"type": "Polygon", "coordinates": [[[-73.9450494327363, 40.7725885674456], [-73.9448231491076, 40.7727997070751], [-73.9446408128185, 40.7730030440363], [-73.9445928437673, 40.7730616194434], [-73.9446029841186, 40.7730657727834], [-73.9446220682266, 40.7730459024935], [-73.9446372158233, 40.7730349961636], [-73.9446508804655, 40.773026830872], [-73.9446771006517, 40.7729882144034], [-73.9447159116541, 40.7729411629977], [-73.944742622324, 40.7729150743527], [-73.9447592917051, 40.7729046823757], [-73.9447979843391, 40.7728631530365], [-73.9448343852141, 40.7728322284341], [-73.9448750750377, 40.7727929920794], [-73.944918528732, 40.7727320654246], [-73.9449646976018, 40.7726848242209], [-73.9450186111016, 40.7726371833713], [-73.9450607472149, 40.7725934014738], [-73.9450494327363, 40.7725885674456]]]}}, {"type": "Feature", "properties": {"zone_id": "02036JRVXNQCJ5T784SCQ0", "tract_id": "36061013601", "city": "NEW YORK, NY", "zone_code": "R10A", "zone_category": "Residential", "ev_permitted": false}, "geometry": {"type": "Polygon", "coordinates": [[[-73.9450662960993, 40.7724151290521], [-73.9442743055853, 40.773121009362], [-73.9442774343008, 40.7731222988384], [-73.9450694298397, 40.7724164678708], [-73.9450662960993, 40.7724151290521]]]}}, {"type": "Feature", "properties": {"zone_id": "02069Q5I3FMH6SCDOBE5UA", "tract_id": "36061013601", "city": "NEW YORK, NY", "zone_code": "R10A", "zone_category": "Residential", "ev_permitted": false}, "geometry": {"type": "Polygon", "coordinates": [[[-73.9475115931777, 40.7701277145196], [-73.9465110032512, 40.7711872122927], [-73.9464377069347, 40.7712576238088], [-73.9456467577551, 40.7719153189817], [-73.9456562991386, 40.7719194057221], [-73.9464418933823, 40.7712574950612], [-73.9465281922441, 40.7711745505527], [-73.9475139050769, 40.7701289471486], [-73.9475115931777, 40.7701277145196]]]}}, {"type": "Feature", "properties": {"zone_id": "0200K441H0CPLQZEM75AQS", "tract_id": "36061013601", "city": "NEW YORK, NY", "zone_code": "R10A", "zone_category": "Residential", "ev_permitted": false}, "geometry": {"type": "Polygon", "coordinates": [[[-73.9465115776203, 40.7715451443435], [-73.9463351952356, 40.7716732375343], [-73.9462198005142, 40.7717497862915], [-73.946738302587, 40.7719743112529], [-73.9469221324751, 40.7717222735443], [-73.9465115776203, 40.7715451443435]]]}}, {"type": "Feature", "properties": {"zone_id": "02060OO7EG9Q9SQ29IUS0S", "tract_id": "36061013601", "city": "NEW YORK, NY", "zone_code": "R10A", "zone_category": "Residential", "ev_permitted": false}, "geometry": {"type": "Polygon", "coordinates": [[[-73.9462198005142, 40.7717497862915], [-73.9459078261599, 40.7719381038115], [-73.9465596074867, 40.7722193083475], [-73.946738302587, 40.7719743112529], [-73.9462198005142, 40.7717497862915]]]}}, {"type": "Feature", "properties": {"zone_id": "0203JT5WCYOH34N10V2R54", "tract_id": "36061013601", "city": "NEW YORK, NY", "zone_code": "R10A", "zone_category": "Residential", "ev_permitted": false}, "geometry": {"type": "Polygon", "coordinates": [[[-73.9469770618925, 40.7712363683914], [-73.9467604403966, 40.7714688678357], [-73.9470223840581, 40.7715822956349], [-73.9472040945455, 40.7713346782856], [-73.9469770618925, 40.7712363683914]]]}}, {"type": "Feature", "properties": {"zone_id": "0205HUV10C06E821641QXF", "tract_id": "36061013601", "city": "NEW YORK, NY", "zone_code": "R10A", "zone_category": "Residential", "ev_permitted": false}, "geometry": {"type": "Polygon", "coordinates": [[[-73.9477494972719, 40.7704030223184], [-73.9473142387697, 40.7708747999202], [-73.9474852081258, 40.7709488336439], [-73.947850648368, 40.7704468223734], [-73.9477494972719, 40.7704030223184]]]}}, {"type": "Feature", "properties": {"zone_id": "0205D24OXOFWW69C2I99KX", "tract_id": "36061013601", "city": "NEW YORK, NY", "zone_code": "R10A", "zone_category": "Residential", "ev_permitted": false}, "geometry": {"type": "Polygon", "coordinates": [[[-73.9471949399079, 40.7710025179059], [-73.9469770618925, 40.7712363683914], [-73.9472040945455, 40.7713346782856], [-73.9473868584476, 40.7710856234934], [-73.9471949399079, 40.7710025179059]]]}}, {"type": "Feature", "properties": {"zone_id": "0207CUDNVYLQ0Q2VXP4TUX", "tract_id": "36061013601", "city": "NEW YORK, NY", "zone_code": "R10A", "zone_category": "Residential", "ev_permitted": false}, "geometry": {"type": "Polygon", "coordinates": [[[-73.9456467577551, 40.7719153189817], [-73.9450662614519, 40.7724151142798], [-73.9450694298397, 40.7724164678708], [-73.9453057943144, 40.7722126148305], [-73.9456562991386, 40.7719194057221], [-73.9456467577551, 40.7719153189817]]]}}]}