{"type": "FeatureCollection", "features": [{"type": "Feature", "properties": {"zone_id": "0204LUHK3P5KJWCVXGHGCX", "tract_id": "36061004001", "city": "NEW YORK, NY", "zone_code": "TA", "zone_category": "Other", "ev_permitted": false}, "geometry": {"type": "Polygon", "coordinates": [[[-73.9847703769082, 40.7314572222599], [-73.9845807532736, 40.7317158802867], [-73.9850874324476, 40.7319287355124], [-73.9852756610017, 40.7316694904644], [-73.9847703769082, 40.7314572222599]]]}}, {"type": "Feature", "properties": {"zone_id": "0200MAJSPFVNMOILXOMP48", "tract_id": "36061004001", "city": "NEW YORK, NY", "zone_code": "TA", "zone_category": "Other", "ev_permitted": false}, "geometry": {"type": "Polygon", "coordinates": [[[-73.9848851081839, 40.7320027108816], [-73.9847888235265, 40.7321344913963], [-73.9849029676721, 40.7321827937218], [-73.9849989871773, 40.7320505493242], [-73.9848851081839, 40.7320027108816]]]}}, {"type": "Feature", "properties": {"zone_id": "0202KUE7T9QXTEA4ZM93RA", "tract_id": "36061004001", "city": "NEW YORK, NY", "zone_code": "R7A", "zone_category": "Residential", "ev_permitted": false}, "geometry": {"type": "Polygon", "coordinates": [[[-73.9845797335789, 40.7308773929114], [-73.9843934358105, 40.7311334006724], [-73.9853672412086, 40.7315433583009], [-73.9855527733152, 40.7312878231768], [-73.9845797335789, 40.7308773929114]]]}}, {"type": "Feature", "properties": {"zone_id": "0202LLN3ZEPV8I25VDWIO4", "tract_id": "36061004001", "city": "NEW YORK, NY", "zone_code": "R7A", "zone_category": "Residential", "ev_permitted": false}, "geometry": {"type": "Polygon", "coordinates": [[[-73.9852286904711, 40.7309858642805], [-73.9851366747191, 40.7311123138884], [-73.9855527733152, 40.7312878231768], [-73.9856446296606, 40.73116130717], [-73.9852286904711, 40.7309858642805]]]}}, {"type": "Feature", "properties": {"zone_id": "020318LBXPYT69SX5DV22K", "tract_id": "36061004001", "city": "NEW YORK, NY", "zone_code": "R8B", "zone_category": "Residential", "ev_permitted": false}, "geometry": {"type": "Polygon", "coordinates": [[[-73.9853962071801, 40.730885792115], [-73.9853011474313, 40.7310164243888], [-73.9856446296606, 40.73116130717], [-73.9857395273137, 40.7310306036269], [-73.9853962071801, 40.730885792115]]]}}, {"type": "Feature", "properties": {"zone_id": "0202B2TBLHZM28SWT8S38B", "tract_id": "36061004001", "city": "NEW YORK, NY", "zone_code": "R7A", "zone_category": "Residential", "ev_permitted": false}, "geometry": {"type": "Polygon", "coordinates": [[[-73.9856303244597, 40.7305493168699], [-73.9855944780007, 40.7305985377532], [-73.9859244594107, 40.7307378810788], [-73.9859603066248, 40.7306886593912], [-73.9856303244597, 40.7305493168699]]]}}, {"type": "Feature", "properties": {"zone_id": "0201ET6606Y095PU18OVD8", "tract_id": "36061004001", "city": "NEW YORK, NY", "zone_code": "R7A", "zone_category": "Residential", "ev_permitted": false}, "geometry": {"type": "Polygon", "coordinates": [[[-73.9855944780007, 40.7305985377532], [-73.9855574091015, 40.7306494350121], [-73.9858873916098, 40.7307887784431], [-73.9859244594107, 40.7307378810788], [-73.9855944780007, 40.7305985377532]]]}}, {"type": "Feature", "properties": {"zone_id": "02052S4S8J1K4EIWF0JDNK", "tract_id": "36061004001", "city": "NEW YORK, NY", "zone_code": "R7A", "zone_category": "Residential", "ev_permitted": false}, "geometry": {"type": "Polygon", "coordinates": [[[-73.9855574091015, 40.7306494350121], [-73.9854797388559, 40.7307560815991], [-73.9858097254258, 40.7308954196298], [-73.9858873916098, 40.7307887784431], [-73.9855574091015, 40.7306494350121]]]}}, {"type": "Feature", "properties": {"zone_id": "020426049RZCP0WH6ZAZX4", "tract_id": "36061004001", "city": "NEW YORK, NY", "zone_code": "R8B", "zone_category": "Residential", "ev_permitted": false}, "geometry": {"type": "Polygon", "coordinates": [[[-73.9855980951707, 40.7304700643381], [-73.9854109506142, 40.7307270264564], [-73.9854797388559, 40.7307560815991], [-73.9856668869248, 40.7304991130466], [-73.9855980951707, 40.7304700643381]]]}}, {"type": "Feature", "properties": {"zone_id": "0205MCG72QKRO6637ZAZQ7", "tract_id": "36061004001", "city": "NEW YORK, NY", "zone_code": "R8B", "zone_category": "Residential", "ev_permitted": false}, "geometry": {"type": "Polygon", "coordinates": [[[-73.9851994051863, 40.7308027810518], [-73.9850123283304, 40.7310598647818], [-73.9851366747191, 40.7311123138884], [-73.9853237512425, 40.7308552299582], [-73.9851994051863, 40.7308027810518]]]}}, {"type": "Feature", "properties": {"zone_id": "0206OSQCAQ608CADCTANY9", "tract_id": "36061004001", "city": "NEW YORK, NY", "zone_code": "R8B", "zone_category": "Residential", "ev_permitted": false}, "geometry": {"type": "Polygon", "coordinates": [[[-73.9851354520096, 40.7307758055289], [-73.9849483749828, 40.7310328884534], [-73.9850123283304, 40.7310598647818], [-73.9851994051863, 40.7308027810518], [-73.9851354520096, 40.7307758055289]]]}}, {"type": "Feature", "properties": {"zone_id": "0206R93M96L5XR1Z945H9F", "tract_id": "36061004001", "city": "NEW YORK, NY", "zone_code": "R8B", "zone_category": "Residential", "ev_permitted": false}, "geometry": {"type": "Polygon", "coordinates": [[[-73.9853237512425, 40.7308552299582], [-73.9852286904711, 40.7309858642805], [-73.9853011474313, 40.7310164243888], [-73.9853962071801, 40.730885792115], [-73.9853237512425, 40.7308552299582]]]}}, {"type": "Feature", "properties": {"zone_id": "0202CDGLV44R2EZHZD8L8K", "tract_id": "36061004001", "city": "NEW YORK, NY", "zone_code": "R8B", "zone_category": "Residential", "ev_permitted": false}, "geometry": {"type": "Polygon", "coordinates": [[[-73.9849761585442, 40.7307086150322], [-73.9847890810914, 40.7309656977003], [-73.9849483749828, 40.7310328884534], [-73.9851354520096, 40.7307758055289], [-73.9849761585442, 40.7307086150322]]]}}, {"type": "Feature", "properties": {"zone_id": "0207731P9LN960D3TPYCG2", "tract_id": "36061004001", "city": "NEW YORK, NY", "zone_code": "R8B", "zone_category": "Residential", "ev_permitted": false}, "geometry": {"type": "Polygon", "coordinates": [[[-73.9848191799103, 40.7306424006107], [-73.9846321020379, 40.7308994830261], [-73.9847890810914, 40.7309656977003], [-73.9849761585442, 40.7307086150322], [-73.9848191799103, 40.7306424006107]]]}}, {"type": "Feature", "properties": {"zone_id": "02028SNY857EFHHP60Q3Q6", "tract_id": "36061004001", "city": "NEW YORK, NY", "zone_code": "TA", "zone_category": "Other", "ev_permitted": false}, "geometry": {"type": "Polygon", "coordinates": [[[-73.9843646437761, 40.7316250931278], [-73.984180055697, 40.7318768791853], [-73.9847888235265, 40.7321344913963], [-73.9848851081839, 40.7320027108816], [-73.9849989871773, 40.7320505493242], [-73.9850874324476, 40.7319287355124], [-73.9843646437761, 40.7316250931278]]]}}, {"type": "Feature", "properties": {"zone_id": "0202IOZ2ON9SS0H3MHDXA2", "tract_id": "36061004001", "city": "NEW YORK, NY", "zone_code": "C1-6A", "zone_category": "Commercial", "ev_permitted": true}, "geometry": {"type": "Polygon", "coordinates": [[[-73.9842932616232, 40.7315951045425], [-73.984108794401, 40.7318467239735], [-73.984180055697, 40.7318768791853], [-73.9843646437761, 40.7316250931278], [-73.9842932616232, 40.7315951045425]]]}}, {"type": "Feature", "properties": {"zone_id": "0206UCU7CGAY3BOPKN9VFW", "tract_id": "36061004001", "city": "NEW YORK, NY", "zone_code": "R7A", "zone_category": "Residential", "ev_permitted": false}, "geometry": {"type": "Polygon", "coordinates": [[[-73.9859707301368, 40.7299261312741], [-73.9858598783169, 40.7300777778806], [-73.9862769393163, 40.730253891792], [-73.9863874764597, 40.7301021119483], [-73.9859707301368, 40.7299261312741]]]}}, {"type": "Feature", "properties": {"zone_id": "0202L8D5XINZ350NCYINQP", "tract_id": "36061004001", "city": "NEW YORK, NY", "zone_code": "R7A", "zone_category": "Residential", "ev_permitted": false}, "geometry": {"type": "Polygon", "coordinates": [[[-73.9862838534925, 40.7297264301985], [-73.9862397351247, 40.7297870045436], [-73.9861999934412, 40.7297696378257], [-73.9860589056969, 40.7299633659614], [-73.9863874764597, 40.7301021119483], [-73.9865723528132, 40.7298482558108], [-73.9862838534925, 40.7297264301985]]]}}, {"type": "Feature", "properties": {"zone_id": "02005ORGBQZXZ5QUDEPPSH", "tract_id": "36061004001", "city": "NEW YORK, NY", "zone_code": "R7A", "zone_category": "Residential", "ev_permitted": false}, "geometry": {"type": "Polygon", "coordinates": [[[-73.9862814172867, 40.729639149317], [-73.9862333759866, 40.729705115386], [-73.9865723528132, 40.7298482558108], [-73.9866203920337, 40.7297822896014], [-73.9862814172867, 40.729639149317]]]}}, {"type": "Feature", "properties": {"zone_id": "0201U9DJWRM9JD20DU01LP", "tract_id": "36061004001", "city": "NEW YORK, NY", "zone_code": "R7A", "zone_category": "Residential", "ev_permitted": false}, "geometry": {"type": "Polygon", "coordinates": [[[-73.9861354184901, 40.7295774975317], [-73.9859598729393, 40.7298185418602], [-73.9860277858507, 40.7298472192455], [-73.9859707301368, 40.7299261312741], [-73.9860589056969, 40.7299633659614], [-73.9861999934412, 40.7297696378257], [-73.9862397351247, 40.7297870045436], [-73.9862838534925, 40.7297264301985], [-73.9862333759866, 40.729705115386], [-73.9862814172867, 40.729639149317], [-73.9861354184901, 40.7295774975317]]]}}, {"type": "Feature", "properties": {"zone_id": "0205QXJBUQOWI4NOL33L8N", "tract_id": "36061004001", "city": "NEW YORK, NY", "zone_code": "R7A", "zone_category": "Residential", "ev_permitted": false}, "geometry": {"type": "Polygon", "coordinates": [[[-73.9858483032732, 40.7302500132393], [-73.9858018604478, 40.7303137828123], [-73.9861318418051, 40.7304531255492], [-73.9861782871836, 40.7303893523313], [-73.9858483032732, 40.7302500132393]]]}}, {"type": "Feature", "properties": {"zone_id": "0200N0AJDHRQSQZ61GSJXG", "tract_id": "36061004001", "city": "NEW YORK, NY", "zone_code": "R7A", "zone_category": "Residential", "ev_permitted": false}, "geometry": {"type": "Polygon", "coordinates": [[[-73.9858018604478, 40.7303137828123], [-73.9857583418152, 40.7303735377437], [-73.9860883233773, 40.7305128806041], [-73.9861318418051, 40.7304531255492], [-73.9858018604478, 40.7303137828123]]]}}, {"type": "Feature", "properties": {"zone_id": "0203Q573FZEI34EBS03TQ5", "tract_id": "36061004001", "city": "NEW YORK, NY", "zone_code": "R7A", "zone_category": "Residential", "ev_permitted": false}, "geometry": {"type": "Polygon", "coordinates": [[[-73.9857583418152, 40.7303735377437], [-73.985713730077, 40.7304347941012], [-73.9860437118493, 40.7305741370884], [-73.9860883233773, 40.7305128806041], [-73.9857583418152, 40.7303735377437]]]}}, {"type": "Feature", "properties": {"zone_id": "0206BVRNKQY1JV0B26MWBI", "tract_id": "36061004001", "city": "NEW YORK, NY", "zone_code": "R7A", "zone_category": "Residential", "ev_permitted": false}, "geometry": {"type": "Polygon", "coordinates": [[[-73.985713730077, 40.7304347941012], [-73.9856668869248, 40.7304991130466], [-73.9859968689176, 40.7306384561667], [-73.9860437118493, 40.7305741370884], [-73.985713730077, 40.7304347941012]]]}}, {"type": "Feature", "properties": {"zone_id": "0204845FOXBXM8QCQPH5AG", "tract_id": "36061004001", "city": "NEW YORK, NY", "zone_code": "R7A", "zone_category": "Residential", "ev_permitted": false}, "geometry": {"type": "Polygon", "coordinates": [[[-73.9856668869248, 40.7304991130466], [-73.9856303244597, 40.7305493168699], [-73.9859603066248, 40.7306886593912], [-73.9859968689176, 40.7306384561667], [-73.9856668869248, 40.7304991130466]]]}}, {"type": "Feature", "properties": {"zone_id": "02030U66NSMZJBN3WLJCLP", "tract_id": "36061004001", "city": "NEW YORK, NY", "zone_code": "R8B", "zone_category": "Residential", "ev_permitted": false}, "geometry": {"type": "Polygon", "coordinates": [[[-73.9855012972437, 40.7301034751425], [-73.9853198772251, 40.7303525786237], [-73.9850054964496, 40.7302198201926], [-73.9848540412203, 40.7302323048614], [-73.9848771199013, 40.7305015999207], [-73.9854109506142, 40.7307270264564], [-73.9855980951707, 40.7304700643381], [-73.9856668869248, 40.7304991130466], [-73.9858483032732, 40.7302500132393], [-73.9855012972437, 40.7301034751425]]]}}, {"type": "Feature", "properties": {"zone_id": "0204XJ1QISJN9LXGF4CO36", "tract_id": "36061004001", "city": "NEW YORK, NY", "zone_code": "R8B", "zone_category": "Residential", "ev_permitted": false}, "geometry": {"type": "Polygon", "coordinates": [[[-73.9852456856398, 40.7299955355797], [-73.9850642658834, 40.7302446379593], [-73.9853198772251, 40.7303525786237], [-73.9855012972437, 40.7301034751425], [-73.9852456856398, 40.7299955355797]]]}}, {"type": "Feature", "properties": {"zone_id": "020734C1ODO46TIRJ274AW", "tract_id": "36061004001", "city": "NEW YORK, NY", "zone_code": "R8B", "zone_category": "Residential", "ev_permitted": false}, "geometry": {"type": "Polygon", "coordinates": [[[-73.985934232441, 40.7298077142936], [-73.9857662766569, 40.7300382517079], [-73.9858598783169, 40.7300777778806], [-73.9860277858507, 40.7298472192455], [-73.985934232441, 40.7298077142936]]]}}, {"type": "Feature", "properties": {"zone_id": "020579T3ZATLGZ8IJE84HQ", "tract_id": "36061004001", "city": "NEW YORK, NY", "zone_code": "R8B", "zone_category": "Residential", "ev_permitted": false}, "geometry": {"type": "Polygon", "coordinates": [[[-73.9858415436145, 40.7297685733483], [-73.985673634711, 40.7299991310115], [-73.9857662766569, 40.7300382517079], [-73.985934232441, 40.7298077142936], [-73.9858415436145, 40.7297685733483]]]}}, {"type": "Feature", "properties": {"zone_id": "02076QJ7IYF3FLK7B18YOA", "tract_id": "36061004001", "city": "NEW YORK, NY", "zone_code": "R8B", "zone_category": "Residential", "ev_permitted": false}, "geometry": {"type": "Polygon", "coordinates": [[[-73.9856847104297, 40.7297023460628], [-73.9855168011505, 40.7299329034994], [-73.985673634711, 40.7299991310115], [-73.9858415436145, 40.7297685733483], [-73.9856847104297, 40.7297023460628]]]}}, {"type": "Feature", "properties": {"zone_id": "0203AFT5GLJ1UTD75RNW4Y", "tract_id": "36061004001", "city": "NEW YORK, NY", "zone_code": "R8B", "zone_category": "Residential", "ev_permitted": false}, "geometry": {"type": "Polygon", "coordinates": [[[-73.986056199347, 40.7295440449855], [-73.985880653598, 40.7297850884917], [-73.9859598729393, 40.7298185418602], [-73.9861354184901, 40.7295774975317], [-73.986056199347, 40.7295440449855]]]}}, {"type": "Feature", "properties": {"zone_id": "0207JTHQHQ1HNFBXKFWL49", "tract_id": "36061004001", "city": "NEW YORK, NY", "zone_code": "R8B", "zone_category": "Residential", "ev_permitted": false}, "geometry": {"type": "Polygon", "coordinates": [[[-73.9859787526307, 40.7295113409307], [-73.9858032066876, 40.7297523843199], [-73.985880653598, 40.7297850884917], [-73.986056199347, 40.7295440449855], [-73.9859787526307, 40.7295113409307]]]}}, {"type": "Feature", "properties": {"zone_id": "020346XHU9LB6T2QQ7OQ4G", "tract_id": "36061004001", "city": "NEW YORK, NY", "zone_code": "R8B", "zone_category": "Residential", "ev_permitted": false}, "geometry": {"type": "Polygon", "coordinates": [[[-73.9858992353293, 40.7294777624643], [-73.9857236891871, 40.7297188057334], [-73.9858032066876, 40.7297523843199], [-73.9859787526307, 40.7295113409307], [-73.9858992353293, 40.7294777624643]]]}}, {"type": "Feature", "properties": {"zone_id": "02060DBFC3BOTFF2SBHMKU", "tract_id": "36061004001", "city": "NEW YORK, NY", "zone_code": "R8B", "zone_category": "Residential", "ev_permitted": false}, "geometry": {"type": "Polygon", "coordinates": [[[-73.9858189533867, 40.7294438606262], [-73.9856434070434, 40.7296849037741], [-73.9857236891871, 40.7297188057334], [-73.9858992353293, 40.7294777624643], [-73.9858189533867, 40.7294438606262]]]}}, {"type": "Feature", "properties": {"zone_id": "0200AXVWSDU7IJ4ZCN41FG", "tract_id": "36061004001", "city": "NEW YORK, NY", "zone_code": "R8B", "zone_category": "Residential", "ev_permitted": false}, "geometry": {"type": "Polygon", "coordinates": [[[-73.9855664332377, 40.7296524004616], [-73.9853985245989, 40.7298829570247], [-73.9855168011505, 40.7299329034994], [-73.9856847104297, 40.7297023460628], [-73.9855664332377, 40.7296524004616]]]}}, {"type": "Feature", "properties": {"zone_id": "02044K5D6BBCED6W5HY9BV", "tract_id": "36061004001", "city": "NEW YORK, NY", "zone_code": "R8B", "zone_category": "Residential", "ev_permitted": false}, "geometry": {"type": "Polygon", "coordinates": [[[-73.9854854244006, 40.7296181828075], [-73.9853173807232, 40.7298486914557], [-73.9853985245989, 40.7298829570247], [-73.9855664332377, 40.7296524004616], [-73.9854854244006, 40.7296181828075]]]}}, {"type": "Feature", "properties": {"zone_id": "020204YRYQ9HI5P0MN4BVL", "tract_id": "36061004001", "city": "NEW YORK, NY", "zone_code": "R8B", "zone_category": "Residential", "ev_permitted": false}, "geometry": {"type": "Polygon", "coordinates": [[[-73.9854071318815, 40.7295851255279], [-73.9852392219367, 40.7298156853741], [-73.9853173807232, 40.7298486914557], [-73.9854854244006, 40.7296181828075], [-73.9854071318815, 40.7295851255279]]]}}, {"type": "Feature", "properties": {"zone_id": "0200MAUDR2I7RNSQADYZ52", "tract_id": "36061004001", "city": "NEW YORK, NY", "zone_code": "R8B", "zone_category": "Residential", "ev_permitted": false}, "geometry": {"type": "Polygon", "coordinates": [[[-73.9853281208996, 40.7295517596367], [-73.9851602089179, 40.7297823200712], [-73.9852392219367, 40.7298156853741], [-73.9854071318815, 40.7295851255279], [-73.9853281208996, 40.7295517596367]]]}}, {"type": "Feature", "properties": {"zone_id": "0201C0DCT7OOAN9S2W8165", "tract_id": "36061004001", "city": "NEW YORK, NY", "zone_code": "R8B", "zone_category": "Residential", "ev_permitted": false}, "geometry": {"type": "Polygon", "coordinates": [[[-73.9852475620856, 40.7295177421295], [-73.985079650835, 40.7297483010424], [-73.9851602089179, 40.7297823200712], [-73.9853281208996, 40.7295517596367], [-73.9852475620856, 40.7295177421295]]]}}, {"type": "Feature", "properties": {"zone_id": "0205UHXTE9IKRF36CDMU2T", "tract_id": "36061004001", "city": "NEW YORK, NY", "zone_code": "R8B", "zone_category": "Residential", "ev_permitted": false}, "geometry": {"type": "Polygon", "coordinates": [[[-73.9851708315663, 40.729485339063], [-73.9850029201317, 40.7297158985676], [-73.985079650835, 40.7297483010424], [-73.9852475620856, 40.7295177421295], [-73.9851708315663, 40.729485339063]]]}}, {"type": "Feature", "properties": {"zone_id": "0204EA5GTHS2Y7VN440TKR", "tract_id": "36061004001", "city": "NEW YORK, NY", "zone_code": "R8B", "zone_category": "Residential", "ev_permitted": false}, "geometry": {"type": "Polygon", "coordinates": [[[-73.9850916314881, 40.7294518956924], [-73.9849237207877, 40.7296824536774], [-73.9850029201317, 40.7297158985676], [-73.9851708315663, 40.729485339063], [-73.9850916314881, 40.7294518956924]]]}}, {"type": "Feature", "properties": {"zone_id": "0205RKG7S6S6WDGZEX6NZS", "tract_id": "36061004001", "city": "NEW YORK, NY", "zone_code": "R7A", "zone_category": "Residential", "ev_permitted": false}, "geometry": {"type": "Polygon", "coordinates": [[[-73.9866468949197, 40.7290208038321], [-73.9865077475058, 40.7292118753117], [-73.986917446719, 40.72938436316], [-73.9870565933184, 40.7291932911898], [-73.9866468949197, 40.7290208038321]]]}}, {"type": "Feature", "properties": {"zone_id": "0201JR819Q397ZYCIAKP4M", "tract_id": "36061004001", "city": "NEW YORK, NY", "zone_code": "R7A", "zone_category": "Residential", "ev_permitted": false}, "geometry": {"type": "Polygon", "coordinates": [[[-73.9864298642599, 40.7293188211648], [-73.9863125053581, 40.7294799722995], [-73.9867222057143, 40.7296524608361], [-73.9868395639291, 40.7294913092876], [-73.9864298642599, 40.7293188211648]]]}}, {"type": "Feature", "properties": {"zone_id": "0204C3TLQV5AR7NK5NZEWU", "tract_id": "36061004001", "city": "NEW YORK, NY", "zone_code": "R7A", "zone_category": "Residential", "ev_permitted": false}, "geometry": {"type": "Polygon", "coordinates": [[[-73.9865077475058, 40.7292118753117], [-73.9864298642599, 40.7293188211648], [-73.9868395639291, 40.7294913092876], [-73.986917446719, 40.72938436316], [-73.9865077475058, 40.7292118753117]]]}}, {"type": "Feature", "properties": {"zone_id": "0204P1NC70XNPTT7I27U0A", "tract_id": "36061004001", "city": "NEW YORK, NY", "zone_code": "R8B", "zone_category": "Residential", "ev_permitted": false}, "geometry": {"type": "Polygon", "coordinates": [[[-73.9863994205418, 40.7292190261606], [-73.9862335845376, 40.7294467454634], [-73.9863125053581, 40.7294799722995], [-73.9864783402518, 40.7292522521813], [-73.9863994205418, 40.7292190261606]]]}}, {"type": "Feature", "properties": {"zone_id": "0206PXX3WXY367IU9D97S6", "tract_id": "36061004001", "city": "NEW YORK, NY", "zone_code": "R8B", "zone_category": "Residential", "ev_permitted": false}, "geometry": {"type": "Polygon", "coordinates": [[[-73.986320499987, 40.729185799383], [-73.9861546637959, 40.7294135178705], [-73.9862335845376, 40.7294467454634], [-73.9863994205418, 40.7292190261606], [-73.986320499987, 40.729185799383]]]}}, {"type": "Feature", "properties": {"zone_id": "02072JPSQVQGYE8DP6WQBI", "tract_id": "36061004001", "city": "NEW YORK, NY", "zone_code": "R8B", "zone_category": "Residential", "ev_permitted": false}, "geometry": {"type": "Polygon", "coordinates": [[[-73.9865679744762, 40.7289875772232], [-73.9863994205418, 40.7292190261606], [-73.9864783402518, 40.7292522521813], [-73.9866468949197, 40.7290208038321], [-73.9865679744762, 40.7289875772232]]]}}, {"type": "Feature", "properties": {"zone_id": "020167SHA9V1HFV9KG09QS", "tract_id": "36061004001", "city": "NEW YORK, NY", "zone_code": "R8B", "zone_category": "Residential", "ev_permitted": false}, "geometry": {"type": "Polygon", "coordinates": [[[-73.9864890541116, 40.7289543498573], [-73.986320499987, 40.729185799383], [-73.9863994205418, 40.7292190261606], [-73.9865679744762, 40.7289875772232], [-73.9864890541116, 40.7289543498573]]]}}, {"type": "Feature", "properties": {"zone_id": "02020YB1I0RDOMIB8ZE5ID", "tract_id": "36061004001", "city": "NEW YORK, NY", "zone_code": "R8B", "zone_category": "Residential", "ev_permitted": false}, "geometry": {"type": "Polygon", "coordinates": [[[-73.9864085545154, 40.7289204589422], [-73.9862400020444, 40.7291519076486], [-73.986320499987, 40.729185799383], [-73.9864890541116, 40.7289543498573], [-73.9864085545154, 40.7289204589422]]]}}, {"type": "Feature", "properties": {"zone_id": "0205TK8MK34ASEW0XQMIQK", "tract_id": "36061004001", "city": "NEW YORK, NY", "zone_code": "R8B", "zone_category": "Residential", "ev_permitted": false}, "geometry": {"type": "Polygon", "coordinates": [[[-73.9862400020444, 40.7291519076486], [-73.9860741647388, 40.7293796267238], [-73.9861546637959, 40.7294135178705], [-73.986320499987, 40.729185799383], [-73.9862400020444, 40.7291519076486]]]}}, {"type": "Feature", "properties": {"zone_id": "0202U3COETLOFV6IHAEMMB", "tract_id": "36061004001", "city": "NEW YORK, NY", "zone_code": "R8B", "zone_category": "Residential", "ev_permitted": false}, "geometry": {"type": "Polygon", "coordinates": [[[-73.9861608655321, 40.7291185900926], [-73.9859950289626, 40.729346309055], [-73.9860741647388, 40.7293796267238], [-73.9862400020444, 40.7291519076486], [-73.9861608655321, 40.7291185900926]]]}}, {"type": "Feature", "properties": {"zone_id": "0202IDDWPQ577QENAOMD7R", "tract_id": "36061004001", "city": "NEW YORK, NY", "zone_code": "R8B", "zone_category": "Residential", "ev_permitted": false}, "geometry": {"type": "Polygon", "coordinates": [[[-73.9863294191173, 40.728887141501], [-73.9861608655321, 40.7291185900926], [-73.9862400020444, 40.7291519076486], [-73.9864085545154, 40.7289204589422], [-73.9863294191173, 40.728887141501]]]}}, {"type": "Feature", "properties": {"zone_id": "02018M6DNSFV1IU4B5222U", "tract_id": "36061004001", "city": "NEW YORK, NY", "zone_code": "R8B", "zone_category": "Residential", "ev_permitted": false}, "geometry": {"type": "Polygon", "coordinates": [[[-73.9861732422927, 40.7288213871364], [-73.9860046874075, 40.7290528362041], [-73.9860814880463, 40.7290851705676], [-73.9862500427464, 40.7288537220912], [-73.9861732422927, 40.7288213871364]]]}}, {"type": "Feature", "properties": {"zone_id": "0202BIQ993P11MY514C4W4", "tract_id": "36061004001", "city": "NEW YORK, NY", "zone_code": "R8B", "zone_category": "Residential", "ev_permitted": false}, "geometry": {"type": "Polygon", "coordinates": [[[-73.9862500427464, 40.7288537220912], [-73.9860814880463, 40.7290851705676], [-73.9861608655321, 40.7291185900926], [-73.9863294191173, 40.728887141501], [-73.9862500427464, 40.7288537220912]]]}}, {"type": "Feature", "properties": {"zone_id": "0202XCQC6DVTTKDVLUC4KN", "tract_id": "36061004001", "city": "NEW YORK, NY", "zone_code": "R8B", "zone_category": "Residential", "ev_permitted": false}, "geometry": {"type": "Polygon", "coordinates": [[[-73.9857419797738, 40.72941135743], [-73.9855664332377, 40.7296524004616], [-73.9856434070434, 40.7296849037741], [-73.9858189533867, 40.7294438606262], [-73.9857419797738, 40.72941135743]]]}}, {"type": "Feature", "properties": {"zone_id": "0206UFTK5F3T6MO60EZASL", "tract_id": "36061004001", "city": "NEW YORK, NY", "zone_code": "R8B", "zone_category": "Residential", "ev_permitted": false}, "geometry": {"type": "Polygon", "coordinates": [[[-73.9856609729875, 40.7293771370879], [-73.9854854244006, 40.7296181828075], [-73.9855664332377, 40.7296524004616], [-73.9857419797738, 40.72941135743], [-73.9856609729875, 40.7293771370879]]]}}, {"type": "Feature", "properties": {"zone_id": "02067PXMH8WV1K9T42TDZY", "tract_id": "36061004001", "city": "NEW YORK, NY", "zone_code": "R8B", "zone_category": "Residential", "ev_permitted": false}, "geometry": {"type": "Polygon", "coordinates": [[[-73.985582680664, 40.7293440820345], [-73.9854071318815, 40.7295851255279], [-73.9854854244006, 40.7296181828075], [-73.9856609729875, 40.7293771370879], [-73.985582680664, 40.7293440820345]]]}}, {"type": "Feature", "properties": {"zone_id": "02039DDREUOA0VJJNP2X3W", "tract_id": "36061004001", "city": "NEW YORK, NY", "zone_code": "R8B", "zone_category": "Residential", "ev_permitted": false}, "geometry": {"type": "Polygon", "coordinates": [[[-73.9855036689564, 40.7293107162627], [-73.9853281208996, 40.7295517596367], [-73.9854071318815, 40.7295851255279], [-73.985582680664, 40.7293440820345], [-73.9855036689564, 40.7293107162627]]]}}, {"type": "Feature", "properties": {"zone_id": "0200KDHUO8R4Y45ADAIO6B", "tract_id": "36061004001", "city": "NEW YORK, NY", "zone_code": "R8B", "zone_category": "Residential", "ev_permitted": false}, "geometry": {"type": "Polygon", "coordinates": [[[-73.9860814880463, 40.7290851705676], [-73.9859156512887, 40.7293128894166], [-73.9859950289626, 40.729346309055], [-73.9861608655321, 40.7291185900926], [-73.9860814880463, 40.7290851705676]]]}}, {"type": "Feature", "properties": {"zone_id": "0202T2LCCRLVQ5OKRTZMR8", "tract_id": "36061004001", "city": "NEW YORK, NY", "zone_code": "R8B", "zone_category": "Residential", "ev_permitted": false}, "geometry": {"type": "Polygon", "coordinates": [[[-73.9859250727205, 40.7290193167647], [-73.9857592355924, 40.7292470346879], [-73.9859156512887, 40.7293128894166], [-73.9860814880463, 40.7290851705676], [-73.9859250727205, 40.7290193167647]]]}}, {"type": "Feature", "properties": {"zone_id": "020368HM8ISSUM6AY3K38C", "tract_id": "36061004001", "city": "NEW YORK, NY", "zone_code": "R8B", "zone_category": "Residential", "ev_permitted": false}, "geometry": {"type": "Polygon", "coordinates": [[[-73.985844955691, 40.7289855857084], [-73.9856791183732, 40.7292133035173], [-73.9857592355924, 40.7292470346879], [-73.9859250727205, 40.7290193167647], [-73.985844955691, 40.7289855857084]]]}}, {"type": "Feature", "properties": {"zone_id": "0207CBL6P75XBDF4113PK6", "tract_id": "36061004001", "city": "NEW YORK, NY", "zone_code": "R8B", "zone_category": "Residential", "ev_permitted": false}, "geometry": {"type": "Polygon", "coordinates": [[[-73.9857640731036, 40.7289515312792], [-73.9855982346703, 40.7291792496752], [-73.9856791183732, 40.7292133035173], [-73.985844955691, 40.7289855857084], [-73.9857640731036, 40.7289515312792]]]}}, {"type": "Feature", "properties": {"zone_id": "0205P4SJD5MZM2QR4R6DR8", "tract_id": "36061004001", "city": "NEW YORK, NY", "zone_code": "R8B", "zone_category": "Residential", "ev_permitted": false}, "geometry": {"type": "Polygon", "coordinates": [[[-73.9856866216568, 40.728918922586], [-73.9855207839636, 40.7291466408716], [-73.9855982346703, 40.7291792496752], [-73.9857640731036, 40.7289515312792], [-73.9856866216568, 40.728918922586]]]}}, {"type": "Feature", "properties": {"zone_id": "02003997F63XXONJVPQJVA", "tract_id": "36061004001", "city": "NEW YORK, NY", "zone_code": "R8B", "zone_category": "Residential", "ev_permitted": false}, "geometry": {"type": "Polygon", "coordinates": [[[-73.9853463790932, 40.7292442973316], [-73.9851708315663, 40.729485339063], [-73.9853281208996, 40.7295517596367], [-73.9855036689564, 40.7293107162627], [-73.9853463790932, 40.7292442973316]]]}}, {"type": "Feature", "properties": {"zone_id": "0206U99ACB3ZV0AGAIMSPX", "tract_id": "36061004001", "city": "NEW YORK, NY", "zone_code": "R8B", "zone_category": "Residential", "ev_permitted": false}, "geometry": {"type": "Polygon", "coordinates": [[[-73.9852671782895, 40.7292108547832], [-73.9850916314881, 40.7294518956924], [-73.9851708315663, 40.729485339063], [-73.9853463790932, 40.7292442973316], [-73.9852671782895, 40.7292108547832]]]}}, {"type": "Feature", "properties": {"zone_id": "020065S22VD8M8AKXZ0HZI", "tract_id": "36061004001", "city": "NEW YORK, NY", "zone_code": "R8B", "zone_category": "Residential", "ev_permitted": false}, "geometry": {"type": "Polygon", "coordinates": [[[-73.985188357153, 40.7291775689216], [-73.9850128092303, 40.7294186111169], [-73.9850916314881, 40.7294518956924], [-73.9852671782895, 40.7292108547832], [-73.985188357153, 40.7291775689216]]]}}, {"type": "Feature", "properties": {"zone_id": "020295RMDZXLJ1EPJTXUSW", "tract_id": "36061004001", "city": "NEW YORK, NY", "zone_code": "R8B", "zone_category": "Residential", "ev_permitted": false}, "geometry": {"type": "Polygon", "coordinates": [[[-73.9850128092303, 40.7294186111169], [-73.9848448974177, 40.7296491675826], [-73.9849237207877, 40.7296824536774], [-73.9850916314881, 40.7294518956924], [-73.9850128092303, 40.7294186111169]]]}}, {"type": "Feature", "properties": {"zone_id": "0203LQDBFN76JEVV79UR3I", "tract_id": "36061004001", "city": "NEW YORK, NY", "zone_code": "R8B", "zone_category": "Residential", "ev_permitted": false}, "geometry": {"type": "Polygon", "coordinates": [[[-73.9849325435105, 40.7293847156892], [-73.9847646333529, 40.7296152720392], [-73.9848448974177, 40.7296491675826], [-73.9850128092303, 40.7294186111169], [-73.9849325435105, 40.7293847156892]]]}}, {"type": "Feature", "properties": {"zone_id": "02070LAPCULGHO3VJHCXVD", "tract_id": "36061004001", "city": "NEW YORK, NY", "zone_code": "R8B", "zone_category": "Residential", "ev_permitted": false}, "geometry": {"type": "Polygon", "coordinates": [[[-73.9848542275282, 40.7293516432737], [-73.9846863162593, 40.7295821995104], [-73.9847646333529, 40.7296152720392], [-73.9849325435105, 40.7293847156892], [-73.9848542275282, 40.7293516432737]]]}}, {"type": "Feature", "properties": {"zone_id": "0202G4P1FSSXZIHPY8C3SI", "tract_id": "36061004001", "city": "NEW YORK, NY", "zone_code": "R8B", "zone_category": "Residential", "ev_permitted": false}, "geometry": {"type": "Polygon", "coordinates": [[[-73.9850297758481, 40.729110601318], [-73.9848542275282, 40.7293516432737], [-73.9850128092303, 40.7294186111169], [-73.985188357153, 40.7291775689216], [-73.9850297758481, 40.729110601318]]]}}, {"type": "Feature", "properties": {"zone_id": "0202B7P4O8SE19CAU4OJWF", "tract_id": "36061004001", "city": "NEW YORK, NY", "zone_code": "R8B", "zone_category": "Residential", "ev_permitted": false}, "geometry": {"type": "Polygon", "coordinates": [[[-73.9849523874005, 40.7290779204687], [-73.9847768388867, 40.7293189623075], [-73.9848542275282, 40.7293516432737], [-73.9850297758481, 40.729110601318], [-73.9849523874005, 40.7290779204687]]]}}, {"type": "Feature", "properties": {"zone_id": "0206DEOUGD0HZ0RAOT9ZG2", "tract_id": "36061004001", "city": "NEW YORK, NY", "zone_code": "R7A", "zone_category": "Residential", "ev_permitted": false}, "geometry": {"type": "Polygon", "coordinates": [[[-73.9848728443501, 40.7290443300455], [-73.9847374208522, 40.7292302775021], [-73.9846981323895, 40.729285725312], [-73.9847768388867, 40.7293189623075], [-73.9849523874005, 40.7290779204687], [-73.9848728443501, 40.7290443300455]]]}}, {"type": "Feature", "properties": {"zone_id": "0205B4KFCHGJUV0MS9NAED", "tract_id": "36061004001", "city": "NEW YORK, NY", "zone_code": "R8B", "zone_category": "Residential", "ev_permitted": false}, "geometry": {"type": "Polygon", "coordinates": [[[-73.9858551773079, 40.7286874746824], [-73.9856866216568, 40.728918922586], [-73.9857358857591, 40.7289396641218], [-73.9859044403677, 40.7287082168493], [-73.9858551773079, 40.7286874746824]]]}}, {"type": "Feature", "properties": {"zone_id": "0205B51N78FQ6RRD4SD9I0", "tract_id": "36061004001", "city": "NEW YORK, NY", "zone_code": "R8B", "zone_category": "Residential", "ev_permitted": false}, "geometry": {"type": "Polygon", "coordinates": [[[-73.9859657375479, 40.7287340238125], [-73.9857971830867, 40.7289654718766], [-73.985844955691, 40.7289855857084], [-73.9860135109609, 40.7287541368725], [-73.9859657375479, 40.7287340238125]]]}}, {"type": "Feature", "properties": {"zone_id": "0203ZU7U14Q4DYHB8KEJLT", "tract_id": "36061004001", "city": "NEW YORK, NY", "zone_code": "R8B", "zone_category": "Residential", "ev_permitted": false}, "geometry": {"type": "Polygon", "coordinates": [[[-73.9860135109609, 40.7287541368725], [-73.985844955691, 40.7289855857084], [-73.9859250727205, 40.7290193167647], [-73.9860936277974, 40.7287878678126], [-73.9860135109609, 40.7287541368725]]]}}, {"type": "Feature", "properties": {"zone_id": "020098ZA53PVOKF86SPCRQ", "tract_id": "36061004001", "city": "NEW YORK, NY", "zone_code": "R8B", "zone_category": "Residential", "ev_permitted": false}, "geometry": {"type": "Polygon", "coordinates": [[[-73.9855314160608, 40.7288535764185], [-73.9853655770763, 40.7290812944825], [-73.9854445358211, 40.7291145380812], [-73.985610373695, 40.7288868199043], [-73.9855314160608, 40.7288535764185]]]}}, {"type": "Feature", "properties": {"zone_id": "0206XA77O7QYUIX9FN7CIG", "tract_id": "36061004001", "city": "NEW YORK, NY", "zone_code": "R8B", "zone_category": "Residential", "ev_permitted": false}, "geometry": {"type": "Polygon", "coordinates": [[[-73.9854622228421, 40.728522029997], [-73.9852936662447, 40.7287534773306], [-73.9853709704601, 40.7287860244363], [-73.9855395268713, 40.7285545769906], [-73.9854622228421, 40.728522029997]]]}}, {"type": "Feature", "properties": {"zone_id": "0200GJFAWEN6ZARDUHB496", "tract_id": "36061004001", "city": "NEW YORK, NY", "zone_code": "R8B", "zone_category": "Residential", "ev_permitted": false}, "geometry": {"type": "Polygon", "coordinates": [[[-73.985699971162, 40.7286221287399], [-73.9855314160608, 40.7288535764185], [-73.985610373695, 40.7288868199043], [-73.985778928606, 40.7286553721113], [-73.985699971162, 40.7286221287399]]]}}, {"type": "Feature", "properties": {"zone_id": "0203IH4BOZSN1SUMUGPI1J", "tract_id": "36061004001", "city": "", "zone_code": "R7A", "zone_category": "Residential", "ev_permitted": false}, "geometry": {"type": "Polygon", "coordinates": [[[-73.9848095094694, 40.728549630446], [-73.9847299094384, 40.7286589386726], [-73.9849678539209, 40.7287547815495], [-73.9849730991069, 40.7287475785893], [-73.9850471069615, 40.728778739139], [-73.9850173821029, 40.7288195533524], [-73.9850387358192, 40.7288285452263], [-73.9849745646856, 40.7289166585528], [-73.9850544152047, 40.7289502784579], [-73.9852202521545, 40.7287225657562], [-73.9848095094694, 40.728549630446]]]}}, {"type": "Feature", "properties": {"zone_id": "0202ENSLJWMZL5BOIMJF58", "tract_id": "36061004001", "city": "NEW YORK, NY", "zone_code": "R8B", "zone_category": "Residential", "ev_permitted": false}, "geometry": {"type": "Polygon", "coordinates": [[[-73.9852202521545, 40.7287225657562], [-73.9850544152047, 40.7289502784579], [-73.9853655770763, 40.7290812944825], [-73.9855314160608, 40.7288535764185], [-73.9852202521545, 40.7287225657562]]]}}, {"type": "Feature", "properties": {"zone_id": "0203S6VOJI280Y6IQN4FZ3", "tract_id": "36061004001", "city": "NEW YORK, NY", "zone_code": "R7A", "zone_category": "Residential", "ev_permitted": false}, "geometry": {"type": "Polygon", "coordinates": [[[-73.9845551578203, 40.7289101730426], [-73.9845039850006, 40.7289804354299], [-73.9848216726858, 40.7291145939781], [-73.9848728443501, 40.7290443300455], [-73.9845551578203, 40.7289101730426]]]}}, {"type": "Feature", "properties": {"zone_id": "02041BWYJR404FRX9HXW57", "tract_id": "36061004001", "city": "", "zone_code": "R7A", "zone_category": "Residential", "ev_permitted": false}, "geometry": {"type": "Polygon", "coordinates": [[[-73.9849730991069, 40.7287475785893], [-73.9848792039192, 40.728876507463], [-73.9849745646856, 40.7289166585528], [-73.9850387358192, 40.7288285452263], [-73.9850173821029, 40.7288195533524], [-73.9850471069615, 40.728778739139], [-73.9849730991069, 40.7287475785893]]]}}, {"type": "Feature", "properties": {"zone_id": "0201391VI2956SEB8UO3UX", "tract_id": "36061004001", "city": "NEW YORK, NY", "zone_code": "R7A", "zone_category": "Residential", "ev_permitted": false}, "geometry": {"type": "Polygon", "coordinates": [[[-73.984890627258, 40.7284382551436], [-73.9848496951269, 40.7284944595576], [-73.9851731830959, 40.7286306591284], [-73.9852141150376, 40.7285744553029], [-73.984890627258, 40.7284382551436]]]}}, {"type": "Feature", "properties": {"zone_id": "02030LWM3EUB9ONNH8GEST", "tract_id": "36061004001", "city": "NEW YORK, NY", "zone_code": "R8B", "zone_category": "Residential", "ev_permitted": false}, "geometry": {"type": "Polygon", "coordinates": [[[-73.9853811018104, 40.728487875489], [-73.9852125459414, 40.7287193220024], [-73.9852936662447, 40.7287534773306], [-73.9854622228421, 40.728522029997], [-73.9853811018104, 40.728487875489]]]}}, {"type": "Feature", "properties": {"zone_id": "02074Y1N7ZTBPP40PCCIYV", "tract_id": "36061004001", "city": "NEW YORK, NY", "zone_code": "R7A", "zone_category": "Residential", "ev_permitted": false}, "geometry": {"type": "Polygon", "coordinates": [[[-73.9852266093278, 40.7285572987125], [-73.9851330013182, 40.728685832237], [-73.9852125459414, 40.7287193220024], [-73.9853061547684, 40.7285907877112], [-73.9852266093278, 40.7285572987125]]]}}, {"type": "Feature", "properties": {"zone_id": "02068UKSVRE3ORZ3MOPMJT", "tract_id": "36061004001", "city": "NEW YORK, NY", "zone_code": "R7A", "zone_category": "Residential", "ev_permitted": false}, "geometry": {"type": "Polygon", "coordinates": [[[-73.9848496951269, 40.7284944595576], [-73.9848095094694, 40.728549630446], [-73.9851330013182, 40.728685832237], [-73.9851731830959, 40.7286306591284], [-73.9848496951269, 40.7284944595576]]]}}, {"type": "Feature", "properties": {"zone_id": "020721MCZV97LQR4DV0HCS", "tract_id": "36061004001", "city": "NEW YORK, NY", "zone_code": "R7A", "zone_category": "Residential", "ev_permitted": false}, "geometry": {"type": "Polygon", "coordinates": [[[-73.9847299094384, 40.7286589386726], [-73.9846436789359, 40.7287773418599], [-73.9848792039192, 40.728876507463], [-73.9849678539209, 40.7287547815495], [-73.9847299094384, 40.7286589386726]]]}}, {"type": "Feature", "properties": {"zone_id": "0204OAN8Y6677J865ZDFBG", "tract_id": "36061004001", "city": "NEW YORK, NY", "zone_code": "R7A", "zone_category": "Residential", "ev_permitted": false}, "geometry": {"type": "Polygon", "coordinates": [[[-73.9841130390191, 40.7295172265102], [-73.9837444673245, 40.7300232872592], [-73.9848771199013, 40.7305015999207], [-73.9848540412203, 40.7302323048614], [-73.9850054964496, 40.7302198201926], [-73.9850642658834, 40.7302446379593], [-73.9852456856398, 40.7299955355797], [-73.9841130390191, 40.7295172265102]]]}}, {"type": "Feature", "properties": {"zone_id": "02026I3E22PRZL4HUCUMV0", "tract_id": "36061004001", "city": "NEW YORK, NY", "zone_code": "R8B", "zone_category": "Residential", "ev_permitted": false}, "geometry": {"type": "Polygon", "coordinates": [[[-73.9842695077817, 40.7304105433643], [-73.9840824284396, 40.7306676248948], [-73.9843348663987, 40.7307741071788], [-73.984521945066, 40.7305170245393], [-73.9842695077817, 40.7304105433643]]]}}, {"type": "Feature", "properties": {"zone_id": "020685QHES4SPXDROK5DUX", "tract_id": "36061004001", "city": "NEW YORK, NY", "zone_code": "R8B", "zone_category": "Residential", "ev_permitted": false}, "geometry": {"type": "Polygon", "coordinates": [[[-73.984111734427, 40.7303439919967], [-73.983924654663, 40.7306010732732], [-73.9840824284396, 40.7306676248948], [-73.9842695077817, 40.7304105433643], [-73.984111734427, 40.7303439919967]]]}}, {"type": "Feature", "properties": {"zone_id": "0206RBE2O5ZYJUDI57U6U1", "tract_id": "36061004001", "city": "NEW YORK, NY", "zone_code": "R7A", "zone_category": "Residential", "ev_permitted": false}, "geometry": {"type": "Polygon", "coordinates": [[[-73.9839539613873, 40.7302774404123], [-73.9837668812013, 40.7305345221375], [-73.983924654663, 40.7306010732732], [-73.984111734427, 40.7303439919967], [-73.9839539613873, 40.7302774404123]]]}}, {"type": "Feature", "properties": {"zone_id": "0200F3O3IFI9BWX8EK8LD8", "tract_id": "36061004001", "city": "NEW YORK, NY", "zone_code": "R7A", "zone_category": "Residential", "ev_permitted": false}, "geometry": {"type": "Polygon", "coordinates": [[[-73.9838591045027, 40.7302374276818], [-73.9836720231394, 40.7304945092542], [-73.9837668812013, 40.7305345221375], [-73.9839539613873, 40.7302774404123], [-73.9838591045027, 40.7302374276818]]]}}, {"type": "Feature", "properties": {"zone_id": "0205IJVJZYCSOW01CBY8A1", "tract_id": "36061004001", "city": "NEW YORK, NY", "zone_code": "R7A", "zone_category": "Residential", "ev_permitted": false}, "geometry": {"type": "Polygon", "coordinates": [[[-73.983459640945, 40.7304049210481], [-73.9834256502119, 40.7304514573729], [-73.9837046410704, 40.7305691417055], [-73.9837385356163, 40.730522565234], [-73.983459640945, 40.7304049210481]]]}}, {"type": "Feature", "properties": {"zone_id": "0203AZGZI3QU4GV1IN6BH1", "tract_id": "36061004001", "city": "NEW YORK, NY", "zone_code": "R7A", "zone_category": "Residential", "ev_permitted": false}, "geometry": {"type": "Polygon", "coordinates": [[[-73.9834256502119, 40.7304514573729], [-73.9833889161058, 40.7305017511032], [-73.9836680105512, 40.7306194784007], [-73.9837046410704, 40.7305691417055], [-73.9834256502119, 40.7304514573729]]]}}, {"type": "Feature", "properties": {"zone_id": "02011QPCIFMCHNFWT1QLY2", "tract_id": "36061004001", "city": "NEW YORK, NY", "zone_code": "R7A", "zone_category": "Residential", "ev_permitted": false}, "geometry": {"type": "Polygon", "coordinates": [[[-73.9833889161058, 40.7305017511032], [-73.983333289092, 40.7305779090129], [-73.9836126664295, 40.7306955296804], [-73.9836680105512, 40.7306194784007], [-73.9833889161058, 40.7305017511032]]]}}, {"type": "Feature", "properties": {"zone_id": "0205417XAI5284PIAMECBL", "tract_id": "36061004001", "city": "NEW YORK, NY", "zone_code": "R7A", "zone_category": "Residential", "ev_permitted": false}, "geometry": {"type": "Polygon", "coordinates": [[[-73.98352931316, 40.730309534056], [-73.9834954454144, 40.7303559017818], [-73.9837077268309, 40.7304454463435], [-73.9837414984221, 40.7303990384907], [-73.98352931316, 40.730309534056]]]}}, {"type": "Feature", "properties": {"zone_id": "0201ICRNOERUHRFTJQYR2J", "tract_id": "36061004001", "city": "NEW YORK, NY", "zone_code": "R7A", "zone_category": "Residential", "ev_permitted": false}, "geometry": {"type": "Polygon", "coordinates": [[[-73.9834954454144, 40.7303559017818], [-73.983459640945, 40.7304049210481], [-73.9836720231394, 40.7304945092542], [-73.9837077268309, 40.7304454463435], [-73.9834954454144, 40.7303559017818]]]}}, {"type": "Feature", "properties": {"zone_id": "020778MXVPEGVEWRK9GXI5", "tract_id": "36061004001", "city": "NEW YORK, NY", "zone_code": "R7A", "zone_category": "Residential", "ev_permitted": false}, "geometry": {"type": "Polygon", "coordinates": [[[-73.9836472520837, 40.7301480640404], [-73.983602833559, 40.7302088776383], [-73.9838148930287, 40.7302981816638], [-73.9838591045027, 40.7302374276818], [-73.9836472520837, 40.7301480640404]]]}}, {"type": "Feature", "properties": {"zone_id": "0202TM7PVFR3LFXOIUIIPD", "tract_id": "36061004001", "city": "NEW YORK, NY", "zone_code": "R7A", "zone_category": "Residential", "ev_permitted": false}, "geometry": {"type": "Polygon", "coordinates": [[[-73.983602833559, 40.7302088776383], [-73.9835649502861, 40.7302607431072], [-73.9837770347707, 40.7303502053032], [-73.9838148930287, 40.7302981816638], [-73.983602833559, 40.7302088776383]]]}}, {"type": "Feature", "properties": {"zone_id": "02024R1ZNX9GBX8AHTK4XS", "tract_id": "36061004001", "city": "NEW YORK, NY", "zone_code": "R7A", "zone_category": "Residential", "ev_permitted": false}, "geometry": {"type": "Polygon", "coordinates": [[[-73.9835649502861, 40.7302607431072], [-73.98352931316, 40.730309534056], [-73.9837414984221, 40.7303990384907], [-73.9837770347707, 40.7303502053032], [-73.9835649502861, 40.7302607431072]]]}}, {"type": "Feature", "properties": {"zone_id": "0204D2PSVKYWKE4XIPOV0C", "tract_id": "36061004001", "city": "NEW YORK, NY", "zone_code": "C1-6A", "zone_category": "Commercial", "ev_permitted": true}, "geometry": {"type": "Polygon", "coordinates": [[[-73.9842218776872, 40.7315651159126], [-73.9840375340934, 40.731816568015], [-73.984108794401, 40.7318467239735], [-73.9842932616232, 40.7315951045425], [-73.9842218776872, 40.7315651159126]]]}}, {"type": "Feature", "properties": {"zone_id": "02059G1OM3LM5MLN2L6B05", "tract_id": "36061004001", "city": "NEW YORK, NY", "zone_code": "C1-6A", "zone_category": "Commercial", "ev_permitted": true}, "geometry": {"type": "Polygon", "coordinates": [[[-73.9841504947391, 40.731535127941], [-73.9839662729266, 40.7317864120121], [-73.9840375340934, 40.731816568015], [-73.9842218776872, 40.7315651159126], [-73.9841504947391, 40.731535127941]]]}}, {"type": "Feature", "properties": {"zone_id": "0205WT5VXUIYIOWC7WL11C", "tract_id": "36061004001", "city": "NEW YORK, NY", "zone_code": "C1-6A", "zone_category": "Commercial", "ev_permitted": true}, "geometry": {"type": "Polygon", "coordinates": [[[-73.9841184046623, 40.7311833255146], [-73.9839287783527, 40.7314419824775], [-73.9843715929343, 40.7316280122067], [-73.9845612180546, 40.7313693538186], [-73.9841184046623, 40.7311833255146]]]}}, {"type": "Feature", "properties": {"zone_id": "020651HM3BPBAMB0D0CZU8", "tract_id": "36061004001", "city": "NEW YORK, NY", "zone_code": "C1-6A", "zone_category": "Commercial", "ev_permitted": true}, "geometry": {"type": "Polygon", "coordinates": [[[-73.9845612180546, 40.7313693538186], [-73.9843715929343, 40.7316280122067], [-73.9845807532736, 40.7317158802867], [-73.9847703769082, 40.7314572222599], [-73.9845612180546, 40.7313693538186]]]}}, {"type": "Feature", "properties": {"zone_id": "02047WGJVNB284Y4NPTNUT", "tract_id": "36061004001", "city": "NEW YORK, NY", "zone_code": "C1-6A", "zone_category": "Commercial", "ev_permitted": true}, "geometry": {"type": "Polygon", "coordinates": [[[-73.9840822705521, 40.731506466276], [-73.9838981659089, 40.7317575907522], [-73.9839662729266, 40.7317864120121], [-73.9841504947391, 40.731535127941], [-73.9840822705521, 40.731506466276]]]}}, {"type": "Feature", "properties": {"zone_id": "0203MD11VWN28LRRS4LX1U", "tract_id": "36061004001", "city": "NEW YORK, NY", "zone_code": "C1-6A", "zone_category": "Commercial", "ev_permitted": true}, "geometry": {"type": "Polygon", "coordinates": [[[-73.9834408923782, 40.7308986932254], [-73.9832541536076, 40.7311533668414], [-73.9831902008864, 40.7311263719704], [-73.9830065495241, 40.7313802734075], [-73.9833350210968, 40.7315192782085], [-73.9837077853442, 40.7310108191886], [-73.9834408923782, 40.7308986932254]]]}}, {"type": "Feature", "properties": {"zone_id": "02041Q11X3Y4J757J3CHZJ", "tract_id": "36061004001", "city": "NEW YORK, NY", "zone_code": "C1-6A", "zone_category": "Commercial", "ev_permitted": true}, "geometry": {"type": "Polygon", "coordinates": [[[-73.9839401367098, 40.7314467544022], [-73.9837562756315, 40.7316975456281], [-73.9838981659089, 40.7317575907522], [-73.9840822705521, 40.731506466276], [-73.9839401367098, 40.7314467544022]]]}}, {"type": "Feature", "properties": {"zone_id": "0205BF3HWBCANP2VVD8TI2", "tract_id": "36061004001", "city": "NEW YORK, NY", "zone_code": "C1-6A", "zone_category": "Commercial", "ev_permitted": true}, "geometry": {"type": "Polygon", "coordinates": [[[-73.9838655953271, 40.7314154384935], [-73.9836818624903, 40.7316660553606], [-73.9837562756315, 40.7316975456281], [-73.9839401367098, 40.7314467544022], [-73.9838655953271, 40.7314154384935]]]}}, {"type": "Feature", "properties": {"zone_id": "0203RH41ZGALRXQW7WJ34Q", "tract_id": "36061004001", "city": "NEW YORK, NY", "zone_code": "C1-6A", "zone_category": "Commercial", "ev_permitted": true}, "geometry": {"type": "Polygon", "coordinates": [[[-73.983678534706, 40.7313368522396], [-73.9834951220112, 40.7315870303987], [-73.9836818624903, 40.7316660553606], [-73.9838655953271, 40.7314154384935], [-73.983678534706, 40.7313368522396]]]}}, {"type": "Feature", "properties": {"zone_id": "0204ILIPSOGRDSTSAYS4PV", "tract_id": "36061004001", "city": "NEW YORK, NY", "zone_code": "C1-6A", "zone_category": "Commercial", "ev_permitted": true}, "geometry": {"type": "Polygon", "coordinates": [[[-73.9835994568952, 40.7313036306111], [-73.9834161798231, 40.7315536238662], [-73.9834951220112, 40.7315870303987], [-73.983678534706, 40.7313368522396], [-73.9835994568952, 40.7313036306111]]]}}, {"type": "Feature", "properties": {"zone_id": "0205RUGUHZDOJOC97RH5VR", "tract_id": "36061004001", "city": "NEW YORK, NY", "zone_code": "C1-6A", "zone_category": "Commercial", "ev_permitted": true}, "geometry": {"type": "Polygon", "coordinates": [[[-73.9835181357655, 40.7312694663437], [-73.9833350210968, 40.7315192782085], [-73.9834161798231, 40.7315536238662], [-73.9835994568952, 40.7313036306111], [-73.9835181357655, 40.7312694663437]]]}}, {"type": "Feature", "properties": {"zone_id": "0203G2UY8W1A1DJNHA1MM1", "tract_id": "36061004001", "city": "NEW YORK, NY", "zone_code": "C1-6A", "zone_category": "Commercial", "ev_permitted": true}, "geometry": {"type": "Polygon", "coordinates": [[[-73.9839754485584, 40.7311232685636], [-73.9837858227884, 40.7313819252932], [-73.9839287783527, 40.7314419824775], [-73.9841184046623, 40.7311833255146], [-73.9839754485584, 40.7311232685636]]]}}, {"type": "Feature", "properties": {"zone_id": "0200U2MB0WH8GJQPFJ9OOI", "tract_id": "36061004001", "city": "NEW YORK, NY", "zone_code": "C1-6A", "zone_category": "Commercial", "ev_permitted": true}, "geometry": {"type": "Polygon", "coordinates": [[[-73.9838852887127, 40.7310853911858], [-73.9836956617769, 40.7313440477683], [-73.9837858227884, 40.7313819252932], [-73.9839754485584, 40.7311232685636], [-73.9838852887127, 40.7310853911858]]]}}, {"type": "Feature", "properties": {"zone_id": "0200QV9GL2IDXKP8E6CMCA", "tract_id": "36061004001", "city": "NEW YORK, NY", "zone_code": "C1-6A", "zone_category": "Commercial", "ev_permitted": true}, "geometry": {"type": "Polygon", "coordinates": [[[-73.9837951252752, 40.7310475123314], [-73.9836054990209, 40.7313061687669], [-73.9836956617769, 40.7313440477683], [-73.9838852887127, 40.7310853911858], [-73.9837951252752, 40.7310475123314]]]}}, {"type": "Feature", "properties": {"zone_id": "0204IQ1AC22N4K953J9464", "tract_id": "36061004001", "city": "NEW YORK, NY", "zone_code": "C1-6A", "zone_category": "Commercial", "ev_permitted": true}, "geometry": {"type": "Polygon", "coordinates": [[[-73.9837077853442, 40.7310108191886], [-73.9835181357655, 40.7312694663437], [-73.9836054990209, 40.7313061687669], [-73.9837951252752, 40.7310475123314], [-73.9837077853442, 40.7310108191886]]]}}, {"type": "Feature", "properties": {"zone_id": "0204REKX9JTKLRWLHKOHU5", "tract_id": "36061004001", "city": "NEW YORK, NY", "zone_code": "R8B", "zone_category": "Residential", "ev_permitted": false}, "geometry": {"type": "Polygon", "coordinates": [[[-73.9844964286308, 40.7308422551842], [-73.9843100927575, 40.7310983141004], [-73.9843934358105, 40.7311334006724], [-73.9845797335789, 40.7308773929114], [-73.9844964286308, 40.7308422551842]]]}}, {"type": "Feature", "properties": {"zone_id": "02039FSW9H7T89DJJ3AY11", "tract_id": "36061004001", "city": "NEW YORK, NY", "zone_code": "R8B", "zone_category": "Residential", "ev_permitted": false}, "geometry": {"type": "Polygon", "coordinates": [[[-73.9844131237709, 40.7308071159911], [-73.9842267497924, 40.7310632267653], [-73.9843100927575, 40.7310983141004], [-73.9844964286308, 40.7308422551842], [-73.9844131237709, 40.7308071159911]]]}}, {"type": "Feature", "properties": {"zone_id": "0206B2EI0W18DXRQEGMR1L", "tract_id": "36061004001", "city": "NEW YORK, NY", "zone_code": "R8B", "zone_category": "Residential", "ev_permitted": false}, "geometry": {"type": "Polygon", "coordinates": [[[-73.9842679710554, 40.7307458891783], [-73.9840815310871, 40.731002091056], [-73.9842267497924, 40.7310632267653], [-73.9844131237709, 40.7308071159911], [-73.9842679710554, 40.7307458891783]]]}}, {"type": "Feature", "properties": {"zone_id": "0200AS252XC9DX50VF0NCW", "tract_id": "36061004001", "city": "NEW YORK, NY", "zone_code": "R8B", "zone_category": "Residential", "ev_permitted": false}, "geometry": {"type": "Polygon", "coordinates": [[[-73.9846930992303, 40.7305892187583], [-73.9845060210206, 40.7308463016734], [-73.9846321020379, 40.7308994830261], [-73.9848191799103, 40.7306424006107], [-73.9846930992303, 40.7305892187583]]]}}, {"type": "Feature", "properties": {"zone_id": "0202AG8ZJ43LXLABUAMA9V", "tract_id": "36061004001", "city": "NEW YORK, NY", "zone_code": "R8B", "zone_category": "Residential", "ev_permitted": false}, "geometry": {"type": "Polygon", "coordinates": [[[-73.9846078855325, 40.7305532749086], [-73.984420807095, 40.7308103576864], [-73.9845060210206, 40.7308463016734], [-73.9846930992303, 40.7305892187583], [-73.9846078855325, 40.7305532749086]]]}}, {"type": "Feature", "properties": {"zone_id": "0204W532FKAPUO5SPR74JC", "tract_id": "36061004001", "city": "NEW YORK, NY", "zone_code": "R8B", "zone_category": "Residential", "ev_permitted": false}, "geometry": {"type": "Polygon", "coordinates": [[[-73.984521945066, 40.7305170245393], [-73.9843348663987, 40.7307741071788], [-73.984420807095, 40.7308103576864], [-73.9846078855325, 40.7305532749086], [-73.984521945066, 40.7305170245393]]]}}, {"type": "Feature", "properties": {"zone_id": "0202G6PT41IK842SXWVZ1J", "tract_id": "36061004001", "city": "NEW YORK, NY", "zone_code": "R8B", "zone_category": "Residential", "ev_permitted": false}, "geometry": {"type": "Polygon", "coordinates": [[[-73.9841796171984, 40.7307086207769], [-73.9839931363396, 40.7309648773145], [-73.9840815310871, 40.731002091056], [-73.9842679710554, 40.7307458891783], [-73.9841796171984, 40.7307086207769]]]}}, {"type": "Feature", "properties": {"zone_id": "0201QC3E3O8RZA4OXG23BS", "tract_id": "36061004001", "city": "NEW YORK, NY", "zone_code": "R8B", "zone_category": "Residential", "ev_permitted": false}, "geometry": {"type": "Polygon", "coordinates": [[[-73.984090434986, 40.7306710022698], [-73.9839039141576, 40.7309273148713], [-73.9839931363396, 40.7309648773145], [-73.9841796171984, 40.7307086207769], [-73.984090434986, 40.7306710022698]]]}}, {"type": "Feature", "properties": {"zone_id": "0201WTZCKWOTC5U1HTEJTF", "tract_id": "36061004001", "city": "NEW YORK, NY", "zone_code": "C1-7A", "zone_category": "Commercial", "ev_permitted": true}, "geometry": {"type": "Polygon", "coordinates": [[[-73.9833635090562, 40.7308661827656], [-73.9832827370592, 40.7309763582728], [-73.9833599874146, 40.73100904935], [-73.9834408923782, 40.7308986932254], [-73.9833635090562, 40.7308661827656]]]}}, {"type": "Feature", "properties": {"zone_id": "02051O5TH1WHP3OI4LSCC8", "tract_id": "36061004001", "city": "NEW YORK, NY", "zone_code": "R8B", "zone_category": "Residential", "ev_permitted": false}, "geometry": {"type": "Polygon", "coordinates": [[[-73.9840029116286, 40.7306340830678], [-73.9838163489882, 40.7308904496277], [-73.9839039141576, 40.7309273148713], [-73.984090434986, 40.7306710022698], [-73.9840029116286, 40.7306340830678]]]}}, {"type": "Feature", "properties": {"zone_id": "0204CG3IGG0CC7M3JQBVYR", "tract_id": "36061004001", "city": "NEW YORK, NY", "zone_code": "R8B", "zone_category": "Residential", "ev_permitted": false}, "geometry": {"type": "Polygon", "coordinates": [[[-73.9838714249717, 40.730578620144], [-73.9836848037687, 40.7308350693981], [-73.9838163489882, 40.7308904496277], [-73.9840029116286, 40.7306340830678], [-73.9838714249717, 40.730578620144]]]}}, {"type": "Feature", "properties": {"zone_id": "0205BR9YCHNZP14Z0AU3OT", "tract_id": "36061004001", "city": "NEW YORK, NY", "zone_code": "R8B", "zone_category": "Residential", "ev_permitted": false}, "geometry": {"type": "Polygon", "coordinates": [[[-73.9838040008091, 40.7305501797593], [-73.9836173489346, 40.7308066703576], [-73.9836848037687, 40.7308350693981], [-73.9838714249717, 40.730578620144], [-73.9838040008091, 40.7305501797593]]]}}, {"type": "Feature", "properties": {"zone_id": "0205UZ3AXZWAS7TP16JSM9", "tract_id": "36061004001", "city": "NEW YORK, NY", "zone_code": "R7A", "zone_category": "Residential", "ev_permitted": false}, "geometry": {"type": "Polygon", "coordinates": [[[-73.9837385356163, 40.730522565234], [-73.9835518530756, 40.7307790971796], [-73.9836173489346, 40.7308066703576], [-73.9838040008091, 40.7305501797593], [-73.9837385356163, 40.730522565234]]]}}, {"type": "Feature", "properties": {"zone_id": "0200EUPH3ASKXC42CL8L9F", "tract_id": "36061004001", "city": "NEW YORK, NY", "zone_code": "R7A", "zone_category": "Residential", "ev_permitted": false}, "geometry": {"type": "Polygon", "coordinates": [[[-73.983333289092, 40.7305779090129], [-73.9832723027858, 40.7306614039672], [-73.9835518530756, 40.7307790971796], [-73.9836126664295, 40.7306955296804], [-73.983333289092, 40.7305779090129]]]}}, {"type": "Feature", "properties": {"zone_id": "02010OJH2GX5O5DJUOI8WA", "tract_id": "36061004001", "city": "NEW YORK, NY", "zone_code": "C1-7A", "zone_category": "Commercial", "ev_permitted": true}, "geometry": {"type": "Polygon", "coordinates": [[[-73.9829569119874, 40.731093196145], [-73.9829239951727, 40.7311382611121], [-73.983121228416, 40.7312217286351], [-73.9831542348794, 40.7311760958783], [-73.9829569119874, 40.731093196145]]]}}, {"type": "Feature", "properties": {"zone_id": "0205PQKZDDP1L2JCNR49RL", "tract_id": "36061004001", "city": "NEW YORK, NY", "zone_code": "C1-7A", "zone_category": "Commercial", "ev_permitted": true}, "geometry": {"type": "Polygon", "coordinates": [[[-73.9829239951727, 40.7311382611121], [-73.9828882416067, 40.73118721064], [-73.9830860782063, 40.731270324173], [-73.983121228416, 40.7312217286351], [-73.9829239951727, 40.7311382611121]]]}}, {"type": "Feature", "properties": {"zone_id": "0206EMJFX3J7AVO1Q94YOE", "tract_id": "36061004001", "city": "NEW YORK, NY", "zone_code": "C1-7A", "zone_category": "Commercial", "ev_permitted": true}, "geometry": {"type": "Polygon", "coordinates": [[[-73.9828882416067, 40.73118721064], [-73.9828084551744, 40.7312964415849], [-73.9830065495241, 40.7313802734075], [-73.9830860782063, 40.731270324173], [-73.9828882416067, 40.73118721064]]]}}, {"type": "Feature", "properties": {"zone_id": "02015BIRZ6W0KW46PA14IJ", "tract_id": "36061004001", "city": "NEW YORK, NY", "zone_code": "C1-7A", "zone_category": "Commercial", "ev_permitted": true}, "geometry": {"type": "Polygon", "coordinates": [[[-73.9830264858497, 40.7309979443617], [-73.9829935247766, 40.7310430711765], [-73.9832541536076, 40.7311533668414], [-73.983288967137, 40.7311058694558], [-73.9831556707863, 40.7310498686256], [-73.9831543891811, 40.7310516819966], [-73.9830264858497, 40.7309979443617]]]}}, {"type": "Feature", "properties": {"zone_id": "0200XNU8C21A5ED7MHFWKD", "tract_id": "36061004001", "city": "NEW YORK, NY", "zone_code": "C1-7A", "zone_category": "Commercial", "ev_permitted": true}, "geometry": {"type": "Polygon", "coordinates": [[[-73.9830624120005, 40.7309487601274], [-73.9830264858497, 40.7309979443617], [-73.9831543891811, 40.7310516819966], [-73.9831556707863, 40.7310498686256], [-73.983288967137, 40.7311058694558], [-73.9833236605017, 40.7310585181948], [-73.9830624120005, 40.7309487601274]]]}}, {"type": "Feature", "properties": {"zone_id": "0200EJ431U0PV413NDCWSE", "tract_id": "36061004001", "city": "NEW YORK, NY", "zone_code": "C1-7A", "zone_category": "Commercial", "ev_permitted": true}, "geometry": {"type": "Polygon", "coordinates": [[[-73.983099036643, 40.7308986182623], [-73.9830624120005, 40.7309487601274], [-73.9833236605017, 40.7310585181948], [-73.9833599874146, 40.73100904935], [-73.983099036643, 40.7308986182623]]]}}, {"type": "Feature", "properties": {"zone_id": "0203AUSYR5OFNO3BGRS29C", "tract_id": "36061004001", "city": "NEW YORK, NY", "zone_code": "C1-7A", "zone_category": "Commercial", "ev_permitted": true}, "geometry": {"type": "Polygon", "coordinates": [[[-73.9829935247766, 40.7310430711765], [-73.9829569119874, 40.731093196145], [-73.9831542348794, 40.7311760958783], [-73.9831902008864, 40.7311263719704], [-73.9829935247766, 40.7310430711765]]]}}, {"type": "Feature", "properties": {"zone_id": "02040ARF001FJB4JBGLS7U", "tract_id": "36061004001", "city": "NEW YORK, NY", "zone_code": "C1-7A", "zone_category": "Commercial", "ev_permitted": true}, "geometry": {"type": "Polygon", "coordinates": [[[-73.9831374186768, 40.7308460714465], [-73.983099036643, 40.7308986182623], [-73.9832827370592, 40.7309763582728], [-73.9833215421344, 40.7309234278068], [-73.9831374186768, 40.7308460714465]]]}}, {"type": "Feature", "properties": {"zone_id": "0203W41LYRQIPH742FCP5Z", "tract_id": "36061004001", "city": "NEW YORK, NY", "zone_code": "C1-7A", "zone_category": "Commercial", "ev_permitted": true}, "geometry": {"type": "Polygon", "coordinates": [[[-73.9831792665654, 40.7307887793764], [-73.9831374186768, 40.7308460714465], [-73.9833215421344, 40.7309234278068], [-73.9833635090562, 40.7308661827656], [-73.9831792665654, 40.7307887793764]]]}}, {"type": "Feature", "properties": {"zone_id": "02018GE1JHEY9JOEFZUUZ3", "tract_id": "36061004001", "city": "NEW YORK, NY", "zone_code": "R8B", "zone_category": "Residential", "ev_permitted": false}, "geometry": {"type": "Polygon", "coordinates": [[[-73.9847768388867, 40.7293189623075], [-73.9846089274324, 40.7295495184324], [-73.9846863162593, 40.7295821995104], [-73.9848542275282, 40.7293516432737], [-73.9847768388867, 40.7293189623075]]]}}, {"type": "Feature", "properties": {"zone_id": "0202AUM334FYXKPETVQKD1", "tract_id": "36061004001", "city": "NEW YORK, NY", "zone_code": "R8B", "zone_category": "Residential", "ev_permitted": false}, "geometry": {"type": "Polygon", "coordinates": [[[-73.9859044403677, 40.7287082168493], [-73.9857358857591, 40.7289396641218], [-73.9857971830867, 40.7289654718766], [-73.9859657375479, 40.7287340238125], [-73.9859044403677, 40.7287082168493]]]}}, {"type": "Feature", "properties": {"zone_id": "0200H5PIX4NGM7NQ26YH0N", "tract_id": "36061004001", "city": "NEW YORK, NY", "zone_code": "R8B", "zone_category": "Residential", "ev_permitted": false}, "geometry": {"type": "Polygon", "coordinates": [[[-73.9860936277974, 40.7287878678126], [-73.9859250727205, 40.7290193167647], [-73.9860046874075, 40.7290528362041], [-73.9861732422927, 40.7288213871364], [-73.9860936277974, 40.7287878678126]]]}}, {"type": "Feature", "properties": {"zone_id": "0205UYEESVQ5LQVK4MS43D", "tract_id": "36061004001", "city": "NEW YORK, NY", "zone_code": "R8B", "zone_category": "Residential", "ev_permitted": false}, "geometry": {"type": "Polygon", "coordinates": [[[-73.985610373695, 40.7288868199043], [-73.9854445358211, 40.7291145380812], [-73.9855207839636, 40.7291466408716], [-73.9856866216568, 40.728918922586], [-73.985610373695, 40.7288868199043]]]}}, {"type": "Feature", "properties": {"zone_id": "02050HB43NIM2AWLCYES36", "tract_id": "36061004001", "city": "NEW YORK, NY", "zone_code": "R8B", "zone_category": "Residential", "ev_permitted": false}, "geometry": {"type": "Polygon", "coordinates": [[[-73.985778928606, 40.7286553721113], [-73.985610373695, 40.7288868199043], [-73.9856866216568, 40.728918922586], [-73.9858551773079, 40.7286874746824], [-73.985778928606, 40.7286553721113]]]}}, {"type": "Feature", "properties": {"zone_id": "0202QEENRH9DHWSTETBFJC", "tract_id": "36061004001", "city": "NEW YORK, NY", "zone_code": "R8B", "zone_category": "Residential", "ev_permitted": false}, "geometry": {"type": "Polygon", "coordinates": [[[-73.9855395268713, 40.7285545769906], [-73.9853709704601, 40.7287860244363], [-73.9854520936968, 40.7288201796529], [-73.985620648989, 40.7285887320894], [-73.9855395268713, 40.7285545769906]]]}}, {"type": "Feature", "properties": {"zone_id": "0203MC095SSPT52B427HO9", "tract_id": "36061004001", "city": "NEW YORK, NY", "zone_code": "R8B", "zone_category": "Residential", "ev_permitted": false}, "geometry": {"type": "Polygon", "coordinates": [[[-73.985620648989, 40.7285887320894], [-73.9854520936968, 40.7288201796529], [-73.9855314160608, 40.7288535764185], [-73.985699971162, 40.7286221287399], [-73.985620648989, 40.7285887320894]]]}}, {"type": "Feature", "properties": {"zone_id": "0204JW503LBJ7YQ3W0PPS4", "tract_id": "36061004001", "city": "NEW YORK, NY", "zone_code": "R7A", "zone_category": "Residential", "ev_permitted": false}, "geometry": {"type": "Polygon", "coordinates": [[[-73.9846981323895, 40.729285725312], [-73.9846555552901, 40.7293426840862], [-73.9845293849159, 40.7295159277742], [-73.9846089274324, 40.7295495184324], [-73.9847768388867, 40.7293189623075], [-73.9846981323895, 40.729285725312]]]}}, {"type": "Feature", "properties": {"zone_id": "0204PSUV9Y65XZLZIOCYM8", "tract_id": "36061004001", "city": "NEW YORK, NY", "zone_code": "R7A", "zone_category": "Residential", "ev_permitted": false}, "geometry": {"type": "Polygon", "coordinates": [[[-73.984542103299, 40.7292947736717], [-73.9844159327203, 40.7294680179392], [-73.9845293849159, 40.7295159277742], [-73.9846555552901, 40.7293426840862], [-73.984542103299, 40.7292947736717]]]}}, {"type": "Feature", "properties": {"zone_id": "0200WN3XUEMPGWRUDYJAWU", "tract_id": "36061004001", "city": "NEW YORK, NY", "zone_code": "R7A", "zone_category": "Residential", "ev_permitted": false}, "geometry": {"type": "Polygon", "coordinates": [[[-73.9842950138007, 40.7292673661072], [-73.9842556643228, 40.7293213908762], [-73.9844599028563, 40.7294076403115], [-73.9844992494488, 40.7293536147702], [-73.9842950138007, 40.7292673661072]]]}}, {"type": "Feature", "properties": {"zone_id": "0201GK9HC8464AOZPGGTZT", "tract_id": "36061004001", "city": "NEW YORK, NY", "zone_code": "R7A", "zone_category": "Residential", "ev_permitted": false}, "geometry": {"type": "Polygon", "coordinates": [[[-73.9842556643228, 40.7293213908762], [-73.9842116792816, 40.7293817621008], [-73.9844159327203, 40.7294680179392], [-73.9844599028563, 40.7294076403115], [-73.9842556643228, 40.7293213908762]]]}}, {"type": "Feature", "properties": {"zone_id": "0203XJG4IA1UF0MGM47Y84", "tract_id": "36061004001", "city": "NEW YORK, NY", "zone_code": "R7A", "zone_category": "Residential", "ev_permitted": false}, "geometry": {"type": "Polygon", "coordinates": [[[-73.9845039850006, 40.7289804354299], [-73.984459780504, 40.7290411320528], [-73.9847774674658, 40.7291752907218], [-73.9848216726858, 40.7291145939781], [-73.9845039850006, 40.7289804354299]]]}}, {"type": "Feature", "properties": {"zone_id": "0201TXA2LULMAD5SL378RR", "tract_id": "36061004001", "city": "NEW YORK, NY", "zone_code": "R7A", "zone_category": "Residential", "ev_permitted": false}, "geometry": {"type": "Polygon", "coordinates": [[[-73.984459780504, 40.7290411320528], [-73.9844197346326, 40.7290961187238], [-73.9847374208522, 40.7292302775021], [-73.9847774674658, 40.7291752907218], [-73.984459780504, 40.7290411320528]]]}}, {"type": "Feature", "properties": {"zone_id": "0203QH94Z26ITDH6B9HJU8", "tract_id": "36061004001", "city": "NEW YORK, NY", "zone_code": "R7A", "zone_category": "Residential", "ev_permitted": false}, "geometry": {"type": "Polygon", "coordinates": [[[-73.9844197346326, 40.7290961187238], [-73.9843796027703, 40.72915121147], [-73.9846981323895, 40.729285725312], [-73.9847374208522, 40.7292302775021], [-73.9844197346326, 40.7290961187238]]]}}, {"type": "Feature", "properties": {"zone_id": "0205TYCGVCCPDWRU1APL1N", "tract_id": "36061004001", "city": "NEW YORK, NY", "zone_code": "R7A", "zone_category": "Residential", "ev_permitted": false}, "geometry": {"type": "Polygon", "coordinates": [[[-73.9843796027703, 40.72915121147], [-73.9843378677758, 40.729208525084], [-73.9846555552901, 40.7293426840862], [-73.9846981323895, 40.729285725312], [-73.9843796027703, 40.72915121147]]]}}, {"type": "Feature", "properties": {"zone_id": "0206OIYEIOYV33J96R0I12", "tract_id": "36061004001", "city": "NEW YORK, NY", "zone_code": "R7A", "zone_category": "Residential", "ev_permitted": false}, "geometry": {"type": "Polygon", "coordinates": [[[-73.9843378677758, 40.729208525084], [-73.9842950138007, 40.7292673661072], [-73.9844992494488, 40.7293536147702], [-73.984542103299, 40.7292947736717], [-73.9843378677758, 40.729208525084]]]}}, {"type": "Feature", "properties": {"zone_id": "02065MS36IU40JZGG9CUKG", "tract_id": "36061004001", "city": "NEW YORK, NY", "zone_code": "R7A", "zone_category": "Residential", "ev_permitted": false}, "geometry": {"type": "Polygon", "coordinates": [[[-73.9849337813757, 40.7283790000662], [-73.984890627258, 40.7284382551436], [-73.9852141150376, 40.7285744553029], [-73.985257268956, 40.7285152001054], [-73.9849337813757, 40.7283790000662]]]}}, {"type": "Feature", "properties": {"zone_id": "0204O8B195USQVQONY0GCU", "tract_id": "36061004001", "city": "NEW YORK, NY", "zone_code": "R7A", "zone_category": "Residential", "ev_permitted": false}, "geometry": {"type": "Polygon", "coordinates": [[[-73.9849780709268, 40.7283181859231], [-73.9849337813757, 40.7283790000662], [-73.9851747155963, 40.7284804423885], [-73.9852190049951, 40.7284196274509], [-73.9849780709268, 40.7283181859231]]]}}, {"type": "Feature", "properties": {"zone_id": "0205K2C07A4MLLSEN74ST9", "tract_id": "36061004001", "city": "NEW YORK, NY", "zone_code": "R7A", "zone_category": "Residential", "ev_permitted": false}, "geometry": {"type": "Polygon", "coordinates": [[[-73.9853015583027, 40.7284543844338], [-73.9852266093278, 40.7285572987125], [-73.9853061547684, 40.7285907877112], [-73.9853811018104, 40.728487875489], [-73.9853015583027, 40.7284543844338]]]}}, {"type": "Feature", "properties": {"zone_id": "02024ZOV203FFNXDEQ16OF", "tract_id": "36061004001", "city": "NEW YORK, NY", "zone_code": "R7A", "zone_category": "Residential", "ev_permitted": false}, "geometry": {"type": "Polygon", "coordinates": [[[-73.9852190049951, 40.7284196274509], [-73.9851747155963, 40.7284804423885], [-73.985257268956, 40.7285152001054], [-73.9853015583027, 40.7284543844338], [-73.9852190049951, 40.7284196274509]]]}}]}