{"type": "FeatureCollection", "features": [{"type": "Feature", "properties": {"zone_id": "0200THFLAFQW3R260Y9DNZ", "tract_id": "36047009202", "city": "BROOKLYN, NY", "zone_code": "R6", "zone_category": "Residential", "ev_permitted": false}, "geometry": {"type": "Polygon", "coordinates": [[[-73.998363892519, 40.6456396797505], [-73.9983179638446, 40.645683840163], [-73.9986051437397, 40.6458570304897], [-73.9986506572225, 40.6458126191072], [-73.998363892519, 40.6456396797505]]]}}, {"type": "Feature", "properties": {"zone_id": "0200YFNPWREC1ONMMLBXPQ", "tract_id": "36047009202", "city": "BROOKLYN, NY", "zone_code": "C1-3", "zone_category": "Commercial", "ev_permitted": true}, "geometry": {"type": "Polygon", "coordinates": [[[-73.9983179638446, 40.645683840163], [-73.9982733515507, 40.6457267350775], [-73.9985609346433, 40.6459001686417], [-73.9986051437397, 40.6458570304897], [-73.9983179638446, 40.645683840163]]]}}, {"type": "Feature", "properties": {"zone_id": "0200P7L2B4CD3AIHK6QYTV", "tract_id": "36047009202", "city": "BROOKLYN, NY", "zone_code": "R6", "zone_category": "Residential", "ev_permitted": false}, "geometry": {"type": "Polygon", "coordinates": [[[-73.9984662160776, 40.6455632530165], [-73.998422239576, 40.6456055359768], [-73.9986945691518, 40.645769769712], [-73.9987381470733, 40.6457272463326], [-73.9984662160776, 40.6455632530165]]]}}, {"type": "Feature", "properties": {"zone_id": "0200QLPSJC35BITNAUXKMX", "tract_id": "36047009202", "city": "BROOKLYN, NY", "zone_code": "R6", "zone_category": "Residential", "ev_permitted": false}, "geometry": {"type": "Polygon", "coordinates": [[[-73.998422239576, 40.6456055359768], [-73.9983779262984, 40.6456481428438], [-73.9986506572225, 40.6458126191072], [-73.9986945691518, 40.645769769712], [-73.998422239576, 40.6456055359768]]]}}, {"type": "Feature", "properties": {"zone_id": "02004C5NNJO05JGFUHIPSS", "tract_id": "36047009202", "city": "BROOKLYN, NY", "zone_code": "R6", "zone_category": "Residential", "ev_permitted": false}, "geometry": {"type": "Polygon", "coordinates": [[[-73.9985341573148, 40.6453885616014], [-73.9983080258799, 40.6456059882746], [-73.9983779262984, 40.6456481428438], [-73.9986040327405, 40.6454307413298], [-73.9985341573148, 40.6453885616014]]]}}, {"type": "Feature", "properties": {"zone_id": "0207MD99F4H724XQIZB65D", "tract_id": "36047009202", "city": "BROOKLYN, NY", "zone_code": "R6", "zone_category": "Residential", "ev_permitted": false}, "geometry": {"type": "Polygon", "coordinates": [[[-73.9986040327405, 40.6454307413298], [-73.9985559226175, 40.6454769992662], [-73.9988270426136, 40.6456405033088], [-73.9988746203875, 40.6455940773177], [-73.9986040327405, 40.6454307413298]]]}}, {"type": "Feature", "properties": {"zone_id": "0205I4U67PFT7C48YUKHN8", "tract_id": "36047009202", "city": "BROOKLYN, NY", "zone_code": "C1-3", "zone_category": "Commercial", "ev_permitted": true}, "geometry": {"type": "Polygon", "coordinates": [[[-73.9985559226175, 40.6454769992662], [-73.9985126344277, 40.6455186217652], [-73.9987841465451, 40.6456823613059], [-73.9988270426136, 40.6456405033088], [-73.9985559226175, 40.6454769992662]]]}}, {"type": "Feature", "properties": {"zone_id": "0201ZK1K8XFZDART8T365G", "tract_id": "36047009202", "city": "BROOKLYN, NY", "zone_code": "R6", "zone_category": "Residential", "ev_permitted": false}, "geometry": {"type": "Polygon", "coordinates": [[[-73.9985126344277, 40.6455186217652], [-73.9984662160776, 40.6455632530165], [-73.9987381470733, 40.6457272463326], [-73.9987841465451, 40.6456823613059], [-73.9985126344277, 40.6455186217652]]]}}, {"type": "Feature", "properties": {"zone_id": "02004AB4QVOADP8372I4IP", "tract_id": "36047009202", "city": "BROOKLYN, NY", "zone_code": "R6", "zone_category": "Residential", "ev_permitted": false}, "geometry": {"type": "Polygon", "coordinates": [[[-73.9988305799852, 40.6451904289846], [-73.9987695937922, 40.6452491472348], [-73.9990589980287, 40.6454238612429], [-73.9991198070089, 40.645365036034], [-73.9988305799852, 40.6451904289846]]]}}, {"type": "Feature", "properties": {"zone_id": "02017U15DE9US9IVWVHSV6", "tract_id": "36047009202", "city": "BROOKLYN, NY", "zone_code": "R6", "zone_category": "Residential", "ev_permitted": false}, "geometry": {"type": "Polygon", "coordinates": [[[-73.9988870974453, 40.6451360123725], [-73.9988305799852, 40.6451904289846], [-73.9991198070089, 40.645365036034], [-73.9991761601783, 40.6453105202038], [-73.9988870974453, 40.6451360123725]]]}}, {"type": "Feature", "properties": {"zone_id": "02067SLFGRCN6RNH58J98R", "tract_id": "36047009202", "city": "BROOKLYN, NY", "zone_code": "C1-3", "zone_category": "Commercial", "ev_permitted": true}, "geometry": {"type": "Polygon", "coordinates": [[[-73.9987695937922, 40.6452491472348], [-73.9987163824232, 40.6453003793487], [-73.9990059407983, 40.6454751862427], [-73.9990589980287, 40.6454238612429], [-73.9987695937922, 40.6452491472348]]]}}, {"type": "Feature", "properties": {"zone_id": "0201E1CPFU3EBXOS4PN1HG", "tract_id": "36047009202", "city": "BROOKLYN, NY", "zone_code": "R6", "zone_category": "Residential", "ev_permitted": false}, "geometry": {"type": "Polygon", "coordinates": [[[-73.999749544401, 40.6443023028441], [-73.9996146114309, 40.64443168345], [-73.9999056065434, 40.6446068253798], [-74.0000410863362, 40.6444777732819], [-73.999749544401, 40.6443023028441]]]}}, {"type": "Feature", "properties": {"zone_id": "0207CJDJCYL8SN9TPA5QP1", "tract_id": "36047009202", "city": "BROOKLYN, NY", "zone_code": "C1-3", "zone_category": "Commercial", "ev_permitted": true}, "geometry": {"type": "Polygon", "coordinates": [[[-73.9992028190243, 40.6448753867771], [-73.999154075958, 40.6449223174125], [-73.9994147664491, 40.6450796969813], [-73.9994633295617, 40.6450327191569], [-73.9992028190243, 40.6448753867771]]]}}, {"type": "Feature", "properties": {"zone_id": "02014Q9O44Y61EDEJTMU2P", "tract_id": "36047009202", "city": "BROOKLYN, NY", "zone_code": "R6", "zone_category": "Residential", "ev_permitted": false}, "geometry": {"type": "Polygon", "coordinates": [[[-73.999154075958, 40.6449223174125], [-73.9991111491987, 40.6449636478334], [-73.9993719652084, 40.645121101982], [-73.9994147664491, 40.6450796969813], [-73.999154075958, 40.6449223174125]]]}}, {"type": "Feature", "properties": {"zone_id": "0200IMY5LX6OA04WNCFLGV", "tract_id": "36047009202", "city": "BROOKLYN, NY", "zone_code": "C1-3", "zone_category": "Commercial", "ev_permitted": true}, "geometry": {"type": "Polygon", "coordinates": [[[-73.9991111491987, 40.6449636478334], [-73.9990631449286, 40.6450098673387], [-73.9993241003013, 40.6451674066186], [-73.9993719652084, 40.645121101982], [-73.9991111491987, 40.6449636478334]]]}}, {"type": "Feature", "properties": {"zone_id": "0203MZDL1LYFVXRNPPS302", "tract_id": "36047009202", "city": "BROOKLYN, NY", "zone_code": "C1-3", "zone_category": "Commercial", "ev_permitted": true}, "geometry": {"type": "Polygon", "coordinates": [[[-73.9990631449286, 40.6450098673387], [-73.9990169311732, 40.6450543624995], [-73.999278021294, 40.6452119826908], [-73.9993241003013, 40.6451674066186], [-73.9990631449286, 40.6450098673387]]]}}, {"type": "Feature", "properties": {"zone_id": "02067X5JHS8V9O9IE7KTBP", "tract_id": "36047009202", "city": "BROOKLYN, NY", "zone_code": "C1-3", "zone_category": "Commercial", "ev_permitted": true}, "geometry": {"type": "Polygon", "coordinates": [[[-73.9990169311732, 40.6450543624995], [-73.9989729535102, 40.645096703994], [-73.9992341709961, 40.645254402281], [-73.999278021294, 40.6452119826908], [-73.9990169311732, 40.6450543624995]]]}}, {"type": "Feature", "properties": {"zone_id": "0204RFR29LPJMVTBJLJHNG", "tract_id": "36047009202", "city": "BROOKLYN, NY", "zone_code": "C1-3", "zone_category": "Commercial", "ev_permitted": true}, "geometry": {"type": "Polygon", "coordinates": [[[-73.9988898387569, 40.6450453377214], [-73.998660183797, 40.6452664519435], [-73.9987163824232, 40.6453003793487], [-73.9989460382361, 40.6450792650152], [-73.9988898387569, 40.6450453377214]]]}}, {"type": "Feature", "properties": {"zone_id": "020647VXRMQ3M7J225FXDI", "tract_id": "36047009202", "city": "BROOKLYN, NY", "zone_code": "C1-3", "zone_category": "Commercial", "ev_permitted": true}, "geometry": {"type": "Polygon", "coordinates": [[[-73.9991189571447, 40.6448247394898], [-73.9988898387569, 40.6450453377214], [-73.9989737136548, 40.6450959732294], [-73.9992028190243, 40.6448753867771], [-73.9991189571447, 40.6448247394898]]]}}, {"type": "Feature", "properties": {"zone_id": "0203BAUNVQT6973MXZJLDZ", "tract_id": "36047009202", "city": "BROOKLYN, NY", "zone_code": "C1-3", "zone_category": "Commercial", "ev_permitted": true}, "geometry": {"type": "Polygon", "coordinates": [[[-73.9989460382361, 40.6450792650152], [-73.9988870974453, 40.6451360123725], [-73.9991761601783, 40.6453105202038], [-73.9992341709961, 40.645254402281], [-73.9989729535102, 40.645096703994], [-73.9989737136548, 40.6450959732294], [-73.9989460382361, 40.6450792650152]]]}}, {"type": "Feature", "properties": {"zone_id": "0200JWOTFODQPGU1KYBZ9E", "tract_id": "36047009202", "city": "BROOKLYN, NY", "zone_code": "C1-3", "zone_category": "Commercial", "ev_permitted": true}, "geometry": {"type": "Polygon", "coordinates": [[[-73.9988299927672, 40.6450092082114], [-73.9986003368108, 40.6452303216121], [-73.998660183797, 40.6452664519435], [-73.9988898387569, 40.6450453377214], [-73.9988299927672, 40.6450092082114]]]}}, {"type": "Feature", "properties": {"zone_id": "0202OSAU1G6O8XTI4SFZ3L", "tract_id": "36047009202", "city": "BROOKLYN, NY", "zone_code": "C1-3", "zone_category": "Commercial", "ev_permitted": true}, "geometry": {"type": "Polygon", "coordinates": [[[-73.9987771281716, 40.6449772933281], [-73.9985474721499, 40.6451984073268], [-73.9986003368108, 40.6452303216121], [-73.9988299927672, 40.6450092082114], [-73.9987771281716, 40.6449772933281]]]}}, {"type": "Feature", "properties": {"zone_id": "0201STQASR57RP6AQWN4WA", "tract_id": "36047009202", "city": "BROOKLYN, NY", "zone_code": "R6", "zone_category": "Residential", "ev_permitted": false}, "geometry": {"type": "Polygon", "coordinates": [[[-73.9987193071457, 40.6449423864185], [-73.998489651975, 40.6451634995999], [-73.9985474721499, 40.6451984073268], [-73.9987771281716, 40.6449772933281], [-73.9987193071457, 40.6449423864185]]]}}, {"type": "Feature", "properties": {"zone_id": "0203EZRDJ1XQIRWEW83W66", "tract_id": "36047009202", "city": "BROOKLYN, NY", "zone_code": "R6", "zone_category": "Residential", "ev_permitted": false}, "geometry": {"type": "Polygon", "coordinates": [[[-73.9986091909145, 40.6448759081286], [-73.9983795337627, 40.6450970210918], [-73.9984334037655, 40.6451295425708], [-73.9986630590057, 40.6449084287982], [-73.9986091909145, 40.6448759081286]]]}}, {"type": "Feature", "properties": {"zone_id": "0201V1LLCAMI518RDP894R", "tract_id": "36047009202", "city": "BROOKLYN, NY", "zone_code": "R6", "zone_category": "Residential", "ev_permitted": false}, "geometry": {"type": "Polygon", "coordinates": [[[-73.9986630590057, 40.6449084287982], [-73.9984334037655, 40.6451295425708], [-73.998489651975, 40.6451634995999], [-73.9987193071457, 40.6449423864185], [-73.9986630590057, 40.6449084287982]]]}}, {"type": "Feature", "properties": {"zone_id": "0202XFTXG3FQ239C2I13GC", "tract_id": "36047009202", "city": "BROOKLYN, NY", "zone_code": "R6", "zone_category": "Residential", "ev_permitted": false}, "geometry": {"type": "Polygon", "coordinates": [[[-73.9985506754396, 40.6448405816346], [-73.998321019138, 40.645061695887], [-73.9983795337627, 40.6450970210918], [-73.9986091909145, 40.6448759081286], [-73.9985506754396, 40.6448405816346]]]}}, {"type": "Feature", "properties": {"zone_id": "02064BD842ISYMM9Q16B8K", "tract_id": "36047009202", "city": "BROOKLYN, NY", "zone_code": "C1-3", "zone_category": "Commercial", "ev_permitted": true}, "geometry": {"type": "Polygon", "coordinates": [[[-73.9990062633035, 40.6447566784555], [-73.9987771281716, 40.6449772933281], [-73.9988299927672, 40.6450092082114], [-73.9990591195313, 40.6447886009635], [-73.9990062633035, 40.6447566784555]]]}}, {"type": "Feature", "properties": {"zone_id": "02015J9GYLG2LSX6TGMZ3O", "tract_id": "36047009202", "city": "BROOKLYN, NY", "zone_code": "R6", "zone_category": "Residential", "ev_permitted": false}, "geometry": {"type": "Polygon", "coordinates": [[[-73.998838351161, 40.6446552682925], [-73.9986091909145, 40.6448759081286], [-73.9987193071457, 40.6449423864185], [-73.9989484515739, 40.6447217632285], [-73.998838351161, 40.6446552682925]]]}}, {"type": "Feature", "properties": {"zone_id": "020246H9910ZU9Y7OGKZCT", "tract_id": "36047009202", "city": "BROOKLYN, NY", "zone_code": "R6", "zone_category": "Residential", "ev_permitted": false}, "geometry": {"type": "Polygon", "coordinates": [[[-73.9990591195313, 40.6447886009635], [-73.9988299927672, 40.6450092082114], [-73.9988898387569, 40.6450453377214], [-73.9991189571447, 40.6448247394898], [-73.9990591195313, 40.6447886009635]]]}}, {"type": "Feature", "properties": {"zone_id": "0200AM2BHR5A7LKN66T0FA", "tract_id": "36047009202", "city": "BROOKLYN, NY", "zone_code": "R6", "zone_category": "Residential", "ev_permitted": false}, "geometry": {"type": "Polygon", "coordinates": [[[-73.9989484515739, 40.6447217632285], [-73.9987193071457, 40.6449423864185], [-73.9987771281716, 40.6449772933281], [-73.9990062633035, 40.6447566784555], [-73.9989484515739, 40.6447217632285]]]}}, {"type": "Feature", "properties": {"zone_id": "02039YBKERS43H3IDY61Z2", "tract_id": "36047009202", "city": "", "zone_code": "R6", "zone_category": "Residential", "ev_permitted": false}, "geometry": {"type": "Polygon", "coordinates": [[[-73.9987247455651, 40.6445866560827], [-73.9984955667284, 40.6448073118551], [-73.9986091909145, 40.6448759081286], [-73.998838351161, 40.6446552682925], [-73.9987247455651, 40.6445866560827]]]}}, {"type": "Feature", "properties": {"zone_id": "0201VWN2E3592PYGHTCOT1", "tract_id": "36047009202", "city": "BROOKLYN, NY", "zone_code": "R6", "zone_category": "Residential", "ev_permitted": false}, "geometry": {"type": "Polygon", "coordinates": [[[-73.9994762192506, 40.6444807745833], [-73.9992397463248, 40.6447075140748], [-73.9995828371829, 40.6449142777682], [-73.9997024098562, 40.6448003796846], [-73.9994122345183, 40.6446257305195], [-73.9995297608879, 40.6445130418875], [-73.9994762192506, 40.6444807745833]]]}}, {"type": "Feature", "properties": {"zone_id": "02039PLQ27CBHLXJUWBZEW", "tract_id": "36047009202", "city": "BROOKLYN, NY", "zone_code": "C1-3", "zone_category": "Commercial", "ev_permitted": true}, "geometry": {"type": "Polygon", "coordinates": [[[-73.9996146114309, 40.64443168345], [-73.9995733088544, 40.6444712861983], [-73.9998641361389, 40.6446463277505], [-73.9999056065434, 40.6446068253798], [-73.9996146114309, 40.64443168345]]]}}, {"type": "Feature", "properties": {"zone_id": "0203IQY7ND7D56E523W35L", "tract_id": "36047009202", "city": "BROOKLYN, NY", "zone_code": "C1-3", "zone_category": "Commercial", "ev_permitted": true}, "geometry": {"type": "Polygon", "coordinates": [[[-73.9995350310738, 40.6445079883433], [-73.9994920347091, 40.6445492149137], [-73.9997825327929, 40.6447240585178], [-73.9998257052854, 40.6446829358343], [-73.9995350310738, 40.6445079883433]]]}}, {"type": "Feature", "properties": {"zone_id": "02062ERRP1IAWR8F5N7LLK", "tract_id": "36047009202", "city": "BROOKLYN, NY", "zone_code": "C1-3", "zone_category": "Commercial", "ev_permitted": true}, "geometry": {"type": "Polygon", "coordinates": [[[-73.9994920347091, 40.6445492149137], [-73.9994529856356, 40.6445866569337], [-73.9997433260352, 40.644761405073], [-73.9997825327929, 40.6447240585178], [-73.9994920347091, 40.6445492149137]]]}}, {"type": "Feature", "properties": {"zone_id": "0207AIP2I902ER45M7PB7H", "tract_id": "36047009202", "city": "BROOKLYN, NY", "zone_code": "C1-3", "zone_category": "Commercial", "ev_permitted": true}, "geometry": {"type": "Polygon", "coordinates": [[[-73.9994529856356, 40.6445866569337], [-73.9994122345183, 40.6446257305195], [-73.9997024098562, 40.6448003796846], [-73.9997433260352, 40.644761405073], [-73.9994529856356, 40.6445866569337]]]}}, {"type": "Feature", "properties": {"zone_id": "02067WX5I75L3XYDPJGOBG", "tract_id": "36047009202", "city": "BROOKLYN, NY", "zone_code": "C1-3", "zone_category": "Commercial", "ev_permitted": true}, "geometry": {"type": "Polygon", "coordinates": [[[-73.9995733088544, 40.6444712861983], [-73.9995350310738, 40.6445079883433], [-73.9998257052854, 40.6446829358343], [-73.9998641361389, 40.6446463277505], [-73.9995733088544, 40.6444712861983]]]}}, {"type": "Feature", "properties": {"zone_id": "0204YFK5RBQRCK9KU3R1KZ", "tract_id": "36047009202", "city": "BROOKLYN, NY", "zone_code": "C1-3", "zone_category": "Commercial", "ev_permitted": true}, "geometry": {"type": "Polygon", "coordinates": [[[-73.9993096271496, 40.6443803769487], [-73.9990731540135, 40.6446071168028], [-73.9992397463248, 40.6447075140748], [-73.9994762192506, 40.6444807745833], [-73.9993096271496, 40.6443803769487]]]}}, {"type": "Feature", "properties": {"zone_id": "0207AP8OE2BAO6L7UUUGQW", "tract_id": "36047009202", "city": "BROOKLYN, NY", "zone_code": "R6", "zone_category": "Residential", "ev_permitted": false}, "geometry": {"type": "Polygon", "coordinates": [[[-73.9991356677539, 40.6442755402824], [-73.9988991943982, 40.6445022790788], [-73.9990731540135, 40.6446071168028], [-73.9993096271496, 40.6443803769487], [-73.9991356677539, 40.6442755402824]]]}}, {"type": "Feature", "properties": {"zone_id": "02017HIK9PZ2R3PNIJ3VJG", "tract_id": "36047009202", "city": "BROOKLYN, NY", "zone_code": "C1-3", "zone_category": "Commercial", "ev_permitted": true}, "geometry": {"type": "Polygon", "coordinates": [[[-73.9996731631968, 40.6442563308031], [-73.9994534164936, 40.6444670331633], [-73.9995297608879, 40.6445130418875], [-73.999749544401, 40.6443023028441], [-73.9996731631968, 40.6442563308031]]]}}, {"type": "Feature", "properties": {"zone_id": "0201C810NCQJ0SXL7XNXRJ", "tract_id": "36047009202", "city": "BROOKLYN, NY", "zone_code": "R6", "zone_category": "Residential", "ev_permitted": false}, "geometry": {"type": "Polygon", "coordinates": [[[-73.9996039432828, 40.6442146688825], [-73.9993842315528, 40.6444253380862], [-73.9994534164936, 40.6444670331633], [-73.9996731631968, 40.6442563308031], [-73.9996039432828, 40.6442146688825]]]}}, {"type": "Feature", "properties": {"zone_id": "0201FJUBG4W4P1K8S6B4KI", "tract_id": "36047009202", "city": "BROOKLYN, NY", "zone_code": "R6", "zone_category": "Residential", "ev_permitted": false}, "geometry": {"type": "Polygon", "coordinates": [[[-73.9995293020676, 40.6441697437221], [-73.9993096271496, 40.6443803769487], [-73.9993842315528, 40.6444253380862], [-73.9996039432828, 40.6442146688825], [-73.9995293020676, 40.6441697437221]]]}}, {"type": "Feature", "properties": {"zone_id": "0206QPGC41851YYR0WY017", "tract_id": "36047009202", "city": "BROOKLYN, NY", "zone_code": "R6", "zone_category": "Residential", "ev_permitted": false}, "geometry": {"type": "Polygon", "coordinates": [[[-73.9993552570847, 40.644064989597], [-73.9991356677539, 40.6442755402824], [-73.9991933454369, 40.6443102994246], [-73.9994129623747, 40.6440997205235], [-73.9993552570847, 40.644064989597]]]}}, {"type": "Feature", "properties": {"zone_id": "0200F4KYHICI1ZMRYJD7M8", "tract_id": "36047009202", "city": "BROOKLYN, NY", "zone_code": "R6", "zone_category": "Residential", "ev_permitted": false}, "geometry": {"type": "Polygon", "coordinates": [[[-73.9994681622847, 40.6441329448957], [-73.999248517737, 40.6443435499], [-73.9993096271496, 40.6443803769487], [-73.9995293020676, 40.6441697437221], [-73.9994681622847, 40.6441329448957]]]}}, {"type": "Feature", "properties": {"zone_id": "0201MM8F54BF9LXX810GBY", "tract_id": "36047009202", "city": "BROOKLYN, NY", "zone_code": "R6", "zone_category": "Residential", "ev_permitted": false}, "geometry": {"type": "Polygon", "coordinates": [[[-73.9994129623747, 40.6440997205235], [-73.9991933454369, 40.6443102994246], [-73.999248517737, 40.6443435499], [-73.9994681622847, 40.6441329448957], [-73.9994129623747, 40.6440997205235]]]}}, {"type": "Feature", "properties": {"zone_id": "0205IV4RM4D2VFAAMMNH00", "tract_id": "36047009202", "city": "BROOKLYN, NY", "zone_code": "R6", "zone_category": "Residential", "ev_permitted": false}, "geometry": {"type": "Polygon", "coordinates": [[[-73.9986400385037, 40.6445354968951], [-73.998410845725, 40.6447561651477], [-73.9984955667284, 40.6448073118551], [-73.9987247455651, 40.6445866560827], [-73.9986400385037, 40.6445354968951]]]}}, {"type": "Feature", "properties": {"zone_id": "0200W9SH4EH5AV51XOX07D", "tract_id": "36047009202", "city": "BROOKLYN, NY", "zone_code": "R6", "zone_category": "Residential", "ev_permitted": false}, "geometry": {"type": "Polygon", "coordinates": [[[-73.9985519866908, 40.6444823174413], [-73.9983227808884, 40.6447029988702], [-73.998410845725, 40.6447561651477], [-73.9986400385037, 40.6445354968951], [-73.9985519866908, 40.6444823174413]]]}}, {"type": "Feature", "properties": {"zone_id": "0202S9113J9KQML59UA84X", "tract_id": "36047009202", "city": "BROOKLYN, NY", "zone_code": "R6", "zone_category": "Residential", "ev_permitted": false}, "geometry": {"type": "Polygon", "coordinates": [[[-73.9990514173945, 40.6442247657572], [-73.9988149430101, 40.644451503679], [-73.9988991943982, 40.6445022790788], [-73.9991356677539, 40.6442755402824], [-73.9990514173945, 40.6442247657572]]]}}, {"type": "Feature", "properties": {"zone_id": "0200UEM9QSAKK2P98BUXFG", "tract_id": "36047009202", "city": "BROOKLYN, NY", "zone_code": "R6", "zone_category": "Residential", "ev_permitted": false}, "geometry": {"type": "Polygon", "coordinates": [[[-73.9989686172873, 40.6441748652981], [-73.9987321446433, 40.6444016037535], [-73.9988149430101, 40.644451503679], [-73.9990514173945, 40.6442247657572], [-73.9989686172873, 40.6441748652981]]]}}, {"type": "Feature", "properties": {"zone_id": "0205N00XVEM4N3BT693ORE", "tract_id": "36047009202", "city": "BROOKLYN, NY", "zone_code": "R6", "zone_category": "Residential", "ev_permitted": false}, "geometry": {"type": "Polygon", "coordinates": [[[-73.9988809429764, 40.6441220275925], [-73.9986444692992, 40.644348765869], [-73.9987321446433, 40.6444016037535], [-73.9989686172873, 40.6441748652981], [-73.9988809429764, 40.6441220275925]]]}}, {"type": "Feature", "properties": {"zone_id": "02030OZ67DIFONYZQMAO3Y", "tract_id": "36047009202", "city": "BROOKLYN, NY", "zone_code": "R6", "zone_category": "Residential", "ev_permitted": false}, "geometry": {"type": "Polygon", "coordinates": [[[-73.9987975702716, 40.6440717819956], [-73.9985610964892, 40.6442985201019], [-73.9986444692992, 40.644348765869], [-73.9988809429764, 40.6441220275925], [-73.9987975702716, 40.6440717819956]]]}}, {"type": "Feature", "properties": {"zone_id": "0201ZZKEAS1S6VBWW3LG1Q", "tract_id": "36047009202", "city": "BROOKLYN, NY", "zone_code": "R6", "zone_category": "Residential", "ev_permitted": false}, "geometry": {"type": "Polygon", "coordinates": [[[-73.9992989687709, 40.6440311116853], [-73.9990794088936, 40.6442416348603], [-73.9991356677539, 40.6442755402824], [-73.9993552570847, 40.644064989597], [-73.9992989687709, 40.6440311116853]]]}}, {"type": "Feature", "properties": {"zone_id": "02050IWKUG05QRGVNQSYEP", "tract_id": "36047009202", "city": "BROOKLYN, NY", "zone_code": "R6", "zone_category": "Residential", "ev_permitted": false}, "geometry": {"type": "Polygon", "coordinates": [[[-73.9992416519596, 40.6439966125834], [-73.9990221196898, 40.6442071089488], [-73.9990794088936, 40.6442416348603], [-73.9992989687709, 40.6440311116853], [-73.9992416519596, 40.6439966125834]]]}}, {"type": "Feature", "properties": {"zone_id": "02027P2R79XEPLYHGJT07N", "tract_id": "36047009202", "city": "BROOKLYN, NY", "zone_code": "R6", "zone_category": "Residential", "ev_permitted": false}, "geometry": {"type": "Polygon", "coordinates": [[[-73.9991881237901, 40.6439643950325], [-73.9989686172873, 40.6441748652981], [-73.9990221196898, 40.6442071089488], [-73.9992416519596, 40.6439966125834], [-73.9991881237901, 40.6439643950325]]]}}, {"type": "Feature", "properties": {"zone_id": "02013DNSN4W2OE974WZJAX", "tract_id": "36047009202", "city": "BROOKLYN, NY", "zone_code": "R6", "zone_category": "Residential", "ev_permitted": false}, "geometry": {"type": "Polygon", "coordinates": [[[-73.9984587258149, 40.6438675715893], [-73.9982222516048, 40.6440943083013], [-73.9985610964892, 40.6442985201019], [-73.9987975702716, 40.6440717819956], [-73.9984587258149, 40.6438675715893]]]}}, {"type": "Feature", "properties": {"zone_id": "0201PVG5FLUJN3VJZ7Y2ZD", "tract_id": "36047009202", "city": "BROOKLYN, NY", "zone_code": "R6", "zone_category": "Residential", "ev_permitted": false}, "geometry": {"type": "Polygon", "coordinates": [[[-73.9990473744793, 40.643879679267], [-73.9988279379207, 40.6440900832161], [-73.9988988296573, 40.6441328073472], [-73.9991183011874, 40.6439223695361], [-73.9990473744793, 40.643879679267]]]}}, {"type": "Feature", "properties": {"zone_id": "0205JULUWYCPNALETAEDGJ", "tract_id": "36047009202", "city": "BROOKLYN, NY", "zone_code": "R6", "zone_category": "Residential", "ev_permitted": false}, "geometry": {"type": "Polygon", "coordinates": [[[-73.9989763242515, 40.6438369158757], [-73.9987569235867, 40.6440472852601], [-73.9988279379207, 40.6440900832161], [-73.9990473744793, 40.643879679267], [-73.9989763242515, 40.6438369158757]]]}}, {"type": "Feature", "properties": {"zone_id": "0206OGMT6ABXX9XYB0YA8J", "tract_id": "36047009202", "city": "BROOKLYN, NY", "zone_code": "R6", "zone_category": "Residential", "ev_permitted": false}, "geometry": {"type": "Polygon", "coordinates": [[[-73.9989042455665, 40.6437935319774], [-73.9986848807944, 40.6440038667951], [-73.9987569235867, 40.6440472852601], [-73.9989763242515, 40.6438369158757], [-73.9989042455665, 40.6437935319774]]]}}, {"type": "Feature", "properties": {"zone_id": "0206MOR9DD35OIME878M12", "tract_id": "36047009202", "city": "BROOKLYN, NY", "zone_code": "R6", "zone_category": "Residential", "ev_permitted": false}, "geometry": {"type": "Polygon", "coordinates": [[[-73.9991183011874, 40.6439223695361], [-73.9988988296573, 40.6441328073472], [-73.9989686172873, 40.6441748652981], [-73.9991881237901, 40.6439643950325], [-73.9991183011874, 40.6439223695361]]]}}, {"type": "Feature", "properties": {"zone_id": "0206DDUS8RIOYAKIMPUI2D", "tract_id": "36047009202", "city": "BROOKLYN, NY", "zone_code": "R6", "zone_category": "Residential", "ev_permitted": false}, "geometry": {"type": "Polygon", "coordinates": [[[-73.9988472022126, 40.6437591985095], [-73.9986278650485, 40.6439695065182], [-73.9986848807944, 40.6440038667951], [-73.9989042455665, 40.6437935319774], [-73.9988472022126, 40.6437591985095]]]}}, {"type": "Feature", "properties": {"zone_id": "02018X8FPM1M82EFIPHOT3", "tract_id": "36047009202", "city": "BROOKLYN, NY", "zone_code": "R6", "zone_category": "Residential", "ev_permitted": false}, "geometry": {"type": "Polygon", "coordinates": [[[-73.998536687887, 40.6435723008647], [-73.9983175034929, 40.6437824607282], [-73.9983881510461, 40.6438250376123], [-73.9986073694897, 40.6436148445904], [-73.998536687887, 40.6435723008647]]]}}, {"type": "Feature", "properties": {"zone_id": "0203MEXZ7H0IUCV51N6E75", "tract_id": "36047009202", "city": "BROOKLYN, NY", "zone_code": "R6", "zone_category": "Residential", "ev_permitted": false}, "geometry": {"type": "Polygon", "coordinates": [[[-73.9986073694897, 40.6436148445904], [-73.9983881510461, 40.6438250376123], [-73.9984587258149, 40.6438675715893], [-73.9986779801531, 40.6436573440036], [-73.9986073694897, 40.6436148445904]]]}}, {"type": "Feature", "properties": {"zone_id": "0203WIZ13CGKUDIZWKVTOK", "tract_id": "36047009202", "city": "BROOKLYN, NY", "zone_code": "R6", "zone_category": "Residential", "ev_permitted": false}, "geometry": {"type": "Polygon", "coordinates": [[[-73.9986779801531, 40.6436573440036], [-73.9984587258149, 40.6438675715893], [-73.9986278650485, 40.6439695065182], [-73.9988472022126, 40.6437591985095], [-73.9986779801531, 40.6436573440036]]]}}, {"type": "Feature", "properties": {"zone_id": "020387WF0A6OV1CDI8GBXV", "tract_id": "36047009202", "city": "BROOKLYN, NY", "zone_code": "R6", "zone_category": "Residential", "ev_permitted": false}, "geometry": {"type": "Polygon", "coordinates": [[[-73.9982299274115, 40.6457684867572], [-73.9981390502938, 40.6458558644951], [-73.998427849438, 40.6460300312887], [-73.9985179035525, 40.6459421572323], [-73.9982299274115, 40.6457684867572]]]}}, {"type": "Feature", "properties": {"zone_id": "02028N75Q3FJXQT3FGS31M", "tract_id": "36047009202", "city": "BROOKLYN, NY", "zone_code": "C1-3", "zone_category": "Commercial", "ev_permitted": true}, "geometry": {"type": "Polygon", "coordinates": [[[-73.9982733515507, 40.6457267350775], [-73.9982299274115, 40.6457684867572], [-73.9985179035525, 40.6459421572323], [-73.9985609346433, 40.6459001686417], [-73.9982733515507, 40.6457267350775]]]}}, {"type": "Feature", "properties": {"zone_id": "0200TXE9GF29M0HS646I7F", "tract_id": "36047009202", "city": "BROOKLYN, NY", "zone_code": "R6", "zone_category": "Residential", "ev_permitted": false}, "geometry": {"type": "Polygon", "coordinates": [[[-73.9983080258799, 40.6456059882746], [-73.9980831835872, 40.6458221722081], [-73.9981390502938, 40.6458558644951], [-73.998363892519, 40.6456396797505], [-73.9983080258799, 40.6456059882746]]]}}, {"type": "Feature", "properties": {"zone_id": "0200KYGWKN8RUH0S4QW3N8", "tract_id": "36047009202", "city": "BROOKLYN, NY", "zone_code": "R6", "zone_category": "Residential", "ev_permitted": false}, "geometry": {"type": "Polygon", "coordinates": [[[-73.9982482535, 40.645569940677], [-73.9980234111352, 40.6457861251972], [-73.9980831835872, 40.6458221722081], [-73.9983080258799, 40.6456059882746], [-73.9982482535, 40.645569940677]]]}}, {"type": "Feature", "properties": {"zone_id": "0204Y9HLO6NQOKCLBB07US", "tract_id": "36047009202", "city": "BROOKLYN, NY", "zone_code": "C1-3", "zone_category": "Commercial", "ev_permitted": true}, "geometry": {"type": "Polygon", "coordinates": [[[-73.9981938509583, 40.6455371324172], [-73.9979690094502, 40.6457533161292], [-73.9980234111352, 40.6457861251972], [-73.9982482535, 40.645569940677], [-73.9981938509583, 40.6455371324172]]]}}, {"type": "Feature", "properties": {"zone_id": "0202JQDR5H15O46NFFX74C", "tract_id": "36047009202", "city": "BROOKLYN, NY", "zone_code": "R6", "zone_category": "Residential", "ev_permitted": false}, "geometry": {"type": "Polygon", "coordinates": [[[-73.9980802445207, 40.6454686186532], [-73.997855401953, 40.6456848021447], [-73.9979115663916, 40.6457186744305], [-73.9981364088915, 40.6455024901273], [-73.9980802445207, 40.6454686186532]]]}}, {"type": "Feature", "properties": {"zone_id": "0201DAH7V977W770UYB7JQ", "tract_id": "36047009202", "city": "BROOKLYN, NY", "zone_code": "R6", "zone_category": "Residential", "ev_permitted": false}, "geometry": {"type": "Polygon", "coordinates": [[[-73.9980236161995, 40.6454344667803], [-73.9977987735633, 40.6456506508646], [-73.997855401953, 40.6456848021447], [-73.9980802445207, 40.6454686186532], [-73.9980236161995, 40.6454344667803]]]}}, {"type": "Feature", "properties": {"zone_id": "02011QY868M1JJ41OXZN1N", "tract_id": "36047009202", "city": "BROOKLYN, NY", "zone_code": "R6", "zone_category": "Residential", "ev_permitted": false}, "geometry": {"type": "Polygon", "coordinates": [[[-73.9979668873859, 40.6454002544484], [-73.9977420446813, 40.6456164384226], [-73.9977987735633, 40.6456506508646], [-73.9980236161995, 40.6454344667803], [-73.9979668873859, 40.6454002544484]]]}}, {"type": "Feature", "properties": {"zone_id": "020665CTUB5RO4KSO76Y42", "tract_id": "36047009202", "city": "BROOKLYN, NY", "zone_code": "R6", "zone_category": "Residential", "ev_permitted": false}, "geometry": {"type": "Polygon", "coordinates": [[[-73.9981364088915, 40.6455024901273], [-73.9979115663916, 40.6457186744305], [-73.9979690094502, 40.6457533161292], [-73.9981938509583, 40.6455371324172], [-73.9981364088915, 40.6455024901273]]]}}, {"type": "Feature", "properties": {"zone_id": "0205FDNGR6KTTN1OWQ8ABK", "tract_id": "36047009202", "city": "BROOKLYN, NY", "zone_code": "R6", "zone_category": "Residential", "ev_permitted": false}, "geometry": {"type": "Polygon", "coordinates": [[[-73.9979113227982, 40.6453667447744], [-73.9976864800264, 40.6455829286407], [-73.9977420446813, 40.6456164384226], [-73.9979668873859, 40.6454002544484], [-73.9979113227982, 40.6453667447744]]]}}, {"type": "Feature", "properties": {"zone_id": "0205LYNKCGD0MK3F6UTCCI", "tract_id": "36047009202", "city": "BROOKLYN, NY", "zone_code": "R6", "zone_category": "Residential", "ev_permitted": false}, "geometry": {"type": "Polygon", "coordinates": [[[-73.9981931419301, 40.6451827096926], [-73.9979668873859, 40.6454002544484], [-73.9980236161995, 40.6454344667803], [-73.9982498503793, 40.6452169422906], [-73.9981931419301, 40.6451827096926]]]}}, {"type": "Feature", "properties": {"zone_id": "0202IEQUZAZPUEFDWH3MK1", "tract_id": "36047009202", "city": "BROOKLYN, NY", "zone_code": "R6", "zone_category": "Residential", "ev_permitted": false}, "geometry": {"type": "Polygon", "coordinates": [[[-73.9982498503793, 40.6452169422906], [-73.9980236161995, 40.6454344667803], [-73.9980802445207, 40.6454686186532], [-73.9983064583363, 40.6452511137273], [-73.9982498503793, 40.6452169422906]]]}}, {"type": "Feature", "properties": {"zone_id": "0206LMQ5DV9TVFCQJSIZ15", "tract_id": "36047009202", "city": "BROOKLYN, NY", "zone_code": "R6", "zone_category": "Residential", "ev_permitted": false}, "geometry": {"type": "Polygon", "coordinates": [[[-73.9983064583363, 40.6452511137273], [-73.9980802445207, 40.6454686186532], [-73.9981364088915, 40.6455024901273], [-73.9983626023435, 40.6452850047661], [-73.9983064583363, 40.6452511137273]]]}}, {"type": "Feature", "properties": {"zone_id": "02078EC1S6NGLLHGSOT9IR", "tract_id": "36047009202", "city": "BROOKLYN, NY", "zone_code": "R6", "zone_category": "Residential", "ev_permitted": false}, "geometry": {"type": "Polygon", "coordinates": [[[-73.9983626023435, 40.6452850047661], [-73.9981364088915, 40.6455024901273], [-73.9981938509583, 40.6455371324172], [-73.9984200240451, 40.6453196666182], [-73.9983626023435, 40.6452850047661]]]}}, {"type": "Feature", "properties": {"zone_id": "0206Q68KHWOFL9F4NRH5KD", "tract_id": "36047009202", "city": "BROOKLYN, NY", "zone_code": "C1-3", "zone_category": "Commercial", "ev_permitted": true}, "geometry": {"type": "Polygon", "coordinates": [[[-73.9984200240451, 40.6453196666182], [-73.9981938509583, 40.6455371324172], [-73.9982482535, 40.645569940677], [-73.9984744071479, 40.6453524944461], [-73.9984200240451, 40.6453196666182]]]}}, {"type": "Feature", "properties": {"zone_id": "0200GCEDI8266JDPNFGHK8", "tract_id": "36047009202", "city": "BROOKLYN, NY", "zone_code": "R6", "zone_category": "Residential", "ev_permitted": false}, "geometry": {"type": "Polygon", "coordinates": [[[-73.9984744071479, 40.6453524944461], [-73.9982482535, 40.645569940677], [-73.9983080258799, 40.6456059882746], [-73.9985341573148, 40.6453885616014], [-73.9984744071479, 40.6453524944461]]]}}, {"type": "Feature", "properties": {"zone_id": "0206U5GHUW52041AX75JHP", "tract_id": "36047009202", "city": "BROOKLYN, NY", "zone_code": "R6", "zone_category": "Residential", "ev_permitted": false}, "geometry": {"type": "Polygon", "coordinates": [[[-73.99785693258, 40.6453339433813], [-73.997632090665, 40.6455501271422], [-73.9976864800264, 40.6455829286407], [-73.9979113227982, 40.6453667447744], [-73.99785693258, 40.6453339433813]]]}}, {"type": "Feature", "properties": {"zone_id": "0204X2GOLZH83XD1BJVDBM", "tract_id": "36047009202", "city": "BROOKLYN, NY", "zone_code": "R6", "zone_category": "Residential", "ev_permitted": false}, "geometry": {"type": "Polygon", "coordinates": [[[-73.9980832278485, 40.6451163615997], [-73.99785693258, 40.6453339433813], [-73.9979113227982, 40.6453667447744], [-73.9981375977053, 40.6451491818581], [-73.9980832278485, 40.6451163615997]]]}}, {"type": "Feature", "properties": {"zone_id": "02001YGQYNP27QMIZDLG4Q", "tract_id": "36047009202", "city": "BROOKLYN, NY", "zone_code": "R6", "zone_category": "Residential", "ev_permitted": false}, "geometry": {"type": "Polygon", "coordinates": [[[-73.9981375977053, 40.6451491818581], [-73.9979113227982, 40.6453667447744], [-73.9979668873859, 40.6454002544484], [-73.9981931419301, 40.6451827096926], [-73.9981375977053, 40.6451491818581]]]}}, {"type": "Feature", "properties": {"zone_id": "020144Q7AFL3K0T04RYZAB", "tract_id": "36047009202", "city": "BROOKLYN, NY", "zone_code": "R6", "zone_category": "Residential", "ev_permitted": false}, "geometry": {"type": "Polygon", "coordinates": [[[-73.997796578605, 40.6452975442046], [-73.9975717356946, 40.6455137278484], [-73.997632090665, 40.6455501271422], [-73.99785693258, 40.6453339433813], [-73.997796578605, 40.6452975442046]]]}}, {"type": "Feature", "properties": {"zone_id": "0203JV2UJECRBIP1T0NDJD", "tract_id": "36047009202", "city": "", "zone_code": "R6", "zone_category": "Residential", "ev_permitted": false}, "geometry": {"type": "Polygon", "coordinates": [[[-73.9977159920463, 40.6452489435245], [-73.9974911490386, 40.6454651270119], [-73.9975717356946, 40.6455137278484], [-73.997796578605, 40.6452975442046], [-73.9977159920463, 40.6452489435245]]]}}, {"type": "Feature", "properties": {"zone_id": "0200ML0YYEAQFBGOCRXJWU", "tract_id": "36047009202", "city": "BROOKLYN, NY", "zone_code": "R6", "zone_category": "Residential", "ev_permitted": false}, "geometry": {"type": "Polygon", "coordinates": [[[-73.9976278468557, 40.6451957844455], [-73.9974030037416, 40.6454119677617], [-73.9974911490386, 40.6454651270119], [-73.9977159920463, 40.6452489435245], [-73.9976278468557, 40.6451957844455]]]}}, {"type": "Feature", "properties": {"zone_id": "020092FOL18AXCVTOJ9J6U", "tract_id": "36047009202", "city": "BROOKLYN, NY", "zone_code": "R6", "zone_category": "Residential", "ev_permitted": false}, "geometry": {"type": "Polygon", "coordinates": [[[-73.9974872168559, 40.6451109726275], [-73.9972623744944, 40.6453271556709], [-73.9973335045399, 40.6453700536222], [-73.997558347738, 40.6451538704408], [-73.9974872168559, 40.6451109726275]]]}}, {"type": "Feature", "properties": {"zone_id": "02044AXY0LG7Q8YSPI1Z3C", "tract_id": "36047009202", "city": "BROOKLYN, NY", "zone_code": "R6", "zone_category": "Residential", "ev_permitted": false}, "geometry": {"type": "Polygon", "coordinates": [[[-73.997558347738, 40.6451538704408], [-73.9973335045399, 40.6453700536222], [-73.9974030037416, 40.6454119677617], [-73.9976278468557, 40.6451957844455], [-73.997558347738, 40.6451538704408]]]}}, {"type": "Feature", "properties": {"zone_id": "02009BGEGKYNNTK9BF8J2U", "tract_id": "36047009202", "city": "BROOKLYN, NY", "zone_code": "R6", "zone_category": "Residential", "ev_permitted": false}, "geometry": {"type": "Polygon", "coordinates": [[[-73.9978559550652, 40.6449791686065], [-73.9976295774162, 40.6451968286411], [-73.9976857856082, 40.6452307263358], [-73.997912141971, 40.6450130858656], [-73.9978559550652, 40.6449791686065]]]}}, {"type": "Feature", "properties": {"zone_id": "02036UK7R8JK0GF6IEET70", "tract_id": "36047009202", "city": "BROOKLYN, NY", "zone_code": "R6", "zone_category": "Residential", "ev_permitted": false}, "geometry": {"type": "Polygon", "coordinates": [[[-73.997912141971, 40.6450130858656], [-73.9976857856082, 40.6452307263358], [-73.9977428517595, 40.6452651425864], [-73.9979691877575, 40.6450475209763], [-73.997912141971, 40.6450130858656]]]}}, {"type": "Feature", "properties": {"zone_id": "0203DXF6LF6JVQ1VDTFPMW", "tract_id": "36047009202", "city": "BROOKLYN, NY", "zone_code": "R6", "zone_category": "Residential", "ev_permitted": false}, "geometry": {"type": "Polygon", "coordinates": [[[-73.9979691877575, 40.6450475209763], [-73.9977428517595, 40.6452651425864], [-73.997796578605, 40.6452975442046], [-73.9980228960872, 40.6450799421639], [-73.9979691877575, 40.6450475209763]]]}}, {"type": "Feature", "properties": {"zone_id": "0203ACWMRYWUFCOSN7MHJT", "tract_id": "36047009202", "city": "BROOKLYN, NY", "zone_code": "R6", "zone_category": "Residential", "ev_permitted": false}, "geometry": {"type": "Polygon", "coordinates": [[[-73.9980228960872, 40.6450799421639], [-73.997796578605, 40.6452975442046], [-73.99785693258, 40.6453339433813], [-73.9980832278485, 40.6451163615997], [-73.9980228960872, 40.6450799421639]]]}}, {"type": "Feature", "properties": {"zone_id": "0204ZKKVBJKJQT4OZLTE5T", "tract_id": "36047009202", "city": "BROOKLYN, NY", "zone_code": "R6", "zone_category": "Residential", "ev_permitted": false}, "geometry": {"type": "Polygon", "coordinates": [[[-73.998410845725, 40.6447561651477], [-73.9981811901731, 40.6449772784205], [-73.998321019138, 40.645061695887], [-73.9985506754396, 40.6448405816346], [-73.998410845725, 40.6447561651477]]]}}, {"type": "Feature", "properties": {"zone_id": "0206XQCRPHJQIMI1J3941R", "tract_id": "36047009202", "city": "BROOKLYN, NY", "zone_code": "R6", "zone_category": "Residential", "ev_permitted": false}, "geometry": {"type": "Polygon", "coordinates": [[[-73.9973471434625, 40.6450264951181], [-73.9971223000093, 40.6452426778896], [-73.9971917454423, 40.6452845598336], [-73.997416587889, 40.6450683769272], [-73.9973471434625, 40.6450264951181]]]}}, {"type": "Feature", "properties": {"zone_id": "020031J4RTXW5FMLAWQKKF", "tract_id": "36047009202", "city": "BROOKLYN, NY", "zone_code": "R6", "zone_category": "Residential", "ev_permitted": false}, "geometry": {"type": "Polygon", "coordinates": [[[-73.9972906395023, 40.6449924187732], [-73.9970657969034, 40.6452086007325], [-73.9971223000093, 40.6452426778896], [-73.9973471434625, 40.6450264951181], [-73.9972906395023, 40.6449924187732]]]}}, {"type": "Feature", "properties": {"zone_id": "0201ZDWYS9EVO6Y735408Z", "tract_id": "36047009202", "city": "BROOKLYN, NY", "zone_code": "R6", "zone_category": "Residential", "ev_permitted": false}, "geometry": {"type": "Polygon", "coordinates": [[[-73.9972299392975, 40.6449558105982], [-73.9970050957029, 40.6451719924396], [-73.9970657969034, 40.6452086007325], [-73.9972906395023, 40.6449924187732], [-73.9972299392975, 40.6449558105982]]]}}, {"type": "Feature", "properties": {"zone_id": "0206N9XJYFD4NN24ZSBOGN", "tract_id": "36047009202", "city": "BROOKLYN, NY", "zone_code": "R6", "zone_category": "Residential", "ev_permitted": false}, "geometry": {"type": "Polygon", "coordinates": [[[-73.9971751078881, 40.6449227404525], [-73.9969502642272, 40.6451389235929], [-73.9970050957029, 40.6451719924396], [-73.9972299392975, 40.6449558105982], [-73.9971751078881, 40.6449227404525]]]}}, {"type": "Feature", "properties": {"zone_id": "0207NOO26LX2IQ6LLJL76O", "tract_id": "36047009202", "city": "BROOKLYN, NY", "zone_code": "R6", "zone_category": "Residential", "ev_permitted": false}, "geometry": {"type": "Polygon", "coordinates": [[[-73.9975171402587, 40.6447746413558], [-73.9972906395023, 40.6449924187732], [-73.9974302035491, 40.6450765878706], [-73.9976566533972, 40.6448588586632], [-73.9975171402587, 40.6447746413558]]]}}, {"type": "Feature", "properties": {"zone_id": "0206ODSPHVK1UEXOVMTDF9", "tract_id": "36047009202", "city": "BROOKLYN, NY", "zone_code": "R6", "zone_category": "Residential", "ev_permitted": false}, "geometry": {"type": "Polygon", "coordinates": [[[-73.997843797384, 40.6444138267345], [-73.9976141402087, 40.6446349388832], [-73.9976850594184, 40.6446777544042], [-73.9979147165061, 40.6444566421149], [-73.997843797384, 40.6444138267345]]]}}, {"type": "Feature", "properties": {"zone_id": "02071CBWXEO1RXAX2YJB55", "tract_id": "36047009202", "city": "BROOKLYN, NY", "zone_code": "R6", "zone_category": "Residential", "ev_permitted": false}, "geometry": {"type": "Polygon", "coordinates": [[[-73.9979352598681, 40.6441098387247], [-73.9977059582868, 40.6443306095755], [-73.9977593965521, 40.6443628727838], [-73.9979886897649, 40.644142108151], [-73.9979352598681, 40.6441098387247]]]}}, {"type": "Feature", "properties": {"zone_id": "0202ORQYOAKSXM1721FVKQ", "tract_id": "36047009202", "city": "BROOKLYN, NY", "zone_code": "R6", "zone_category": "Residential", "ev_permitted": false}, "geometry": {"type": "Polygon", "coordinates": [[[-73.9980451610738, 40.6441762150728], [-73.9978158762333, 40.6443969699802], [-73.9978723568946, 40.6444310685541], [-73.9981016324405, 40.6442103212642], [-73.9980451610738, 40.6441762150728]]]}}, {"type": "Feature", "properties": {"zone_id": "0205F442U3RN3GG88LU8KM", "tract_id": "36047009202", "city": "BROOKLYN, NY", "zone_code": "R6", "zone_category": "Residential", "ev_permitted": false}, "geometry": {"type": "Polygon", "coordinates": [[[-73.9982680616876, 40.644669963677], [-73.9980384050366, 40.6448910766667], [-73.9981811901731, 40.6449772784205], [-73.998410845725, 40.6447561651477], [-73.9982680616876, 40.644669963677]]]}}, {"type": "Feature", "properties": {"zone_id": "0206LYU7NHZ14HE3ITG2KA", "tract_id": "36047009202", "city": "BROOKLYN, NY", "zone_code": "R6", "zone_category": "Residential", "ev_permitted": false}, "geometry": {"type": "Polygon", "coordinates": [[[-73.9981263074947, 40.644584384606], [-73.997896651591, 40.6448054973147], [-73.9980384050366, 40.6448910766667], [-73.9982680616876, 40.644669963677], [-73.9981263074947, 40.644584384606]]]}}, {"type": "Feature", "properties": {"zone_id": "0205J6FYPLZL0J9S1FZI5M", "tract_id": "36047009202", "city": "BROOKLYN, NY", "zone_code": "R6", "zone_category": "Residential", "ev_permitted": false}, "geometry": {"type": "Polygon", "coordinates": [[[-73.9976566533972, 40.6448588586632], [-73.9974302035491, 40.6450765878706], [-73.9975717365047, 40.6451619450455], [-73.9977981345195, 40.6449442647471], [-73.9976566533972, 40.6448588586632]]]}}, {"type": "Feature", "properties": {"zone_id": "0207M1LCC5WSU35SACSZCA", "tract_id": "36047009202", "city": "BROOKLYN, NY", "zone_code": "R6", "zone_category": "Residential", "ev_permitted": false}, "geometry": {"type": "Polygon", "coordinates": [[[-73.9977981345195, 40.6449442647471], [-73.9975717365047, 40.6451619450455], [-73.9976295774162, 40.6451968286411], [-73.9978559550652, 40.6449791686065], [-73.9977981345195, 40.6449442647471]]]}}, {"type": "Feature", "properties": {"zone_id": "0201NI8LCX8IP1MOWRIHL3", "tract_id": "36047009202", "city": "BROOKLYN, NY", "zone_code": "R6", "zone_category": "Residential", "ev_permitted": false}, "geometry": {"type": "Polygon", "coordinates": [[[-73.997416587889, 40.6450683769272], [-73.9971917454423, 40.6452845598336], [-73.9972623744944, 40.6453271556709], [-73.9974872168559, 40.6451109726275], [-73.997416587889, 40.6450683769272]]]}}, {"type": "Feature", "properties": {"zone_id": "0207DKJ60ZHBG97YPEYK5W", "tract_id": "36047009202", "city": "BROOKLYN, NY", "zone_code": "R6", "zone_category": "Residential", "ev_permitted": false}, "geometry": {"type": "Polygon", "coordinates": [[[-73.9971733905173, 40.6445671322768], [-73.9969467657246, 40.644785028472], [-73.9970606188996, 40.6448536930349], [-73.9972872020404, 40.6446358359653], [-73.9971733905173, 40.6445671322768]]]}}, {"type": "Feature", "properties": {"zone_id": "0204LJUR7G6272UP77COIH", "tract_id": "36047009202", "city": "BROOKLYN, NY", "zone_code": "R6", "zone_category": "Residential", "ev_permitted": false}, "geometry": {"type": "Polygon", "coordinates": [[[-73.9972872020404, 40.6446358359653], [-73.9970606188996, 40.6448536930349], [-73.9972906395023, 40.6449924187732], [-73.9975171402587, 40.6447746413558], [-73.9972872020404, 40.6446358359653]]]}}, {"type": "Feature", "properties": {"zone_id": "020369Q88ZLD0XTYFDD3YS", "tract_id": "36047009202", "city": "BROOKLYN, NY", "zone_code": "R6", "zone_category": "Residential", "ev_permitted": false}, "geometry": {"type": "Polygon", "coordinates": [[[-73.9982145744244, 40.6442785349685], [-73.9979853165456, 40.6444992649156], [-73.9983227808884, 40.6447029988702], [-73.9985519866908, 40.6444823174413], [-73.9982145744244, 40.6442785349685]]]}}, {"type": "Feature", "properties": {"zone_id": "020260YK9IBKXX26AP99EV", "tract_id": "36047009202", "city": "BROOKLYN, NY", "zone_code": "R6", "zone_category": "Residential", "ev_permitted": false}, "geometry": {"type": "Polygon", "coordinates": [[[-73.9979853165456, 40.6444992649156], [-73.9977556586228, 40.6447203766421], [-73.997896651591, 40.6448054973147], [-73.9981263074947, 40.644584384606], [-73.9979853165456, 40.6444992649156]]]}}, {"type": "Feature", "properties": {"zone_id": "0204YCEIDG8ZV7RK14FLGS", "tract_id": "36047009202", "city": "BROOKLYN, NY", "zone_code": "R6", "zone_category": "Residential", "ev_permitted": false}, "geometry": {"type": "Polygon", "coordinates": [[[-73.9979147165061, 40.6444566421149], [-73.9976850594184, 40.6446777544042], [-73.9977556586228, 40.6447203766421], [-73.9979853165456, 40.6444992649156], [-73.9979147165061, 40.6444566421149]]]}}, {"type": "Feature", "properties": {"zone_id": "0203BMA29KER4A7040I606", "tract_id": "36047009202", "city": "BROOKLYN, NY", "zone_code": "R6", "zone_category": "Residential", "ev_permitted": false}, "geometry": {"type": "Polygon", "coordinates": [[[-73.9981016324405, 40.6442103212642], [-73.9978723568946, 40.6444310685541], [-73.9979853165456, 40.6444992649156], [-73.9982145744244, 40.6442785349685], [-73.9981016324405, 40.6442103212642]]]}}, {"type": "Feature", "properties": {"zone_id": "0205RYMIIJ5JQO3TEWG8RT", "tract_id": "36047009202", "city": "BROOKLYN, NY", "zone_code": "R6", "zone_category": "Residential", "ev_permitted": false}, "geometry": {"type": "Polygon", "coordinates": [[[-73.9978749540047, 40.6440734156944], [-73.9976456431239, 40.6442941955603], [-73.9977059582868, 40.6443306095755], [-73.9979352598681, 40.6441098387247], [-73.9978749540047, 40.6440734156944]]]}}, {"type": "Feature", "properties": {"zone_id": "0201539TO2G3OPS0TFLSK9", "tract_id": "36047009202", "city": "BROOKLYN, NY", "zone_code": "R6", "zone_category": "Residential", "ev_permitted": false}, "geometry": {"type": "Polygon", "coordinates": [[[-73.9979886897649, 40.644142108151], [-73.9977593965521, 40.6443628727838], [-73.9978158762333, 40.6443969699802], [-73.9980451610738, 40.6441762150728], [-73.9979886897649, 40.644142108151]]]}}, {"type": "Feature", "properties": {"zone_id": "0203VRDGWJZC6YTJP3Q79V", "tract_id": "36047009202", "city": "BROOKLYN, NY", "zone_code": "R6", "zone_category": "Residential", "ev_permitted": false}, "geometry": {"type": "Polygon", "coordinates": [[[-73.9977593965521, 40.6443628727838], [-73.9975297392726, 40.6445839840625], [-73.9976141402087, 40.6446349388832], [-73.997843797384, 40.6444138267345], [-73.9977593965521, 40.6443628727838]]]}}, {"type": "Feature", "properties": {"zone_id": "020248XPXRYKHL8NKUZJKB", "tract_id": "36047009202", "city": "BROOKLYN, NY", "zone_code": "R6", "zone_category": "Residential", "ev_permitted": false}, "geometry": {"type": "Polygon", "coordinates": [[[-73.9976456431239, 40.6442941955603], [-73.9974159866262, 40.6445153073162], [-73.9975297392726, 40.6445839840625], [-73.9977593965521, 40.6443628727838], [-73.9976456431239, 40.6442941955603]]]}}, {"type": "Feature", "properties": {"zone_id": "0205EVA92V7K9I4U9I60MZ", "tract_id": "36047009202", "city": "BROOKLYN, NY", "zone_code": "R6", "zone_category": "Residential", "ev_permitted": false}, "geometry": {"type": "Polygon", "coordinates": [[[-73.9975326177502, 40.6442259588103], [-73.9973029611128, 40.6444470703422], [-73.9974159866262, 40.6445153073162], [-73.9976456431239, 40.6442941955603], [-73.9975326177502, 40.6442259588103]]]}}, {"type": "Feature", "properties": {"zone_id": "0205EM5SDF4CA7MQ3I390B", "tract_id": "36047009202", "city": "BROOKLYN, NY", "zone_code": "R6", "zone_category": "Residential", "ev_permitted": false}, "geometry": {"type": "Polygon", "coordinates": [[[-73.9971097604465, 40.6441802012607], [-73.9970138618194, 40.6442725310833], [-73.9973029611128, 40.6444470703422], [-73.9973988595908, 40.6443547402803], [-73.9971097604465, 40.6441802012607]]]}}, {"type": "Feature", "properties": {"zone_id": "0204A9YZ5UVREAL0A8L1N2", "tract_id": "36047009202", "city": "BROOKLYN, NY", "zone_code": "R6", "zone_category": "Residential", "ev_permitted": false}, "geometry": {"type": "Polygon", "coordinates": [[[-73.9971550615767, 40.6441365865757], [-73.9971097604465, 40.6441802012607], [-73.9973988595908, 40.6443547402803], [-73.9974441606505, 40.644311126185], [-73.9971550615767, 40.6441365865757]]]}}, {"type": "Feature", "properties": {"zone_id": "0203I45XLRCEMWC06IAZGL", "tract_id": "36047009202", "city": "BROOKLYN, NY", "zone_code": "R6", "zone_category": "Residential", "ev_permitted": false}, "geometry": {"type": "Polygon", "coordinates": [[[-73.9972000000992, 40.6440933203857], [-73.9971550615767, 40.6441365865757], [-73.9974441606505, 40.644311126185], [-73.9974890981806, 40.6442678591801], [-73.9972000000992, 40.6440933203857]]]}}, {"type": "Feature", "properties": {"zone_id": "0206L1XG22IGPHFTCIE60C", "tract_id": "36047009202", "city": "BROOKLYN, NY", "zone_code": "R6", "zone_category": "Residential", "ev_permitted": false}, "geometry": {"type": "Polygon", "coordinates": [[[-73.9967973981567, 40.6444817655049], [-73.9964363011173, 40.6448289507157], [-73.9967198877562, 40.6449999835558], [-73.9969447316953, 40.6447838015652], [-73.9969467657246, 40.644785028472], [-73.9970830182732, 40.6446540243656], [-73.9967973981567, 40.6444817655049]]]}}, {"type": "Feature", "properties": {"zone_id": "02001TRQ3LRZFU1TUL3R0C", "tract_id": "36047009202", "city": "BROOKLYN, NY", "zone_code": "R6", "zone_category": "Residential", "ev_permitted": false}, "geometry": {"type": "Polygon", "coordinates": [[[-73.9971175580283, 40.6448880330035], [-73.9968927142979, 40.6451042153296], [-73.9969502642272, 40.6451389235929], [-73.9971751078881, 40.6449227404525], [-73.9971175580283, 40.6448880330035]]]}}, {"type": "Feature", "properties": {"zone_id": "0206NLO8JX5LDKMEGZ4JJH", "tract_id": "36047009202", "city": "BROOKLYN, NY", "zone_code": "R6", "zone_category": "Residential", "ev_permitted": false}, "geometry": {"type": "Polygon", "coordinates": [[[-73.9970606188996, 40.6448536930349], [-73.9968357751004, 40.6450698752504], [-73.9968927142979, 40.6451042153296], [-73.9971175580283, 40.6448880330035], [-73.9970606188996, 40.6448536930349]]]}}, {"type": "Feature", "properties": {"zone_id": "0204GJC0XBZUCI4PVJ65JT", "tract_id": "36047009202", "city": "BROOKLYN, NY", "zone_code": "R6", "zone_category": "Residential", "ev_permitted": false}, "geometry": {"type": "Polygon", "coordinates": [[[-73.9970062359751, 40.6448208947512], [-73.9967813921103, 40.6450370761585], [-73.9968357751004, 40.6450698752504], [-73.9970606188996, 40.6448536930349], [-73.9970062359751, 40.6448208947512]]]}}, {"type": "Feature", "properties": {"zone_id": "0206JI5D0E0CZ1HJ2EVYTW", "tract_id": "36047009202", "city": "BROOKLYN, NY", "zone_code": "R6", "zone_category": "Residential", "ev_permitted": false}, "geometry": {"type": "Polygon", "coordinates": [[[-73.9969447316953, 40.6447838015652], [-73.9967198877562, 40.6449999835558], [-73.9967813921103, 40.6450370761585], [-73.9970062359751, 40.6448208947512], [-73.9969447316953, 40.6447838015652]]]}}, {"type": "Feature", "properties": {"zone_id": "0204WSJUJXZ7VSZZNIWR02", "tract_id": "36047009202", "city": "", "zone_code": "R6", "zone_category": "Residential", "ev_permitted": false}, "geometry": {"type": "Polygon", "coordinates": [[[-73.9968878738621, 40.644394774566], [-73.9967973981567, 40.6444817655049], [-73.9970830182732, 40.6446540243656], [-73.9971733905173, 40.6445671322768], [-73.9968878738621, 40.644394774566]]]}}, {"type": "Feature", "properties": {"zone_id": "0202BJA5UVY18LCQPB1E1L", "tract_id": "36047009202", "city": "BROOKLYN, NY", "zone_code": "R6", "zone_category": "Residential", "ev_permitted": false}, "geometry": {"type": "Polygon", "coordinates": [[[-73.9978298205033, 40.6434885439833], [-73.9975933454994, 40.6437152801143], [-73.9978808194559, 40.6438885362366], [-73.9981172950194, 40.6436617995188], [-73.9978298205033, 40.6434885439833]]]}}, {"type": "Feature", "properties": {"zone_id": "02023R4QIP8Y1AFDEH28RC", "tract_id": "36047009202", "city": "BROOKLYN, NY", "zone_code": "R6", "zone_category": "Residential", "ev_permitted": false}, "geometry": {"type": "Polygon", "coordinates": [[[-73.998289739304, 40.6437657277592], [-73.9980532648806, 40.6439924648289], [-73.9982222516048, 40.6440943083013], [-73.9984587258149, 40.6438675715893], [-73.998289739304, 40.6437657277592]]]}}, {"type": "Feature", "properties": {"zone_id": "0203N63Q4I2ATVAKKVUAXG", "tract_id": "36047009202", "city": "BROOKLYN, NY", "zone_code": "R6", "zone_category": "Residential", "ev_permitted": false}, "geometry": {"type": "Polygon", "coordinates": [[[-73.9978205574805, 40.6440405615794], [-73.99759123823, 40.6442613497695], [-73.9976456431239, 40.6442941955603], [-73.9978749540047, 40.6440734156944], [-73.9978205574805, 40.6440405615794]]]}}, {"type": "Feature", "properties": {"zone_id": "0205KPW48EJH5W874USP8Z", "tract_id": "36047009202", "city": "BROOKLYN, NY", "zone_code": "R6", "zone_category": "Residential", "ev_permitted": false}, "geometry": {"type": "Polygon", "coordinates": [[[-73.9982060676908, 40.6437153004394], [-73.9979695922393, 40.6439420366357], [-73.9980532648806, 40.6439924648289], [-73.998289739304, 40.6437657277592], [-73.9982060676908, 40.6437153004394]]]}}, {"type": "Feature", "properties": {"zone_id": "0201782VRX5KBH5KC18PAF", "tract_id": "36047009202", "city": "BROOKLYN, NY", "zone_code": "R6", "zone_category": "Residential", "ev_permitted": false}, "geometry": {"type": "Polygon", "coordinates": [[[-73.9981172950194, 40.6436617995188], [-73.9978808194559, 40.6438885362366], [-73.9979695922393, 40.6439420366357], [-73.9982060676908, 40.6437153004394], [-73.9981172950194, 40.6436617995188]]]}}, {"type": "Feature", "properties": {"zone_id": "0204M4FOB4REDGXRRXJIA7", "tract_id": "36047009202", "city": "BROOKLYN, NY", "zone_code": "R6", "zone_category": "Residential", "ev_permitted": false}, "geometry": {"type": "Polygon", "coordinates": [[[-73.9974728929216, 40.6438305813292], [-73.9972435178915, 40.6440514201244], [-73.9975326177502, 40.6442259588103], [-73.9977619462981, 40.6440051623044], [-73.9974728929216, 40.6438305813292]]]}}, {"type": "Feature", "properties": {"zone_id": "0205VWXZTKXRBCQVTFBOCK", "tract_id": "36047009202", "city": "BROOKLYN, NY", "zone_code": "R6", "zone_category": "Residential", "ev_permitted": false}, "geometry": {"type": "Polygon", "coordinates": [[[-73.9977619462981, 40.6440051623044], [-73.9975326177502, 40.6442259588103], [-73.99759123823, 40.6442613497695], [-73.9978205574805, 40.6440405615794], [-73.9977619462981, 40.6440051623044]]]}}, {"type": "Feature", "properties": {"zone_id": "0205I0EPGSNWPD5TSX7CTO", "tract_id": "36047009202", "city": "BROOKLYN, NY", "zone_code": "R6", "zone_category": "Residential", "ev_permitted": false}, "geometry": {"type": "Polygon", "coordinates": [[[-73.9972435178915, 40.6440514201244], [-73.9972000000992, 40.6440933203857], [-73.9974890981806, 40.6442678591801], [-73.9975326177502, 40.6442259588103], [-73.9972435178915, 40.6440514201244]]]}}, {"type": "Feature", "properties": {"zone_id": "0202TWDY36ETH1R4X054BC", "tract_id": "36047009202", "city": "BROOKLYN, NY", "zone_code": "R6", "zone_category": "Residential", "ev_permitted": false}, "geometry": {"type": "Polygon", "coordinates": [[[-73.9981788165535, 40.643356898034], [-73.9979598107043, 40.6435668864761], [-73.9980324687531, 40.6436106771177], [-73.998251511417, 40.643400652703], [-73.9981788165535, 40.643356898034]]]}}, {"type": "Feature", "properties": {"zone_id": "0200BNDPOVU81HJDHSF34Q", "tract_id": "36047009202", "city": "BROOKLYN, NY", "zone_code": "R6", "zone_category": "Residential", "ev_permitted": false}, "geometry": {"type": "Polygon", "coordinates": [[[-73.998251511417, 40.643400652703], [-73.9980324687531, 40.6436106771177], [-73.9981031150201, 40.643653253475], [-73.998322192656, 40.6434431966046], [-73.998251511417, 40.643400652703]]]}}, {"type": "Feature", "properties": {"zone_id": "02039AAHUIP6S7WVMA8KCZ", "tract_id": "36047009202", "city": "BROOKLYN, NY", "zone_code": "R6", "zone_category": "Residential", "ev_permitted": false}, "geometry": {"type": "Polygon", "coordinates": [[[-73.998322192656, 40.6434431966046], [-73.9981031150201, 40.643653253475], [-73.9981745076453, 40.6436962802088], [-73.9983936202525, 40.6434861887734], [-73.998322192656, 40.6434431966046]]]}}, {"type": "Feature", "properties": {"zone_id": "0202KCCFH4VE5WWHE605D6", "tract_id": "36047009202", "city": "BROOKLYN, NY", "zone_code": "R6", "zone_category": "Residential", "ev_permitted": false}, "geometry": {"type": "Polygon", "coordinates": [[[-73.9983936202525, 40.6434861887734], [-73.9981745076453, 40.6436962802088], [-73.998245155016, 40.6437388578838], [-73.9984643025952, 40.6435287325873], [-73.9983936202525, 40.6434861887734]]]}}, {"type": "Feature", "properties": {"zone_id": "0204L3IEXUR2RQDSRMCAXG", "tract_id": "36047009202", "city": "BROOKLYN, NY", "zone_code": "R6", "zone_category": "Residential", "ev_permitted": false}, "geometry": {"type": "Polygon", "coordinates": [[[-73.9984643025952, 40.6435287325873], [-73.998245155016, 40.6437388578838], [-73.9983175034929, 40.6437824607282], [-73.998536687887, 40.6435723008647], [-73.9984643025952, 40.6435287325873]]]}}, {"type": "Feature", "properties": {"zone_id": "0200PF3M9W315H7VA45YZJ", "tract_id": "36047009202", "city": "BROOKLYN, NY", "zone_code": "R6", "zone_category": "Residential", "ev_permitted": false}, "geometry": {"type": "Polygon", "coordinates": [[[-73.9980487628524, 40.6432786176205], [-73.9978298205033, 40.6434885439833], [-73.9978919891704, 40.6435260126392], [-73.9981109618891, 40.6433160559448], [-73.9980487628524, 40.6432786176205]]]}}, {"type": "Feature", "properties": {"zone_id": "020753KEVU5O9FLJ25F0UP", "tract_id": "36047009202", "city": "BROOKLYN, NY", "zone_code": "R6", "zone_category": "Residential", "ev_permitted": false}, "geometry": {"type": "Polygon", "coordinates": [[[-73.9981109618891, 40.6433160559448], [-73.9978919891704, 40.6435260126392], [-73.9979598107043, 40.6435668864761], [-73.9981788165535, 40.643356898034], [-73.9981109618891, 40.6433160559448]]]}}]}