{"type": "FeatureCollection", "features": [{"type": "Feature", "properties": {"zone_id": "02018MYDRBBIGTUBMK3LIN", "tract_id": "36061015601", "city": "NEW YORK, NY", "zone_code": "R8", "zone_category": "Residential", "ev_permitted": false}, "geometry": {"type": "Polygon", "coordinates": [[[-73.9492106938609, 40.7843533571745], [-73.9488571960394, 40.7848383053976], [-73.9492652577889, 40.7850109699332], [-73.949619039497, 40.7845256306246], [-73.9492106938609, 40.7843533571745]]]}}, {"type": "Feature", "properties": {"zone_id": "0203PNQR4WXKCFCPV3TND1", "tract_id": "36061015601", "city": "", "zone_code": "R8", "zone_category": "Residential", "ev_permitted": false}, "geometry": {"type": "Polygon", "coordinates": [[[-73.9497112870929, 40.7838227484421], [-73.9495793091124, 40.7840038070526], [-73.9495635251282, 40.7839971368972], [-73.9493821910321, 40.7842459065036], [-73.9497192769416, 40.7843881169372], [-73.9500324589144, 40.7839584648437], [-73.9497112870929, 40.7838227484421]]]}}, {"type": "Feature", "properties": {"zone_id": "02077ABSX32U7D1PHK897U", "tract_id": "36061015601", "city": "NEW YORK, NY", "zone_code": "C2-8", "zone_category": "Commercial", "ev_permitted": true}, "geometry": {"type": "Polygon", "coordinates": [[[-73.949753495398, 40.7837535155803], [-73.9497049744345, 40.7838200812309], [-73.9500324589144, 40.7839584648437], [-73.9500809796513, 40.7838918990566], [-73.949753495398, 40.7837535155803]]]}}, {"type": "Feature", "properties": {"zone_id": "0203PQ28HKUL00VZAKNXDC", "tract_id": "36061015601", "city": "NEW YORK, NY", "zone_code": "R8", "zone_category": "Residential", "ev_permitted": false}, "geometry": {"type": "Polygon", "coordinates": [[[-73.9494034777374, 40.7839295060512], [-73.9492220803032, 40.7841783589962], [-73.9493821910321, 40.7842459065036], [-73.9495635251282, 40.7839971368972], [-73.9494034777374, 40.7839295060512]]]}}, {"type": "Feature", "properties": {"zone_id": "0200SK74TEFQIAIZQC8FRL", "tract_id": "36061015601", "city": "NEW YORK, NY", "zone_code": "R8", "zone_category": "Residential", "ev_permitted": false}, "geometry": {"type": "Polygon", "coordinates": [[[-73.9493216368864, 40.7838949220981], [-73.949140208702, 40.7841438177639], [-73.9492220803032, 40.7841783589962], [-73.9494034777374, 40.7839295060512], [-73.9493216368864, 40.7838949220981]]]}}, {"type": "Feature", "properties": {"zone_id": "020535DRYEPGPN19UTKPRR", "tract_id": "36061015601", "city": "NEW YORK, NY", "zone_code": "R8", "zone_category": "Residential", "ev_permitted": false}, "geometry": {"type": "Polygon", "coordinates": [[[-73.949242735736, 40.7838615809676], [-73.94906127681, 40.7841105179534], [-73.949140208702, 40.7841438177639], [-73.9493216368864, 40.7838949220981], [-73.949242735736, 40.7838615809676]]]}}, {"type": "Feature", "properties": {"zone_id": "0201UU7EDU3OK1W6ACXMVH", "tract_id": "36061015601", "city": "NEW YORK, NY", "zone_code": "R8", "zone_category": "Residential", "ev_permitted": false}, "geometry": {"type": "Polygon", "coordinates": [[[-73.9490699805666, 40.783788579311], [-73.9488884564149, 40.784037606641], [-73.94906127681, 40.7841105179534], [-73.949242735736, 40.7838615809676], [-73.9490699805666, 40.783788579311]]]}}, {"type": "Feature", "properties": {"zone_id": "0203H7B9HZASORKJHSSSJS", "tract_id": "36061015601", "city": "NEW YORK, NY", "zone_code": "C4-6", "zone_category": "Commercial", "ev_permitted": true}, "geometry": {"type": "Polygon", "coordinates": [[[-73.9496684802377, 40.7837175905311], [-73.9494879810631, 40.7839652146534], [-73.9495793091124, 40.7840038070526], [-73.9497112870929, 40.7838227484421], [-73.9497049744345, 40.7838200812309], [-73.949753495398, 40.7837535155803], [-73.9496684802377, 40.7837175905311]]]}}, {"type": "Feature", "properties": {"zone_id": "0206CUXINO2SP9U2PK1JFC", "tract_id": "36061015601", "city": "NEW YORK, NY", "zone_code": "C4-6", "zone_category": "Commercial", "ev_permitted": true}, "geometry": {"type": "Polygon", "coordinates": [[[-73.9493428921316, 40.7835800070323], [-73.9491623921197, 40.7838276299472], [-73.9494879810631, 40.7839652146534], [-73.9496684802377, 40.7837175905311], [-73.9493428921316, 40.7835800070323]]]}}, {"type": "Feature", "properties": {"zone_id": "0207EEWXSDBXGYVALURTZN", "tract_id": "36061015601", "city": "NEW YORK, NY", "zone_code": "C4-6", "zone_category": "Commercial", "ev_permitted": true}, "geometry": {"type": "Polygon", "coordinates": [[[-73.9492067259454, 40.7835224659464], [-73.949026225582, 40.7837700900555], [-73.9491623921197, 40.7838276299472], [-73.9493428921316, 40.7835800070323], [-73.9492067259454, 40.7835224659464]]]}}, {"type": "Feature", "properties": {"zone_id": "020173L7EUOIZVL2FAO7RF", "tract_id": "36061015601", "city": "NEW YORK, NY", "zone_code": "C4-6", "zone_category": "Commercial", "ev_permitted": true}, "geometry": {"type": "Polygon", "coordinates": [[[-73.9491263448671, 40.7834885001267], [-73.9489458452228, 40.7837361220037], [-73.949026225582, 40.7837700900555], [-73.9492067259454, 40.7835224659464], [-73.9491263448671, 40.7834885001267]]]}}, {"type": "Feature", "properties": {"zone_id": "0202RU8KLF6IU17CH8SFRD", "tract_id": "36061015601", "city": "NEW YORK, NY", "zone_code": "C2-8", "zone_category": "Commercial", "ev_permitted": true}, "geometry": {"type": "Polygon", "coordinates": [[[-73.9490478934147, 40.7834553473697], [-73.9488673926436, 40.7837029698273], [-73.9489458452228, 40.7837361220037], [-73.9491263448671, 40.7834885001267], [-73.9490478934147, 40.7834553473697]]]}}, {"type": "Feature", "properties": {"zone_id": "0206DVA58FX6JH5WDGRTCL", "tract_id": "36061015601", "city": "NEW YORK, NY", "zone_code": "TA", "zone_category": "Other", "ev_permitted": false}, "geometry": {"type": "Polygon", "coordinates": [[[-73.9476805300938, 40.7837077878088], [-73.9473269634794, 40.7841928121635], [-73.9487655882177, 40.7847995422652], [-73.9489438066088, 40.7845550542291], [-73.9490354780504, 40.784593729418], [-73.9492106938609, 40.7843533571745], [-73.9476805300938, 40.7837077878088]]]}}, {"type": "Feature", "properties": {"zone_id": "0201OICYX54A13V3NCBPBM", "tract_id": "36061015601", "city": "NEW YORK, NY", "zone_code": "R8", "zone_category": "Residential", "ev_permitted": false}, "geometry": {"type": "Polygon", "coordinates": [[[-73.9489438066088, 40.7845550542291], [-73.9487655882177, 40.7847995422652], [-73.9488571960394, 40.7848383053976], [-73.9490354780504, 40.784593729418], [-73.9489438066088, 40.7845550542291]]]}}, {"type": "Feature", "properties": {"zone_id": "0205LNULOSDH55QNV8OMT5", "tract_id": "36061015601", "city": "NEW YORK, NY", "zone_code": "R8", "zone_category": "Residential", "ev_permitted": false}, "geometry": {"type": "Polygon", "coordinates": [[[-73.9489884487158, 40.7837541259503], [-73.9488068928905, 40.7840031952983], [-73.9488884564149, 40.784037606641], [-73.9490699805666, 40.783788579311], [-73.9489884487158, 40.7837541259503]]]}}, {"type": "Feature", "properties": {"zone_id": "0206R2BYZ7HJE6HGOXAYXU", "tract_id": "36061015601", "city": "NEW YORK, NY", "zone_code": "R8", "zone_category": "Residential", "ev_permitted": false}, "geometry": {"type": "Polygon", "coordinates": [[[-73.9488312080986, 40.7836876788148], [-73.948649590791, 40.7839368308033], [-73.9488068928905, 40.7840031952983], [-73.9489884487158, 40.7837541259503], [-73.9488312080986, 40.7836876788148]]]}}, {"type": "Feature", "properties": {"zone_id": "02022CU0W4MKBMTZ405K3H", "tract_id": "36061015601", "city": "NEW YORK, NY", "zone_code": "R8", "zone_category": "Residential", "ev_permitted": false}, "geometry": {"type": "Polygon", "coordinates": [[[-73.9487523804441, 40.7836543682966], [-73.9485707342435, 40.7839035616058], [-73.948649590791, 40.7839368308033], [-73.9488312080986, 40.7836876788148], [-73.9487523804441, 40.7836543682966]]]}}, {"type": "Feature", "properties": {"zone_id": "02033I83NCS4U9LAZTR7BA", "tract_id": "36061015601", "city": "NEW YORK, NY", "zone_code": "R8", "zone_category": "Residential", "ev_permitted": false}, "geometry": {"type": "Polygon", "coordinates": [[[-73.9486704053493, 40.7836197269048], [-73.9484887265481, 40.7838689636361], [-73.9485707342435, 40.7839035616058], [-73.9487523804441, 40.7836543682966], [-73.9486704053493, 40.7836197269048]]]}}, {"type": "Feature", "properties": {"zone_id": "020195ADKJ7UBO8AGSO721", "tract_id": "36061015601", "city": "NEW YORK, NY", "zone_code": "R8", "zone_category": "Residential", "ev_permitted": false}, "geometry": {"type": "Polygon", "coordinates": [[[-73.948512288387, 40.7835529100498], [-73.9483305490256, 40.7838022287178], [-73.9484887265481, 40.7838689636361], [-73.9486704053493, 40.7836197269048], [-73.948512288387, 40.7835529100498]]]}}, {"type": "Feature", "properties": {"zone_id": "0201L4FW1B5JK5V4VDSWH2", "tract_id": "36061015601", "city": "NEW YORK, NY", "zone_code": "TA", "zone_category": "Other", "ev_permitted": false}, "geometry": {"type": "Polygon", "coordinates": [[[-73.9470130600951, 40.7835053460234], [-73.9468832041523, 40.7836843044149], [-73.9472038441583, 40.7838192611642], [-73.9473336995019, 40.7836403031178], [-73.9470130600951, 40.7835053460234]]]}}, {"type": "Feature", "properties": {"zone_id": "0200FCTRR1RM7G2X9ERFHB", "tract_id": "36061015601", "city": "NEW YORK, NY", "zone_code": "TA", "zone_category": "Other", "ev_permitted": false}, "geometry": {"type": "Polygon", "coordinates": [[[-73.9468832041523, 40.7836843044149], [-73.9468382097196, 40.7837463123823], [-73.947158849933, 40.7838812692556], [-73.9472038441583, 40.7838192611642], [-73.9468832041523, 40.7836843044149]]]}}, {"type": "Feature", "properties": {"zone_id": "0205OGHKDBCQ65T5RQWZLX", "tract_id": "36061015601", "city": "NEW YORK, NY", "zone_code": "TA", "zone_category": "Other", "ev_permitted": false}, "geometry": {"type": "Polygon", "coordinates": [[[-73.9468382097196, 40.7837463123823], [-73.9467493968312, 40.7838687063827], [-73.947070037454, 40.7840036635006], [-73.947158849933, 40.7838812692556], [-73.9468382097196, 40.7837463123823]]]}}, {"type": "Feature", "properties": {"zone_id": "0204SQJQ8DD0PTSZ4EYM5A", "tract_id": "36061015601", "city": "NEW YORK, NY", "zone_code": "TA", "zone_category": "Other", "ev_permitted": false}, "geometry": {"type": "Polygon", "coordinates": [[[-73.9467493968312, 40.7838687063827], [-73.9467003487373, 40.7839362999102], [-73.9470207702584, 40.7840715599053], [-73.947070037454, 40.7840036635006], [-73.9467493968312, 40.7838687063827]]]}}, {"type": "Feature", "properties": {"zone_id": "02046Y3OCXA11E5LT55EEB", "tract_id": "36061015601", "city": "", "zone_code": "TA", "zone_category": "Other", "ev_permitted": false}, "geometry": {"type": "Polygon", "coordinates": [[[-73.9467227996196, 40.7836167898301], [-73.946540054834, 40.7838686340548], [-73.9467003487373, 40.7839362999102], [-73.9468832041523, 40.7836843044149], [-73.9467227996196, 40.7836167898301]]]}}, {"type": "Feature", "properties": {"zone_id": "0201L8TG7OGW1FU9V7WZKV", "tract_id": "36061015601", "city": "NEW YORK, NY", "zone_code": "C2-8", "zone_category": "Commercial", "ev_permitted": true}, "geometry": {"type": "Polygon", "coordinates": [[[-73.9487230905921, 40.7833180920041], [-73.9485425889846, 40.7835657146608], [-73.9488673926436, 40.7837029698273], [-73.9490478934147, 40.7834553473697], [-73.9487230905921, 40.7833180920041]]]}}, {"type": "Feature", "properties": {"zone_id": "0204KMDKDI3YB2SC83UOQP", "tract_id": "36061015601", "city": "NEW YORK, NY", "zone_code": "R8", "zone_category": "Residential", "ev_permitted": false}, "geometry": {"type": "Polygon", "coordinates": [[[-73.9484352926329, 40.7835203730496], [-73.9482535234597, 40.7837697316352], [-73.9483305490256, 40.7838022287178], [-73.948512288387, 40.7835529100498], [-73.9484352926329, 40.7835203730496]]]}}, {"type": "Feature", "properties": {"zone_id": "0202D4CZF7344353VSUDFA", "tract_id": "36061015601", "city": "NEW YORK, NY", "zone_code": "TA", "zone_category": "Other", "ev_permitted": false}, "geometry": {"type": "Polygon", "coordinates": [[[-73.9483574754236, 40.7834874885194], [-73.9481756764358, 40.7837368877241], [-73.9482535234597, 40.7837697316352], [-73.9484352926329, 40.7835203730496], [-73.9483574754236, 40.7834874885194]]]}}, {"type": "Feature", "properties": {"zone_id": "020648AVITYKQKTR5OF4FU", "tract_id": "36061015601", "city": "NEW YORK, NY", "zone_code": "TA", "zone_category": "Other", "ev_permitted": false}, "geometry": {"type": "Polygon", "coordinates": [[[-73.9484847140043, 40.783217358189], [-73.9483042127072, 40.7834649811793], [-73.9485425889846, 40.7835657146608], [-73.9487230905921, 40.7833180920041], [-73.9484847140043, 40.783217358189]]]}}, {"type": "Feature", "properties": {"zone_id": "0203RP4CDOOQMAU3FRQOCX", "tract_id": "36061015601", "city": "NEW YORK, NY", "zone_code": "TA", "zone_category": "Other", "ev_permitted": false}, "geometry": {"type": "Polygon", "coordinates": [[[-73.9484021075002, 40.7831824500163], [-73.9482216050672, 40.7834300714729], [-73.9483042127072, 40.7834649811793], [-73.9484847140043, 40.783217358189], [-73.9484021075002, 40.7831824500163]]]}}, {"type": "Feature", "properties": {"zone_id": "0203LLTQTNRI0O91T5FVBX", "tract_id": "36061015601", "city": "NEW YORK, NY", "zone_code": "TA", "zone_category": "Other", "ev_permitted": false}, "geometry": {"type": "Polygon", "coordinates": [[[-73.948280252491, 40.78345485505], [-73.9480984246145, 40.783704294875], [-73.9481756764358, 40.7837368877241], [-73.9483574754236, 40.7834874885194], [-73.948280252491, 40.78345485505]]]}}, {"type": "Feature", "properties": {"zone_id": "0205H6ABEG0PK3WMFFJXIJ", "tract_id": "36061015601", "city": "NEW YORK, NY", "zone_code": "TA", "zone_category": "Other", "ev_permitted": false}, "geometry": {"type": "Polygon", "coordinates": [[[-73.9482216050672, 40.7834300714729], [-73.9480397529798, 40.7836795421121], [-73.9480984246145, 40.783704294875], [-73.948280252491, 40.78345485505], [-73.9482216050672, 40.7834300714729]]]}}, {"type": "Feature", "properties": {"zone_id": "02060N3HTP51YF8JQAQZQU", "tract_id": "36061015601", "city": "NEW YORK, NY", "zone_code": "TA", "zone_category": "Other", "ev_permitted": false}, "geometry": {"type": "Polygon", "coordinates": [[[-73.9479627276318, 40.7833206728015], [-73.9479196428598, 40.7833797660503], [-73.9481785269228, 40.783489167631], [-73.9482216050672, 40.7834300714729], [-73.9479627276318, 40.7833206728015]]]}}, {"type": "Feature", "properties": {"zone_id": "02027EGTC3FV03RB9PULKN", "tract_id": "36061015601", "city": "NEW YORK, NY", "zone_code": "TA", "zone_category": "Other", "ev_permitted": false}, "geometry": {"type": "Polygon", "coordinates": [[[-73.9479196428598, 40.7833797660503], [-73.9478747340334, 40.7834413732492], [-73.9481336191865, 40.7835507749301], [-73.9481785269228, 40.783489167631], [-73.9479196428598, 40.7833797660503]]]}}, {"type": "Feature", "properties": {"zone_id": "02026WWDT128Q4L110EW4V", "tract_id": "36061015601", "city": "NEW YORK, NY", "zone_code": "TA", "zone_category": "Other", "ev_permitted": false}, "geometry": {"type": "Polygon", "coordinates": [[[-73.9478747340334, 40.7834413732492], [-73.9478297566438, 40.7835030745543], [-73.948088641038, 40.7836124770375], [-73.9481336191865, 40.7835507749301], [-73.9478747340334, 40.7834413732492]]]}}, {"type": "Feature", "properties": {"zone_id": "0201G7XL59HAP6T82ZPW1E", "tract_id": "36061015601", "city": "NEW YORK, NY", "zone_code": "TA", "zone_category": "Other", "ev_permitted": false}, "geometry": {"type": "Polygon", "coordinates": [[[-73.9478297566438, 40.7835030745543], [-73.9477807712352, 40.7835702757907], [-73.9480397529798, 40.7836795421121], [-73.948088641038, 40.7836124770375], [-73.9478297566438, 40.7835030745543]]]}}, {"type": "Feature", "properties": {"zone_id": "0204OQNAZUNZAR68P0CDOX", "tract_id": "36061015601", "city": "NEW YORK, NY", "zone_code": "TA", "zone_category": "Other", "ev_permitted": false}, "geometry": {"type": "Polygon", "coordinates": [[[-73.9481432242629, 40.7830730482301], [-73.9480941737864, 40.7831403367034], [-73.9483530581291, 40.7832497385991], [-73.9484021075002, 40.7831824500163], [-73.9481432242629, 40.7830730482301]]]}}, {"type": "Feature", "properties": {"zone_id": "0201LNXCLZHCURSRGQP4G5", "tract_id": "36061015601", "city": "NEW YORK, NY", "zone_code": "TA", "zone_category": "Other", "ev_permitted": false}, "geometry": {"type": "Polygon", "coordinates": [[[-73.9480941737864, 40.7831403367034], [-73.9480499833895, 40.7832009598807], [-73.9483088678958, 40.783310361172], [-73.9483530581291, 40.7832497385991], [-73.9480941737864, 40.7831403367034]]]}}, {"type": "Feature", "properties": {"zone_id": "0200Z13ZHTXB0IUUNV527A", "tract_id": "36061015601", "city": "NEW YORK, NY", "zone_code": "TA", "zone_category": "Other", "ev_permitted": false}, "geometry": {"type": "Polygon", "coordinates": [[[-73.9480499833895, 40.7832009598807], [-73.9479627276318, 40.7833206728015], [-73.9482216050672, 40.7834300714729], [-73.9483088678958, 40.783310361172], [-73.9480499833895, 40.7832009598807]]]}}, {"type": "Feature", "properties": {"zone_id": "020349ZN195C0H3QNJUY4I", "tract_id": "36061015601", "city": "NEW YORK, NY", "zone_code": "C8-4", "zone_category": "Commercial", "ev_permitted": true}, "geometry": {"type": "Polygon", "coordinates": [[[-73.9465725488454, 40.7824102729524], [-73.9462103653286, 40.7829082539148], [-73.946367346401, 40.7829746468979], [-73.9465492125447, 40.7827245914581], [-73.9471027962342, 40.7829573165282], [-73.9472830146504, 40.782708949053], [-73.9465725488454, 40.7824102729524]]]}}, {"type": "Feature", "properties": {"zone_id": "0203YHDXVEBEO04FK0OTQY", "tract_id": "36061015601", "city": "NEW YORK, NY", "zone_code": "TA", "zone_category": "Other", "ev_permitted": false}, "geometry": {"type": "Polygon", "coordinates": [[[-73.9470623268796, 40.7834374496161], [-73.9470130600951, 40.7835053460234], [-73.9473336995019, 40.7836403031178], [-73.9473829660599, 40.7835724058722], [-73.9470623268796, 40.7834374496161]]]}}, {"type": "Feature", "properties": {"zone_id": "0200OZ3J3GM5T7O6Q1T16Y", "tract_id": "36061015601", "city": "NEW YORK, NY", "zone_code": "TA", "zone_category": "Other", "ev_permitted": false}, "geometry": {"type": "Polygon", "coordinates": [[[-73.9473755434889, 40.7831484398018], [-73.9472847890104, 40.7832735139562], [-73.9475258659915, 40.7833754698815], [-73.9476166201567, 40.7832503948365], [-73.9473755434889, 40.7831484398018]]]}}, {"type": "Feature", "properties": {"zone_id": "0205GP7DZXEGW4BIBN7944", "tract_id": "36061015601", "city": "NEW YORK, NY", "zone_code": "TA", "zone_category": "Other", "ev_permitted": false}, "geometry": {"type": "Polygon", "coordinates": [[[-73.9472847890104, 40.7832735139562], [-73.9472352967703, 40.7833417237398], [-73.9474763720744, 40.783443679064], [-73.9475258659915, 40.7833754698815], [-73.9472847890104, 40.7832735139562]]]}}, {"type": "Feature", "properties": {"zone_id": "0204SP9AQCHVWQHTXWR42W", "tract_id": "36061015601", "city": "NEW YORK, NY", "zone_code": "TA", "zone_category": "Other", "ev_permitted": false}, "geometry": {"type": "Polygon", "coordinates": [[[-73.9472959003215, 40.7831147569112], [-73.9471556525178, 40.7833080414555], [-73.9472352967703, 40.7833417237398], [-73.9473755434889, 40.7831484398018], [-73.9472959003215, 40.7831147569112]]]}}, {"type": "Feature", "properties": {"zone_id": "02062CJOZ1RCRCDVPLI7SM", "tract_id": "36061015601", "city": "NEW YORK, NY", "zone_code": "R8", "zone_category": "Residential", "ev_permitted": false}, "geometry": {"type": "Polygon", "coordinates": [[[-73.9461702543805, 40.7833842201365], [-73.945987885726, 40.7836355423032], [-73.946540054834, 40.7838686340548], [-73.9467227996196, 40.7836167898301], [-73.9461702543805, 40.7833842201365]]]}}, {"type": "Feature", "properties": {"zone_id": "0202MENOBJSH0MJ0BGFVLG", "tract_id": "36061015601", "city": "NEW YORK, NY", "zone_code": "TA", "zone_category": "Other", "ev_permitted": false}, "geometry": {"type": "Polygon", "coordinates": [[[-73.9468239816248, 40.7833371297565], [-73.9466448573593, 40.7835839841882], [-73.9468832041523, 40.7836843044149], [-73.9470623268796, 40.7834374496161], [-73.9468239816248, 40.7833371297565]]]}}, {"type": "Feature", "properties": {"zone_id": "02053HXZ3Q2U8Q0W2M4KL6", "tract_id": "36061015601", "city": "NEW YORK, NY", "zone_code": "R8", "zone_category": "Residential", "ev_permitted": false}, "geometry": {"type": "Polygon", "coordinates": [[[-73.9467065299325, 40.7832876938172], [-73.9465274062889, 40.7835345480687], [-73.9466448573593, 40.7835839841882], [-73.9468239816248, 40.7833371297565], [-73.9467065299325, 40.7832876938172]]]}}, {"type": "Feature", "properties": {"zone_id": "0205N0NJUZKRYJQR1PRC4A", "tract_id": "36061015601", "city": "NEW YORK, NY", "zone_code": "R8", "zone_category": "Residential", "ev_permitted": false}, "geometry": {"type": "Polygon", "coordinates": [[[-73.9465882300965, 40.7832379004175], [-73.9464091052238, 40.7834847544865], [-73.9465274062889, 40.7835345480687], [-73.9467065299325, 40.7832876938172], [-73.9465882300965, 40.7832379004175]]]}}, {"type": "Feature", "properties": {"zone_id": "0200GRMTIX9CHNQ50GH7ZI", "tract_id": "36061015601", "city": "NEW YORK, NY", "zone_code": "R8", "zone_category": "Residential", "ev_permitted": false}, "geometry": {"type": "Polygon", "coordinates": [[[-73.9464673993473, 40.783187041905], [-73.9462882741635, 40.7834338957882], [-73.9464091052238, 40.7834847544865], [-73.9465882300965, 40.7832379004175], [-73.9464673993473, 40.783187041905]]]}}, {"type": "Feature", "properties": {"zone_id": "0206TLWKSIDNUR4QC7YKR5", "tract_id": "36061015601", "city": "NEW YORK, NY", "zone_code": "R8", "zone_category": "Residential", "ev_permitted": false}, "geometry": {"type": "Polygon", "coordinates": [[[-73.9463493798683, 40.7831373664349], [-73.9461702543805, 40.7833842201365], [-73.9462882741635, 40.7834338957882], [-73.9464673993473, 40.783187041905], [-73.9463493798683, 40.7831373664349]]]}}, {"type": "Feature", "properties": {"zone_id": "020375STKZESIYCZYA3CZT", "tract_id": "36061015601", "city": "NEW YORK, NY", "zone_code": "TA", "zone_category": "Other", "ev_permitted": false}, "geometry": {"type": "Polygon", "coordinates": [[[-73.9470200400059, 40.7829225253398], [-73.9468378368449, 40.783173629716], [-73.9471556525178, 40.7833080414555], [-73.9472959003215, 40.7831147569112], [-73.9476166201567, 40.7832503948365], [-73.9476594749106, 40.7831913353225], [-73.9470200400059, 40.7829225253398]]]}}, {"type": "Feature", "properties": {"zone_id": "02064UFP87WJEIA6D3RF8S", "tract_id": "36061015601", "city": "NEW YORK, NY", "zone_code": "TA", "zone_category": "Other", "ev_permitted": false}, "geometry": {"type": "Polygon", "coordinates": [[[-73.9474596152442, 40.7830325757013], [-73.9474180587658, 40.7830898474852], [-73.9476594749106, 40.7831913353225], [-73.9477010312446, 40.7831340634524], [-73.9474596152442, 40.7830325757013]]]}}, {"type": "Feature", "properties": {"zone_id": "02024VILHXD8CS8OOLMOLH", "tract_id": "36061015601", "city": "NEW YORK, NY", "zone_code": "TA", "zone_category": "Other", "ev_permitted": false}, "geometry": {"type": "Polygon", "coordinates": [[[-73.9475218057056, 40.782809334226], [-73.9473415897584, 40.7830577006663], [-73.9474180587658, 40.7830898474852], [-73.9474596152442, 40.7830325757013], [-73.9477010312446, 40.7831340634524], [-73.9478396900342, 40.7829429676875], [-73.9475218057056, 40.782809334226]]]}}, {"type": "Feature", "properties": {"zone_id": "02017I5EVAOFNT3ZD9QOVS", "tract_id": "36061015601", "city": "NEW YORK, NY", "zone_code": "TA", "zone_category": "Other", "ev_permitted": false}, "geometry": {"type": "Polygon", "coordinates": [[[-73.9474447048908, 40.7827769215837], [-73.9472644887431, 40.7830252886074], [-73.9473415897584, 40.7830577006663], [-73.9475218057056, 40.782809334226], [-73.9474447048908, 40.7827769215837]]]}}, {"type": "Feature", "properties": {"zone_id": "0205JJ7O1TTE211Y89C8VX", "tract_id": "36061015601", "city": "NEW YORK, NY", "zone_code": "C8-4", "zone_category": "Commercial", "ev_permitted": true}, "geometry": {"type": "Polygon", "coordinates": [[[-73.9473636231621, 40.7827428354622], [-73.9471834058799, 40.7829912023599], [-73.9472644887431, 40.7830252886074], [-73.9474447048908, 40.7827769215837], [-73.9473636231621, 40.7827428354622]]]}}, {"type": "Feature", "properties": {"zone_id": "0202ZRV0KCY87OUUY0HOR7", "tract_id": "36061015601", "city": "NEW YORK, NY", "zone_code": "C8-4", "zone_category": "Commercial", "ev_permitted": true}, "geometry": {"type": "Polygon", "coordinates": [[[-73.9472830146504, 40.782708949053], [-73.9471027962342, 40.7829573165282], [-73.9471834058799, 40.7829912023599], [-73.9473636231621, 40.7827428354622], [-73.9472830146504, 40.782708949053]]]}}, {"type": "Feature", "properties": {"zone_id": "0200FZW7D6F3W0KIAXVSZI", "tract_id": "36061015601", "city": "NEW YORK, NY", "zone_code": "C8-4", "zone_category": "Commercial", "ev_permitted": true}, "geometry": {"type": "Polygon", "coordinates": [[[-73.9466951981074, 40.7827859633654], [-73.9465131269, 40.783036301404], [-73.9468378368449, 40.783173629716], [-73.9470200400059, 40.7829225253398], [-73.9466951981074, 40.7827859633654]]]}}, {"type": "Feature", "properties": {"zone_id": "020029XQ6OLZCX7Q8ZAV50", "tract_id": "36061015601", "city": "NEW YORK, NY", "zone_code": "C8-4", "zone_category": "Commercial", "ev_permitted": true}, "geometry": {"type": "Polygon", "coordinates": [[[-73.9465492125447, 40.7827245914581], [-73.946367346401, 40.7829746468979], [-73.9465131269, 40.783036301404], [-73.9466951981074, 40.7827859633654], [-73.9465492125447, 40.7827245914581]]]}}, {"type": "Feature", "properties": {"zone_id": "0205FSTPYPBXO4BM25NBJW", "tract_id": "36061015601", "city": "NEW YORK, NY", "zone_code": "C8-4", "zone_category": "Commercial", "ev_permitted": true}, "geometry": {"type": "Polygon", "coordinates": [[[-73.9462681445668, 40.7826064299495], [-73.9460866737746, 40.7828559405802], [-73.9462103653286, 40.7829082539148], [-73.9463920107039, 40.7826585035682], [-73.9462681445668, 40.7826064299495]]]}}, {"type": "Feature", "properties": {"zone_id": "0205BITAWEBHBIAC5A2IRM", "tract_id": "36061015601", "city": "NEW YORK, NY", "zone_code": "R8", "zone_category": "Residential", "ev_permitted": false}, "geometry": {"type": "Polygon", "coordinates": [[[-73.9458761698597, 40.7829381864116], [-73.9455143576972, 40.7834356439565], [-73.945987885726, 40.7836355423032], [-73.9463493798683, 40.7831373664349], [-73.9458761698597, 40.7829381864116]]]}}, {"type": "Feature", "properties": {"zone_id": "0204695CEWJ943JKERCCVL", "tract_id": "36061015601", "city": "NEW YORK, NY", "zone_code": "R8", "zone_category": "Residential", "ev_permitted": false}, "geometry": {"type": "Polygon", "coordinates": [[[-73.9455869214986, 40.7831386868864], [-73.9454046267553, 40.7833893209814], [-73.9455143576972, 40.7834356439565], [-73.9456967261914, 40.783184905732], [-73.9455869214986, 40.7831386868864]]]}}, {"type": "Feature", "properties": {"zone_id": "02012ZVL9OARPX3INALN8J", "tract_id": "36061015601", "city": "NEW YORK, NY", "zone_code": "R10A", "zone_category": "Residential", "ev_permitted": false}, "geometry": {"type": "Polygon", "coordinates": [[[-73.9453879076385, 40.7830549181263], [-73.9452057493414, 40.7833053650695], [-73.9454046267553, 40.7833893209814], [-73.9455869214986, 40.7831386868864], [-73.9453879076385, 40.7830549181263]]]}}, {"type": "Feature", "properties": {"zone_id": "02012MZDO7QA5TKT8DDEEO", "tract_id": "36061015601", "city": "NEW YORK, NY", "zone_code": "R8", "zone_category": "Residential", "ev_permitted": false}, "geometry": {"type": "Polygon", "coordinates": [[[-73.9457663654486, 40.7828919684378], [-73.9455869214986, 40.7831386868864], [-73.9456967261914, 40.783184905732], [-73.9458761698597, 40.7829381864116], [-73.9457663654486, 40.7828919684378]]]}}, {"type": "Feature", "properties": {"zone_id": "02040CKYXX6W4969LGQM5U", "tract_id": "36061015601", "city": "NEW YORK, NY", "zone_code": "C8-4", "zone_category": "Commercial", "ev_permitted": true}, "geometry": {"type": "Polygon", "coordinates": [[[-73.9461221597913, 40.7825450574995], [-73.9459408940653, 40.7827942855329], [-73.9460866737746, 40.7828559405802], [-73.9462681445668, 40.7826064299495], [-73.9461221597913, 40.7825450574995]]]}}, {"type": "Feature", "properties": {"zone_id": "0207HX1Q0QB1K8J0W29UAJ", "tract_id": "36061015601", "city": "NEW YORK, NY", "zone_code": "C8-4", "zone_category": "Commercial", "ev_permitted": true}, "geometry": {"type": "Polygon", "coordinates": [[[-73.9459988947287, 40.7824932361234], [-73.9458178026639, 40.7827422251449], [-73.9459408940653, 40.7827942855329], [-73.9461221597913, 40.7825450574995], [-73.9459988947287, 40.7824932361234]]]}}, {"type": "Feature", "properties": {"zone_id": "0203OSNT4TUIN1Z5ZE7GOV", "tract_id": "36061015601", "city": "NEW YORK, NY", "zone_code": "R8", "zone_category": "Residential", "ev_permitted": false}, "geometry": {"type": "Polygon", "coordinates": [[[-73.9453184287948, 40.7827034221065], [-73.9451814562783, 40.7828917450928], [-73.9454303800728, 40.7829965225611], [-73.9453879076385, 40.7830549181263], [-73.9455869214986, 40.7831386868864], [-73.9457663654486, 40.7828919684378], [-73.9453184287948, 40.7827034221065]]]}}, {"type": "Feature", "properties": {"zone_id": "0200U982T3MK1D9WY4YLN1", "tract_id": "36061015601", "city": "NEW YORK, NY", "zone_code": "R10A", "zone_category": "Residential", "ev_permitted": false}, "geometry": {"type": "Polygon", "coordinates": [[[-73.9451814562783, 40.7828917450928], [-73.9449569950316, 40.7832003511113], [-73.9452057493414, 40.7833053650695], [-73.9454303800728, 40.7829965225611], [-73.9451814562783, 40.7828917450928]]]}}, {"type": "Feature", "properties": {"zone_id": "02039FZ96KK774DO0VE0AI", "tract_id": "36061015601", "city": "NEW YORK, NY", "zone_code": "C8-4", "zone_category": "Commercial", "ev_permitted": true}, "geometry": {"type": "Polygon", "coordinates": [[[-73.9464148099081, 40.7823439592898], [-73.9462342704339, 40.7825921896606], [-73.9463920107039, 40.7826585035682], [-73.9465725488454, 40.7824102729524], [-73.9464148099081, 40.7823439592898]]]}}, {"type": "Feature", "properties": {"zone_id": "0207BCGI6RM4VXILRBR431", "tract_id": "36061015601", "city": "NEW YORK, NY", "zone_code": "C8-4", "zone_category": "Commercial", "ev_permitted": true}, "geometry": {"type": "Polygon", "coordinates": [[[-73.9462558080694, 40.7822771136165], [-73.9460752681831, 40.7825253444434], [-73.9462342704339, 40.7825921896606], [-73.9464148099081, 40.7823439592898], [-73.9462558080694, 40.7822771136165]]]}}, {"type": "Feature", "properties": {"zone_id": "0206VCYMBW4O4OK7VZG4VU", "tract_id": "36061015601", "city": "NEW YORK, NY", "zone_code": "C8-4", "zone_category": "Commercial", "ev_permitted": true}, "geometry": {"type": "Polygon", "coordinates": [[[-73.9460984486344, 40.7822109591982], [-73.9459179083414, 40.7824591890784], [-73.9460752681831, 40.7825253444434], [-73.9462558080694, 40.7822771136165], [-73.9460984486344, 40.7822109591982]]]}}, {"type": "Feature", "properties": {"zone_id": "0203NIRQ6C9R59DXJGJ9HZ", "tract_id": "36061015601", "city": "NEW YORK, NY", "zone_code": "C8-4", "zone_category": "Commercial", "ev_permitted": true}, "geometry": {"type": "Polygon", "coordinates": [[[-73.9459179083414, 40.7824591890784], [-73.945736929895, 40.7827080213362], [-73.9458178026639, 40.7827422251449], [-73.9459988947287, 40.7824932361234], [-73.9459179083414, 40.7824591890784]]]}}, {"type": "Feature", "properties": {"zone_id": "0204KTDU8PP4RBERPV394B", "tract_id": "36061015601", "city": "NEW YORK, NY", "zone_code": "C2-8", "zone_category": "Commercial", "ev_permitted": true}, "geometry": {"type": "Polygon", "coordinates": [[[-73.9455948479613, 40.7823233717458], [-73.9454627179751, 40.7825050397336], [-73.9457853236544, 40.7826414825791], [-73.9459179083414, 40.7824591890784], [-73.9455948479613, 40.7823233717458]]]}}, {"type": "Feature", "properties": {"zone_id": "0206LVD0NMXGIHMASSQ7JA", "tract_id": "36061015601", "city": "NEW YORK, NY", "zone_code": "C2-8", "zone_category": "Commercial", "ev_permitted": true}, "geometry": {"type": "Polygon", "coordinates": [[[-73.9454627179751, 40.7825050397336], [-73.9454143230692, 40.7825715769509], [-73.945736929895, 40.7827080213362], [-73.9457853236544, 40.7826414825791], [-73.9454627179751, 40.7825050397336]]]}}, {"type": "Feature", "properties": {"zone_id": "0203E7F77HQQOQF0UX6Z72", "tract_id": "36061015601", "city": "NEW YORK, NY", "zone_code": "C2-8", "zone_category": "Commercial", "ev_permitted": true}, "geometry": {"type": "Polygon", "coordinates": [[[-73.9457753900148, 40.782075142367], [-73.9455948479613, 40.7823233717458], [-73.9459179083414, 40.7824591890784], [-73.9460984486344, 40.7822109591982], [-73.9457753900148, 40.782075142367]]]}}]}